AXSX001 SKYTRAXX V1.28 SN:1920617119
HOPLTPILOT: Sepp    Name         
HOGTYGLIDERTYPE:        Glider        
HOCIDCOMPETITIONID: 0000
HODTM100GPSDATUM: WGS-84
HOCCLCOMPETITION CLASS: Paraglider (Standard) 
HPSITSITE: bronzone (4)
HFDTE280513
B0955294544516N00957012EA0130101255
B0955304544514N00957009EA0130101254
B0955314544512N00957004EA0129901254
B0955324544510N00957000EA0129801252
B0955334544509N00956995EA0129701251
B0955344544507N00956989EA0129801250
B0955354544506N00956983EA0129801250
B0955364544505N00956978EA0129901251
B0955374544505N00956973EA0129801251
B0955384544504N00956968EA0129701250
B0955394544503N00956963EA0129701250
B0955404544502N00956958EA0129601249
B0955414544501N00956952EA0129601249
B0955424544500N00956947EA0129601248
B0955434544498N00956942EA0129601248
B0955444544497N00956937EA0129401248
B0955454544497N00956931EA0129301247
B0955464544496N00956925EA0129301246
B0955474544495N00956920EA0129301245
B0955484544494N00956914EA0129301245
B0955494544493N00956908EA0129301245
B0955504544491N00956904EA0129301245
B0955514544490N00956899EA0129301245
B0955524544488N00956894EA0129201245
B0955534544488N00956889EA0129001244
B0955544544486N00956884EA0128901243
B0955554544484N00956879EA0128901242
B0955564544483N00956874EA0129001242
B0955574544484N00956871EV0129101243
B0955584544483N00956867EA0129101244
B0955594544481N00956862EA0128901243
B0956004544479N00956858EA0128701241
B0956014544478N00956853EA0128701239
B0956024544477N00956847EA0128801240
B0956034544476N00956841EA0128901241
B0956044544476N00956836EA0128901242
B0956054544477N00956831EA0129001242
B0956064544478N00956825EA0129001242
B0956074544477N00956819EA0128901243
B0956084544477N00956813EA0128801241
B0956094544477N00956808EA0128601240
B0956104544476N00956802EA0128601239
B0956114544476N00956796EA0128501239
B0956124544476N00956790EA0128401238
B0956134544475N00956783EA0128501237
B0956144544475N00956778EA0128701238
B0956154544474N00956772EA0128701239
B0956164544473N00956768EA0128501239
B0956174544472N00956763EA0128401238
B0956184544471N00956758EA0128401237
B0956194544469N00956753EA0128201236
B0956204544468N00956748EA0128101235
B0956214544467N00956742EA0128001234
B0956224544466N00956737EA0127801232
B0956234544465N00956731EA0127701231
B0956244544463N00956725EA0127601229
B0956254544463N00956718EA0127501228
B0956264544462N00956712EA0127501227
B0956274544461N00956707EA0127401227
B0956284544460N00956701EA0127301227
B0956294544460N00956695EA0127101225
B0956304544459N00956689EA0127001224
B0956314544458N00956682EA0126801222
B0956324544457N00956676EA0126701221
B0956334544455N00956670EA0126701220
B0956344544454N00956664EA0126601220
B0956354544453N00956658EA0126401218
B0956364544452N00956652EA0126201217
B0956374544450N00956646EA0126101215
B0956384544449N00956640EA0126001213
B0956394544447N00956634EA0126001213
B0956404544447N00956627EA0126001213
B0956414544445N00956621EA0125901212
B0956424544444N00956615EA0125801212
B0956434544442N00956609EA0125701211
B0956444544441N00956603EA0125701210
B0956454544439N00956597EA0125701210
B0956464544438N00956591EA0125801210
B0956474544436N00956586EA0125801211
B0956484544435N00956581EA0125701211
B0956494544433N00956576EA0125501209
B0956504544431N00956570EA0125401208
B0956514544430N00956563EA0125401206
B0956524544429N00956557EA0125601206
B0956534544428N00956551EA0125801209
B0956544544428N00956546EA0125801211
B0956554544426N00956541EA0125601210
B0956564544425N00956536EA0125301208
B0956574544423N00956530EA0125101206
B0956584544421N00956525EA0125101204
B0956594544419N00956519EA0125101203
B0957004544418N00956514EA0125101204
B0957014544416N00956508EA0124901203
B0957024544414N00956502EA0124901202
B0957034544412N00956496EA0124801201
B0957044544411N00956490EA0124801200
B0957054544410N00956484EA0124801200
B0957064544409N00956478EA0124701200
B0957074544408N00956472EA0124601199
B0957084544407N00956466EA0124501198
B0957094544406N00956460EA0124401197
B0957104544404N00956455EA0124401197
B0957114544403N00956449EA0124201196
B0957124544401N00956443EA0124001195
B0957134544400N00956437EA0123901193
B0957144544397N00956431EA0123701191
B0957154544395N00956425EA0123601189
B0957164544394N00956419EA0123501188
B0957174544392N00956412EA0123401187
B0957184544390N00956407EA0123301187
B0957194544389N00956402EA0123201186
B0957204544387N00956397EA0123101185
B0957214544386N00956391EA0123001184
B0957224544385N00956385EA0122801182
B0957234544384N00956379EA0122601180
B0957244544383N00956373EA0122501179
B0957254544382N00956367EA0122401178
B0957264544381N00956361EA0122301177
B0957274544380N00956355EA0122101176
B0957284544379N00956349EA0121901174
B0957294544378N00956343EA0121701171
B0957304544377N00956337EA0121601169
B0957314544376N00956332EA0121601168
B0957324544374N00956326EA0121501168
B0957334544373N00956320EA0121501168
B0957344544372N00956313EA0121501168
B0957354544372N00956307EA0121601168
B0957364544371N00956302EA0121701168
B0957374544370N00956297EA0121701169
B0957384544370N00956291EA0121601170
B0957394544370N00956283EA0121701169
B0957404544370N00956277EA0122001170
B0957414544371N00956271EA0122301172
B0957424544371N00956267EA0122601176
B0957434544371N00956263EA0122701178
B0957444544372N00956258EA0122601179
B0957454544374N00956252EA0122401179
B0957464544375N00956245EA0122401176
B0957474544375N00956238EA0122501176
B0957484544376N00956233EA0122701178
B0957494544376N00956228EA0122701179
B0957504544377N00956223EA0122601180
B0957514544378N00956217EA0122401178
B0957524544378N00956210EA0122401176
B0957534544378N00956202EA0122501177
B0957544544379N00956195EA0122501178
B0957554544379N00956189EA0122601177
B0957564544379N00956184EA0122501178
B0957574544380N00956180EA0122301178
B0957584544380N00956176EA0121801175
B0957594544380N00956168EA0121501170
B0958004544379N00956161EA0121201167
B0958014544379N00956153EA0121101165
B0958024544378N00956146EA0121001163
B0958034544377N00956139EA0120801162
B0958044544375N00956133EA0120601161
B0958054544374N00956126EA0120401158
B0958064544372N00956119EA0120301156
B0958074544371N00956111EA0120201155
B0958084544369N00956105EA0120201155
B0958094544368N00956098EA0120201155
B0958104544367N00956093EA0120001154
B0958114544366N00956087EA0119801152
B0958124544365N00956081EA0119601150
B0958134544363N00956074EA0119501149
B0958144544362N00956067EA0119401147
B0958154544361N00956061EA0119401147
B0958164544361N00956055EA0119201146
B0958174544359N00956049EA0119001145
B0958184544358N00956043EA0118801143
B0958194544357N00956036EA0118601141
B0958204544355N00956029EA0118401139
B0958214544354N00956023EA0118301137
B0958224544353N00956016EA0118201136
B0958234544351N00956010EA0118101135
B0958244544350N00956004EA0118001134
B0958254544349N00955998EA0117801132
B0958264544347N00955991EA0117601130
B0958274544346N00955985EA0117401128
B0958284544345N00955978EA0117401127
B0958294544344N00955971EA0117401127
B0958304544342N00955965EA0117201126
B0958314544342N00955959EA0117001124
B0958324544340N00955953EA0116901123
B0958334544338N00955945EA0116701122
B0958344544336N00955938EA0116601119
B0958354544334N00955932EA0116701119
B0958364544332N00955926EA0116701119
B0958374544330N00955920EA0116501119
B0958384544328N00955914EA0116301118
B0958394544327N00955907EA0116201116
B0958404544325N00955900EA0116101114
B0958414544324N00955894EA0116101114
B0958424544323N00955888EA0116001114
B0958434544322N00955881EA0115901113
B0958444544321N00955875EA0115601111
B0958454544320N00955867EA0115401108
B0958464544320N00955860EA0115301107
B0958474544320N00955852EA0115301106
B0958484544320N00955845EA0115301106
B0958494544320N00955837EA0115101105
B0958504544320N00955830EA0115001104
B0958514544320N00955823EA0114901103
B0958524544321N00955816EA0114601101
B0958534544321N00955808EA0114401099
B0958544544322N00955799EA0114201096
B0958554544322N00955791EA0114201095
B0958564544322N00955783EA0114201094
B0958574544323N00955775EA0114201095
B0958584544324N00955768EA0114201095
B0958594544325N00955761EA0114001095
B0959004544325N00955753EA0113801092
B0959014544326N00955744EA0113801091
B0959024544328N00955736EA0113801090
B0959034544330N00955728EA0113801090
B0959044544332N00955721EA0113801090
B0959054544334N00955714EA0113701090
B0959064544336N00955707EA0113501089
B0959074544338N00955699EA0113401088
B0959084544341N00955691EA0113301086
B0959094544344N00955684EA0113201085
B0959104544346N00955676EA0113201084
B0959114544349N00955670EA0113101085
B0959124544353N00955663EA0112901083
B0959134544356N00955657EA0112801081
B0959144544361N00955651EA0112601080
B0959154544365N00955645EA0112401079
B0959164544370N00955639EA0112401077
B0959174544375N00955633EA0112301076
B0959184544380N00955627EA0112201075
B0959194544384N00955620EA0112101074
B0959204544389N00955614EA0112201074
B0959214544394N00955609EA0112201074
B0959224544398N00955603EA0112101074
B0959234544403N00955598EA0112001074
B0959244544406N00955593EA0111901072
B0959254544410N00955586EA0111701071
B0959264544415N00955580EA0111601069
B0959274544421N00955573EA0111501068
B0959284544426N00955568EA0111301067
B0959294544430N00955562EA0111201066
B0959304544435N00955557EA0111001064
B0959314544439N00955551EA0110701062
B0959324544444N00955545EA0110301059
B0959334544449N00955539EA0109901056
B0959344544454N00955534EA0109701051
B0959354544460N00955527EA0109501049
B0959364544465N00955521EA0109201048
B0959374544470N00955516EA0109001045
B0959384544475N00955511EA0108801042
B0959394544481N00955506EA0108501041
B0959404544487N00955502EA0108401038
B0959414544493N00955498EA0108201036
B0959424544499N00955493EA0108101035
B0959434544504N00955489EA0107901033
B0959444544509N00955485EA0107801032
B0959454544515N00955481EA0107601031
B0959464544520N00955477EA0107401029
B0959474544526N00955473EA0107101026
B0959484544532N00955469EA0106901024
B0959494544538N00955466EA0106801022
B0959504544545N00955463EA0106601020
B0959514544551N00955461EA0106301019
B0959524544557N00955459EA0106001016
B0959534544564N00955457EA0105701013
B0959544544570N00955456EA0105501010
B0959554544577N00955453EA0105401008
B0959564544583N00955451EA0105201006
B0959574544590N00955449EA0105001004
B0959584544596N00955447EA0104701002
B0959594544601N00955445EA0104501000
B1000004544608N00955442EA0104300998
B1000014544614N00955440EA0104100996
B1000024544620N00955438EA0103900994
B1000034544627N00955436EA0103800992
B1000044544633N00955433EA0103600990
B1000054544639N00955431EA0103400989
B1000064544645N00955428EA0103200986
B1000074544652N00955426EA0103100984
B1000084544657N00955423EA0102900983
B1000094544664N00955420EA0102800982
B1000104544670N00955418EA0102600980
B1000114544676N00955416EA0102500979
B1000124544682N00955413EA0102300977
B1000134544688N00955411EA0102100976
B1000144544695N00955408EA0101900974
B1000154544701N00955405EA0101700971
B1000164544707N00955403EA0101600969
B1000174544713N00955400EA0101400968
B1000184544719N00955398EA0101300967
B1000194544726N00955396EA0101100965
B1000204544733N00955394EA0101000964
B1000214544740N00955392EA0100900962
B1000224544746N00955391EA0100700961
B1000234544753N00955389EA0100500960
B1000244544759N00955387EA0100400958
B1000254544766N00955385EA0100200956
B1000264544773N00955384EA0100100955
B1000274544780N00955382EA0100000953
B1000284544787N00955381EA0099900952
B1000294544794N00955380EA0099800951
B1000304544801N00955379EA0099700950
B1000314544807N00955379EA0099500949
B1000324544814N00955379EA0099300948
B1000334544821N00955380EA0099300946
B1000344544827N00955381EA0099300945
B1000354544834N00955382EA0099200945
B1000364544840N00955383EA0099000944
B1000374544846N00955383EA0098900942
B1000384544853N00955384EA0098800941
B1000394544860N00955386EA0098700941
B1000404544866N00955388EA0098700940
B1000414544872N00955390EA0098500939
B1000424544878N00955392EA0098400938
B1000434544884N00955394EA0098200936
B1000444544891N00955396EA0098000934
B1000454544898N00955398EA0097800932
B1000464544905N00955399EA0097600930
B1000474544913N00955400EA0097500928
B1000484544920N00955400EA0097500927
B1000494544928N00955399EA0097500928
B1000504544935N00955398EA0097400927
B1000514544942N00955396EA0097300927
B1000524544949N00955393EA0097200926
B1000534544956N00955390EA0097200925
B1000544544963N00955385EA0097100924
B1000554544968N00955380EA0096900923
B1000564544974N00955374EA0096800922
B1000574544980N00955368EA0096800921
B1000584544986N00955363EA0096800920
B1000594544991N00955357EA0096700921
B1001004544997N00955353EA0096400919
B1001014545003N00955348EA0096100917
B1001024545009N00955344EA0095900914
B1001034545016N00955340EA0096000912
B1001044545022N00955336EA0096000912
B1001054545028N00955332EA0095900912
B1001064545034N00955329EA0095900912
B1001074545040N00955326EA0095600911
B1001084545045N00955323EA0095200909
B1001094545050N00955320EA0094800904
B1001104545057N00955318EA0094500901
B1001114545065N00955316EA0094200897
B1001124545073N00955316EA0094100895
B1001134545080N00955317EA0093900893
B1001144545088N00955318EA0093600891
B1001154545095N00955319EA0093300889
B1001164545103N00955320EA0093100886
B1001174545111N00955321EA0092700883
B1001184545118N00955322EA0092500880
B1001194545126N00955324EA0092400877
B1001204545134N00955324EA0092100876
B1001214545141N00955325EA0091800874
B1001224545148N00955326EA0091500871
B1001234545156N00955327EA0091200868
B1001244545164N00955328EA0091100865
B1001254545172N00955329EA0090800863
B1001264545179N00955330EA0090500861
B1001274545187N00955330EA0090300858
B1001284545194N00955330EA0090000855
B1001294545200N00955330EA0089700853
B1001304545207N00955329EA0089300849
B1001314545214N00955328EA0089000846
B1001324545222N00955327EA0088700843
B1001334545228N00955325EA0088400839
B1001344545236N00955322EA0088100836
B1001354545242N00955319EA0087800833
B1001364545249N00955316EA0087500831
B1001374545256N00955313EA0087200828
B1001384545263N00955309EA0087000825
B1001394545269N00955306EA0086700822
B1001404545276N00955303EA0086400820
B1001414545283N00955300EA0086000816
B1001424545288N00955296EA0085700813
B1001434545294N00955292EA0085300810
B1001444545300N00955287EA0084900805
B1001454545306N00955281EA0084800801
B1001464545311N00955275EA0084600800
B1001474545316N00955270EA0084400798
B1001484545320N00955265EA0084100796
B1001494545325N00955260EA0083800794
B1001504545331N00955254EA0083400790
B1001514545336N00955248EA0083100787
B1001524545342N00955242EA0083100784
B1001534545347N00955237EA0082900783
B1001544545351N00955233EA0082600782
B1001554545355N00955228EA0082200779
B1001564545360N00955222EA0081600774
B1001574545365N00955215EA0081200769
B1001584545370N00955208EA0081000764
B1001594545374N00955201EA0081000763
B1002004545378N00955195EA0080800762
B1002014545382N00955190EA0080500761
B1002024545385N00955184EA0080100758
B1002034545389N00955178EA0079700753
B1002044545393N00955171EA0079500750
B1002054545397N00955164EA0079400748
B1002064545401N00955158EA0079200746
B1002074545406N00955154EA0079000745
B1002084545410N00955150EA0078700742
B1002094545415N00955146EA0078400739
B1002104545420N00955145EA0078100737
B1002114545427N00955146EA0077900734
B1002124545433N00955149EA0077700731
B1002134545439N00955153EA0077600729
B1002144545443N00955159EA0077400728
B1002154545447N00955166EA0077100726
B1002164545449N00955174EA0076900724
B1002174545450N00955182EA0076700722
B1002184545450N00955188EA0076500720
B1002194545449N00955194EA0076300718
B1002204545445N00955198EA0076100716
B1002214545441N00955200EA0075800713
B1002224545437N00955201EA0075600711
B1002234545433N00955200EA0075400709
B1002244545431N00955198EA0075100706
B1002254545428N00955194EA0074700703
B1002264545427N00955189EA0074400699
B1002274545426N00955182EA0074100696
B1002284545427N00955175EA0073800693
B1002294545430N00955168EA0073600691
B1002304545433N00955161EA0073300688
B1002314545437N00955155EA0073000685
B1002324545443N00955148EA0072700682
B1002334545448N00955143EA0072500680
B1002344545455N00955140EA0072300677
B1002354545461N00955138EA0072100675
B1002364545467N00955138EA0071700674
B1002374545473N00955142EA0071400670
B1002384545478N00955147EA0071100667
B1002394545482N00955154EA0070800663
B1002404545485N00955161EA0070500660
B1002414545487N00955168EA0070300657
B1002424545488N00955174EA0070100656
B1002434545487N00955177EA0069900654
B1002444545483N00955177EA0069600652
B1002454545481N00955176EA0069200648
B1002464545478N00955175EA0069000645
B1002474545475N00955173EA0068800642
B1002484545472N00955170EA0068500640
B1002494545470N00955166EA0068300638
B1002504545469N00955163EA0068100636
B1002514545466N00955160EA0067800634
B1002524545465N00955154EA0067500631
B1002534545462N00955150EA0067100628
B1002544545460N00955146EA0066800624
B1002554545457N00955142EA0066700621
B1002564545454N00955139EA0066700619
B1002574545452N00955135EA0066500620
B1002584545450N00955130EA0066300618
B1002594545447N00955126EA0066100616
B1003004545445N00955121EA0065700613
B1003014545443N00955118EA0065400610
B1003024545439N00955115EA0065200607
B1003034545436N00955112EA0065000604
B1003044545433N00955108EA0064900602
B1003054545430N00955104EA0064800601
B1003064545427N00955101EA0064500600
B1003074545426N00955095EA0064100598
B1003084545424N00955092EA0063700593
B1003094545421N00955089EA0063500590
B1003104545418N00955085EA0063200588
B1003114545416N00955081EA0063000585
B1003124545415N00955077EA0062800583
B1003134545413N00955071EA0062500580
B1003144545412N00955066EA0062200578
B1003154545409N00955062EA0061900575
B1003164545406N00955058EA0061600571
B1003174545404N00955054EA0061500568
B1003184545401N00955050EA0061300568
B1003194545399N00955046EA0061000566
B1003204545397N00955042EA0060700563
B1003214545395N00955038EA0060300559
B1003224545392N00955035EA0060200556
B1003234545389N00955030EA0060100555
B1003244545387N00955026EA0059900553
B1003254545386N00955021EA0059800552
B1003264545384N00955018EA0059700551
B1003274545382N00955014EA0059400550
B1003284545380N00955011EA0059200547
B1003294545378N00955007EA0059000545
B1003304545375N00955003EA0058900543
B1003314545373N00955000EA0058700541
B1003324545371N00954997EA0058600540
B1003334545369N00954994EA0058400539
B1003344545367N00954991EA0058100537
B1003354545365N00954987EA0057900534
B1003364545363N00954983EA0057700531
B1003374545361N00954980EA0057500529
B1003384545358N00954976EA0057400528
B1003394545356N00954972EA0057200526
B1003404545354N00954968EA0057100525
B1003414545352N00954964EA0056900523
B1003424545350N00954960EA0056800521
B1003434545348N00954956EA0056600520
B1003444545345N00954953EA0056400519
B1003454545344N00954949EA0056200516
B1003464545342N00954945EA0056000515
B1003474545339N00954940EA0055900513
B1003484545338N00954936EA0055700511
B1003494545336N00954932EA0055500509
B1003504545335N00954929EA0055400508
B1003514545333N00954925EA0055100506
B1003524545332N00954921EA0054900504
B1003534545330N00954918EA0054700501
B1003544545328N00954915EA0054800499
B1003554545325N00954912EA0054900501
B1003564545323N00954910EA0054900501
B1003574545322N00954908EA0054700502
B1003584545323N00954905EA0054500499
B1003594545324N00954900EA0054500497
B1004004545323N00954895EA0054500497
B1004014545322N00954890EA0054600497
B1004024545320N00954886EA0054600498
B1004034545318N00954883EA0054500498
B1004044545318N00954879EA0054300497
B1004054545318N00954875EA0054200495
B1004064545320N00954869EA0053900494
B1004074545321N00954861EA0053600492
B1004084545323N00954854EA0053500489
B1004094545325N00954846EA0053400487
B1004104545328N00954840EA0053200487
B1004114545331N00954834EA0053000485
B1004124545336N00954828EA0052700482
B1004134545340N00954821EA0052400479
B1004144545344N00954814EA0052200477
B1004154545350N00954806EA0052000475
B1004164545356N00954800EA0051800472
B1004174545362N00954794EA0051700471
B1004184545368N00954789EA0051500469
B1004194545374N00954784EA0051300468
B1004204545381N00954780EA0050900466
B1004214545387N00954776EA0050700462
B1004224545395N00954773EA0050600459
B1004234545403N00954771EA0050500458
B1004244545410N00954770EA0050400458
B1004254545418N00954769EA0050300457
B1004264545425N00954770EA0050100456
B1004274545433N00954771EA0050000454
B1004284545440N00954773EA0049800452
B1004294545448N00954776EA0049600451
B1004304545455N00954780EA0049500449
B1004314545463N00954784EA0049400447
B1004324545469N00954789EA0049200446
B1004334545474N00954796EA0049000444
B1004344545480N00954802EA0048900442
B1004354545485N00954810EA0048900441
B1004364545489N00954817EA0048900442
B1004374545492N00954824EA0048800442
B1004384545496N00954832EA0048800441
B1004394545499N00954839EA0048800440
B1004404545501N00954847EA0048800440
B1004414545502N00954853EA0048600440
B1004424545501N00954858EA0048400438
B1004434545499N00954862EA0048300436
B1004444545496N00954864EA0048100435
B1004454545493N00954864EA0048000434
B1004464545490N00954863EA0047900432
B1004474545489N00954860EA0047900431
B1004484545487N00954856EA0048000432
B1004494545487N00954853EA0047900432
B1004504545486N00954851EA0047800432
B1004514545484N00954849EA0047700430
B1004524545483N00954848EA0047600429
B1004534545482N00954847EA0047500428
B1004544545481N00954848EA0047400427
B1004554545480N00954851EA0047200426
B1004564545479N00954856EA0047100425
B1004574545479N00954861EA0047000424
B1004584545480N00954868EA0046900422
B1004594545481N00954875EA0046700421
B1005004545482N00954882EA0046700420
B1005014545483N00954889EA0046600420
B1005024545484N00954896EA0046600419
B1005034545485N00954902EA0046600418
B1005044545485N00954907EA0046600419
B1005054545485N00954913EA0046500418
B1005064545485N00954919EA0046300417
B1005074545485N00954925EA0046300416
B1005084545485N00954932EA0046300415
B1005094545486N00954939EA0046300416
B1005104545486N00954946EA0046200415
B1005114545485N00954952EA0046000414
B1005124545485N00954958EA0046000413
B1005134545483N00954963EA0046000412
B1005144545479N00954966EA0045900412
B1005154545476N00954968EA0046000412
B1005164545473N00954968EA0046000413
B1005174545471N00954966EA0045800412
B1005184545470N00954958EA0045800411
B1005194545470N00954950EA0046000411
B1005204545471N00954942EA0046300413
B1005214545471N00954935EA0046600416
B1005224545472N00954930EA0046800418
B1005234545472N00954927EA0047000421
B1005244545473N00954925EA0047000422
B1005254545474N00954924EA0047000423
B1005264545474N00954923EA0046800422
B1005274545475N00954922EA0046600420
B1005284545473N00954922EA0046400419
B1005294545471N00954922EA0046200416
B1005304545469N00954926EA0046000414
B1005314545468N00954931EA0045900412
B1005324545468N00954937EA0045800411
B1005334545468N00954943EA0045700410
B1005344545469N00954949EA0045700410
B1005354545471N00954956EA0045600410
B1005364545472N00954963EA0045500409
B1005374545473N00954970EA0045500407
B1005384545474N00954977EA0045500407
B1005394545475N00954984EA0045400408
B1005404545475N00954990EA0045100406
B1005414545473N00954994EA0045000404
B1005424545470N00954996EA0044900402
B1005434545468N00954995EA0044800401
B1005444545467N00954990EA0044800400
B1005454545468N00954986EA0044800400
B1005464545468N00954982EA0044600401
B1005474545468N00954978EA0044300399
B1005484545468N00954975EA0044100396
B1005494545467N00954971EA0044100393
B1005504545464N00954971EA0044200393
B1005514545461N00954971EA0044200394
B1005524545459N00954973EA0044200394
B1005534545458N00954976EA0044200394
B1005544545456N00954980EA0044100395
B1005554545454N00954985EA0043900393
B1005564545452N00954991EA0043900392
B1005574545451N00954996EA0043700391
B1005584545450N00955000EA0043500390
B1005594545447N00955003EA0043400388
B1006004545446N00955004EA0043400387
B1006014545444N00955003EA0043400386
B1006024545443N00955001EA0043400386
B1006034545442N00954999EA0043500387
B1006044545442N00954996EA0043400387
B1006054545441N00954992EA0043300386
B1006064545442N00954989EA0043100385
B1006074545444N00954984EA0042900383
B1006084545445N00954979EA0042800382
B1006094545446N00954974EA0042900381
B1006104545447N00954969EA0042700382
B1006114545448N00954965EA0042800380
B1006124545450N00954961EA0042800380
B1006134545451N00954958EA0042700380
B1006144545452N00954956EA0042400379
B1006154545452N00954954EA0042200377
B1006164545450N00954953EA0042000374
B1006174545447N00954954EA0042000373
B1006184545445N00954956EA0042000373
B1006194545443N00954959EA0041700372
B1006204545441N00954961EA0041300370
B1006214545440N00954963EA0040900366
B1006224545438N00954964EA0040700362
B1006234545435N00954965EA0040600360
B1006244545432N00954965EA0040500358
B1006254545429N00954965EA0040400357
B1006264545427N00954965EA0040200356
B1006274545425N00954963EA0039900355
B1006284545423N00954962EA0040000352
B1006294545421N00954960EA0040000353
B1006304545419N00954958EA0040100353
B1006314545418N00954956EA0040000353
B1006324545417N00954955EA0039800352
B1006334545417N00954953EA0039700351
B1006344545416N00954951EA0039600349
B1006354545414N00954949EA0039600348
B1006364545412N00954948EA0039700348
B1006374545410N00954947EA0039600349
B1006384545409N00954947EA0039600349
B1006394545409N00954946EA0039500348
B1006404545409N00954941EA0039000347
B1006414545408N00954938EA0038800343
B1006424545408N00954936EA0038800341
B1006434545405N00954935EA0038700340
B1006444545404N00954934EA0038500339
B1006454545402N00954935EA0038200337
B1006464545401N00954936EA0038200334
B1006474545399N00954935EA0037900334
B1006484545398N00954934EA0037800331
B1006494545397N00954935EA0037800331
B1006504545397N00954935EA0037800331
B1006514545397N00954935EA0037800331
B1006524545397N00954936EA0037800331
B1006534545396N00954936EA0037800331
B1006544545396N00954936EA0037800331
B1006554545396N00954936EA0037800331
B1006564545396N00954937EA0037800330
B1006574545396N00954937EA0037800330
B1006584545396N00954937EA0037800330
B1006594545396N00954936EA0037800330
B1007004545396N00954936EA0037800330
B1007014545396N00954935EA0037800330
B1007024545396N00954934EA0037800330
B1007034545396N00954934EA0037800330
B1007044545397N00954933EA0037800330
B1007054545398N00954932EA0037800330
B1007064545398N00954932EA0037800330
B1007074545399N00954931EA0037800330
B1007084545399N00954930EA0037800330
B1007094545399N00954931EA0037800330
B1007104545398N00954932EA0037800330
B1007114545398N00954932EA0037800330
B1007124545397N00954933EA0037800331
B1007134545397N00954933EA0037800331
B1007144545397N00954933EA0037800331
B1007154545396N00954933EA0037800330
B1007164545396N00954933EA0037800330
B1007174545396N00954932EA0037800330
B1007184545396N00954932EA0037800331
B1007194545397N00954931EA0037800331
B1007204545399N00954930EA0037800331
B1007214545399N00954929EA0037800331
B1007224545401N00954927EA0037800331
B1007234545401N00954926EA0037800331
B1007244545403N00954924EA0037800331
B1007254545404N00954923EA0037800331
B1007264545404N00954921EA0037800331
B1007274545405N00954920EA0037800331
B1007284545406N00954919EA0037800331
B1007294545406N00954919EA0037800331
B1007304545406N00954918EA0037800331
B1007314545407N00954918EA0037800331
B1007324545407N00954918EA0037800331
B1007334545404N00954924EA0037800331
B1007344545403N00954925EA0037800331
B1007354545403N00954926EA0037800331
B1007364545401N00954928EA0037800331
B1007374545398N00954933EA0037800331
B1007384545396N00954936EA0037800331
B1007394545398N00954937EA0037800331
B1007404545398N00954938EA0037800331
B1007414545398N00954938EA0037800331
B1007424545398N00954938EA0037800331
B1007434545398N00954938EA0037800331
B1007444545398N00954938EA0037800331
B1007454545398N00954938EA0037800331
B1007464545397N00954938EA0037800331
B1007474545397N00954937EA0037800331
B1007484545397N00954937EA0037800330
B1007494545397N00954936EA0037800331
B1007504545396N00954935EA0037800331
B1007514545396N00954935EA0037800331
B1007524545395N00954935EA0037800331
LXSX;MC:4.7;MS:-7.7;MSP:53;Dist:6.1
G47568DD1E88F504D44F68C6939251902
