AXSX003 SKYTRAXX V3.0.3b SN:00000380
HOPLTPILOT:Sepp Bucher
HOGTYGLIDERTYPE:Sigma9
HOCIDCOMPETITIONID:0000
HODTM100GPSDATUM:WGS-84
HOCCLCOMPETITION CLASS:Paraglider (Standard)
HPSITSITE:Bellwald - Ried
HFDTE020916
B1156214626458N00810125EA0192202050
B1156224626458N00810125EA0192202050
B1156234626458N00810125EA0192202050
B1156244626458N00810125EA0192302050
B1156254626458N00810125EA0192202050
B1156264626458N00810125EA0192202050
B1156274626458N00810125EA0192202049
B1156284626458N00810125EA0192102049
B1156294626458N00810126EA0192002048
B1156304626449N00810135EA0191902054
B1156314626439N00810142EA0191702059
B1156324626433N00810157EA0191502057
B1156334626428N00810167EA0191502057
B1156344626424N00810170EA0191602059
B1156354626423N00810169EA0191602058
B1156364626420N00810170EA0191302055
B1156374626416N00810169EA0191202055
B1156384626413N00810165EA0191302055
B1156384626413N00810165EA0191302055
B1156394626413N00810168EA0191302055
B1156404626410N00810169EA0191302055
B1156414626407N00810172EA0191202054
B1156424626406N00810175EA0191202054
B1156434626403N00810175EA0191202054
B1156444626401N00810176EA0191002052
B1156454626399N00810178EA0190902051
B1156464626396N00810182EA0190902051
B1156474626394N00810187EA0190902051
B1156484626392N00810191EA0190702049
B1156494626392N00810195EA0190602048
B1156504626391N00810196EA0190302045
B1156514626390N00810197EA0189902041
B1156524626390N00810195EA0189702040
B1156534626387N00810194EA0189502037
B1156544626384N00810193EA0189302036
B1156554626379N00810195EA0189202034
B1156564626375N00810197EA0189002032
B1156574626370N00810200EA0188602028
B1156584626367N00810203EA0188302025
B1156594626364N00810207EA0188402026
B1157004626360N00810210EA0188202024
B1157014626355N00810213EA0188002022
B1157024626350N00810214EA0188102023
B1157034626346N00810215EA0188202024
B1157044626342N00810216EA0188002022
B1157054626338N00810217EA0187702019
B1157064626336N00810217EA0187502017
B1157074626331N00810221EA0187302015
B1157084626327N00810222EA0187202015
B1157094626322N00810223EA0187202015
B1157104626317N00810222EA0187302015
B1157114626313N00810221EA0187202015
B1157124626310N00810220EA0187002013
B1157134626307N00810219EA0186802010
B1157144626303N00810218EA0186702009
B1157154626299N00810217EA0186702009
B1157164626295N00810215EA0186602008
B1157174626291N00810213EA0186402006
B1157184626288N00810211EA0186202004
B1157194626286N00810209EA0185902002
B1157204626282N00810207EA0185601998
B1157214626278N00810206EA0185301995
B1157224626273N00810207EA0185101993
B1157234626268N00810208EA0185201994
B1157244626262N00810209EA0185401996
B1157254626257N00810209EA0185201994
B1157264626254N00810210EA0185001992
B1157274626251N00810209EA0184601988
B1157284626247N00810210EA0184501987
B1157294626242N00810213EA0184501988
B1157304626236N00810214EA0184701990
B1157314626231N00810214EA0184901991
B1157324626226N00810213EA0184801990
B1157334626222N00810212EA0184501987
B1157344626219N00810211EA0184201984
B1157354626214N00810211EA0183801981
B1157364626209N00810209EA0183801980
B1157374626203N00810208EA0184001982
B1157384626197N00810206EA0184201984
B1157394626195N00810201EA0184301986
B1157404626193N00810196EA0184401986
B1157414626192N00810190EA0184501987
B1157414626192N00810190EA0184801990
B1157424626191N00810184EA0184801991
B1157424626191N00810184EA0185001992
B1157434626190N00810178EA0185001992
B1157444626190N00810172EA0185201994
B1157454626190N00810167EA0185201995
B1157464626190N00810162EA0185301995
B1157474626188N00810158EA0185101993
B1157484626184N00810157EA0185001993
B1157494626178N00810158EA0185101993
B1157504626174N00810163EA0185301995
B1157514626176N00810175EA0185601998
B1157524626179N00810184EA0185701999
B1157534626182N00810192EA0185802000
B1157544626185N00810198EA0185902001
B1157554626188N00810205EA0185902001
B1157564626193N00810212EA0186102003
B1157574626200N00810217EA0186202004
B1157584626207N00810218EA0186302005
B1157594626212N00810216EA0186402006
B1158004626217N00810213EA0186302006
B1158014626220N00810208EA0186302006
B1158024626222N00810204EA0186202005
B1158034626224N00810198EA0186202004
B1158044626225N00810191EA0186402006
B1158054626225N00810184EA0186502008
B1158064626224N00810178EA0186702009
B1158064626224N00810178EA0186702009
B1158074626223N00810172EA0186702009
B1158084626222N00810167EA0186502008
B1158094626217N00810163EA0186502007
B1158104626213N00810159EA0186402006
B1158114626209N00810154EA0186502008
B1158124626206N00810149EA0186702009
B1158134626204N00810144EA0186802010
B1158144626204N00810140EA0186902011
B1158144626204N00810140EA0186802010
B1158154626203N00810135EA0186802010
B1158164626203N00810131EA0186602008
B1158174626203N00810126EA0186402007
B1158184626201N00810122EA0186302005
B1158194626198N00810120EA0186202005
B1158204626194N00810118EA0186202004
B1158214626190N00810118EA0186202004
B1158224626186N00810121EA0186102004
B1158224626186N00810121EA0186202004
B1158234626182N00810123EA0186202004
B1158244626178N00810125EA0186202004
B1158254626174N00810127EA0186202004
B1158264626170N00810127EA0186402006
B1158274626166N00810126EA0186602008
B1158284626163N00810123EA0186802011
B1158294626161N00810120EA0187002012
B1158304626162N00810115EA0187002013
B1158314626161N00810112EA0187002012
B1158324626160N00810108EA0186802010
B1158334626158N00810103EA0186802010
B1158344626156N00810097EA0186902011
B1158354626155N00810091EA0187202014
B1158364626151N00810085EA0187502017
B1158374626150N00810080EA0187502018
B1158384626150N00810077EA0187502017
B1158394626147N00810074EA0187502017
B1158404626145N00810069EA0187402017
B1158414626144N00810063EA0187602018
B1158424626144N00810055EA0187902022
B1158434626144N00810049EA0188202024
B1158444626147N00810044EA0188202024
B1158454626150N00810042EA0188002022
B1158464626151N00810041EA0187802020
B1158474626153N00810038EA0187602018
B1158484626152N00810035EA0187602018
B1158494626148N00810032EA0187702020
B1158504626144N00810032EA0187702019
B1158514626140N00810036EA0187602018
B1158524626137N00810040EA0187402017
B1158534626136N00810046EA0187302016
B1158544626136N00810053EA0187302015
B1158554626138N00810061EA0187102014
B1158564626142N00810067EA0186902011
B1158574626147N00810073EA0186802010
B1158584626155N00810078EA0186702010
B1158594626162N00810083EA0186702009
B1159004626168N00810089EA0186602008
B1159004626168N00810089EA0186402006
B1159014626172N00810096EA0186402006
B1159024626175N00810105EA0186102003
B1159034626175N00810114EA0185902001
B1159044626173N00810121EA0185702000
B1159054626170N00810125EA0185701999
B1159064626166N00810128EA0185601998
B1159074626163N00810128EA0185501997
B1159084626160N00810128EA0185401997
B1159094626158N00810128EA0185201995
B1159104626155N00810126EA0185201994
B1159114626152N00810122EA0185301995
B1159124626150N00810117EA0185601999
B1159134626150N00810110EA0185902001
B1159144626149N00810103EA0186002002
B1159154626148N00810097EA0185702000
B1159164626147N00810093EA0185501997
B1159174626144N00810089EA0185301995
B1159184626142N00810083EA0185301995
B1159194626140N00810077EA0185201994
B1159204626138N00810072EA0185101994
B1159214626137N00810067EA0185101993
B1159224626136N00810062EA0185001992
B1159224626136N00810062EA0184901991
B1159234626134N00810057EA0184901991
B1159244626132N00810052EA0184801991
B1159254626131N00810047EA0184801990
B1159264626131N00810041EA0184701989
B1159274626132N00810034EA0184401987
B1159284626132N00810028EA0184201985
B1159294626131N00810022EA0184101984
B1159304626129N00810018EA0184201984
B1159314626128N00810012EA0184301985
B1159324626128N00810007EA0184301985
B1159334626128N00810001EA0184101983
B1159344626128N00809996EA0183901982
B1159354626128N00809991EA0183901981
B1159364626128N00809986EA0184001982
B1159374626126N00809981EA0184201984
B1159384626125N00809976EA0184301986
B1159394626124N00809971EA0184201984
B1159404626123N00809966EA0184001982
B1159414626121N00809962EA0183901981
B1159424626120N00809957EA0183801980
B1159434626120N00809951EA0183801980
B1159444626120N00809944EA0183701979
B1159454626120N00809936EA0183701980
B1159464626121N00809929EA0183601978
B1159474626121N00809923EA0183401977
B1159484626121N00809918EA0183401976
B1159494626121N00809913EA0183201974
B1159504626122N00809907EA0183101973
B1159514626123N00809901EA0183201974
B1159524626125N00809894EA0183301975
B1159534626126N00809887EA0183401976
B1159544626128N00809882EA0183301976
B1159554626130N00809877EA0183101973
B1159564626132N00809872EA0183001972
B1159574626136N00809867EA0182801970
B1159584626138N00809861EA0182901971
B1159594626141N00809854EA0183201974
B1200004626143N00809848EA0183501977
B1200014626143N00809843EA0183701979
B1200024626144N00809839EA0183701979
B1200034626144N00809833EA0183801980
B1200044626146N00809827EA0183901981
B1200054626147N00809820EA0184301986
B1200064626147N00809814EA0184501987
B1200074626145N00809810EA0184501988
B1200084626143N00809808EA0184701989
B1200094626139N00809809EA0184801991
B1200104626135N00809813EA0184901992
B1200114626133N00809819EA0184901992
B1200124626134N00809827EA0184801990
B1200134626136N00809836EA0184801990
B1200134626136N00809836EA0184701989
B1200144626139N00809847EA0184701989
B1200154626144N00809856EA0184701990
B1200164626151N00809863EA0184801990
B1200174626160N00809866EA0184901991
B1200184626167N00809864EA0185101994
B1200194626173N00809860EA0185301996
B1200204626178N00809855EA0185601998
B1200214626182N00809849EA0185802000
B1200224626185N00809844EA0186002002
B1200234626188N00809838EA0186202004
B1200244626188N00809833EA0186302005
B1200254626187N00809829EA0186402006
B1200264626185N00809825EA0186602008
B1200274626185N00809821EA0186702010
B1200284626185N00809816EA0186702010
B1200294626184N00809813EA0186602009
B1200304626183N00809809EA0186602008
B1200314626180N00809807EA0186502008
B1200324626177N00809806EA0186602008
B1200334626173N00809807EA0186602008
B1200344626169N00809809EA0186602008
B1200354626166N00809813EA0186502007
B1200354626166N00809813EA0186502007
B1200364626163N00809819EA0186502007
B1200374626161N00809826EA0186502007
B1200384626158N00809833EA0186602008
B1200394626156N00809840EA0186702009
B1200404626153N00809846EA0186902011
B1200414626149N00809851EA0186902011
B1200424626145N00809855EA0186902011
B1200434626142N00809856EA0186802011
B1200444626139N00809856EA0186902011
B1200454626136N00809853EA0186902011
B1200464626134N00809849EA0186802010
B1200474626134N00809844EA0186702009
B1200484626136N00809838EA0186602009
B1200494626139N00809831EA0186602009
B1200504626142N00809825EA0186702009
B1200514626148N00809824EA0186602008
B1200524626154N00809823EA0186602008
B1200534626161N00809823EA0186502007
B1200544626167N00809822EA0186502007
B1200554626173N00809821EA0186402007
B1200564626179N00809818EA0186402006
B1200574626185N00809814EA0186402006
B1200584626189N00809810EA0186402006
B1200594626192N00809805EA0186302005
B1201004626195N00809801EA0186202004
B1201014626197N00809797EA0186002002
B1201024626199N00809793EA0185701999
B1201034626200N00809790EA0185501997
B1201044626199N00809784EA0185301995
B1201054626195N00809778EA0185401996
B1201064626191N00809774EA0185701999
B1201074626187N00809771EA0186002002
B1201084626182N00809769EA0186102003
B1201094626179N00809769EA0186002003
B1201104626177N00809769EA0185902001
B1201114626174N00809769EA0185702000
B1201124626169N00809769EA0185601998
B1201134626166N00809769EA0185501997
B1201144626161N00809769EA0185301995
B1201154626157N00809769EA0185101993
B1201164626152N00809768EA0185001992
B1201174626148N00809766EA0185001992
B1201184626145N00809763EA0185001992
B1201194626144N00809760EA0184901991
B1201204626148N00809752EA0184801990
B1201214626151N00809745EA0184701989
B1201224626153N00809739EA0184601988
B1201234626156N00809732EA0184601988
B1201244626158N00809726EA0184601988
B1201254626160N00809719EA0184701989
B1201264626162N00809713EA0184801990
B1201274626162N00809706EA0184801990
B1201284626163N00809700EA0184901991
B1201294626166N00809694EA0184901992
B1201304626168N00809688EA0185001992
B1201314626171N00809682EA0184901992
B1201324626176N00809676EA0184901991
B1201334626181N00809671EA0184901991
B1201344626185N00809666EA0184901992
B1201354626190N00809661EA0184901992
B1201364626193N00809655EA0185001992
B1201374626197N00809649EA0185001993
B1201384626203N00809642EA0185201995
B1201394626213N00809636EA0185501997
B1201404626224N00809632EA0185701999
B1201414626235N00809629EA0185802000
B1201424626244N00809627EA0185601999
B1201434626255N00809624EA0185401997
B1201444626266N00809620EA0185301995
B1201454626275N00809613EA0185101993
B1201464626283N00809605EA0185101994
B1201474626291N00809597EA0185201994
B1201484626297N00809590EA0185101994
B1201494626300N00809585EA0185101993
B1201504626290N00809580EA0185001993
B1201514626269N00809577EA0184801990
B1201524626248N00809579EA0184501987
B1201534626230N00809578EA0184301986
B1201544626224N00809580EA0184201984
B1201554626215N00809582EA0184201984
B1201564626213N00809590EA0184201984
B1201574626212N00809600EA0184201984
B1201584626212N00809608EA0184101984
B1201594626214N00809615EA0183901982
B1202004626213N00809621EA0183701979
B1202014626212N00809628EA0183701979
B1202024626210N00809636EA0183701979
B1202034626208N00809643EA0183801980
B1202044626205N00809649EA0183901982
B1202054626202N00809653EA0184001982
B1202064626199N00809654EA0184001982
B1202074626196N00809654EA0183901982
B1202084626194N00809652EA0184101983
B1202094626193N00809647EA0184101983
B1202104626195N00809643EA0184101984
B1202114626201N00809636EA0184201984
B1202124626205N00809631EA0184201984
B1202134626209N00809626EA0184101983
B1202144626214N00809621EA0184001983
B1202154626218N00809616EA0184001983
B1202164626222N00809611EA0184001983
B1202174626226N00809606EA0184101983
B1202184626231N00809601EA0184001983
B1202194626235N00809595EA0184001982
B1202204626239N00809589EA0183901982
B1202214626243N00809583EA0183901981
B1202224626247N00809577EA0183901981
B1202234626253N00809570EA0183701980
B1202244626258N00809564EA0183701980
B1202254626263N00809559EA0183701979
B1202264626267N00809553EA0183601978
B1202274626271N00809548EA0183501977
B1202284626274N00809542EA0183401976
B1202294626278N00809537EA0183201974
B1202304626283N00809532EA0183201974
B1202314626288N00809526EA0183101973
B1202324626293N00809519EA0183101974
B1202334626298N00809513EA0183401976
B1202344626304N00809507EA0183501977
B1202354626308N00809503EA0183501977
B1202364626312N00809500EA0183401977
B1202374626316N00809496EA0183401977
B1202384626321N00809491EA0183501978
B1202394626328N00809486EA0183801980
B1202404626333N00809481EA0184101983
B1202414626338N00809476EA0184101984
B1202424626342N00809472EA0184001982
B1202434626345N00809469EA0183801980
B1202444626349N00809467EA0183401977
B1202454626350N00809461EA0183301976
B1202464626350N00809452EA0183401976
B1202474626350N00809446EA0183301975
B1202484626346N00809440EA0183101973
B1202494626342N00809437EA0182901972
B1202504626337N00809439EA0183001972
B1202514626333N00809442EA0182901972
B1202524626330N00809448EA0182901971
B1202534626328N00809454EA0182801970
B1202544626327N00809460EA0182701969
B1202544626327N00809460EA0182501967
B1202554626326N00809466EA0182501967
B1202564626326N00809474EA0182301965
B1202574626326N00809481EA0182201964
B1202584626324N00809489EA0182101963
B1202594626321N00809497EA0182001962
B1203004626318N00809502EA0181901961
B1203014626315N00809506EA0181901961
B1203024626311N00809509EA0181901961
B1203034626307N00809513EA0181801960
B1203044626304N00809517EA0181801960
B1203054626301N00809522EA0181901961
B1203064626297N00809529EA0181901961
B1203074626295N00809534EA0182001963
B1203084626293N00809540EA0182201964
B1203094626290N00809544EA0182101964
B1203104626287N00809549EA0181901962
B1203114626285N00809555EA0181901961
B1203124626283N00809562EA0181801961
B1203134626282N00809569EA0181801961
B1203144626280N00809575EA0181701960
B1203154626277N00809581EA0181601959
B1203164626274N00809587EA0181501957
B1203174626271N00809591EA0181401956
B1203184626266N00809594EA0181201954
B1203194626262N00809594EA0181201954
B1203204626258N00809591EA0181201954
B1203214626254N00809587EA0181201954
B1203224626252N00809582EA0181301955
B1203234626253N00809574EA0181401956
B1203244626254N00809567EA0181301956
B1203254626255N00809561EA0181401956
B1203264626256N00809554EA0181301956
B1203274626258N00809548EA0181401956
B1203284626262N00809541EA0181501958
B1203294626265N00809536EA0181601959
B1203304626269N00809530EA0181701959
B1203314626272N00809525EA0181701960
B1203324626278N00809520EA0181801960
B1203334626283N00809515EA0181701960
B1203344626285N00809508EA0181701959
B1203354626284N00809501EA0181601958
B1203364626284N00809495EA0181601958
B1203374626283N00809491EA0181501958
B1203384626281N00809488EA0181401956
B1203394626280N00809486EA0181201954
B1203404626279N00809485EA0180901952
B1203414626278N00809485EA0180801950
B1203424626276N00809489EA0180701950
B1203434626274N00809498EA0180701949
B1203444626272N00809508EA0180701949
B1203454626271N00809516EA0180601948
B1203464626271N00809524EA0180401947
B1203474626270N00809531EA0180301945
B1203484626267N00809541EA0180101943
B1203494626263N00809547EA0179901942
B1203504626258N00809549EA0179801941
B1203514626253N00809548EA0179901942
B1203524626247N00809546EA0180101943
B1203534626243N00809541EA0180301945
B1203544626240N00809535EA0180501948
B1203554626238N00809529EA0180601949
B1203564626237N00809525EA0180701949
B1203574626236N00809521EA0180701949
B1203584626233N00809517EA0180701950
B1203594626228N00809514EA0180901951
B1204004626225N00809511EA0181101953
B1204014626221N00809507EA0181201954
B1204024626217N00809502EA0181201954
B1204034626214N00809495EA0181201954
B1204044626214N00809487EA0181401957
B1204054626216N00809480EA0181601959
B1204064626220N00809475EA0181801961
B1204074626224N00809470EA0181901961
B1204084626229N00809467EA0182001962
B1204094626236N00809466EA0182101963
B1204104626242N00809469EA0182201964
B1204104626242N00809469EA0182201964
B1204114626247N00809476EA0182201964
B1204124626251N00809485EA0182301966
B1204134626253N00809493EA0182601968
B1204144626251N00809502EA0182701969
B1204154626249N00809510EA0182801970
B1204164626247N00809517EA0182901971
B1204174626246N00809523EA0182901971
B1204184626245N00809529EA0182901971
B1204194626241N00809530EA0183001972
B1204204626236N00809535EA0183101973
B1204214626229N00809541EA0183301975
B1204224626224N00809541EA0183501978
B1204234626220N00809536EA0183701980
B1204244626218N00809529EA0183901981
B1204254626218N00809523EA0184001982
B1204264626217N00809516EA0184101983
B1204274626217N00809509EA0184101983
B1204284626216N00809502EA0184101983
B1204294626219N00809497EA0184101983
B1204304626225N00809494EA0184201985
B1204314626231N00809492EA0184301986
B1204324626238N00809492EA0184401986
B1204334626244N00809495EA0184401986
B1204344626251N00809500EA0184401986
B1204354626256N00809506EA0184401987
B1204364626260N00809515EA0184501987
B1204374626262N00809524EA0184601988
B1204384626260N00809532EA0184701989
B1204394626255N00809538EA0184901991
B1204404626249N00809542EA0185101993
B1204414626243N00809545EA0185201994
B1204424626239N00809547EA0185301996
B1204434626235N00809548EA0185401996
B1204444626231N00809548EA0185701999
B1204454626227N00809548EA0185902001
B1204464626223N00809548EA0186202004
B1204474626219N00809546EA0186302006
B1204484626216N00809544EA0186402007
B1204494626212N00809541EA0186402006
B1204504626210N00809535EA0186402006
B1204514626210N00809526EA0186502007
B1204524626213N00809517EA0186702009
B1204534626216N00809509EA0186802011
B1204544626223N00809505EA0186902011
B1204554626229N00809503EA0187002012
B1204564626238N00809504EA0187102014
B1204574626245N00809507EA0187202015
B1204584626251N00809513EA0187202014
B1204594626257N00809519EA0187202014
B1205004626257N00809527EA0187202014
B1205014626254N00809534EA0187402016
B1205024626250N00809538EA0187602019
B1205034626246N00809540EA0187902021
B1205044626240N00809544EA0188002022
B1205054626235N00809546EA0188102024
B1205064626231N00809547EA0188302026
B1205074626226N00809547EA0188602028
B1205084626222N00809545EA0188802031
B1205094626219N00809542EA0189102033
B1205104626216N00809538EA0189402036
B1205114626214N00809533EA0189502037
B1205124626214N00809527EA0189502038
B1205134626214N00809520EA0189602038
B1205144626217N00809512EA0189602039
B1205154626220N00809503EA0189702040
B1205164626226N00809497EA0189902042
B1205174626232N00809494EA0190102043
B1205184626238N00809495EA0190102043
B1205194626245N00809500EA0190102043
B1205204626250N00809505EA0190202044
B1205214626253N00809514EA0190202045
B1205224626255N00809523EA0190402046
B1205234626256N00809531EA0190302046
B1205244626257N00809539EA0190302045
B1205254626256N00809547EA0190302046
B1205264626254N00809554EA0190502047
B1205274626251N00809561EA0190602048
B1205284626247N00809566EA0190802050
B1205294626242N00809570EA0190902052
B1205304626236N00809573EA0191102053
B1205314626231N00809574EA0191402056
B1205324626227N00809574EA0191702059
B1205334626222N00809572EA0192002062
B1205344626219N00809568EA0192202064
B1205354626216N00809565EA0192302065
B1205364626215N00809561EA0192502068
B1205374626214N00809557EA0192602068
B1205384626217N00809551EA0192602068
B1205394626219N00809546EA0192602068
B1205404626222N00809540EA0192502068
B1205414626226N00809534EA0192502067
B1205424626232N00809531EA0192502068
B1205434626237N00809532EA0192602068
B1205444626244N00809534EA0192602069
B1205454626250N00809539EA0192802070
B1205464626255N00809544EA0192902072
B1205474626260N00809551EA0193102073
B1205484626263N00809559EA0193202074
B1205494626265N00809567EA0193502077
B1205504626265N00809576EA0193702080
B1205514626265N00809583EA0193902081
B1205524626260N00809586EA0193902081
B1205534626256N00809588EA0194002082
B1205544626253N00809588EA0194102083
B1205554626250N00809586EA0194202085
B1205564626249N00809581EA0194402086
B1205574626250N00809575EA0194402086
B1205584626251N00809568EA0194402086
B1205594626254N00809562EA0194402087
B1206004626258N00809557EA0194502087
B1206014626262N00809552EA0194702089
B1206024626268N00809547EA0195002092
B1206034626273N00809547EA0195002093
B1206044626280N00809548EA0195102093
B1206054626286N00809551EA0195102093
B1206064626293N00809555EA0195202094
B1206074626299N00809561EA0195302095
B1206084626304N00809567EA0195302095
B1206094626307N00809576EA0195202095
B1206104626308N00809587EA0195202094
B1206114626307N00809596EA0195202094
B1206124626304N00809603EA0195302096
B1206134626299N00809609EA0195502098
B1206144626294N00809612EA0195702099
B1206154626291N00809614EA0195802100
B1206164626287N00809615EA0195902101
B1206174626284N00809617EA0196102103
B1206184626282N00809617EA0196102104
B1206194626279N00809617EA0196202104
B1206204626276N00809615EA0196302106
B1206214626273N00809611EA0196602109
B1206224626272N00809606EA0196802110
B1206234626269N00809602EA0196902112
B1206234626269N00809602EA0197002112
B1206244626267N00809599EA0197002112
B1206254626265N00809597EA0197002112
B1206264626263N00809593EA0197002112
B1206274626262N00809588EA0197002113
B1206284626263N00809581EA0197102113
B1206294626265N00809574EA0197202114
B1206304626269N00809569EA0197202114
B1206314626274N00809565EA0197202114
B1206324626279N00809563EA0197202115
B1206334626285N00809562EA0197202114
B1206344626292N00809563EA0197302115
B1206354626299N00809567EA0197402116
B1206364626304N00809574EA0197502118
B1206374626309N00809582EA0197602118
B1206384626310N00809590EA0197702119
B1206384626310N00809590EA0197802120
B1206394626310N00809598EA0197802120
B1206404626308N00809605EA0198002122
B1206414626303N00809610EA0198102123
B1206424626299N00809613EA0198102124
B1206434626295N00809614EA0198302125
B1206444626291N00809613EA0198402126
B1206454626289N00809609EA0198402126
B1206464626287N00809604EA0198502127
B1206474626285N00809599EA0198502127
B1206484626285N00809592EA0198402127
B1206494626287N00809586EA0198502127
B1206504626289N00809579EA0198402127
B1206514626292N00809573EA0198502127
B1206524626296N00809568EA0198502128
B1206534626301N00809564EA0198702129
B1206544626306N00809561EA0198702129
B1206554626312N00809562EA0198702130
B1206564626319N00809563EA0198902131
B1206574626325N00809565EA0199002132
B1206574626325N00809565EA0199002133
B1206584626331N00809570EA0199102133
B1206594626337N00809576EA0199102133
B1207004626340N00809583EA0199102134
B1207014626343N00809591EA0199202134
B1207024626345N00809600EA0199302135
B1207034626345N00809609EA0199402136
B1207044626343N00809618EA0199502137
B1207054626340N00809623EA0199602138
B1207064626335N00809628EA0199602138
B1207074626330N00809630EA0199702139
B1207084626325N00809631EA0199802140
B1207094626321N00809630EA0199902141
B1207104626318N00809626EA0199902141
B1207114626317N00809621EA0200002142
B1207124626316N00809614EA0200002142
B1207134626318N00809607EA0200102143
B1207144626320N00809601EA0200202144
B1207154626323N00809594EA0200302145
B1207164626327N00809590EA0200302145
B1207174626333N00809587EA0200302145
B1207184626338N00809585EA0200302145
B1207194626345N00809585EA0200302146
B1207204626352N00809588EA0200402146
B1207214626357N00809592EA0200402146
B1207224626362N00809599EA0200402146
B1207234626364N00809608EA0200402147
B1207244626364N00809617EA0200502147
B1207254626364N00809626EA0200402146
B1207254626364N00809626EA0200402146
B1207264626362N00809635EA0200402146
B1207274626358N00809642EA0200502147
B1207284626353N00809647EA0200502148
B1207294626348N00809650EA0200602149
B1207304626342N00809652EA0200802150
B1207314626337N00809652EA0200902151
B1207324626334N00809650EA0201002152
B1207324626334N00809650EA0200902151
B1207334626330N00809648EA0200902151
B1207344626326N00809647EA0200802150
B1207354626322N00809645EA0200702149
B1207364626317N00809643EA0200602149
B1207374626313N00809640EA0200602149
B1207384626310N00809637EA0200602148
B1207394626307N00809634EA0200602148
B1207404626304N00809630EA0200602148
B1207414626302N00809626EA0200502148
B1207424626300N00809622EA0200402147
B1207434626300N00809616EA0200302145
B1207444626303N00809610EA0200102143
B1207454626307N00809604EA0200002142
B1207464626312N00809599EA0200102143
B1207474626317N00809595EA0200102143
B1207484626324N00809596EA0200202144
B1207494626330N00809596EA0200302146
B1207504626336N00809597EA0200502147
B1207514626341N00809598EA0200602148
B1207524626347N00809599EA0200702149
B1207534626353N00809600EA0200702150
B1207544626358N00809601EA0200802150
B1207554626364N00809602EA0200802150
B1207564626370N00809606EA0200802150
B1207574626375N00809610EA0200802150
B1207584626378N00809618EA0200702150
B1207594626379N00809628EA0200802150
B1208004626380N00809637EA0200802150
B1208014626379N00809646EA0200902151
B1208024626378N00809655EA0200802150
B1208034626372N00809660EA0200802150
B1208044626367N00809663EA0200702150
B1208054626362N00809664EA0200702150
B1208064626358N00809662EA0200702149
B1208074626354N00809659EA0200602148
B1208084626353N00809653EA0200602149
B1208094626353N00809646EA0200702150
B1208104626354N00809638EA0200902151
B1208114626355N00809631EA0201002152
B1208124626357N00809625EA0201102153
B1208134626360N00809619EA0201202154
B1208144626362N00809614EA0201202155
B1208154626367N00809610EA0201302155
B1208164626372N00809607EA0201302155
B1208174626377N00809604EA0201202154
B1208184626382N00809602EA0201102153
B1208194626389N00809601EA0200902152
B1208204626396N00809601EA0200802150
B1208214626403N00809604EA0200602149
B1208224626409N00809611EA0200602148
B1208234626414N00809619EA0200602148
B1208244626416N00809629EA0200602148
B1208254626417N00809639EA0200702150
B1208264626415N00809649EA0201002153
B1208274626413N00809657EA0201302155
B1208284626409N00809663EA0201502157
B1208294626406N00809668EA0201602159
B1208304626403N00809673EA0201602159
B1208314626401N00809677EA0201502158
B1208324626399N00809682EA0201402156
B1208334626394N00809682EA0201202155
B1208344626389N00809682EA0201402156
B1208354626384N00809680EA0201702160
B1208364626380N00809677EA0202102163
B1208374626377N00809675EA0202302166
B1208384626377N00809668EA0202402166
B1208394626381N00809662EA0202402166
B1208404626384N00809656EA0202402167
B1208414626387N00809651EA0202402166
B1208424626390N00809647EA0202502167
B1208434626395N00809643EA0202502168
B1208444626400N00809643EA0202602169
B1208454626406N00809646EA0202702169
B1208464626412N00809651EA0202702169
B1208474626416N00809659EA0202802170
B1208484626419N00809669EA0203202174
B1208494626420N00809679EA0203502178
B1208504626418N00809688EA0203802180
B1208514626415N00809695EA0203902182
B1208524626412N00809702EA0204102183
B1208534626408N00809707EA0204102183
B1208544626404N00809710EA0204202184
B1208554626399N00809711EA0204402186
B1208564626396N00809708EA0204402187
B1208574626393N00809704EA0204402186
B1208584626392N00809698EA0204302186
B1208594626393N00809691EA0204502187
B1209004626394N00809686EA0204602188
B1209014626396N00809681EA0204702189
B1209024626399N00809677EA0204702189
B1209034626406N00809677EA0204602188
B1209044626413N00809679EA0204702190
B1209054626419N00809684EA0205002193
B1209064626424N00809692EA0205302195
B1209074626427N00809702EA0205502197
B1209084626429N00809711EA0205502198
B1209094626431N00809721EA0205802201
B1209104626433N00809730EA0206102203
B1209114626434N00809739EA0206202205
B1209124626434N00809748EA0206202205
B1209134626433N00809757EA0206102203
B1209144626430N00809766EA0206102204
B1209154626427N00809773EA0206202205
B1209164626423N00809777EA0206202205
B1209174626419N00809779EA0206102204
B1209184626415N00809778EA0206102203
B1209194626412N00809775EA0206002203
B1209204626409N00809769EA0206102203
B1209214626408N00809763EA0206202204
B1209224626407N00809757EA0206202205
B1209234626407N00809752EA0206302205
B1209244626407N00809747EA0206302206
B1209254626406N00809742EA0206302206
B1209264626405N00809737EA0206402206
B1209274626404N00809732EA0206402206
B1209284626405N00809727EA0206402206
B1209294626407N00809721EA0206402206
B1209304626409N00809716EA0206302205
B1209314626412N00809711EA0206202204
B1209324626416N00809707EA0206102204
B1209334626421N00809704EA0206002202
B1209344626426N00809701EA0205802200
B1209354626431N00809699EA0205602198
B1209364626437N00809698EA0205502197
B1209374626443N00809696EA0205302195
B1209384626448N00809691EA0205102193
B1209384626448N00809691EA0205102194
B1209394626450N00809685EA0205102194
B1209404626451N00809679EA0205102193
B1209414626450N00809673EA0205102193
B1209424626448N00809669EA0204902192
B1209434626446N00809665EA0204702189
B1209444626443N00809662EA0204302186
B1209454626439N00809659EA0204002183
B1209464626433N00809660EA0203902181
B1209474626428N00809664EA0203802180
B1209484626423N00809672EA0203702179
B1209484626423N00809672EA0203602179
B1209494626421N00809681EA0203602179
B1209504626419N00809689EA0203602178
B1209514626418N00809696EA0203402176
B1209524626418N00809703EA0203202174
B1209534626416N00809712EA0203002172
B1209544626414N00809720EA0203002172
B1209554626411N00809728EA0203002172
B1209564626407N00809735EA0202902171
B1209574626404N00809741EA0202702169
B1209584626400N00809748EA0202502167
B1209594626397N00809755EA0202402166
B1210004626394N00809761EA0202502167
B1210014626389N00809765EA0202602168
B1210024626385N00809770EA0202702169
B1210034626381N00809775EA0202802170
B1210044626378N00809781EA0202802171
B1210054626375N00809788EA0202902171
B1210064626373N00809796EA0203002172
B1210074626370N00809804EA0203102173
B1210084626367N00809810EA0203202174
B1210094626363N00809815EA0203302175
B1210104626357N00809819EA0203302175
B1210114626353N00809820EA0203302175
B1210124626348N00809820EA0203202175
B1210134626345N00809820EA0203102174
B1210144626341N00809819EA0203002172
B1210154626337N00809816EA0202702169
B1210164626334N00809811EA0202502167
B1210174626331N00809805EA0202502167
B1210184626335N00809799EA0202602168
B1210194626339N00809794EA0202902171
B1210204626344N00809793EA0203002172
B1210214626350N00809792EA0203002173
B1210224626355N00809791EA0203102173
B1210234626359N00809790EA0203102173
B1210244626366N00809789EA0203202175
B1210254626372N00809790EA0203202175
B1210264626379N00809794EA0203202174
B1210264626379N00809794EA0203202174
B1210274626386N00809801EA0203202174
B1210284626392N00809811EA0203502177
B1210294626395N00809821EA0203702180
B1210304626394N00809831EA0204002183
B1210314626392N00809838EA0204102184
B1210324626388N00809843EA0204202184
B1210334626384N00809846EA0204102183
B1210344626380N00809846EA0204002182
B1210354626377N00809844EA0203902181
B1210364626375N00809838EA0203902181
B1210374626372N00809831EA0204002182
B1210384626373N00809823EA0204202184
B1210394626373N00809816EA0204402187
B1210404626373N00809810EA0204602188
B1210414626375N00809806EA0204702189
B1210424626375N00809801EA0204802190
B1210434626376N00809797EA0205002192
B1210444626379N00809792EA0205102193
B1210454626383N00809788EA0205102193
B1210464626389N00809789EA0205102193
B1210474626396N00809792EA0205002192
B1210484626404N00809797EA0205102193
B1210494626410N00809804EA0205202194
B1210504626415N00809812EA0205202195
B1210514626418N00809822EA0205202194
B1210524626421N00809833EA0205202194
B1210534626422N00809843EA0205302195
B1210544626422N00809852EA0205402196
B1210554626421N00809860EA0205502197
B1210564626417N00809864EA0205502197
B1210574626410N00809862EA0205702199
B1210584626404N00809861EA0205902201
B1210594626400N00809858EA0206002203
B1211004626397N00809855EA0206002203
B1211014626396N00809850EA0206102203
B1211024626394N00809844EA0206102204
B1211034626393N00809838EA0206402206
B1211044626392N00809833EA0206602208
B1211054626392N00809828EA0206602209
B1211064626392N00809824EA0206502208
B1211074626392N00809822EA0206302206
B1211084626391N00809818EA0206202204
B1211094626391N00809812EA0206002203
B1211104626393N00809806EA0205902202
B1211114626397N00809801EA0205802200
B1211124626402N00809798EA0205602199
B1211134626408N00809797EA0205502197
B1211134626408N00809797EA0205302195
B1211144626414N00809798EA0205302195
B1211154626420N00809801EA0205102193
B1211164626426N00809806EA0204902192
B1211174626431N00809813EA0204702189
B1211184626433N00809823EA0204502187
B1211194626434N00809832EA0204302185
B1211204626431N00809841EA0204302185
B1211214626428N00809849EA0204502187
B1211224626423N00809857EA0204702189
B1211234626418N00809860EA0204902191
B1211244626413N00809863EA0204902192
B1211254626409N00809867EA0204902191
B1211264626406N00809870EA0204802191
B1211274626402N00809873EA0204802190
B1211284626397N00809873EA0204702189
B1211294626393N00809874EA0204602188
B1211304626389N00809870EA0204602188
B1211314626388N00809864EA0204702189
B1211324626386N00809858EA0204702189
B1211334626385N00809854EA0204602188
B1211344626383N00809850EA0204402187
B1211354626382N00809847EA0204202184
B1211364626383N00809842EA0203902181
B1211374626383N00809835EA0203702179
B1211384626386N00809828EA0203802181
B1211394626389N00809820EA0204002183
B1211404626392N00809814EA0204202184
B1211414626394N00809808EA0204302185
B1211424626396N00809804EA0204302186
B1211434626399N00809799EA0204402186
B1211444626402N00809793EA0204602188
B1211454626406N00809789EA0204902191
B1211454626406N00809789EA0205002192
B1211464626409N00809785EA0205002192
B1211474626412N00809782EA0205102193
B1211484626414N00809778EA0205102193
B1211494626415N00809773EA0205102193
B1211504626416N00809768EA0205202195
B1211514626416N00809761EA0205102194
B1211524626415N00809757EA0204902192
B1211534626413N00809753EA0204702189
B1211544626409N00809752EA0204602188
B1211554626404N00809754EA0204502188
B1211564626398N00809759EA0204702189
B1211574626394N00809767EA0204802190
B1211584626390N00809777EA0205002192
B1211594626388N00809786EA0205202194
B1212004626388N00809795EA0205202194
B1212014626388N00809802EA0205202194
B1212024626388N00809811EA0205102193
B1212034626390N00809820EA0205102193
B1212044626393N00809829EA0205202194
B1212054626397N00809836EA0205202194
B1212064626403N00809840EA0205302195
B1212074626409N00809841EA0205302196
B1212084626414N00809839EA0205602198
B1212094626417N00809835EA0205702199
B1212104626421N00809831EA0205802200
B1212114626424N00809826EA0205902201
B1212124626427N00809823EA0206102203
B1212134626432N00809818EA0206302205
B1212144626436N00809812EA0206502208
B1212154626438N00809807EA0206602208
B1212164626441N00809803EA0206502207
B1212174626445N00809799EA0206402206
B1212184626447N00809795EA0206202204
B1212194626448N00809791EA0206302205
B1212204626449N00809784EA0206402207
B1212214626450N00809778EA0206702209
B1212224626449N00809773EA0206802210
B1212234626448N00809770EA0206802210
B1212244626446N00809767EA0206802211
B1212254626444N00809763EA0206702209
B1212264626440N00809760EA0206702209
B1212274626436N00809758EA0206702210
B1212284626431N00809756EA0206802211
B1212294626427N00809754EA0206802210
B1212304626425N00809750EA0206602209
B1212314626426N00809744EA0206602208
B1212324626428N00809738EA0206602208
B1212334626431N00809733EA0206702209
B1212344626434N00809731EA0206602209
B1212354626440N00809731EA0206502207
B1212364626445N00809733EA0206402206
B1212374626450N00809737EA0206402207
B1212384626454N00809743EA0206502208
B1212394626457N00809750EA0206502207
B1212404626459N00809759EA0206602208
B1212414626459N00809769EA0206602208
B1212424626458N00809778EA0206502207
B1212434626455N00809786EA0206302205
B1212444626449N00809793EA0206202204
B1212454626443N00809798EA0206002202
B1212464626437N00809800EA0205902202
B1212474626432N00809801EA0205902201
B1212484626427N00809798EA0205902201
B1212494626425N00809794EA0205702199
B1212504626424N00809787EA0205702199
B1212514626424N00809780EA0205702199
B1212524626424N00809773EA0205602198
B1212534626426N00809768EA0205302195
B1212544626427N00809762EA0205002192
B1212554626429N00809756EA0204702189
B1212564626430N00809750EA0204402187
B1212574626433N00809742EA0204402187
B1212584626436N00809735EA0204602188
B1212594626440N00809730EA0204602189
B1213004626442N00809726EA0204502187
B1213014626445N00809722EA0204202184
B1213024626447N00809719EA0203802180
B1213034626448N00809714EA0203402177
B1213044626451N00809708EA0203202174
B1213054626453N00809702EA0203102174
B1213064626456N00809697EA0203002173
B1213074626459N00809693EA0202802171
B1213084626462N00809690EA0202502167
B1213094626465N00809687EA0202102163
B1213104626468N00809682EA0201802161
B1213114626471N00809677EA0201602158
B1213124626473N00809672EA0201402157
B1213134626476N00809665EA0201302155
B1213144626474N00809659EA0201102153
B1213154626472N00809653EA0201002152
B1213164626470N00809649EA0200802150
B1213174626466N00809645EA0200602148
B1213184626462N00809643EA0200402146
B1213194626458N00809642EA0200302145
B1213204626452N00809642EA0200202144
B1213214626448N00809643EA0200102143
B1213224626443N00809645EA0199902141
B1213234626440N00809649EA0199702139
B1213244626435N00809653EA0199502138
B1213254626431N00809659EA0199402137
B1213264626427N00809663EA0199502138
B1213274626422N00809668EA0199602139
B1213284626418N00809672EA0200002142
B1213294626415N00809676EA0200102143
B1213304626413N00809681EA0200102144
B1213314626411N00809686EA0200202144
B1213324626410N00809693EA0200102143
B1213334626408N00809700EA0200102143
B1213344626406N00809706EA0200102144
B1213354626403N00809711EA0200302145
B1213364626400N00809716EA0200302146
B1213374626397N00809720EA0200402146
B1213384626394N00809722EA0200402146
B1213394626392N00809724EA0200302146
B1213404626389N00809724EA0200302145
B1213414626387N00809722EA0200302145
B1213424626384N00809720EA0200302145
B1213424626384N00809720EA0200302145
B1213434626381N00809718EA0200302145
B1213444626378N00809715EA0200302146
B1213454626375N00809712EA0200202145
B1213464626374N00809710EA0200102144
B1213474626370N00809710EA0200102143
B1213484626366N00809711EA0200102143
B1213494626362N00809713EA0200102144
B1213504626358N00809716EA0200202144
B1213514626355N00809719EA0200202144
B1213524626352N00809724EA0200302145
B1213534626349N00809729EA0200302145
B1213544626346N00809735EA0200402146
B1213554626344N00809743EA0200602148
B1213564626342N00809751EA0200802150
B1213574626341N00809759EA0200902152
B1213584626341N00809767EA0201002152
B1213594626339N00809774EA0201102153
B1214004626337N00809780EA0201102153
B1214014626334N00809783EA0201102153
B1214024626331N00809782EA0201102153
B1214034626330N00809777EA0201202155
B1214044626330N00809770EA0201402156
B1214054626331N00809763EA0201502157
B1214064626334N00809758EA0201502158
B1214074626338N00809754EA0201602158
B1214084626343N00809751EA0201602158
B1214094626350N00809750EA0201502157
B1214104626358N00809752EA0201502157
B1214114626365N00809757EA0201602158
B1214124626371N00809765EA0201702159
B1214134626375N00809775EA0201702160
B1214144626378N00809785EA0201902161
B1214154626377N00809795EA0202002163
B1214164626375N00809804EA0202302165
B1214174626371N00809811EA0202502167
B1214184626367N00809816EA0202702169
B1214194626363N00809819EA0202702170
B1214204626361N00809819EA0202802170
B1214214626358N00809816EA0202802170
B1214224626356N00809813EA0203202174
B1214234626355N00809809EA0203502178
B1214244626355N00809805EA0203702179
B1214254626354N00809802EA0203702180
B1214264626356N00809798EA0203702179
B1214274626357N00809793EA0203702179
B1214284626362N00809788EA0203602178
B1214294626367N00809783EA0203602178
B1214304626372N00809783EA0203702179
B1214314626379N00809785EA0203702179
B1214324626386N00809791EA0203702179
B1214334626391N00809798EA0203602178
B1214344626396N00809806EA0203602178
B1214354626399N00809815EA0203502178
B1214364626401N00809825EA0203502177
B1214364626401N00809825EA0203602178
B1214374626400N00809835EA0203602178
B1214384626397N00809841EA0203902181
B1214394626394N00809846EA0204302185
B1214404626390N00809848EA0204602188
B1214414626387N00809851EA0204802191
B1214424626385N00809853EA0205002192
B1214434626382N00809857EA0205002192
B1214444626379N00809862EA0204902192
B1214454626375N00809865EA0205002192
B1214464626371N00809865EA0205002193
B1214474626369N00809863EA0205102193
B1214484626368N00809859EA0205102194
B1214494626368N00809855EA0205202194
B1214504626368N00809851EA0205202194
B1214514626368N00809847EA0205102193
B1214524626368N00809843EA0205002192
B1214534626368N00809838EA0205102193
B1214544626367N00809832EA0205202194
B1214554626368N00809825EA0205302196
B1214564626366N00809818EA0205602198
B1214574626366N00809813EA0205702199
B1214584626366N00809808EA0205702199
B1214594626367N00809803EA0205702199
B1215004626368N00809797EA0205702199
B1215014626371N00809791EA0205602198
B1215024626374N00809786EA0205502198
B1215034626379N00809782EA0205402197
B1215044626386N00809781EA0205502197
B1215054626393N00809783EA0205602198
B1215064626399N00809786EA0205402197
B1215074626406N00809792EA0205202194
B1215084626412N00809801EA0205002192
B1215084626412N00809801EA0205002192
B1215094626415N00809812EA0205002192
B1215104626415N00809822EA0205102193
B1215114626413N00809831EA0205102194
B1215124626409N00809838EA0205202195
B1215134626405N00809844EA0205402196
B1215144626402N00809851EA0205602198
B1215154626399N00809857EA0205602198
B1215164626394N00809862EA0205602199
B1215174626391N00809867EA0205702199
B1215184626386N00809870EA0205802200
B1215194626382N00809872EA0205902201
B1215204626378N00809872EA0206002202
B1215214626375N00809871EA0205902201
B1215214626375N00809871EA0205802200
B1215224626372N00809872EA0205802200
B1215234626369N00809872EA0205802200
B1215244626366N00809873EA0205802200
B1215254626363N00809872EA0205902201
B1215264626361N00809871EA0205902201
B1215274626358N00809870EA0205802200
B1215284626356N00809869EA0205602198
B1215294626354N00809870EA0205402196
B1215304626350N00809869EA0205202194
B1215314626346N00809870EA0205102193
B1215324626341N00809872EA0204902191
B1215334626337N00809874EA0204902191
B1215344626333N00809876EA0204902191
B1215354626330N00809878EA0204802190
B1215354626330N00809878EA0204702189
B1215364626326N00809879EA0204702189
B1215374626323N00809881EA0204602188
B1215384626319N00809883EA0204502187
B1215394626315N00809885EA0204502187
B1215404626312N00809886EA0204602188
B1215414626308N00809886EA0204602189
B1215424626304N00809886EA0204602189
B1215434626301N00809886EA0204502188
B1215444626297N00809886EA0204402187
B1215454626294N00809887EA0204302185
B1215464626291N00809888EA0204202184
B1215474626288N00809888EA0204002182
B1215484626284N00809890EA0203702179
B1215494626280N00809891EA0203402177
B1215504626276N00809893EA0203202174
B1215514626272N00809893EA0203002173
B1215524626269N00809893EA0202802171
B1215534626266N00809889EA0202602169
B1215544626266N00809882EA0202502167
B1215554626270N00809873EA0202602168
B1215564626273N00809867EA0202602168
B1215574626277N00809862EA0202402167
B1215584626281N00809858EA0202402166
B1215594626285N00809854EA0202202164
B1216004626289N00809849EA0202002162
B1216014626293N00809845EA0201802161
B1216024626299N00809839EA0201702159
B1216034626304N00809835EA0201602159
B1216044626309N00809831EA0201502157
B1216054626313N00809828EA0201302155
B1216064626318N00809825EA0201002152
B1216074626324N00809821EA0200802150
B1216084626329N00809817EA0200602148
B1216094626334N00809811EA0200502147
B1216104626338N00809805EA0200402147
B1216114626342N00809800EA0200402146
B1216124626346N00809796EA0200202144
B1216134626349N00809791EA0200002142
B1216144626351N00809785EA0199802140
B1216154626354N00809779EA0199702139
B1216164626357N00809773EA0199702139
B1216174626361N00809767EA0199602138
B1216184626365N00809761EA0199502138
B1216184626365N00809761EA0199402136
B1216194626369N00809756EA0199402136
B1216204626372N00809750EA0199302135
B1216214626375N00809744EA0199202135
B1216224626377N00809739EA0199202134
B1216234626381N00809734EA0199302135
B1216244626385N00809729EA0199402136
B1216254626388N00809724EA0199402136
B1216264626388N00809719EA0199402136
B1216274626387N00809714EA0199302135
B1216284626387N00809708EA0199102133
B1216294626384N00809702EA0198902131
B1216304626377N00809696EA0198802130
B1216314626372N00809693EA0198702129
B1216324626369N00809690EA0198502128
B1216334626365N00809688EA0198502127
B1216344626361N00809688EA0198402126
B1216354626356N00809687EA0198302125
B1216364626352N00809687EA0198202125
B1216374626347N00809688EA0198202124
B1216384626342N00809688EA0198102123
B1216394626337N00809689EA0198002122
B1216404626333N00809689EA0197902121
B1216414626328N00809690EA0197802121
B1216424626323N00809691EA0197702120
B1216434626319N00809695EA0197702119
B1216444626315N00809696EA0197502117
B1216454626311N00809699EA0197302115
B1216464626308N00809702EA0197002112
B1216474626303N00809707EA0196702110
B1216484626300N00809714EA0196502107
B1216494626297N00809721EA0196402106
B1216504626294N00809729EA0196302105
B1216514626291N00809737EA0196102104
B1216524626289N00809743EA0196002102
B1216534626287N00809750EA0195802100
B1216534626287N00809750EA0195502097
B1216544626284N00809758EA0195502097
B1216554626281N00809765EA0195302096
B1216564626278N00809773EA0195102094
B1216574626276N00809780EA0195002092
B1216584626273N00809788EA0194802090
B1216594626271N00809796EA0194602088
B1217004626268N00809804EA0194502087
B1217014626266N00809812EA0194402086
B1217024626263N00809820EA0194302085
B1217034626261N00809828EA0194202084
B1217044626259N00809836EA0194102083
B1217054626257N00809844EA0193902081
B1217064626255N00809852EA0193702079
B1217074626253N00809860EA0193602078
B1217084626250N00809869EA0193402076
B1217094626248N00809877EA0193302075
B1217094626248N00809877EA0193202074
B1217104626245N00809885EA0193202074
B1217114626242N00809892EA0193102073
B1217114626242N00809892EA0193002072
B1217124626238N00809898EA0193002072
B1217134626234N00809903EA0192902071
B1217144626231N00809909EA0192802070
B1217154626227N00809914EA0192802070
B1217164626223N00809919EA0192902071
B1217174626218N00809923EA0193102073
B1217174626218N00809923EA0193202074
B1217184626213N00809928EA0193202074
B1217194626209N00809932EA0193302075
B1217204626205N00809935EA0193102074
B1217214626203N00809941EA0192802071
B1217224626200N00809946EA0192502067
B1217234626197N00809951EA0192102063
B1217244626193N00809954EA0191802061
B1217254626188N00809955EA0191702059
B1217254626188N00809955EA0191602058
B1217264626184N00809956EA0191602058
B1217274626180N00809955EA0191402056
B1217284626176N00809953EA0191202054
B1217294626172N00809952EA0190802051
B1217294626172N00809952EA0190502048
B1217304626169N00809950EA0190502048
B1217314626165N00809948EA0190202045
B1217324626160N00809946EA0190102044
B1217334626155N00809942EA0190102043
B1217344626151N00809939EA0190002042
B1217354626147N00809936EA0189902042
B1217364626143N00809932EA0189802041
B1217374626139N00809930EA0189702040
B1217384626135N00809927EA0189602039
B1217394626131N00809924EA0189502037
B1217404626128N00809920EA0189302035
B1217414626123N00809918EA0189202034
B1217424626117N00809916EA0189202034
B1217434626111N00809914EA0189402036
B1217444626106N00809911EA0189602039
B1217454626101N00809910EA0189902041
B1217464626099N00809909EA0189902042
B1217474626095N00809909EA0189902041
B1217484626092N00809909EA0189902041
B1217494626088N00809910EA0189902041
B1217494626088N00809910EA0190002042
B1217504626084N00809911EA0190002042
B1217514626079N00809912EA0190102044
B1217524626076N00809913EA0190202044
B1217534626073N00809914EA0190202044
B1217544626070N00809916EA0190102043
B1217554626066N00809916EA0190102043
B1217564626063N00809915EA0189902042
B1217574626062N00809910EA0190002042
B1217584626062N00809903EA0190002042
B1217594626063N00809897EA0190102043
B1217594626063N00809897EA0190302045
B1218004626066N00809891EA0190302045
B1218014626070N00809886EA0190402046
B1218024626075N00809883EA0190502047
B1218034626081N00809881EA0190602048
B1218044626087N00809882EA0190702050
B1218054626093N00809885EA0190902051
B1218064626100N00809890EA0191002052
B1218074626105N00809896EA0191002053
B1218084626110N00809902EA0191102053
B1218094626113N00809910EA0191202054
B1218104626115N00809918EA0191102053
B1218114626115N00809927EA0191002053
B1218124626112N00809935EA0191002052
B1218134626108N00809941EA0191002052
B1218144626104N00809945EA0191102053
B1218154626099N00809946EA0191202054
B1218164626095N00809946EA0191202054
B1218174626092N00809945EA0191102053
B1218184626088N00809943EA0191002052
B1218194626085N00809940EA0190902051
B1218204626082N00809935EA0190902051
B1218214626081N00809930EA0190902052
B1218224626079N00809924EA0191102053
B1218234626079N00809919EA0191102053
B1218244626079N00809914EA0191102053
B1218254626078N00809908EA0191102053
B1218264626078N00809902EA0191302056
B1218274626077N00809895EA0191502057
B1218284626076N00809889EA0191502057
B1218294626076N00809884EA0191702059
B1218304626075N00809879EA0191602058
B1218314626075N00809874EA0191502057
B1218324626075N00809868EA0191202055
B1218334626075N00809861EA0191002052
B1218344626079N00809853EA0190802050
B1218354626080N00809845EA0190702050
B1218364626082N00809837EA0190602048
B1218374626084N00809831EA0190402046
B1218384626083N00809825EA0190202044
B1218394626081N00809820EA0189902041
B1218404626078N00809816EA0189702039
B1218414626074N00809812EA0189502037
B1218424626070N00809810EA0189402036
B1218434626067N00809808EA0189402036
B1218444626063N00809806EA0189202035
B1218454626059N00809806EA0189002033
B1218464626055N00809805EA0188802030
B1218474626051N00809806EA0188602029
B1218484626046N00809806EA0188502028
B1218494626042N00809805EA0188402027
B1218504626038N00809804EA0188302025
B1218514626035N00809803EA0188102023
B1218524626031N00809802EA0187902021
B1218534626027N00809801EA0187702019
B1218544626023N00809801EA0187402017
B1218554626018N00809800EA0187302015
B1218564626013N00809801EA0187302015
B1218574626009N00809801EA0187202014
B1218584626004N00809801EA0187002012
B1218594626001N00809802EA0186802010
B1219004625997N00809806EA0186602008
B1219014625992N00809808EA0186302006
B1219024625987N00809811EA0186202004
B1219034625982N00809812EA0186102003
B1219044625977N00809812EA0186002002
B1219054625972N00809813EA0185902001
B1219064625968N00809813EA0185702000
B1219074625964N00809812EA0185401996
B1219084625960N00809813EA0185301995
B1219094625956N00809813EA0185001993
B1219104625951N00809813EA0185001992
B1219114625945N00809812EA0185001992
B1219124625940N00809810EA0184901992
B1219134625936N00809808EA0184901991
B1219144625932N00809804EA0184801990
B1219154625928N00809801EA0184801990
B1219164625924N00809798EA0184701989
B1219174625919N00809795EA0184701989
B1219184625914N00809792EA0184701989
B1219194625909N00809790EA0184701989
B1219204625903N00809788EA0184801990
B1219214625897N00809786EA0184901991
B1219224625891N00809786EA0185101993
B1219234625886N00809784EA0185201995
B1219244625880N00809784EA0185201994
B1219254625874N00809784EA0185101993
B1219264625868N00809784EA0184801991
B1219274625862N00809785EA0184601989
B1219284625857N00809784EA0184501987
B1219294625854N00809784EA0184301986
B1219304625851N00809783EA0184201984
B1219314625848N00809782EA0184001983
B1219324625845N00809782EA0183901981
B1219334625841N00809781EA0183601978
B1219344625838N00809781EA0183301976
B1219354625833N00809780EA0183201974
B1219364625829N00809780EA0183101973
B1219374625824N00809779EA0183001972
B1219384625819N00809778EA0182901971
B1219394625815N00809776EA0182701969
B1219404625812N00809775EA0182501968
B1219414625808N00809773EA0182401966
B1219424625804N00809771EA0182201964
B1219434625800N00809769EA0182101963
B1219444625797N00809767EA0181901961
B1219454625794N00809764EA0181601958
B1219464625791N00809761EA0181301955
B1219474625788N00809759EA0181001952
B1219484625783N00809755EA0180901952
B1219494625778N00809750EA0181001953
B1219504625775N00809749EA0181101953
B1219514625773N00809746EA0181101953
B1219524625769N00809743EA0181001952
B1219534625766N00809741EA0180901951
B1219544625762N00809740EA0180801951
B1219554625757N00809739EA0180801951
B1219564625753N00809737EA0180801950
B1219574625749N00809735EA0180701949
B1219584625746N00809733EA0180501947
B1219594625743N00809730EA0180301945
B1220004625740N00809727EA0180101943
B1220014625736N00809724EA0179901942
B1220014625736N00809724EA0179901941
B1220024625731N00809720EA0179901941
B1220034625727N00809717EA0179901941
B1220044625722N00809714EA0179801940
B1220054625719N00809711EA0179601939
B1220064625715N00809709EA0179501937
B1220074625712N00809707EA0179301935
B1220084625708N00809705EA0179101933
B1220094625703N00809703EA0179001932
B1220104625697N00809701EA0178901932
B1220114625692N00809698EA0178901931
B1220124625687N00809696EA0178901931
B1220134625683N00809693EA0178801930
B1220144625679N00809691EA0178701929
B1220154625674N00809690EA0178501928
B1220164625669N00809688EA0178401926
B1220174625665N00809686EA0178201924
B1220184625662N00809683EA0178001922
B1220194625658N00809680EA0177801920
B1220204625654N00809677EA0177601918
B1220214625650N00809675EA0177301915
B1220224625647N00809673EA0177001912
B1220234625643N00809671EA0176601909
B1220244625640N00809668EA0176401906
B1220254625636N00809666EA0176001903
B1220264625632N00809663EA0175801900
B1220274625629N00809660EA0175501897
B1220284625625N00809657EA0175101894
B1220294625623N00809654EA0174701890
B1220304625619N00809652EA0174301886
B1220314625615N00809649EA0174001882
B1220324625611N00809646EA0173701879
B1220334625605N00809643EA0173501877
B1220344625601N00809641EA0173401876
B1220354625597N00809638EA0173201874
B1220364625593N00809635EA0172901871
B1220374625589N00809633EA0172601868
B1220384625585N00809630EA0172301866
B1220394625581N00809628EA0172201864
B1220404625577N00809625EA0172001863
B1220414625573N00809623EA0171801860
B1220424625569N00809620EA0171401857
B1220434625564N00809618EA0171301855
B1220444625560N00809615EA0171401856
B1220454625556N00809610EA0171501857
B1220464625551N00809606EA0171601859
B1220474625546N00809603EA0171801860
B1220484625542N00809599EA0171901861
B1220494625538N00809600EA0171901861
B1220504625535N00809601EA0171801861
B1220514625533N00809609EA0171801860
B1220524625528N00809611EA0171801860
B1220534625524N00809612EA0172001862
B1220544625520N00809612EA0172101863
B1220554625516N00809612EA0172201864
B1220564625513N00809613EA0172301865
B1220574625509N00809612EA0172201864
B1220584625506N00809611EA0172201864
B1220594625504N00809607EA0172201864
B1221004625504N00809602EA0172301865
B1221014625506N00809595EA0172401866
B1221024625509N00809588EA0172401867
B1221024625509N00809588EA0172501867
B1221034625514N00809584EA0172501867
B1221044625519N00809582EA0172501867
B1221054625525N00809582EA0172601869
B1221064625532N00809584EA0172701870
B1221074625538N00809590EA0172801870
B1221084625544N00809598EA0172801870
B1221094625549N00809607EA0172801871
B1221104625553N00809616EA0172801871
B1221114625555N00809625EA0172801870
B1221124625556N00809636EA0172701869
B1221134625554N00809645EA0172701869
B1221144625551N00809654EA0172701869
B1221154625547N00809661EA0172801870
B1221164625543N00809667EA0172801870
B1221174625539N00809672EA0172701869
B1221184625536N00809676EA0172601868
B1221194625531N00809681EA0172501867
B1221204625526N00809684EA0172501867
B1221204625526N00809684EA0172601868
B1221214625521N00809685EA0172601869
B1221224625516N00809685EA0172801870
B1221234625512N00809684EA0172901871
B1221244625508N00809683EA0173001872
B1221254625504N00809681EA0173001872
B1221264625499N00809680EA0173101873
B1221274625495N00809678EA0173301876
B1221284625490N00809676EA0173601879
B1221294625486N00809673EA0173701880
B1221304625483N00809669EA0173701880
B1221314625482N00809664EA0173701879
B1221324625482N00809658EA0173601879
B1221334625482N00809651EA0173801880
B1221344625484N00809645EA0174101883
B1221354625487N00809639EA0174301885
B1221364625492N00809637EA0174401886
B1221374625498N00809636EA0174501887
B1221384625503N00809636EA0174501887
B1221394625509N00809636EA0174601888
B1221404625516N00809638EA0174601888
B1221414625522N00809642EA0174501887
B1221424625527N00809650EA0174601889
B1221434625530N00809660EA0174801890
B1221444625531N00809670EA0174901891
B1221454625531N00809679EA0175101893
B1221464625529N00809689EA0175201895
B1221474625526N00809696EA0175301896
B1221484625523N00809701EA0175301896
B1221494625518N00809705EA0175401896
B1221504625514N00809706EA0175401897
B1221514625509N00809706EA0175401897
B1221524625504N00809703EA0175501897
B1221534625500N00809699EA0175601899
B1221544625497N00809694EA0175701900
B1221554625495N00809688EA0175901902
B1221564625495N00809681EA0176201904
B1221574625497N00809675EA0176301905
B1221574625497N00809675EA0176401906
B1221584625499N00809670EA0176401906
B1221594625502N00809668EA0176401906
B1222004625507N00809666EA0176501907
B1222014625513N00809666EA0176601908
B1222024625518N00809669EA0176701909
B1222034625524N00809674EA0176801910
B1222044625530N00809681EA0176901911
B1222054625534N00809689EA0177101913
B1222064625536N00809699EA0177101914
B1222074625537N00809708EA0177001913
B1222074625537N00809708EA0177101913
B1222084625535N00809717EA0177101913
B1222094625531N00809725EA0177101914
B1222104625526N00809731EA0177201914
B1222114625521N00809735EA0177201915
B1222124625516N00809737EA0177201915
B1222134625512N00809738EA0177201914
B1222144625506N00809736EA0177201915
B1222154625500N00809734EA0177301915
B1222164625496N00809731EA0177501917
B1222174625492N00809726EA0177701919
B1222184625489N00809722EA0178101923
B1222194625486N00809716EA0178401927
B1222204625484N00809710EA0178701930
B1222214625484N00809703EA0178901931
B1222224625485N00809697EA0179101933
B1222234625488N00809692EA0179301935
B1222244625492N00809690EA0179301935
B1222254625498N00809691EA0179201935
B1222264625504N00809696EA0179301936
B1222274625505N00809705EA0179401937
B1222284625506N00809715EA0179701940
B1222294625505N00809724EA0180201944
B1222304625503N00809732EA0180601948
B1222314625500N00809737EA0180901951
B1222324625496N00809742EA0181001952
B1222334625491N00809744EA0181001953
B1222344625485N00809745EA0181201954
B1222354625480N00809744EA0181501957
B1222364625474N00809742EA0181901961
B1222374625467N00809741EA0182101963
B1222384625462N00809740EA0182201964
B1222394625458N00809738EA0182301965
B1222404625454N00809734EA0182301965
B1222414625449N00809730EA0182201964
B1222424625444N00809726EA0182201964
B1222434625440N00809723EA0182401966
B1222444625434N00809720EA0182501967
B1222454625429N00809718EA0182701969
B1222464625425N00809714EA0182701970
B1222474625421N00809710EA0182901971
B1222484625418N00809705EA0183001972
B1222494625417N00809698EA0183001973
B1222504625416N00809691EA0183101973
B1222514625417N00809686EA0182901972
B1222524625419N00809681EA0182801970
B1222534625422N00809677EA0182701969
B1222544625425N00809673EA0182601968
B1222554625430N00809671EA0182501967
B1222564625436N00809670EA0182301965
B1222574625442N00809670EA0182101963
B1222584625448N00809674EA0182001962
B1222594625453N00809681EA0181901961
B1223004625456N00809689EA0181801960
B1223014625459N00809698EA0181801961
B1223024625459N00809707EA0181901961
B1223034625458N00809715EA0181901962
B1223044625456N00809722EA0182001962
B1223054625453N00809727EA0181901961
B1223064625446N00809730EA0181901962
B1223074625440N00809730EA0182001962
B1223084625435N00809727EA0182101964
B1223094625432N00809724EA0182101964
B1223104625430N00809720EA0182001962
B1223114625428N00809716EA0181901961
B1223124625425N00809712EA0181601959
B1223124625425N00809712EA0181501957
B1223134625422N00809707EA0181501957
B1223144625419N00809702EA0181401957
B1223154625416N00809697EA0181401957
B1223164625414N00809692EA0181301956
B1223174625410N00809690EA0181101953
B1223184625405N00809688EA0180901951
B1223194625400N00809686EA0180701949
B1223204625396N00809683EA0180601948
B1223214625392N00809680EA0180501947
B1223224625389N00809677EA0180301946
B1223234625385N00809674EA0180201944
B1223244625381N00809671EA0179901942
B1223254625377N00809668EA0179701939
B1223264625372N00809665EA0179601938
B1223274625368N00809662EA0179401936
B1223284625364N00809659EA0179401936
B1223294625359N00809656EA0179201934
B1223304625356N00809653EA0179001932
B1223314625351N00809649EA0178901931
B1223324625347N00809645EA0178801930
B1223334625343N00809641EA0178601929
B1223344625338N00809638EA0178501927
B1223354625334N00809634EA0178401926
B1223364625331N00809630EA0178201924
B1223374625326N00809626EA0178001922
B1223384625322N00809621EA0177901921
B1223394625318N00809617EA0177801920
B1223404625313N00809612EA0177601918
B1223404625313N00809612EA0177501917
B1223414625309N00809608EA0177501917
B1223424625305N00809604EA0177401917
B1223434625300N00809599EA0177301916
B1223444625295N00809595EA0177201914
B1223454625291N00809591EA0177201914
B1223464625287N00809586EA0177101913
B1223474625283N00809581EA0177001912
B1223484625279N00809576EA0177001912
B1223494625274N00809571EA0177001912
B1223504625269N00809567EA0177001913
B1223514625264N00809564EA0177001913
B1223524625258N00809561EA0177101913
B1223534625253N00809559EA0177101913
B1223544625247N00809556EA0177101913
B1223554625242N00809553EA0177101914
B1223564625237N00809550EA0177201914
B1223574625232N00809546EA0177101914
B1223584625227N00809542EA0177101913
B1223594625222N00809539EA0177001913
B1224004625216N00809535EA0177101914
B1224014625210N00809531EA0177201914
B1224024625205N00809527EA0177201914
B1224034625200N00809524EA0177201915
B1224044625195N00809521EA0177101914
B1224054625191N00809518EA0177001912
B1224064625187N00809514EA0176801911
B1224074625182N00809511EA0176701909
B1224084625177N00809508EA0176501907
B1224094625172N00809505EA0176301906
B1224104625169N00809501EA0176201904
B1224114625164N00809497EA0176001902
B1224124625160N00809493EA0175801900
B1224134625155N00809490EA0175701899
B1224144625151N00809486EA0175501897
B1224154625147N00809482EA0175301895
B1224164625143N00809478EA0175001893
B1224174625140N00809472EA0174801890
B1224184625137N00809466EA0174601888
B1224194625135N00809459EA0174401887
B1224204625133N00809452EA0174201885
B1224214625132N00809444EA0174101883
B1224224625131N00809437EA0173901881
B1224234625130N00809430EA0173701879
B1224244625129N00809422EA0173401876
B1224254625129N00809413EA0173201874
B1224264625129N00809405EA0173001872
B1224274625129N00809396EA0172901871
B1224284625129N00809387EA0172701869
B1224294625129N00809379EA0172501867
B1224304625129N00809371EA0172301865
B1224314625129N00809362EA0172101863
B1224324625129N00809354EA0171901861
B1224334625130N00809345EA0171701859
B1224344625130N00809337EA0171501857
B1224354625130N00809329EA0171301855
B1224364625130N00809320EA0171101853
B1224374625129N00809312EA0170901851
B1224384625129N00809303EA0170801850
B1224394625128N00809294EA0170701849
B1224404625128N00809286EA0170601848
B1224414625127N00809278EA0170501847
B1224424625126N00809270EA0170301845
B1224434625126N00809262EA0170101843
B1224444625126N00809255EA0169901841
B1224454625126N00809248EA0169701840
B1224464625127N00809240EA0169501837
B1224474625127N00809232EA0169301836
B1224484625128N00809224EA0169101834
B1224494625128N00809215EA0169001832
B1224504625128N00809207EA0168901831
B1224514625129N00809199EA0168901831
B1224524625129N00809191EA0169001832
B1224534625130N00809184EA0169101833
B1224544625131N00809176EA0169101833
B1224554625132N00809170EA0169001832
B1224564625135N00809165EA0168801830
B1224574625138N00809160EA0168601828
B1224584625143N00809155EA0168501827
B1224594625147N00809148EA0168501827
B1225004625151N00809141EA0168601829
B1225014625154N00809136EA0168701829
B1225024625157N00809132EA0168401827
B1225034625159N00809129EA0168101823
B1225044625160N00809123EA0167801821
B1225054625161N00809116EA0167801821
B1225064625161N00809109EA0168101823
B1225074625162N00809102EA0168201825
B1225084625162N00809097EA0168201824
B1225094625163N00809094EA0168001822
B1225104625164N00809089EA0167701819
B1225114625164N00809084EA0167401817
B1225124625164N00809076EA0167601819
B1225134625163N00809067EA0168001823
B1225144625162N00809058EA0168401827
B1225154625161N00809052EA0168701829
B1225164625161N00809047EA0168701829
B1225174625161N00809044EA0168601828
B1225184625161N00809039EA0168501827
B1225194625161N00809032EA0168501827
B1225204625160N00809024EA0168701829
B1225214625160N00809017EA0169001832
B1225224625160N00809010EA0169101833
B1225234625159N00809004EA0169001832
B1225244625159N00808999EA0169001832
B1225254625158N00808993EA0169101833
B1225264625156N00808986EA0169301835
B1225274625155N00808978EA0169401837
B1225284625154N00808972EA0169501838
B1225294625153N00808967EA0169501838
B1225304625153N00808962EA0169501837
B1225314625151N00808957EA0169301836
B1225324625149N00808952EA0169301835
B1225334625147N00808947EA0169401836
B1225344625145N00808941EA0169401836
B1225354625143N00808936EA0169401836
B1225364625141N00808930EA0169301836
B1225374625139N00808925EA0169301835
B1225384625136N00808919EA0169101833
B1225394625134N00808913EA0169001832
B1225404625131N00808907EA0168901832
B1225414625129N00808901EA0168801831
B1225424625126N00808895EA0168801830
B1225434625124N00808888EA0168801830
B1225444625121N00808882EA0168801830
B1225454625119N00808876EA0168701830
B1225464625117N00808870EA0168701829
B1225474625114N00808865EA0168601828
B1225484625111N00808861EA0168501827
B1225494625107N00808857EA0168501828
B1225504625104N00808853EA0168601828
B1225514625101N00808848EA0168601828
B1225524625100N00808842EA0168501827
B1225534625099N00808836EA0168501827
B1225544625097N00808829EA0168401826
B1225554625096N00808823EA0168201825
B1225564625094N00808816EA0168101823
B1225574625092N00808810EA0168001822
B1225584625091N00808804EA0167901821
B1225594625090N00808797EA0167801821
B1226004625089N00808790EA0168001822
B1226014625090N00808783EA0168001822
B1226024625090N00808774EA0167901822
B1226034625091N00808767EA0168001822
B1226044625091N00808760EA0168001822
B1226054625090N00808753EA0167901821
B1226064625089N00808748EA0167801820
B1226074625089N00808743EA0167701819
B1226084625087N00808739EA0167601818
B1226094625083N00808736EA0167401816
B1226104625079N00808734EA0167301815
B1226114625076N00808732EA0167101813
B1226124625072N00808730EA0167001813
B1226134625068N00808726EA0166901812
B1226144625065N00808722EA0166801810
B1226154625062N00808717EA0166701810
B1226164625059N00808713EA0166601808
B1226174625056N00808708EA0166401807
B1226184625053N00808705EA0166201805
B1226194625049N00808702EA0166001803
B1226204625046N00808698EA0165901801
B1226214625042N00808694EA0165801800
B1226224625039N00808690EA0165701799
B1226234625035N00808687EA0165501798
B1226244625031N00808683EA0165301796
B1226254625028N00808679EA0165101793
B1226264625025N00808676EA0164801791
B1226274625021N00808672EA0164701790
B1226284625017N00808669EA0164701790
B1226294625013N00808666EA0164601789
B1226304625011N00808664EA0164501787
B1226314625008N00808661EA0164201784
B1226324625005N00808658EA0164001782
B1226334625002N00808655EA0163801780
B1226344624998N00808652EA0163601778
B1226354624995N00808649EA0163401776
B1226364624991N00808646EA0163201774
B1226374624988N00808643EA0162901772
B1226384624985N00808640EA0162601769
B1226394624982N00808637EA0162401767
B1226404624978N00808634EA0162301765
B1226414624975N00808630EA0162201764
B1226424624972N00808627EA0162001762
B1226434624970N00808624EA0161801760
B1226444624967N00808621EA0161501758
B1226454624964N00808618EA0161401756
B1226464624961N00808615EA0161401757
B1226474624958N00808610EA0161601759
B1226484624956N00808606EA0161901761
B1226494624954N00808602EA0162101763
B1226504624953N00808599EA0162201764
B1226514624951N00808596EA0162101764
B1226524624949N00808594EA0162101763
B1226534624946N00808592EA0162201764
B1226544624943N00808589EA0162301765
B1226554624939N00808586EA0162501767
B1226564624936N00808582EA0162601768
B1226574624933N00808579EA0162601768
B1226584624930N00808575EA0162601768
B1226594624927N00808571EA0162701769
B1227004624924N00808567EA0163001772
B1227014624920N00808563EA0163201774
B1227024624917N00808561EA0163401776
B1227034624916N00808559EA0163401776
B1227044624914N00808556EA0163301775
B1227054624912N00808553EA0163201774
B1227064624909N00808550EA0163201774
B1227074624906N00808546EA0163301775
B1227084624903N00808543EA0163201774
B1227094624901N00808538EA0163001772
B1227104624899N00808534EA0162701769
B1227114624898N00808529EA0162401766
B1227124624895N00808525EA0162101763
B1227134624892N00808521EA0161801761
B1227144624888N00808516EA0161601759
B1227154624885N00808513EA0161401757
B1227164624882N00808510EA0161201754
B1227174624878N00808507EA0160901751
B1227184624875N00808504EA0160501748
B1227194624871N00808501EA0160201745
B1227204624867N00808498EA0160001742
B1227214624863N00808494EA0159801740
B1227224624859N00808492EA0159501737
B1227234624856N00808489EA0159201734
B1227234624856N00808489EA0158901731
B1227244624852N00808486EA0158901731
B1227254624848N00808483EA0158601728
B1227264624844N00808479EA0158401726
B1227274624840N00808476EA0158101724
B1227284624836N00808472EA0157901721
B1227294624833N00808468EA0157701719
B1227304624830N00808464EA0157401716
B1227314624826N00808460EA0157201714
B1227324624822N00808455EA0157101713
B1227334624818N00808451EA0157001712
B1227344624815N00808448EA0156901711
B1227354624812N00808446EA0156801710
B1227364624810N00808444EA0156601709
B1227374624807N00808442EA0156401707
B1227384624804N00808438EA0156201705
B1227394624802N00808432EA0156101703
B1227404624802N00808425EA0155901701
B1227414624806N00808418EA0155701699
B1227424624810N00808411EA0155601698
B1227434624816N00808407EA0155501698
B1227444624823N00808407EA0155401696
B1227454624829N00808408EA0155201694
B1227464624836N00808411EA0155001692
B1227474624841N00808414EA0154901691
B1227484624846N00808419EA0154701689
B1227494624850N00808425EA0154501687
B1227504624854N00808433EA0154301685
B1227514624855N00808442EA0154101684
B1227524624854N00808450EA0154001682
B1227534624851N00808457EA0153801681
B1227544624846N00808461EA0153701679
B1227554624842N00808461EA0153601678
B1227564624837N00808460EA0153401676
B1227574624834N00808457EA0153201674
B1227584624830N00808453EA0153001672
B1227594624830N00808446EA0152801671
B1228004624829N00808439EA0152601668
B1228014624832N00808431EA0152401667
B1228024624834N00808423EA0152301665
B1228034624839N00808416EA0152101664
B1228044624845N00808412EA0152001663
B1228054624852N00808409EA0151901662
B1228064624858N00808409EA0151801660
B1228074624865N00808411EA0151601659
B1228084624871N00808415EA0151501657
B1228094624876N00808421EA0151301656
B1228104624880N00808428EA0151201655
B1228114624883N00808436EA0151101653
B1228124624884N00808444EA0150901651
B1228134624883N00808452EA0150701649
B1228144624881N00808459EA0150501648
B1228154624878N00808466EA0150301645
B1228164624874N00808471EA0150101643
B1228174624869N00808474EA0149901641
B1228184624864N00808472EA0149801640
B1228194624859N00808470EA0149601639
B1228204624856N00808466EA0149401636
B1228214624854N00808460EA0149201634
B1228224624852N00808453EA0148901631
B1228234624855N00808445EA0148701629
B1228244624858N00808437EA0148501627
B1228254624862N00808429EA0148301626
B1228264624866N00808422EA0148201624
B1228274624874N00808419EA0148001623
B1228284624881N00808418EA0147901621
B1228294624888N00808420EA0147701619
B1228304624895N00808424EA0147401617
B1228314624900N00808429EA0147201614
B1228324624905N00808436EA0147001613
B1228334624908N00808445EA0146801611
B1228344624908N00808454EA0146701609
B1228354624907N00808462EA0146501607
B1228364624905N00808469EA0146301605
B1228374624903N00808475EA0146101603
B1228384624896N00808476EA0145901601
B1228394624891N00808473EA0145601599
B1228404624887N00808470EA0145401597
B1228414624883N00808467EA0145201595
B1228424624882N00808460EA0145101593
B1228434624881N00808452EA0144901591
B1228444624882N00808445EA0144701589
B1228454624884N00808437EA0144501587
B1228464624887N00808430EA0144301585
B1228474624891N00808424EA0144001582
B1228484624895N00808417EA0143801580
B1228494624899N00808410EA0143701579
B1228504624903N00808403EA0143501577
B1228514624906N00808396EA0143301575
B1228524624907N00808389EA0143101573
B1228534624908N00808382EA0142901571
B1228544624908N00808375EA0142801570
B1228554624905N00808368EA0142701569
B1228564624903N00808362EA0142501567
B1228574624899N00808358EA0142301565
B1228584624895N00808354EA0142101563
B1228594624891N00808353EA0142001562
B1229004624887N00808352EA0141801560
B1229014624882N00808351EA0141601559
B1229024624878N00808351EA0141401556
B1229034624874N00808352EA0141201555
B1229044624870N00808355EA0141101553
B1229054624866N00808358EA0141001552
B1229064624863N00808361EA0140801550
B1229074624860N00808365EA0140601549
B1229084624856N00808369EA0140401546
B1229084624856N00808369EA0140201544
B1229094624854N00808374EA0140201544
B1229104624851N00808381EA0140001542
B1229114624848N00808387EA0139801540
B1229114624848N00808387EA0139701539
B1229124624846N00808395EA0139701539
B1229134624844N00808402EA0139501538
B1229144624843N00808410EA0139301535
B1229154624842N00808417EA0139101533
B1229164624841N00808426EA0138901532
B1229174624841N00808436EA0138801530
B1229184624842N00808446EA0138701529
B1229194624843N00808456EA0138601528
B1229204624846N00808466EA0138401527
B1229214624850N00808475EA0138201525
B1229224624854N00808484EA0138101523
B1229234624858N00808493EA0138001522
B1229244624864N00808500EA0137901521
B1229254624870N00808507EA0137701519
B1229264624876N00808512EA0137501518
B1229274624881N00808515EA0137301516
B1229284624887N00808517EA0137201514
B1229294624893N00808518EA0137001512
B1229304624900N00808518EA0136901511
B1229314624906N00808516EA0136801510
B1229324624912N00808513EA0136601508
B1229334624917N00808508EA0136401507
B1229344624921N00808504EA0136201504
B1229354624925N00808498EA0136001502
B1229364624927N00808492EA0135801500
B1229374624929N00808486EA0135501498
B1229384624928N00808479EA0135401496
B1229394624926N00808473EA0135201494
B1229404624922N00808469EA0134901492
B1229414624918N00808466EA0134801490
B1229424624914N00808463EA0134701489
B1229434624911N00808461EA0134501487
B1229444624907N00808458EA0134301485
B1229454624904N00808456EA0134101483
B1229464624900N00808453EA0133901481
B1229474624897N00808451EA0133601479
B1229484624893N00808448EA0133401477
B1229494624889N00808445EA0133201475
B1229504624886N00808441EA0133101474
B1229514624883N00808439EA0133001472
B1229524624880N00808436EA0132801471
B1229534624877N00808434EA0132701469
B1229544624874N00808432EA0132501467
B1229554624872N00808429EA0132301466
B1229564624869N00808426EA0132201464
B1229574624867N00808423EA0132101463
B1229584624864N00808420EA0131901461
B1229594624861N00808417EA0131701460
B1229594624861N00808417EA0131601458
B1230004624859N00808415EA0131601458
B1230014624856N00808412EA0131301456
B1230024624854N00808409EA0131101454
B1230034624851N00808406EA0131001452
B1230044624849N00808403EA0130701449
B1230054624846N00808400EA0130501448
B1230064624843N00808398EA0130401446
B1230074624840N00808395EA0130301445
B1230084624838N00808392EA0130101443
B1230094624835N00808389EA0129901441
B1230104624833N00808386EA0129701439
B1230114624829N00808383EA0129501437
B1230124624827N00808381EA0129301435
B1230134624824N00808379EA0129201434
B1230144624821N00808377EA0129001432
B1230154624818N00808375EA0128801430
B1230154624818N00808375EA0128701429
B1230164624815N00808374EA0128701429
B1230174624812N00808372EA0128601428
B1230184624810N00808371EA0128501427
B1230194624808N00808371EA0128301425
B1230204624804N00808372EA0128101423
B1230214624801N00808375EA0128001422
B1230224624798N00808378EA0127901421
B1230234624795N00808382EA0127701420
B1230244624792N00808387EA0127601418
B1230254624790N00808393EA0127401417
B1230264624789N00808399EA0127301415
B1230274624787N00808406EA0127101413
B1230274624787N00808406EA0127001412
B1230284624786N00808414EA0127001412
B1230294624786N00808421EA0126801410
B1230304624786N00808429EA0126401406
B1230314624787N00808439EA0126101404
B1230324624789N00808449EA0125801400
B1230334624792N00808459EA0125601398
B1230344624795N00808469EA0125301395
B1230354624800N00808478EA0125101393
B1230364624806N00808485EA0124801390
B1230374624812N00808492EA0124601388
B1230384624819N00808497EA0124401386
B1230394624826N00808500EA0124301385
B1230404624833N00808502EA0124101383
B1230414624840N00808502EA0123901381
B1230424624847N00808501EA0123701379
B1230424624847N00808501EA0123401376
B1230434624854N00808499EA0123401376
B1230444624860N00808495EA0123201374
B1230454624865N00808490EA0123001372
B1230464624870N00808485EA0122801371
B1230474624874N00808480EA0122601369
B1230484624877N00808474EA0122401366
B1230494624878N00808467EA0122101363
B1230504624877N00808461EA0121801361
B1230514624875N00808455EA0121601359
B1230524624872N00808449EA0121701359
B1230534624869N00808444EA0121701359
B1230544624866N00808441EA0121601359
B1230554624863N00808439EA0121501357
B1230564624861N00808438EA0121201354
B1230574624857N00808437EA0120901351
B1230584624854N00808436EA0120701350
B1230594624850N00808434EA0120601348
B1231004624847N00808431EA0120501348
B1231014624844N00808428EA0120501347
B1231024624841N00808425EA0120301345
B1231034624839N00808423EA0120201344
B1231044624837N00808421EA0120001342
B1231054624834N00808419EA0119801341
B1231064624831N00808418EA0119701339
B1231074624828N00808417EA0119601339
B1231084624825N00808416EA0119601338
B1231094624822N00808416EA0119501337
B1231104624819N00808415EA0119401336
B1231114624816N00808415EA0119301335
B1231124624813N00808416EA0119201334
B1231134624809N00808415EA0119101333
B1231144624806N00808415EA0119001333
B1231154624803N00808415EA0119001332
B1231164624800N00808415EA0118901331
B1231174624797N00808415EA0118801330
B1231184624795N00808415EA0118601328
B1231194624791N00808415EA0118301326
B1231204624788N00808415EA0118201324
B1231214624785N00808415EA0118001322
B1231224624781N00808416EA0117801320
B1231234624778N00808417EA0117601318
B1231244624775N00808417EA0117301316
B1231254624771N00808419EA0117201314
B1231254624771N00808419EA0117001313
B1231264624768N00808420EA0117001313
B1231274624765N00808420EA0116801311
B1231284624762N00808420EA0116601309
B1231294624760N00808420EA0116401306
B1231304624757N00808420EA0116101304
B1231314624753N00808420EA0116001302
B1231324624750N00808419EA0115801300
B1231334624747N00808418EA0115601298
B1231334624747N00808418EA0115301295
B1231344624745N00808418EA0115301295
B1231344624745N00808418EA0115101293
B1231354624742N00808417EA0115101293
B1231364624739N00808417EA0114801291
B1231374624736N00808418EA0114701289
B1231384624733N00808419EA0114501287
B1231394624729N00808420EA0114401286
B1231404624726N00808423EA0114201284
B1231414624724N00808425EA0114001282
B1231424624720N00808427EA0113801280
B1231434624716N00808428EA0113701279
B1231444624712N00808429EA0113701279
B1231454624708N00808430EA0113701279
B1231464624706N00808431EA0113601278
B1231474624704N00808432EA0113401276
B1231484624702N00808432EA0113101273
B1231494624700N00808430EA0112801270
B1231504624698N00808426EA0112601269
B1231514624697N00808420EA0112501267
B1231524624699N00808412EA0112401266
B1231534624702N00808405EA0112201264
B1231544624704N00808398EA0112101263
B1231554624706N00808391EA0112001262
B1231564624708N00808385EA0111701260
B1231574624711N00808379EA0111601258
B1231584624714N00808371EA0111601258
B1231594624718N00808364EA0111601258
B1232004624722N00808357EA0111501257
B1232014624724N00808351EA0111401256
B1232024624727N00808346EA0111301255
B1232034624730N00808340EA0111101253
B1232044624732N00808335EA0110901251
B1232054624733N00808329EA0110601248
B1232064624733N00808324EA0110401246
B1232074624732N00808319EA0110201244
B1232084624730N00808316EA0110001242
B1232094624728N00808314EA0109801240
B1232104624726N00808312EA0109501238
B1232114624724N00808312EA0109201235
B1232124624721N00808312EA0109001232
B1232134624718N00808312EA0108901231
B1232144624715N00808314EA0108701229
B1232154624713N00808317EA0108501228
B1232164624711N00808320EA0108301225
B1232174624709N00808324EA0108101223
B1232184624707N00808327EA0107901221
B1232194624704N00808331EA0107701220
B1232194624704N00808331EA0107501217
B1232204624702N00808335EA0107501217
B1232214624700N00808339EA0107301215
B1232224624698N00808345EA0107101213
B1232234624696N00808350EA0106901211
B1232244624693N00808353EA0106801210
B1232254624690N00808356EA0106601208
B1232264624688N00808359EA0106501207
B1232274624686N00808362EA0106301205
B1232284624683N00808365EA0106201204
B1232294624681N00808368EA0106001202
B1232304624679N00808370EA0105801200
B1232314624676N00808373EA0105701199
B1232324624673N00808375EA0105601198
B1232334624670N00808378EA0105701199
B1232344624668N00808381EA0105701199
B1232354624667N00808383EA0105601198
B1232364624665N00808386EA0105501197
B1232374624663N00808389EA0105301195
B1232384624661N00808392EA0105201194
B1232394624658N00808396EA0105101194
B1232404624656N00808399EA0105101193
B1232414624654N00808401EA0105001192
B1232424624652N00808401EA0104701189
B1232434624650N00808399EA0104501188
B1232444624649N00808397EA0104401187
B1232454624649N00808392EA0104301185
B1232464624651N00808384EA0104101183
B1232474624656N00808378EA0104001182
B1232484624660N00808372EA0103801180
B1232494624663N00808366EA0103601179
B1232504624665N00808360EA0103401177
B1232514624667N00808354EA0103201174
B1232524624669N00808349EA0102901172
B1232534624670N00808343EA0102601168
B1232544624669N00808337EA0102301165
B1232554624668N00808332EA0102001163
B1232564624665N00808327EA0101901162
B1232574624663N00808323EA0101901162
B1232584624661N00808318EA0101901161
B1232594624660N00808316EA0101701160
B1233004624658N00808313EA0101701159
B1233014624656N00808311EA0101701159
B1233024624654N00808309EA0101901161
B1233034624652N00808308EA0101901161
B1233044624651N00808308EA0101701160
B1233054624649N00808309EA0101501157
B1233064624647N00808309EA0101201154
B1233074624645N00808309EA0101001152
B1233084624643N00808308EA0100901151
B1233094624640N00808306EA0100901151
B1233104624637N00808304EA0100901152
B1233104624637N00808304EA0100901151
B1233114624635N00808301EA0100901151
B1233124624633N00808299EA0100801150
B1233134624632N00808295EA0100601148
B1233144624630N00808292EA0100401147
B1233154624627N00808290EA0100501147
B1233164624624N00808287EA0100501148
B1233174624623N00808284EA0100501148
B1233184624622N00808284EA0100501147
B1233194624620N00808284EA0100301146
B1233204624619N00808284EA0100201144
B1233214624617N00808283EA0100001142
B1233224624614N00808281EA0100101144
B1233234624612N00808278EA0100301145
B1233244624612N00808272EA0100301146
B1233254624613N00808268EA0100201144
B1233264624613N00808265EA0100001142
B1233274624612N00808264EA0099701140
B1233284624610N00808263EA0099701139
B1233294624608N00808261EA0099601138
B1233304624605N00808260EA0099701139
B1233314624605N00808258EA0099601138
B1233324624604N00808257EA0099201134
B1233334624602N00808259EA0098901131
B1233344624600N00808260EA0098601128
B1233354624597N00808260EA0098601128
B1233364624594N00808260EA0098601128
B1233374624592N00808257EA0098601129
B1233384624590N00808255EA0098701129
B1233394624589N00808253EA0098601128
B1233404624587N00808252EA0098401127
B1233414624585N00808251EA0098201124
B1233424624584N00808249EA0097901121
B1233434624581N00808246EA0097801120
B1233444624579N00808244EA0097801120
B1233454624577N00808243EA0097801120
B1233464624575N00808242EA0097601119
B1233474624574N00808241EA0097501117
B1233484624572N00808239EA0097501118
B1233494624572N00808238EA0097601119
B1233504624572N00808237EA0097601118
B1233514624572N00808237EA0097501117
B1233524624572N00808236EA0097601118
B1233534624571N00808235EA0097601118
B1233544624571N00808234EA0097601118
B1233554624570N00808234EA0097601118
B1233564624570N00808232EA0097601118
B1233574624569N00808231EA0097601118
B1233584624569N00808231EA0097501117
B1233594624569N00808230EA0097501118
B1234004624568N00808230EA0097601119
B1234014624568N00808231EA0097701119
B1234014624568N00808231EA0097601119
B1234024624568N00808230EA0097601119
B1234034624569N00808230EA0097601119
B1234044624569N00808232EA0097601119
B1234054624575N00808227EA0097601119
B1234064624578N00808231EA0097601119
B1234074624580N00808228EA0097601119
B1234084624580N00808227EA0097601119
B1234094624579N00808228EA0097601119
B1234104624578N00808228EA0097601119
B1234114624578N00808228EA0097601119
B1234124624577N00808228EA0097601119
B1234134624577N00808228EA0097601119
B1234144624577N00808228EA0097701119
B1234154624577N00808228EA0097701119
B1234164624577N00808228EA0097601119
B1234174624577N00808228EA0097701119
B1234184624577N00808228EA0097701119
B1234194624577N00808228EA0097701119
B1234204624577N00808228EA0097601119
B1234214624577N00808228EA0097701119
B1234224624577N00808228EA0097701119
B1234234624577N00808228EA0097701119
B1234244624577N00808228EA0097701119
B1234254624577N00808228EA0097701119
B1234264624577N00808227EA0097701119
B1234274624577N00808227EA0097701119
B1234284624577N00808227EA0097701119
B1234294624576N00808227EA0097701119
B1234304624576N00808226EA0097701119
B1234314624576N00808226EA0097701119
B1234324624577N00808226EA0097701119
B1234334624577N00808226EA0097601118
B1234344624577N00808226EA0097601118
B1234354624577N00808226EA0097601118
B1234364624577N00808226EA0097601118
B1234374624576N00808226EA0097601118
B1234384624576N00808222EA0097601118
B1234394624576N00808218EA0097601118
B1234404624575N00808215EA0097601118
B1234414624574N00808213EA0097601118
B1234424624572N00808212EA0097501118
B1234434624570N00808214EA0097601118
B1234444624569N00808213EA0097601118
B1234444624569N00808213EA0097601118
B1234454624567N00808214EA0097601118
B1234464624568N00808204EA0097601118
B1234474624567N00808205EA0097601118
B1234484624567N00808206EA0097601118
B1234494624567N00808206EA0097501118
B1234504624567N00808206EA0097501118
B1234514624567N00808208EA0097501117
B1234524624567N00808208EA0097501117
B1234534624566N00808209EA0097501117
B1234544624566N00808209EA0097501118
B1234554624565N00808209EA0097501117
B1234564624565N00808208EA0097501117
B1234574624564N00808208EA0097501118
B1234584624564N00808207EA0097501118
B1234594624563N00808207EA0097601118
B1235004624563N00808207EA0097601119
B1235014624562N00808206EA0097601118
B1235024624562N00808206EA0097601118
B1235034624562N00808207EA0097601118
B1235044624562N00808208EA0097601118
B1235054624562N00808208EA0097601118
B1235064624562N00808207EA0097601118
B1235074624563N00808206EA0097601118
B1235084624565N00808205EA0097601118
B1235094624565N00808205EA0097601118
B1235104624565N00808203EA0097601118
B1235114624566N00808203EA0097601118
B1235124624567N00808202EA0097601118
B1235134624567N00808201EA0097601118
B1235144624567N00808201EA0097601118
B1235154624567N00808201EA0097601118
B1235164624568N00808201EA0097501118
B1235174624568N00808201EA0097601118
B1235184624568N00808200EA0097601118
B1235194624569N00808200EA0097601118
B1235204624569N00808200EA0097601118
B1235214624566N00808204EA0097601118
B1235224624565N00808207EA0097601119
B1235234624565N00808207EA0097601119
B1235244624565N00808207EA0097601119
B1235254624565N00808207EA0097601119
B1235264624565N00808207EA0097601118
B1235274624565N00808206EA0097601119
B1235284624565N00808206EA0097601118
B1235294624565N00808206EA0097601118
B1235304624565N00808206EA0097601119
B1235314624565N00808206EA0097601118
B1235324624565N00808206EA0097601119
B1235334624565N00808206EA0097601119
B1235344624565N00808206EA0097601119
B1235354624565N00808206EA0097601119
B1235364624565N00808206EA0097701119
B1235374624565N00808206EA0097601119
B1235384624565N00808206EA0097601118
B1235394624565N00808206EA0097601118
B1235404624565N00808206EA0097601118
B1235414624565N00808206EA0097601118
B1235424624565N00808206EA0097601118
B1235434624565N00808206EA0097601118
LXSX;GF:1.6
GA22614C82514B3F3064F9755108C1D13
