AXSX003 SKYTRAXX V3.0.3b SN:00000380
HOPLTPILOT:Sepp Bucher
HOGTYGLIDERTYPE:Sigma9
HOCIDCOMPETITIONID:0000
HODTM100GPSDATUM:WGS-84
HOCCLCOMPETITION CLASS:Paraglider (Standard)
HPSITSITE:Fiesch Heimat
HFDTE190816
B0953194624861N00806472EA0208702139
B0953204624861N00806472EA0208602139
B0953214624861N00806472EA0208602139
B0953224624861N00806472EA0208502139
B0953234624861N00806472EA0208402138
B0953244624861N00806473EA0208202137
B0953254624860N00806474EA0208002136
B0953264624859N00806475EA0207602133
B0953274624857N00806477EA0207502134
B0953284624855N00806482EA0207802141
B0953294624851N00806486EA0207702146
B0953304624847N00806491EA0207502144
B0953314624842N00806498EA0207202141
B0953324624838N00806504EA0207002139
B0953334624836N00806511EA0207002139
B0953344624833N00806519EA0207102140
B0953354624832N00806528EA0207102140
B0953364624831N00806535EA0207102140
B0953374624830N00806541EA0206902138
B0953384624830N00806547EA0206602135
B0953394624830N00806555EA0206402133
B0953404624832N00806564EA0206302132
B0953414624832N00806572EA0206402133
B0953424624833N00806581EA0206402133
B0953434624833N00806588EA0206302132
B0953444624833N00806596EA0206302132
B0953454624833N00806603EA0206202130
B0953464624835N00806611EA0206002129
B0953474624836N00806619EA0206002128
B0953484624836N00806627EA0206102130
B0953494624835N00806634EA0206302132
B0953504624834N00806641EA0206502134
B0953514624835N00806647EA0206602135
B0953524624836N00806653EA0206602134
B0953534624839N00806659EA0206402133
B0953544624842N00806667EA0206302132
B0953554624843N00806675EA0206302132
B0953564624842N00806684EA0206302132
B0953574624841N00806691EA0206302132
B0953584624841N00806697EA0206402132
B0953594624840N00806702EA0206402133
B0954004624839N00806704EA0206402133
B0954014624836N00806702EA0206602135
B0954024624833N00806698EA0206702136
B0954034624830N00806692EA0206902138
B0954044624826N00806684EA0206902137
B0954054624825N00806678EA0206802137
B0954064624822N00806668EA0206802137
B0954074624824N00806660EA0206802137
B0954084624828N00806654EA0206902138
B0954094624837N00806649EA0206902138
B0954104624844N00806647EA0206802137
B0954114624851N00806647EA0206702136
B0954124624858N00806650EA0206702136
B0954134624864N00806655EA0206702136
B0954144624870N00806661EA0206702135
B0954154624873N00806669EA0206702136
B0954164624874N00806679EA0206702136
B0954174624876N00806686EA0206802137
B0954184624876N00806694EA0206902138
B0954194624878N00806701EA0207102140
B0954204624879N00806708EA0207202141
B0954214624879N00806715EA0207202141
B0954224624878N00806720EA0207302141
B0954234624876N00806725EA0207302142
B0954244624873N00806727EA0207302142
B0954254624870N00806728EA0207302142
B0954264624867N00806727EA0207402143
B0954274624865N00806723EA0207302142
B0954284624864N00806718EA0207302142
B0954294624864N00806711EA0207202141
B0954304624865N00806704EA0207202141
B0954314624870N00806698EA0207102140
B0954324624876N00806693EA0207102140
B0954334624884N00806691EA0207102140
B0954344624892N00806693EA0207202141
B0954354624900N00806695EA0207402143
B0954364624906N00806696EA0207602145
B0954374624906N00806707EA0207702146
B0954384624908N00806713EA0207702146
B0954394624909N00806719EA0207702146
B0954404624909N00806726EA0207602145
B0954414624905N00806732EA0207602145
B0954424624903N00806736EA0207702145
B0954434624900N00806739EA0207702146
B0954444624895N00806741EA0207702146
B0954454624891N00806742EA0207802146
B0954464624887N00806742EA0207702146
B0954474624883N00806741EA0207602145
B0954484624880N00806737EA0207702146
B0954494624879N00806731EA0207802147
B0954504624879N00806723EA0208002149
B0954514624880N00806715EA0208202151
B0954524624884N00806709EA0208302151
B0954534624888N00806704EA0208202151
B0954544624894N00806701EA0208202151
B0954554624901N00806701EA0208402153
B0954564624908N00806703EA0208502154
B0954574624914N00806707EA0208602155
B0954584624917N00806713EA0208802157
B0954594624920N00806719EA0208902158
B0955004624920N00806726EA0209102160
B0955014624919N00806732EA0209302162
B0955024624917N00806738EA0209302161
B0955034624914N00806740EA0209202161
B0955044624910N00806744EA0209202161
B0955054624907N00806746EA0209302162
B0955064624904N00806747EA0209402163
B0955074624902N00806747EA0209302162
B0955084624899N00806744EA0209302161
B0955094624896N00806738EA0209302162
B0955104624895N00806731EA0209402163
B0955114624899N00806725EA0209502164
B0955124624905N00806719EA0209602165
B0955134624911N00806714EA0209602164
B0955144624918N00806711EA0209502164
B0955154624926N00806711EA0209602165
B0955164624933N00806714EA0209702165
B0955174624939N00806719EA0209702166
B0955184624945N00806725EA0209802167
B0955194624946N00806731EA0209902168
B0955204624946N00806741EA0209902168
B0955214624945N00806747EA0209902168
B0955224624944N00806753EA0210002169
B0955234624941N00806758EA0210202170
B0955244624939N00806763EA0210202171
B0955254624935N00806766EA0210202171
B0955264624932N00806768EA0210102170
B0955274624929N00806768EA0209902168
B0955284624925N00806769EA0209802167
B0955294624922N00806768EA0209702166
B0955304624918N00806767EA0209702166
B0955314624914N00806767EA0209902167
B0955324624910N00806765EA0209902168
B0955334624906N00806763EA0209902168
B0955344624902N00806760EA0209902168
B0955354624899N00806758EA0209702166
B0955364624898N00806756EA0209502164
B0955374624895N00806753EA0209202160
B0955384624894N00806748EA0208802157
B0955394624895N00806740EA0208702156
B0955404624898N00806733EA0208602154
B0955414624903N00806727EA0208402153
B0955424624909N00806724EA0208302152
B0955434624917N00806722EA0208202151
B0955444624925N00806721EA0208102150
B0955454624932N00806722EA0208002149
B0955464624940N00806725EA0207902148
B0955474624947N00806730EA0208002149
B0955484624952N00806738EA0208002149
B0955494624955N00806747EA0208102150
B0955504624958N00806754EA0208202151
B0955514624961N00806761EA0208202151
B0955524624964N00806766EA0208102150
B0955534624967N00806772EA0207902148
B0955544624970N00806778EA0207802147
B0955554624972N00806785EA0207602145
B0955564624972N00806792EA0207402143
B0955574624972N00806799EA0207302142
B0955584624972N00806805EA0207202140
B0955594624972N00806811EA0206902138
B0956004624972N00806817EA0206602135
B0956014624973N00806823EA0206302132
B0956024624972N00806830EA0206102130
B0956034624971N00806838EA0206102130
B0956044624971N00806845EA0206002129
B0956054624971N00806852EA0205902128
B0956064624971N00806860EA0205702126
B0956074624971N00806868EA0205602125
B0956084624970N00806876EA0205502124
B0956094624969N00806885EA0205502124
B0956104624968N00806892EA0205402123
B0956114624966N00806900EA0205302122
B0956124624965N00806907EA0205002119
B0956134624964N00806915EA0204802117
B0956144624962N00806923EA0204602115
B0956154624960N00806930EA0204602115
B0956164624958N00806937EA0204502114
B0956174624956N00806944EA0204402113
B0956184624954N00806952EA0204202111
B0956194624953N00806960EA0204202111
B0956204624950N00806966EA0204402113
B0956214624947N00806972EA0204402113
B0956224624944N00806976EA0204402113
B0956234624942N00806981EA0204202111
B0956244624940N00806985EA0204202111
B0956254624936N00806990EA0204202111
B0956264624933N00806994EA0204302112
B0956274624929N00806997EA0204402113
B0956284624926N00807001EA0204402113
B0956294624922N00807006EA0204502114
B0956304624920N00807012EA0204402113
B0956314624918N00807019EA0204402113
B0956324624917N00807026EA0204402113
B0956334624916N00807033EA0204502114
B0956344624915N00807041EA0204602115
B0956354624914N00807048EA0204502114
B0956364624914N00807056EA0204502114
B0956374624914N00807065EA0204502113
B0956384624917N00807075EA0204502114
B0956394624920N00807085EA0204802116
B0956404624923N00807094EA0205102120
B0956414624928N00807102EA0205402123
B0956424624933N00807108EA0205502124
B0956434624937N00807114EA0205502124
B0956444624942N00807118EA0205402123
B0956454624949N00807121EA0205502124
B0956464624957N00807122EA0205802127
B0956474624965N00807121EA0206202131
B0956484624972N00807119EA0206602135
B0956494624977N00807115EA0206902138
B0956504624980N00807110EA0207002139
B0956514624983N00807105EA0207202141
B0956524624985N00807097EA0207402143
B0956534624986N00807089EA0207502144
B0956544624986N00807083EA0207802147
B0956554624984N00807076EA0208002149
B0956564624980N00807071EA0208302152
B0956574624978N00807065EA0208402153
B0956584624975N00807061EA0208602155
B0956594624971N00807057EA0208902158
B0957004624967N00807056EA0209102160
B0957014624962N00807056EA0209302162
B0957024624958N00807057EA0209602165
B0957034624956N00807061EA0209702166
B0957044624954N00807065EA0209802167
B0957044624954N00807065EA0210002169
B0957054624953N00807070EA0210002169
B0957064624953N00807075EA0210102170
B0957074624951N00807080EA0210302172
B0957084624951N00807086EA0210502174
B0957094624951N00807092EA0210602175
B0957104624952N00807099EA0210602175
B0957114624954N00807107EA0210802176
B0957124624957N00807116EA0210802177
B0957134624960N00807125EA0211002179
B0957144624964N00807134EA0211002179
B0957154624969N00807142EA0211102180
B0957164624975N00807148EA0211002179
B0957174624982N00807153EA0211002179
B0957184624990N00807155EA0211102180
B0957194624998N00807155EA0211402182
B0957204625005N00807153EA0211702186
B0957214625011N00807150EA0212002189
B0957224625016N00807147EA0212202191
B0957234625018N00807143EA0212302192
B0957244625020N00807138EA0212502194
B0957254625022N00807133EA0212602195
B0957264625022N00807127EA0212702196
B0957274625022N00807122EA0212802197
B0957284625020N00807118EA0212902198
B0957294625017N00807113EA0213102200
B0957304625016N00807109EA0213402203
B0957314625013N00807103EA0213502204
B0957324625012N00807099EA0213802207
B0957334625011N00807097EA0213802207
B0957344625010N00807095EA0213702206
B0957354625008N00807095EA0213502204
B0957364625005N00807097EA0213702206
B0957374625000N00807104EA0214002209
B0957384624997N00807110EA0214402213
B0957394624995N00807116EA0214602215
B0957404624994N00807124EA0214702216
B0957414624995N00807133EA0214702216
B0957424624998N00807143EA0214802217
B0957434625001N00807153EA0215102220
B0957444625006N00807162EA0215402223
B0957454625011N00807170EA0215402223
B0957464625016N00807178EA0215302222
B0957474625023N00807184EA0215302222
B0957484625029N00807190EA0215402223
B0957494625037N00807196EA0215502224
B0957504625044N00807198EA0215602225
B0957514625050N00807200EA0215502224
B0957524625056N00807200EA0215402223
B0957534625061N00807198EA0215302221
B0957544625067N00807195EA0215202220
B0957554625072N00807191EA0215202221
B0957564625076N00807185EA0215302222
B0957574625079N00807178EA0215402223
B0957584625080N00807171EA0215302222
B0957594625081N00807165EA0215402223
B0958004625081N00807160EA0215502224
B0958014625081N00807155EA0215702226
B0958014625081N00807155EA0215902228
B0958024625081N00807150EA0215902228
B0958024625081N00807150EA0216102230
B0958034625081N00807144EA0216102230
B0958044625079N00807138EA0216402233
B0958054625078N00807132EA0216702236
B0958064625076N00807127EA0216902238
B0958074625075N00807122EA0216902238
B0958084625074N00807118EA0216902238
B0958094625072N00807115EA0217002238
B0958104625071N00807112EA0217002239
B0958114625069N00807108EA0217302242
B0958124625063N00807104EA0217702246
B0958134625059N00807102EA0218002249
B0958144625056N00807100EA0218202251
B0958154625052N00807100EA0218502253
B0958164625049N00807100EA0218602255
B0958174625046N00807101EA0218902258
B0958184625043N00807100EA0219302262
B0958194625039N00807097EA0219802267
B0958204625035N00807095EA0220202270
B0958214625030N00807092EA0220702276
B0958224625027N00807089EA0221102279
B0958234625024N00807086EA0221402283
B0958244625022N00807083EA0221902287
B0958254625019N00807081EA0222102290
B0958264625016N00807080EA0222402292
B0958274625012N00807081EA0222502294
B0958284625010N00807084EA0222802297
B0958294625008N00807088EA0222902298
B0958304625007N00807095EA0223102300
B0958314625008N00807103EA0223402303
B0958324625010N00807112EA0223502304
B0958334625013N00807123EA0223602305
B0958344625019N00807132EA0223702306
B0958354625027N00807138EA0223802307
B0958364625035N00807142EA0224102309
B0958374625042N00807142EA0224302312
B0958384625048N00807139EA0224802317
B0958394625053N00807135EA0225202321
B0958404625055N00807129EA0225302322
B0958414625057N00807122EA0225502323
B0958424625057N00807116EA0225602325
B0958434625052N00807111EA0225902328
B0958444625048N00807105EA0226402333
B0958454625044N00807103EA0226902338
B0958464625038N00807104EA0227102340
B0958474625033N00807107EA0227302342
B0958484625029N00807112EA0227402342
B0958494625025N00807116EA0227402343
B0958504625024N00807119EA0227502344
B0958514625023N00807129EA0227502344
B0958524625024N00807137EA0227502343
B0958534625026N00807151EA0227402343
B0958544625031N00807163EA0227602345
B0958554625036N00807172EA0227702346
B0958564625040N00807179EA0227702346
B0958574625045N00807186EA0227502344
B0958584625050N00807191EA0227302342
B0958594625057N00807194EA0227102340
B0959004625063N00807192EA0227002339
B0959014625068N00807188EA0227102340
B0959014625068N00807188EA0227202341
B0959024625073N00807181EA0227302341
B0959034625075N00807175EA0227502344
B0959044625076N00807169EA0227702345
B0959054625076N00807164EA0227802346
B0959064625076N00807159EA0227902348
B0959074625075N00807154EA0228002349
B0959084625075N00807148EA0228302352
B0959094625074N00807142EA0228502354
B0959104625072N00807137EA0228702356
B0959114625070N00807132EA0228902357
B0959124625069N00807128EA0229102360
B0959134625068N00807122EA0229402363
B0959134625068N00807122EA0229502364
B0959144625066N00807116EA0229502364
B0959154625064N00807110EA0229902367
B0959164625061N00807105EA0230202370
B0959174625060N00807101EA0230402373
B0959184625057N00807097EA0230702376
B0959194625055N00807095EA0230902378
B0959204625051N00807093EA0231002379
B0959214625047N00807093EA0231102380
B0959224625043N00807096EA0231302382
B0959234625039N00807098EA0231702386
B0959244625034N00807102EA0232202391
B0959254625027N00807113EA0232502394
B0959264625029N00807121EA0232602395
B0959274625030N00807135EA0232602395
B0959284625034N00807147EA0232602395
B0959294625039N00807160EA0232502394
B0959304625044N00807170EA0232502394
B0959314625050N00807177EA0232502394
B0959324625054N00807177EA0232602394
B0959334625058N00807172EA0232802397
B0959344625061N00807162EA0233102400
B0959354625064N00807153EA0233402403
B0959364625067N00807145EA0233602405
B0959374625068N00807138EA0233702406
B0959384625068N00807132EA0233902408
B0959394625068N00807127EA0234202411
B0959404625066N00807122EA0234302412
B0959414625064N00807119EA0234202411
B0959424625063N00807116EA0234102410
B0959434625061N00807114EA0234002409
B0959444625057N00807112EA0234002408
B0959454625054N00807111EA0234002408
B0959464625051N00807109EA0234002409
B0959474625048N00807106EA0233902408
B0959484625047N00807103EA0233702406
B0959494625048N00807099EA0233602405
B0959504625053N00807095EA0233502404
B0959514625057N00807091EA0233602405
B0959524625064N00807090EA0233702406
B0959534625071N00807090EA0233902408
B0959544625078N00807092EA0234102410
B0959554625084N00807095EA0234202411
B0959564625089N00807099EA0234302412
B0959574625093N00807104EA0234102410
B0959584625098N00807113EA0233802407
B0959594625104N00807121EA0233802407
B1000004625109N00807128EA0233902408
B1000014625115N00807134EA0234102410
B1000024625121N00807140EA0234602415
B1000034625125N00807147EA0234802417
B1000044625129N00807153EA0234902418
B1000054625133N00807160EA0235002419
B1000064625136N00807167EA0235002419
B1000074625137N00807179EA0234902418
B1000084625135N00807187EA0234802417
B1000094625134N00807196EA0234802416
B1000104625134N00807203EA0234802417
B1000114625134N00807208EA0235102420
B1000124625133N00807213EA0235202421
B1000134625132N00807214EA0235202421
B1000144625132N00807214EA0235202421
B1000154625131N00807212EA0235102420
B1000164625130N00807207EA0235202421
B1000174625132N00807198EA0235302422
B1000184625132N00807190EA0235402423
B1000194625134N00807183EA0235402423
B1000204625134N00807175EA0235402423
B1000214625138N00807169EA0235502424
B1000224625142N00807162EA0235602425
B1000234625148N00807159EA0235802427
B1000244625155N00807157EA0236002429
B1000254625162N00807157EA0236202431
B1000264625169N00807159EA0236302432
B1000274625176N00807162EA0236502434
B1000284625183N00807165EA0236702436
B1000294625189N00807168EA0236802437
B1000304625196N00807170EA0237002439
B1000314625203N00807173EA0237202441
B1000324625209N00807176EA0237402443
B1000334625215N00807179EA0237702446
B1000344625222N00807182EA0237802447
B1000354625228N00807185EA0238102450
B1000364625234N00807189EA0238402453
B1000374625239N00807192EA0238702456
B1000384625243N00807197EA0238802457
B1000394625247N00807204EA0238802457
B1000404625249N00807212EA0238902458
B1000414625249N00807219EA0238902458
B1000424625247N00807224EA0239002459
B1000434625247N00807230EA0239202461
B1000444625246N00807235EA0239402463
B1000454625244N00807237EA0239602465
B1000464625239N00807237EA0239802467
B1000474625236N00807237EA0239802467
B1000484625233N00807236EA0239702466
B1000494625231N00807233EA0239702466
B1000504625229N00807226EA0239602465
B1000514625229N00807220EA0239702466
B1000524625236N00807213EA0239802467
B1000534625241N00807208EA0240102470
B1000544625250N00807206EA0240302472
B1000554625257N00807208EA0240502474
B1000564625263N00807213EA0240602475
B1000574625266N00807220EA0240702476
B1000584625268N00807226EA0240802476
B1000594625269N00807233EA0240902477
B1001004625271N00807241EA0240902478
B1001014625274N00807248EA0240902478
B1001024625278N00807256EA0241002479
B1001034625282N00807263EA0241002479
B1001044625288N00807269EA0241102480
B1001054625293N00807274EA0241202480
B1001064625297N00807280EA0241102480
B1001074625301N00807286EA0241102480
B1001074625301N00807286EA0241202480
B1001084625305N00807292EA0241202480
B1001094625310N00807299EA0241202481
B1001104625314N00807306EA0241202480
B1001114625318N00807314EA0241202481
B1001124625323N00807321EA0241102480
B1001134625326N00807328EA0241002479
B1001144625330N00807335EA0240602475
B1001154625334N00807342EA0240302472
B1001164625337N00807350EA0240102470
B1001174625341N00807358EA0240102470
B1001184625345N00807366EA0240002469
B1001194625349N00807374EA0239702466
B1001204625353N00807381EA0239402463
B1001214625357N00807390EA0239002459
B1001224625361N00807398EA0238702456
B1001234625364N00807407EA0238502454
B1001244625368N00807415EA0238402453
B1001254625371N00807425EA0238302452
B1001264625374N00807433EA0238202450
B1001274625376N00807441EA0238002448
B1001284625378N00807450EA0237702446
B1001294625381N00807458EA0237502444
B1001304625385N00807466EA0237402443
B1001314625388N00807474EA0237402443
B1001324625391N00807481EA0237402443
B1001334625393N00807489EA0237302442
B1001344625396N00807497EA0237102440
B1001354625398N00807505EA0236902438
B1001364625402N00807512EA0236702436
B1001374625406N00807520EA0236602435
B1001384625409N00807529EA0236702436
B1001394625412N00807538EA0236702436
B1001404625415N00807547EA0236702436
B1001404625415N00807547EA0236702436
B1001414625418N00807555EA0236702436
B1001424625421N00807561EA0236502434
B1001434625424N00807569EA0236402433
B1001444625428N00807577EA0236402432
B1001454625430N00807584EA0236302432
B1001464625433N00807591EA0236202431
B1001474625436N00807598EA0236202431
B1001484625439N00807606EA0236102430
B1001494625442N00807613EA0236002429
B1001504625446N00807621EA0235902428
B1001514625449N00807629EA0235902428
B1001524625451N00807637EA0235902428
B1001534625455N00807644EA0235802427
B1001544625459N00807652EA0235802427
B1001544625459N00807652EA0235802427
B1001554625462N00807659EA0235802427
B1001564625465N00807668EA0235702426
B1001574625469N00807676EA0235802427
B1001584625473N00807685EA0235802427
B1001594625477N00807693EA0235902428
B1002004625481N00807701EA0236002429
B1002014625483N00807709EA0235902428
B1002024625486N00807716EA0235902427
B1002034625489N00807724EA0235802427
B1002044625492N00807732EA0235802427
B1002054625496N00807740EA0235802427
B1002064625499N00807748EA0235802427
B1002074625502N00807756EA0235802427
B1002084625506N00807764EA0235702426
B1002094625509N00807772EA0235502424
B1002104625513N00807781EA0235402423
B1002114625517N00807790EA0235402423
B1002124625520N00807799EA0235402423
B1002134625523N00807808EA0235402422
B1002144625526N00807817EA0235302422
B1002154625528N00807826EA0235302422
B1002164625531N00807835EA0235202421
B1002174625533N00807844EA0235202421
B1002184625536N00807852EA0235202421
B1002194625539N00807862EA0235102420
B1002204625542N00807870EA0235002419
B1002214625544N00807879EA0234802417
B1002224625547N00807889EA0234702416
B1002234625550N00807899EA0234602415
B1002244625553N00807909EA0234502414
B1002254625556N00807918EA0234502414
B1002264625559N00807927EA0234402413
B1002274625561N00807936EA0234202411
B1002284625564N00807945EA0234002409
B1002294625566N00807955EA0233702406
B1002304625568N00807964EA0233502404
B1002314625572N00807974EA0233302402
B1002324625576N00807984EA0233202401
B1002334625579N00807994EA0233002399
B1002344625581N00808004EA0232702396
B1002354625585N00808014EA0232502394
B1002364625589N00808024EA0232302392
B1002374625593N00808034EA0232302391
B1002384625597N00808044EA0232102390
B1002394625601N00808054EA0232002389
B1002404625605N00808063EA0231802387
B1002414625608N00808072EA0231602384
B1002424625611N00808082EA0231402383
B1002434625614N00808091EA0231202381
B1002444625618N00808101EA0231102380
B1002454625621N00808110EA0231102380
B1002464625624N00808119EA0231002378
B1002474625627N00808129EA0230802377
B1002484625629N00808138EA0230702376
B1002494625632N00808147EA0230502374
B1002504625635N00808157EA0230402373
B1002514625639N00808167EA0230302372
B1002524625643N00808177EA0230102370
B1002534625646N00808186EA0230002369
B1002544625650N00808195EA0229802366
B1002554625654N00808204EA0229502364
B1002564625659N00808213EA0229302362
B1002574625663N00808222EA0229102360
B1002584625667N00808231EA0229002359
B1002594625671N00808240EA0228902358
B1003004625675N00808249EA0228802356
B1003014625679N00808257EA0228702356
B1003024625683N00808265EA0228402353
B1003034625686N00808273EA0228202351
B1003044625689N00808282EA0228002349
B1003054625692N00808291EA0227902348
B1003064625696N00808300EA0227802347
B1003074625701N00808309EA0227602345
B1003074625701N00808309EA0227402343
B1003084625705N00808317EA0227402343
B1003094625708N00808326EA0227302342
B1003104625712N00808335EA0227202341
B1003114625716N00808344EA0227102340
B1003124625720N00808353EA0226902338
B1003134625724N00808361EA0226802337
B1003144625727N00808370EA0226702336
B1003144625727N00808370EA0226502334
B1003154625730N00808378EA0226502334
B1003164625733N00808386EA0226302332
B1003174625737N00808394EA0226102330
B1003184625741N00808403EA0225902328
B1003194625744N00808412EA0225902328
B1003204625748N00808420EA0225802327
B1003214625751N00808429EA0225702326
B1003224625754N00808438EA0225602325
B1003234625757N00808446EA0225402323
B1003244625761N00808454EA0225102320
B1003254625764N00808463EA0225002319
B1003264625768N00808472EA0224902318
B1003274625771N00808481EA0224802317
B1003284625775N00808490EA0224602315
B1003294625779N00808499EA0224502314
B1003304625782N00808508EA0224402313
B1003314625785N00808517EA0224302312
B1003324625788N00808526EA0224202311
B1003334625791N00808536EA0224102310
B1003344625794N00808545EA0223902308
B1003354625797N00808555EA0223802307
B1003364625800N00808565EA0223702306
B1003374625803N00808574EA0223702306
B1003384625807N00808584EA0223702305
B1003394625810N00808594EA0223602305
B1003404625813N00808603EA0223502304
B1003414625815N00808613EA0223402303
B1003424625818N00808622EA0223402303
B1003434625821N00808632EA0223402303
B1003444625824N00808642EA0223402303
B1003454625826N00808651EA0223402303
B1003464625829N00808660EA0223302302
B1003474625832N00808669EA0223302302
B1003474625832N00808669EA0223202301
B1003484625834N00808679EA0223202301
B1003494625836N00808689EA0223302301
B1003504625839N00808698EA0223202301
B1003514625841N00808707EA0223202301
B1003524625844N00808716EA0223202301
B1003534625846N00808725EA0223102300
B1003544625848N00808734EA0223002299
B1003554625850N00808743EA0222902298
B1003564625853N00808751EA0222902298
B1003574625856N00808760EA0222702296
B1003584625859N00808768EA0222602295
B1003594625862N00808777EA0222402293
B1004004625864N00808787EA0222402293
B1004014625867N00808796EA0222302292
B1004024625870N00808806EA0222302292
B1004034625873N00808815EA0222202291
B1004044625875N00808824EA0222202290
B1004054625877N00808833EA0222102290
B1004064625879N00808842EA0222002289
B1004074625881N00808850EA0221902287
B1004084625884N00808859EA0221702286
B1004094625886N00808868EA0221602285
B1004104625889N00808877EA0221502284
B1004114625891N00808886EA0221502283
B1004124625894N00808895EA0221302282
B1004134625896N00808904EA0221202281
B1004144625900N00808914EA0221102280
B1004154625902N00808923EA0221002279
B1004164625905N00808933EA0220902278
B1004174625908N00808942EA0220802277
B1004184625911N00808951EA0220802277
B1004194625914N00808960EA0220602275
B1004204625917N00808969EA0220502274
B1004214625919N00808978EA0220402273
B1004224625922N00808986EA0220302272
B1004234625926N00808995EA0220202271
B1004244625929N00809004EA0220102270
B1004254625933N00809012EA0220002269
B1004264625936N00809021EA0219902268
B1004274625939N00809029EA0219702266
B1004284625942N00809038EA0219602265
B1004294625945N00809046EA0219502264
B1004304625949N00809055EA0219402263
B1004314625952N00809063EA0219302262
B1004314625952N00809063EA0219102260
B1004324625956N00809072EA0219102260
B1004334625959N00809081EA0218902258
B1004344625962N00809089EA0218702256
B1004354625966N00809098EA0218702256
B1004364625969N00809107EA0218602255
B1004374625972N00809116EA0218502254
B1004384625975N00809124EA0218302252
B1004394625978N00809132EA0218102250
B1004404625981N00809140EA0217902248
B1004414625984N00809149EA0217802247
B1004424625987N00809158EA0217702246
B1004434625990N00809167EA0217502244
B1004444625993N00809175EA0217302242
B1004454625996N00809183EA0217202240
B1004464625998N00809191EA0216902238
B1004474626001N00809200EA0216802237
B1004484626004N00809208EA0216602235
B1004494626007N00809217EA0216502234
B1004504626011N00809225EA0216302232
B1004514626015N00809233EA0216202231
B1004524626018N00809241EA0216002229
B1004534626020N00809249EA0215802227
B1004544626023N00809257EA0215502224
B1004554626026N00809266EA0215302222
B1004564626030N00809275EA0215202221
B1004574626033N00809284EA0215102220
B1004584626035N00809292EA0215102219
B1004594626038N00809301EA0214902218
B1005004626041N00809309EA0214702216
B1005014626044N00809316EA0214502214
B1005024626047N00809325EA0214302211
B1005034626050N00809334EA0214102210
B1005044626053N00809343EA0214002209
B1005054626057N00809352EA0213902208
B1005064626060N00809361EA0213902208
B1005074626063N00809369EA0213802207
B1005084626066N00809378EA0213702206
B1005094626069N00809386EA0213502204
B1005104626073N00809394EA0213402203
B1005114626076N00809403EA0213302201
B1005124626079N00809411EA0213102200
B1005134626083N00809420EA0213102200
B1005144626086N00809428EA0213002199
B1005154626089N00809437EA0212902198
B1005164626092N00809445EA0212802197
B1005174626095N00809453EA0212602195
B1005184626097N00809462EA0212402193
B1005194626099N00809471EA0212302192
B1005204626101N00809480EA0212202191
B1005214626104N00809489EA0212002189
B1005224626107N00809497EA0211802187
B1005234626109N00809506EA0211602185
B1005244626112N00809515EA0211502184
B1005254626114N00809524EA0211302182
B1005264626117N00809532EA0211102180
B1005274626121N00809541EA0210902178
B1005284626125N00809550EA0210702176
B1005294626128N00809559EA0210602175
B1005304626129N00809568EA0210502174
B1005314626131N00809578EA0210402173
B1005324626133N00809587EA0210202171
B1005334626136N00809596EA0210002169
B1005344626138N00809605EA0210002169
B1005354626140N00809615EA0209802167
B1005364626142N00809624EA0209702166
B1005374626144N00809634EA0209602165
B1005384626146N00809643EA0209502164
B1005394626148N00809652EA0209402163
B1005404626151N00809662EA0209202161
B1005414626153N00809671EA0209102160
B1005424626155N00809681EA0209002159
B1005434626157N00809691EA0208902158
B1005444626160N00809701EA0208802157
B1005454626162N00809710EA0208702155
B1005464626163N00809720EA0208602155
B1005474626166N00809730EA0208502154
B1005484626168N00809739EA0208302151
B1005494626171N00809749EA0208102150
B1005504626173N00809759EA0208002149
B1005514626174N00809769EA0207902148
B1005524626176N00809779EA0207702146
B1005534626178N00809790EA0207602145
B1005544626180N00809800EA0207402143
B1005554626182N00809810EA0207302142
B1005564626184N00809820EA0207302142
B1005574626187N00809830EA0207202141
B1005584626189N00809839EA0207102140
B1005594626191N00809849EA0207002139
B1006004626193N00809859EA0206902138
B1006014626196N00809869EA0206802137
B1006024626198N00809879EA0206702136
B1006034626200N00809889EA0206602135
B1006044626203N00809899EA0206502134
B1006044626203N00809899EA0206502133
B1006054626206N00809909EA0206402133
B1006064626208N00809918EA0206302132
B1006074626211N00809927EA0206102130
B1006084626213N00809937EA0205902128
B1006094626216N00809947EA0205802127
B1006104626219N00809957EA0205702126
B1006114626222N00809966EA0205502124
B1006124626225N00809977EA0205302122
B1006134626228N00809987EA0205102120
B1006144626231N00809998EA0204902118
B1006154626234N00810008EA0204902117
B1006164626237N00810019EA0204802117
B1006174626240N00810029EA0204702116
B1006184626243N00810039EA0204502114
B1006194626246N00810049EA0204302112
B1006204626248N00810059EA0204102110
B1006214626251N00810070EA0203902108
B1006224626254N00810081EA0203802107
B1006234626257N00810092EA0203602105
B1006244626259N00810102EA0203502104
B1006254626261N00810113EA0203302102
B1006264626263N00810124EA0203102100
B1006274626265N00810135EA0202902098
B1006284626268N00810146EA0202702096
B1006294626271N00810157EA0202602095
B1006304626272N00810169EA0202502094
B1006314626275N00810179EA0202302092
B1006324626277N00810190EA0202202090
B1006334626280N00810201EA0202002089
B1006344626282N00810212EA0201802087
B1006354626284N00810223EA0201702085
B1006364626286N00810234EA0201602084
B1006374626288N00810245EA0201402083
B1006384626291N00810256EA0201302082
B1006394626293N00810266EA0201102080
B1006404626296N00810277EA0201002079
B1006414626299N00810288EA0200802077
B1006424626301N00810298EA0200702076
B1006434626305N00810309EA0200602075
B1006444626308N00810320EA0200402073
B1006454626311N00810331EA0200202071
B1006464626314N00810342EA0200002069
B1006474626317N00810352EA0199902068
B1006484626321N00810363EA0199702066
B1006494626326N00810373EA0199502064
B1006504626330N00810383EA0199402063
B1006514626334N00810393EA0199202061
B1006524626338N00810403EA0199102059
B1006534626343N00810413EA0198802057
B1006544626348N00810422EA0198702056
B1006554626353N00810432EA0198602055
B1006564626357N00810441EA0198402053
B1006574626361N00810450EA0198302052
B1006574626361N00810450EA0198102050
B1006584626364N00810461EA0198102050
B1006594626366N00810472EA0197902048
B1007004626365N00810483EA0197502044
B1007014626362N00810492EA0197202041
B1007024626357N00810499EA0197002039
B1007034626352N00810503EA0197002039
B1007044626347N00810505EA0196902038
B1007054626343N00810505EA0196802037
B1007064626339N00810505EA0196602035
B1007074626335N00810505EA0196402033
B1007084626331N00810504EA0196102030
B1007094626327N00810501EA0195902028
B1007104626323N00810498EA0195702025
B1007114626319N00810495EA0195502024
B1007124626315N00810492EA0195602024
B1007134626310N00810489EA0195502024
B1007144626305N00810483EA0196102030
B1007154626304N00810476EA0196502034
B1007164626303N00810473EA0196802037
B1007174626301N00810471EA0196802037
B1007184626300N00810469EA0196602035
B1007194626298N00810467EA0196402033
B1007204626296N00810465EA0196402032
B1007214626293N00810460EA0196302032
B1007224626290N00810455EA0196302032
B1007234626288N00810451EA0196202031
B1007244626285N00810447EA0196202031
B1007254626283N00810445EA0196002029
B1007264626280N00810443EA0195702026
B1007274626276N00810441EA0195602025
B1007284626272N00810439EA0195502024
B1007294626268N00810438EA0195602024
B1007304626264N00810436EA0195502024
B1007314626259N00810436EA0195402023
B1007324626255N00810435EA0195102020
B1007334626251N00810434EA0195102019
B1007344626247N00810432EA0195102020
B1007354626242N00810430EA0195202021
B1007364626239N00810427EA0195302022
B1007374626237N00810425EA0195102020
B1007384626235N00810422EA0194902018
B1007394626232N00810418EA0194702016
B1007404626229N00810413EA0194902018
B1007414626226N00810408EA0195402023
B1007424626226N00810403EA0195702026
B1007434626225N00810399EA0195802027
B1007444626224N00810395EA0195702026
B1007454626221N00810391EA0195602025
B1007464626218N00810387EA0195602025
B1007474626215N00810384EA0195802027
B1007484626211N00810382EA0195702026
B1007494626209N00810382EA0195402023
B1007504626206N00810383EA0194802017
B1007514626203N00810383EA0194102010
B1007524626201N00810381EA0193702006
B1007534626199N00810377EA0193702006
B1007544626197N00810373EA0193702006
B1007554626195N00810369EA0193602005
B1007564626191N00810366EA0193001999
B1007574626188N00810364EA0192501994
B1007584626185N00810361EA0192501994
B1007594626180N00810359EA0192501994
B1008004626176N00810357EA0192501994
B1008014626171N00810355EA0192701996
B1008024626168N00810352EA0192801996
B1008034626164N00810350EA0192801997
B1008044626161N00810347EA0192901998
B1008054626156N00810344EA0192901998
B1008064626151N00810340EA0193202001
B1008074626149N00810336EA0193602005
B1008084626146N00810333EA0193602005
B1008094626144N00810333EA0193202001
B1008104626144N00810334EA0192601995
B1008114626141N00810334EA0191901988
B1008124626137N00810330EA0191801987
B1008134626132N00810325EA0192001989
B1008144626129N00810321EA0192101990
B1008154626128N00810317EA0192001989
B1008164626126N00810316EA0191701986
B1008174626124N00810314EA0191201981
B1008184626122N00810312EA0190801977
B1008194626119N00810310EA0190601975
B1008204626115N00810305EA0190601975
B1008214626113N00810300EA0190501974
B1008224626111N00810296EA0190401973
B1008234626108N00810293EA0190101970
B1008244626105N00810291EA0189801967
B1008254626101N00810287EA0189701966
B1008264626098N00810283EA0189801967
B1008274626095N00810279EA0189701966
B1008284626092N00810277EA0189601964
B1008294626089N00810274EA0189301962
B1008304626086N00810272EA0188901958
B1008314626084N00810269EA0188801957
B1008324626080N00810264EA0188801957
B1008334626077N00810260EA0189001959
B1008344626075N00810256EA0189001959
B1008354626074N00810253EA0188901958
B1008364626073N00810251EA0188801956
B1008374626071N00810248EA0188401953
B1008384626069N00810245EA0188301952
B1008394626066N00810242EA0188801957
B1008404626063N00810237EA0188901958
B1008414626060N00810232EA0188801957
B1008424626057N00810227EA0188801956
B1008434626054N00810223EA0188601955
B1008444626051N00810219EA0188501954
B1008454626048N00810215EA0188501954
B1008464626045N00810211EA0188601955
B1008474626043N00810207EA0188601955
B1008484626041N00810204EA0188401953
B1008494626040N00810201EA0188001949
B1008504626038N00810198EA0187801946
B1008514626035N00810195EA0187401943
B1008524626030N00810191EA0187301942
B1008534626026N00810187EA0187301942
B1008544626023N00810183EA0187301942
B1008554626021N00810179EA0187101940
B1008564626019N00810175EA0186801937
B1008574626016N00810172EA0186701936
B1008584626013N00810168EA0186701936
B1008594626009N00810164EA0186701936
B1009004626004N00810161EA0186801937
B1009014626001N00810157EA0186701936
B1009024625998N00810153EA0186701935
B1009034625994N00810149EA0186501934
B1009044625991N00810146EA0186301932
B1009054625986N00810142EA0186301932
B1009064625981N00810138EA0186301932
B1009074625976N00810135EA0186401932
B1009084625973N00810132EA0186301932
B1009094625972N00810127EA0186201931
B1009104625968N00810123EA0186101929
B1009114625964N00810118EA0185901928
B1009124625960N00810113EA0185801927
B1009134625957N00810109EA0185801927
B1009144625952N00810105EA0186001929
B1009154625948N00810103EA0186101930
B1009164625944N00810100EA0186101930
B1009174625940N00810098EA0186101930
B1009184625936N00810097EA0186001929
B1009194625931N00810095EA0186001929
B1009204625927N00810094EA0186001929
B1009214625923N00810094EA0185801927
B1009224625919N00810094EA0185601924
B1009234625916N00810090EA0185401923
B1009244625911N00810087EA0185101920
B1009254625907N00810084EA0185001919
B1009264625904N00810082EA0184601915
B1009274625902N00810078EA0184301912
B1009284625901N00810072EA0184101910
B1009294625900N00810067EA0183801907
B1009304625896N00810061EA0183101900
B1009314625892N00810055EA0183101900
B1009324625889N00810048EA0182601895
B1009334625885N00810041EA0182701895
B1009344625882N00810034EA0182701896
B1009354625879N00810029EA0182601895
B1009364625874N00810024EA0182301892
B1009374625870N00810020EA0181801887
B1009384625866N00810015EA0181401883
B1009394625862N00810009EA0181301882
B1009404625858N00810003EA0181201881
B1009414625854N00809998EA0181101879
B1009424625850N00809993EA0180701876
B1009434625846N00809989EA0180601875
B1009444625842N00809986EA0180401873
B1009454625838N00809982EA0180101870
B1009464625834N00809978EA0179901868
B1009474625830N00809974EA0179601865
B1009484625825N00809970EA0179501864
B1009494625821N00809965EA0179301862
B1009494625821N00809965EA0179101860
B1009504625817N00809961EA0179101859
B1009514625813N00809956EA0178901858
B1009524625809N00809952EA0178701856
B1009534625806N00809947EA0178401853
B1009544625802N00809943EA0178201851
B1009554625798N00809939EA0178001849
B1009564625793N00809935EA0177801847
B1009574625789N00809931EA0177701846
B1009584625785N00809927EA0177501844
B1009594625780N00809923EA0177301842
B1010004625776N00809919EA0177101840
B1010014625772N00809914EA0177001839
B1010024625768N00809909EA0176801837
B1010034625764N00809905EA0176601835
B1010044625759N00809900EA0176501834
B1010054625755N00809895EA0176501834
B1010064625751N00809891EA0176401833
B1010074625747N00809887EA0176201831
B1010084625742N00809884EA0176001829
B1010094625737N00809880EA0175901828
B1010104625732N00809876EA0175801827
B1010114625727N00809872EA0175801827
B1010124625723N00809867EA0176201831
B1010134625719N00809864EA0176401833
B1010144625717N00809861EA0176301832
B1010154625714N00809859EA0176001829
B1010164625712N00809856EA0175701826
B1010174625709N00809853EA0175501824
B1010184625705N00809848EA0175401823
B1010194625700N00809844EA0175401823
B1010204625697N00809838EA0175301822
B1010214625693N00809834EA0175101820
B1010224625691N00809831EA0174801817
B1010234625687N00809826EA0174401813
B1010244625684N00809822EA0174201811
B1010254625679N00809818EA0174101810
B1010264625673N00809815EA0173901808
B1010274625667N00809813EA0173801807
B1010284625662N00809811EA0173601805
B1010294625658N00809809EA0173401803
B1010304625653N00809807EA0173101800
B1010314625648N00809804EA0172901798
B1010324625642N00809802EA0172801797
B1010334625636N00809799EA0172701796
B1010344625631N00809797EA0172701796
B1010354625626N00809796EA0172701795
B1010364625621N00809794EA0172501794
B1010374625618N00809793EA0172301792
B1010384625613N00809791EA0172201791
B1010394625609N00809789EA0172101790
B1010404625604N00809787EA0172001789
B1010414625599N00809785EA0171901788
B1010424625595N00809783EA0171701786
B1010434625590N00809782EA0171501784
B1010444625586N00809780EA0171301782
B1010454625581N00809778EA0171101780
B1010464625576N00809776EA0171001779
B1010474625570N00809775EA0170901778
B1010484625565N00809773EA0170801777
B1010494625561N00809771EA0170701776
B1010504625556N00809770EA0170601775
B1010514625551N00809768EA0170401773
B1010524625547N00809766EA0170201771
B1010534625542N00809763EA0170101770
B1010544625537N00809760EA0170001768
B1010554625533N00809758EA0169801767
B1010564625528N00809755EA0169701766
B1010574625524N00809752EA0169501764
B1010584625519N00809749EA0169401763
B1010594625515N00809745EA0169401763
B1011004625510N00809742EA0169401763
B1011014625506N00809739EA0169301762
B1011024625502N00809737EA0169201761
B1011034625499N00809735EA0169101760
B1011044625494N00809733EA0169001759
B1011054625490N00809731EA0168801757
B1011064625486N00809730EA0168701756
B1011074625481N00809727EA0168601755
B1011084625477N00809725EA0168601755
B1011094625472N00809723EA0168501754
B1011104625468N00809720EA0168301752
B1011114625463N00809718EA0168101750
B1011124625459N00809716EA0167901747
B1011134625454N00809714EA0167701746
B1011144625449N00809710EA0167601744
B1011154625444N00809707EA0167401743
B1011164625440N00809704EA0167301742
B1011174625434N00809700EA0167201741
B1011184625431N00809697EA0167001739
B1011194625426N00809693EA0166801737
B1011204625422N00809690EA0166701736
B1011214625418N00809687EA0166501734
B1011224625413N00809684EA0166301732
B1011234625408N00809681EA0166201731
B1011244625404N00809679EA0166001729
B1011254625399N00809677EA0165901728
B1011264625395N00809675EA0165701726
B1011274625391N00809672EA0165501724
B1011284625386N00809670EA0165301722
B1011294625382N00809667EA0165201721
B1011304625377N00809664EA0165001719
B1011314625372N00809662EA0164801717
B1011324625368N00809660EA0164701716
B1011334625363N00809658EA0164501714
B1011344625359N00809657EA0164301712
B1011354625354N00809655EA0164001709
B1011364625350N00809652EA0163801707
B1011374625346N00809650EA0163701706
B1011384625341N00809647EA0163701706
B1011394625337N00809645EA0163601704
B1011404625334N00809643EA0163401703
B1011414625330N00809640EA0163201701
B1011424625327N00809637EA0163101700
B1011434625323N00809633EA0163001699
B1011444625320N00809630EA0163001699
B1011454625316N00809628EA0162901698
B1011464625313N00809625EA0162801697
B1011474625310N00809622EA0162601695
B1011484625306N00809619EA0162501694
B1011494625302N00809616EA0162501694
B1011504625299N00809611EA0162501694
B1011514625295N00809606EA0162501693
B1011524625293N00809602EA0162301692
B1011524625293N00809602EA0162101690
B1011534625291N00809599EA0162101689
B1011544625288N00809595EA0161801687
B1011544625288N00809595EA0161601685
B1011554625284N00809591EA0161601685
B1011564625280N00809586EA0161601685
B1011574625276N00809582EA0161601685
B1011584625272N00809578EA0161501684
B1011594625268N00809575EA0161501684
B1012004625265N00809572EA0161401683
B1012014625262N00809569EA0161201681
B1012024625258N00809565EA0161101680
B1012034625254N00809562EA0160901678
B1012044625251N00809559EA0160701676
B1012054625247N00809556EA0160501674
B1012064625242N00809554EA0160401672
B1012074625238N00809551EA0160301672
B1012084625234N00809548EA0160301671
B1012094625229N00809545EA0160201670
B1012104625225N00809543EA0159901668
B1012114625220N00809542EA0159701666
B1012124625215N00809540EA0159501664
B1012134625210N00809538EA0159401662
B1012144625205N00809536EA0159201661
B1012154625199N00809533EA0159101660
B1012164625192N00809531EA0159201661
B1012174625187N00809530EA0159301662
B1012184625181N00809529EA0159501664
B1012194625178N00809529EA0159401663
B1012204625175N00809530EA0159201661
B1012214625171N00809529EA0159101660
B1012224625167N00809529EA0159001659
B1012234625162N00809527EA0159101660
B1012244625158N00809527EA0159201661
B1012254625153N00809526EA0159101660
B1012264625150N00809526EA0159001659
B1012274625147N00809526EA0158701656
B1012284625144N00809524EA0158401653
B1012294625141N00809522EA0158301652
B1012304625137N00809518EA0158201651
B1012314625134N00809513EA0158201651
B1012324625132N00809508EA0158101650
B1012334625130N00809502EA0158101649
B1012344625128N00809497EA0157901647
B1012344625128N00809497EA0157601645
B1012354625126N00809493EA0157601645
B1012364625124N00809488EA0157401643
B1012364625124N00809488EA0157401643
B1012374625122N00809482EA0157401643
B1012384625120N00809477EA0157501644
B1012394625117N00809471EA0157901648
B1012404625114N00809465EA0158201651
B1012414625111N00809460EA0158501654
B1012424625109N00809456EA0158601655
B1012434625107N00809453EA0158701656
B1012444625104N00809448EA0158901658
B1012454625102N00809444EA0159001659
B1012464625100N00809437EA0159201661
B1012474625098N00809430EA0159401663
B1012484625098N00809423EA0159601665
B1012494625101N00809417EA0159701666
B1012504625106N00809414EA0159801667
B1012514625110N00809412EA0159801667
B1012514625110N00809412EA0159701666
B1012524625114N00809409EA0159701666
B1012534625118N00809406EA0159701665
B1012544625123N00809403EA0159601665
B1012544625123N00809403EA0159501664
B1012554625134N00809399EA0159501664
B1012564625142N00809400EA0159501664
B1012564625142N00809400EA0159601665
B1012574625149N00809405EA0159601665
B1012584625155N00809410EA0159701666
B1012594625159N00809417EA0159701666
B1013004625162N00809424EA0159601665
B1013014625163N00809433EA0159301662
B1013024625161N00809443EA0159101660
B1013034625159N00809452EA0159001659
B1013044625156N00809460EA0159001659
B1013054625150N00809467EA0159101660
B1013064625145N00809473EA0159201661
B1013074625140N00809477EA0159301662
B1013084625135N00809480EA0159201661
B1013084625135N00809480EA0159201661
B1013094625130N00809481EA0159201661
B1013104625126N00809481EA0159301662
B1013114625121N00809480EA0159501664
B1013124625117N00809478EA0159701666
B1013134625113N00809476EA0159801667
B1013134625113N00809476EA0159801667
B1013144625110N00809474EA0159801667
B1013144625110N00809474EA0159901668
B1013154625107N00809471EA0159901668
B1013164625103N00809468EA0159901668
B1013174625099N00809464EA0160101670
B1013174625099N00809464EA0160401673
B1013184625096N00809460EA0160401673
B1013194625092N00809456EA0160701676
B1013204625089N00809453EA0160901678
B1013214625086N00809449EA0161001679
B1013224625084N00809445EA0160901678
B1013234625082N00809441EA0160901678
B1013244625087N00809435EA0160901677
B1013254625094N00809432EA0160901678
B1013264625103N00809430EA0161001679
B1013274625110N00809434EA0161101680
B1013284625116N00809440EA0161201681
B1013294625120N00809447EA0161201681
B1013304625123N00809455EA0161301682
B1013314625124N00809464EA0161301682
B1013324625125N00809474EA0161501684
B1013334625124N00809483EA0161801687
B1013344625123N00809492EA0161901688
B1013354625121N00809499EA0162001689
B1013364625118N00809505EA0162001689
B1013374625112N00809511EA0162101690
B1013384625105N00809514EA0162301692
B1013394625100N00809514EA0162501694
B1013404625095N00809514EA0162701696
B1013414625091N00809512EA0162801697
B1013424625088N00809510EA0163001698
B1013434625085N00809508EA0163001698
B1013444625082N00809505EA0163001699
B1013454625078N00809499EA0163101700
B1013464625077N00809494EA0163101700
B1013474625079N00809489EA0163101700
B1013484625084N00809485EA0163101700
B1013494625089N00809484EA0163201701
B1013504625096N00809483EA0163201701
B1013514625102N00809485EA0163301702
B1013524625108N00809489EA0163401703
B1013534625113N00809496EA0163501704
B1013544625116N00809503EA0163601704
B1013554625119N00809512EA0163701706
B1013564625119N00809521EA0163801707
B1013574625118N00809531EA0163901708
B1013584625116N00809539EA0164001709
B1013594625113N00809544EA0164201711
B1014004625107N00809549EA0164501714
B1014014625103N00809553EA0164601715
B1014024625098N00809555EA0164501714
B1014034625093N00809554EA0164401713
B1014034625093N00809554EA0164401713
B1014044625090N00809549EA0164401713
B1014044625090N00809549EA0164601715
B1014054625088N00809541EA0164601715
B1014064625086N00809534EA0164701716
B1014074625086N00809529EA0164701716
B1014084625088N00809526EA0164601715
B1014094625091N00809524EA0164401713
B1014104625095N00809521EA0164501714
B1014104625095N00809521EA0164601715
B1014114625101N00809520EA0164701715
B1014124625108N00809521EA0164801717
B1014124625108N00809521EA0165001719
B1014134625114N00809525EA0165001719
B1014144625120N00809530EA0165101720
B1014154625123N00809535EA0165201721
B1014164625125N00809543EA0165301722
B1014174625126N00809552EA0165401723
B1014174625126N00809552EA0165501724
B1014184625125N00809561EA0165501724
B1014194625122N00809569EA0165701726
B1014204625119N00809576EA0165801727
B1014214625116N00809582EA0165901727
B1014224625113N00809587EA0165901728
B1014234625106N00809586EA0165901728
B1014244625103N00809584EA0165901728
B1014254625100N00809579EA0165901728
B1014264625097N00809571EA0166001729
B1014264625097N00809571EA0166101730
B1014274625096N00809564EA0166101730
B1014284625096N00809557EA0166301732
B1014294625097N00809553EA0166401733
B1014304625100N00809549EA0166501733
B1014314625104N00809546EA0166501734
B1014324625105N00809543EA0166401733
B1014334625108N00809543EA0166201731
B1014344625112N00809545EA0165901727
B1014354625115N00809549EA0165601725
B1014364625120N00809550EA0165601725
B1014374625126N00809550EA0165601725
B1014384625132N00809548EA0165601725
B1014394625135N00809544EA0165401723
B1014404625135N00809539EA0165401723
B1014414625133N00809534EA0165401723
B1014424625131N00809530EA0165401723
B1014434625129N00809526EA0165201721
B1014444625126N00809522EA0165001719
B1014454625124N00809518EA0164801717
B1014464625122N00809514EA0164801717
B1014474625120N00809508EA0164801716
B1014484625118N00809501EA0164601715
B1014494625117N00809495EA0164501714
B1014504625115N00809489EA0164301712
B1014514625113N00809484EA0164201711
B1014524625111N00809478EA0164101710
B1014534625108N00809472EA0164401713
B1014544625104N00809466EA0164701716
B1014554625100N00809462EA0165001718
B1014564625097N00809457EA0165001719
B1014574625094N00809453EA0164901718
B1014584625091N00809449EA0164601715
B1014594625086N00809446EA0164301712
B1015004625082N00809442EA0164101710
B1015014625077N00809439EA0163901708
B1015024625072N00809434EA0163601704
B1015034625070N00809428EA0163301702
B1015044625069N00809421EA0163001699
B1015054625070N00809414EA0162901698
B1015064625071N00809407EA0162801697
B1015074625073N00809401EA0162701696
B1015084625076N00809397EA0162601694
B1015094625080N00809395EA0162301692
B1015104625085N00809394EA0162101690
B1015114625091N00809395EA0161801687
B1015124625097N00809398EA0161701686
B1015134625103N00809403EA0161501684
B1015144625108N00809408EA0161401683
B1015154625113N00809415EA0161401683
B1015164625118N00809421EA0161301682
B1015174625123N00809427EA0161201681
B1015184625129N00809432EA0161201681
B1015194625135N00809436EA0161401683
B1015204625142N00809440EA0161501684
B1015214625147N00809444EA0161701685
B1015224625153N00809446EA0161801687
B1015234625158N00809448EA0161801687
B1015244625163N00809450EA0161701686
B1015254625168N00809452EA0161601685
B1015264625174N00809453EA0161601685
B1015274625180N00809456EA0161601685
B1015284625187N00809460EA0161701686
B1015294625192N00809467EA0161801687
B1015304625196N00809474EA0161801687
B1015314625198N00809483EA0161601685
B1015324625198N00809492EA0161501684
B1015334625197N00809501EA0161501684
B1015344625193N00809508EA0161501684
B1015354625189N00809514EA0161601685
B1015364625186N00809519EA0161601685
B1015374625180N00809520EA0161601685
B1015384625175N00809516EA0161601685
B1015394625171N00809513EA0161701686
B1015404625165N00809506EA0161701686
B1015414625163N00809500EA0161801687
B1015424625162N00809493EA0161901688
B1015434625163N00809487EA0162001689
B1015444625165N00809483EA0162001689
B1015454625169N00809479EA0161901688
B1015464625173N00809476EA0161701686
B1015464625173N00809476EA0161701685
B1015474625181N00809475EA0161701685
B1015484625188N00809475EA0161701686
B1015494625196N00809477EA0161801687
B1015504625203N00809481EA0161801687
B1015514625209N00809487EA0161701686
B1015524625212N00809494EA0161601685
B1015534625216N00809502EA0161501684
B1015544625217N00809511EA0161501684
B1015554625216N00809520EA0161401683
B1015564625213N00809527EA0161401683
B1015574625210N00809532EA0161301682
B1015584625205N00809535EA0161301681
B1015594625200N00809537EA0161201681
B1015594625200N00809537EA0161101680
B1016004625195N00809537EA0161101680
B1016014625190N00809535EA0161001679
B1016024625185N00809532EA0161001679
B1016034625182N00809528EA0161101680
B1016044625179N00809524EA0161301682
B1016044625179N00809524EA0161401682
B1016054625176N00809520EA0161401682
B1016064625173N00809516EA0161301682
B1016074625170N00809512EA0161301682
B1016074625170N00809512EA0161401682
B1016084625167N00809508EA0161401683
B1016094625164N00809504EA0161501684
B1016104625162N00809500EA0161601685
B1016114625160N00809497EA0161601685
B1016124625158N00809494EA0161501684
B1016134625156N00809492EA0161501684
B1016144625154N00809490EA0161501684
B1016154625151N00809487EA0161501684
B1016164625150N00809484EA0161501683
B1016174625148N00809482EA0161201681
B1016184625145N00809480EA0161101680
B1016194625142N00809478EA0161101679
B1016204625138N00809475EA0161001679
B1016214625134N00809472EA0161201681
B1016224625129N00809470EA0161201681
B1016234625125N00809469EA0161101680
B1016244625122N00809469EA0161001679
B1016254625117N00809467EA0161001679
B1016264625112N00809464EA0161101680
B1016274625107N00809461EA0161501684
B1016284625103N00809458EA0161601685
B1016294625101N00809454EA0161401683
B1016304625100N00809451EA0161301681
B1016314625099N00809445EA0161201681
B1016324625099N00809439EA0161301682
B1016334625100N00809433EA0161401682
B1016344625103N00809428EA0161401683
B1016354625109N00809425EA0161501684
B1016364625115N00809424EA0161701686
B1016374625121N00809427EA0161701685
B1016384625125N00809430EA0161601685
B1016394625129N00809436EA0161501684
B1016404625132N00809443EA0161401683
B1016414625134N00809450EA0161401683
B1016424625132N00809462EA0161601684
B1016434625130N00809471EA0161701686
B1016444625126N00809480EA0161901688
B1016454625122N00809487EA0161901688
B1016464625116N00809492EA0161801687
B1016474625110N00809494EA0161801687
B1016484625107N00809493EA0161801687
B1016494625103N00809491EA0161701686
B1016504625100N00809483EA0161701686
B1016514625100N00809475EA0161901688
B1016524625100N00809465EA0162201691
B1016534625101N00809457EA0162501694
B1016544625102N00809452EA0162501694
B1016554625103N00809448EA0162601695
B1016564625104N00809445EA0162601695
B1016574625107N00809441EA0162401693
B1016584625110N00809437EA0162301692
B1016594625116N00809437EA0162401693
B1017004625123N00809438EA0162401693
B1017014625128N00809443EA0162401693
B1017024625134N00809448EA0162301692
B1017034625138N00809455EA0162201691
B1017044625141N00809462EA0162101690
B1017054625143N00809471EA0162101690
B1017064625145N00809480EA0162301691
B1017074625147N00809489EA0162501694
B1017084625147N00809498EA0162701695
B1017094625147N00809504EA0162701696
B1017104625144N00809509EA0162701696
B1017114625139N00809514EA0162701696
B1017124625134N00809518EA0162701696
B1017134625129N00809519EA0162701696
B1017144625125N00809519EA0162601695
B1017154625121N00809517EA0162501694
B1017164625118N00809513EA0162501694
B1017174625115N00809508EA0162601695
B1017184625112N00809503EA0162801697
B1017194625109N00809499EA0163001699
B1017204625105N00809494EA0163201701
B1017214625103N00809490EA0163501704
B1017224625100N00809485EA0163701706
B1017234625097N00809481EA0163901707
B1017244625094N00809477EA0164001709
B1017254625092N00809472EA0163901708
B1017264625091N00809467EA0163701706
B1017274625091N00809463EA0163501704
B1017284625097N00809458EA0163401703
B1017294625104N00809456EA0163501704
B1017304625112N00809456EA0163701706
B1017314625120N00809459EA0163901708
B1017324625126N00809464EA0164101710
B1017334625130N00809469EA0164301711
B1017344625134N00809476EA0164201711
B1017354625137N00809482EA0164201711
B1017364625139N00809490EA0164101710
B1017374625141N00809498EA0164001709
B1017384625142N00809506EA0164101710
B1017394625143N00809516EA0164401712
B1017404625142N00809525EA0164401713
B1017414625141N00809533EA0164401713
B1017424625139N00809540EA0164301712
B1017434625135N00809547EA0164301712
B1017444625131N00809554EA0164401712
B1017454625127N00809557EA0164401713
B1017464625123N00809559EA0164401712
B1017474625116N00809556EA0164401713
B1017484625112N00809553EA0164501714
B1017494625109N00809549EA0164501714
B1017504625107N00809545EA0164501714
B1017514625104N00809541EA0164401713
B1017524625103N00809536EA0164201711
B1017534625101N00809531EA0164001709
B1017544625100N00809525EA0163901708
B1017554625098N00809519EA0163801707
B1017564625096N00809513EA0163801706
B1017574625094N00809508EA0163701706
B1017584625093N00809504EA0163701706
B1017594625091N00809499EA0163601705
B1018004625090N00809494EA0163901708
B1018014625089N00809488EA0164101710
B1018024625088N00809483EA0164301712
B1018034625085N00809479EA0164401713
B1018044625083N00809476EA0164401713
B1018054625082N00809473EA0164401713
B1018064625079N00809468EA0164501714
B1018074625078N00809464EA0164701716
B1018084625076N00809460EA0164901718
B1018094625074N00809456EA0165001718
B1018104625072N00809452EA0165001719
B1018114625070N00809448EA0165001719
B1018124625066N00809444EA0165101720
B1018134625063N00809440EA0165401722
B1018144625060N00809437EA0165701725
B1018154625058N00809433EA0165901728
B1018164625056N00809429EA0165901728
B1018174625057N00809425EA0165801727
B1018184625059N00809423EA0165701726
B1018194625062N00809420EA0165501724
B1018204625068N00809420EA0165301722
B1018214625075N00809420EA0165201721
B1018224625082N00809424EA0165201720
B1018234625088N00809429EA0165101719
B1018244625094N00809435EA0164901718
B1018254625098N00809443EA0164901718
B1018264625101N00809451EA0164901718
B1018274625104N00809460EA0164801717
B1018284625106N00809468EA0164901718
B1018294625107N00809477EA0164901718
B1018304625105N00809486EA0165001719
B1018314625104N00809493EA0165201720
B1018324625101N00809499EA0165201721
B1018334625097N00809504EA0165401723
B1018344625092N00809509EA0165601725
B1018354625089N00809513EA0165801727
B1018364625084N00809517EA0165701726
B1018374625079N00809517EA0165601725
B1018384625075N00809515EA0165501724
B1018394625071N00809511EA0165501724
B1018404625070N00809506EA0165601725
B1018414625069N00809501EA0165601725
B1018424625069N00809494EA0165501724
B1018434625069N00809488EA0165401723
B1018444625067N00809482EA0165401723
B1018454625066N00809476EA0165501724
B1018464625063N00809471EA0165601725
B1018474625061N00809466EA0165701726
B1018484625060N00809461EA0165701726
B1018494625057N00809458EA0165701725
B1018504625055N00809454EA0165701726
B1018514625052N00809450EA0165901727
B1018524625048N00809446EA0166201731
B1018534625045N00809442EA0166701735
B1018544625042N00809437EA0167001739
B1018554625041N00809433EA0167201741
B1018564625038N00809429EA0167301741
B1018574625036N00809426EA0167201741
B1018584625033N00809422EA0167101740
B1018594625029N00809418EA0167301742
B1019004625026N00809413EA0167601745
B1019004625026N00809413EA0167901748
B1019014625023N00809408EA0167901748
B1019024625020N00809403EA0168101750
B1019034625017N00809398EA0168301752
B1019044625016N00809393EA0168301752
B1019054625015N00809388EA0168301752
B1019064625017N00809381EA0168201751
B1019074625021N00809373EA0168401753
B1019084625027N00809371EA0168701756
B1019094625037N00809370EA0169101760
B1019104625044N00809373EA0169401763
B1019114625050N00809377EA0169501764
B1019124625053N00809384EA0169701766
B1019134625054N00809393EA0169801767
B1019144625054N00809402EA0170001769
B1019154625052N00809411EA0170201771
B1019164625050N00809419EA0170401773
B1019174625048N00809425EA0170601775
B1019184625045N00809431EA0170701775
B1019194625041N00809432EA0170801777
B1019204625038N00809432EA0170901778
B1019214625037N00809428EA0171101780
B1019224625037N00809425EA0171201780
B1019234625038N00809416EA0171301782
B1019244625042N00809408EA0171501784
B1019254625045N00809402EA0171901787
B1019264625052N00809402EA0172101790
B1019274625057N00809406EA0172201791
B1019284625061N00809411EA0172301792
B1019294625064N00809418EA0172501794
B1019304625065N00809427EA0172701796
B1019314625063N00809435EA0172801797
B1019324625062N00809443EA0172901798
B1019334625060N00809450EA0173001799
B1019344625058N00809456EA0173101800
B1019354625054N00809461EA0173301802
B1019364625046N00809459EA0173501803
B1019374625041N00809457EA0173501804
B1019384625038N00809453EA0173501804
B1019394625034N00809451EA0173501804
B1019404625032N00809446EA0173601805
B1019414625029N00809437EA0173601805
B1019424625028N00809429EA0173601805
B1019434625029N00809422EA0173601805
B1019444625032N00809416EA0173601805
B1019454625037N00809411EA0173801807
B1019464625042N00809409EA0174001809
B1019474625050N00809408EA0174001809
B1019484625057N00809411EA0174001809
B1019494625062N00809416EA0174101810
B1019504625068N00809421EA0174201811
B1019514625071N00809430EA0174201811
B1019524625072N00809440EA0174301812
B1019534625072N00809450EA0174401813
B1019544625069N00809459EA0174601815
B1019554625067N00809466EA0174901817
B1019564625063N00809474EA0175001819
B1019574625058N00809478EA0175201821
B1019584625053N00809482EA0175301822
B1019594625049N00809484EA0175401823
B1020004625044N00809484EA0175401823
B1020014625039N00809483EA0175601825
B1020024625035N00809481EA0175701826
B1020034625033N00809478EA0175701826
B1020044625031N00809474EA0175601825
B1020054625030N00809470EA0175501824
B1020064625032N00809463EA0175401823
B1020074625034N00809458EA0175401823
B1020084625039N00809453EA0175501824
B1020094625047N00809451EA0175401823
B1020104625056N00809448EA0175501824
B1020114625063N00809449EA0175401823
B1020124625070N00809453EA0175401823
B1020134625076N00809459EA0175401823
B1020144625082N00809466EA0175501824
B1020154625084N00809476EA0175601825
B1020164625084N00809485EA0175801826
B1020174625082N00809494EA0175801827
B1020184625080N00809502EA0176001829
B1020194625077N00809509EA0176301832
B1020204625072N00809513EA0176601835
B1020214625067N00809516EA0176801836
B1020224625061N00809518EA0176901838
B1020234625057N00809518EA0177001839
B1020244625054N00809515EA0177101840
B1020254625050N00809513EA0177101840
B1020264625048N00809509EA0177101839
B1020274625047N00809505EA0177101840
B1020284625050N00809500EA0177101840
B1020294625053N00809496EA0177101840
B1020304625059N00809492EA0177101840
B1020314625066N00809490EA0177001839
B1020324625073N00809490EA0177001839
B1020334625081N00809493EA0177001839
B1020344625088N00809499EA0177101840
B1020354625093N00809506EA0177201841
B1020364625096N00809514EA0177401843
B1020374625098N00809523EA0177601845
B1020384625099N00809532EA0177701846
B1020394625097N00809540EA0177801847
B1020404625094N00809548EA0178101850
B1020414625091N00809555EA0178201851
B1020424625087N00809560EA0178501854
B1020434625082N00809562EA0178601855
B1020444625076N00809559EA0178801857
B1020454625072N00809555EA0178901858
B1020464625069N00809551EA0179101859
B1020474625066N00809548EA0179201861
B1020484625063N00809546EA0179201861
B1020494625060N00809544EA0179201860
B1020504625056N00809540EA0179101860
B1020514625053N00809537EA0179201861
B1020524625050N00809534EA0179101860
B1020534625048N00809531EA0179001859
B1020544625045N00809527EA0178901858
B1020554625043N00809524EA0178701856
B1020564625041N00809519EA0178501854
B1020574625039N00809513EA0178401853
B1020584625038N00809507EA0178301852
B1020594625036N00809502EA0178301852
B1021004625034N00809497EA0178301852
B1021014625031N00809492EA0178201851
B1021024625028N00809487EA0178201851
B1021034625025N00809482EA0178401853
B1021044625021N00809477EA0178601855
B1021054625018N00809474EA0178801857
B1021064625015N00809470EA0178801857
B1021074625012N00809467EA0178701856
B1021084625010N00809465EA0178701856
B1021094625007N00809462EA0178401853
B1021104625006N00809457EA0178401853
B1021114625004N00809452EA0178301852
B1021124625003N00809446EA0178201851
B1021134625001N00809441EA0178101850
B1021144624998N00809436EA0178001849
B1021154624997N00809431EA0177801847
B1021164624996N00809424EA0177601845
B1021174624996N00809416EA0177501844
B1021184624995N00809409EA0177601845
B1021194624993N00809401EA0177801847
B1021204624991N00809396EA0177901848
B1021214624988N00809391EA0178001849
B1021224624986N00809387EA0178101850
B1021234624984N00809382EA0178101850
B1021244624982N00809377EA0178301852
B1021254624982N00809371EA0178401853
B1021264624982N00809366EA0178401853
B1021274624984N00809362EA0178401853
B1021284624988N00809357EA0178501854
B1021294624994N00809354EA0178401853
B1021304625000N00809352EA0178401853
B1021314625007N00809352EA0178401852
B1021324625014N00809356EA0178401853
B1021334625019N00809361EA0178501854
B1021344625023N00809368EA0178701856
B1021354625027N00809376EA0178801857
B1021364625029N00809383EA0178801857
B1021374625031N00809392EA0178801857
B1021384625031N00809401EA0178801857
B1021394625030N00809411EA0178901858
B1021404625027N00809420EA0179101860
B1021414625023N00809427EA0179301862
B1021424625020N00809433EA0179401863
B1021434625017N00809437EA0179501864
B1021444625014N00809441EA0179501864
B1021454625011N00809444EA0179401863
B1021464625007N00809448EA0179201861
B1021474625003N00809451EA0179001859
B1021484624997N00809452EA0178801857
B1021494624992N00809451EA0178701856
B1021504624987N00809446EA0178601855
B1021514624983N00809440EA0178501854
B1021524624982N00809431EA0178501853
B1021534624983N00809424EA0178601854
B1021544624984N00809417EA0178701856
B1021554624987N00809411EA0178801857
B1021564624991N00809408EA0178801857
B1021574624995N00809405EA0178801856
B1021584624999N00809401EA0178801857
B1021594625004N00809397EA0178901858
B1022004625009N00809393EA0178901858
B1022014625015N00809389EA0179001859
B1022024625021N00809388EA0179001859
B1022034625027N00809388EA0179001859
B1022044625034N00809389EA0179001859
B1022054625040N00809390EA0179201861
B1022064625046N00809393EA0179401863
B1022074625051N00809395EA0179601865
B1022084625057N00809398EA0179801867
B1022094625061N00809401EA0179801867
B1022104625065N00809403EA0179901868
B1022114625069N00809407EA0179801867
B1022124625073N00809412EA0179701866
B1022134625077N00809418EA0179701865
B1022144625080N00809424EA0179701866
B1022154625081N00809434EA0179701866
B1022164625078N00809444EA0179901868
B1022174625074N00809452EA0179901868
B1022184625070N00809457EA0179901868
B1022194625063N00809462EA0179801867
B1022204625057N00809465EA0179901868
B1022214625052N00809464EA0179901868
B1022224625048N00809460EA0180001869
B1022234625044N00809456EA0179901868
B1022244625042N00809451EA0179801867
B1022254625045N00809444EA0179801867
B1022264625048N00809438EA0180001869
B1022274625052N00809433EA0180201871
B1022284625056N00809430EA0180401873
B1022294625060N00809427EA0180701876
B1022304625064N00809425EA0180801877
B1022314625069N00809423EA0180901878
B1022324625074N00809422EA0181101880
B1022334625081N00809422EA0181201881
B1022344625088N00809424EA0181301882
B1022354625094N00809426EA0181501884
B1022364625099N00809430EA0181501884
B1022364625099N00809430EA0181401883
B1022374625103N00809435EA0181401883
B1022384625105N00809443EA0181201880
B1022394625107N00809451EA0181001879
B1022404625108N00809460EA0181001879
B1022414625106N00809468EA0180901878
B1022424625104N00809475EA0180901877
B1022434625101N00809481EA0180801877
B1022444625099N00809485EA0180801877
B1022454625095N00809486EA0180901878
B1022464625089N00809484EA0180901878
B1022474625083N00809479EA0180901878
B1022484625080N00809473EA0180801877
B1022494625076N00809466EA0180901878
B1022504625072N00809458EA0181101880
B1022514625071N00809450EA0181301882
B1022524625072N00809443EA0181401883
B1022534625074N00809437EA0181501884
B1022544625076N00809431EA0181601885
B1022554625079N00809426EA0181701886
B1022564625081N00809420EA0181901888
B1022574625084N00809414EA0182001889
B1022584625088N00809409EA0182101890
B1022594625095N00809407EA0182201891
B1023004625101N00809406EA0182401892
B1023014625106N00809407EA0182401893
B1023024625111N00809410EA0182501894
B1023034625115N00809413EA0182401893
B1023044625119N00809418EA0182201891
B1023054625122N00809426EA0182101890
B1023064625125N00809434EA0182101889
B1023074625126N00809444EA0182101890
B1023084625124N00809453EA0182101890
B1023094625121N00809461EA0182001889
B1023104625117N00809467EA0182101890
B1023114625114N00809472EA0182301892
B1023124625110N00809476EA0182501894
B1023134625103N00809475EA0182601895
B1023144625098N00809474EA0182801897
B1023154625094N00809473EA0183001899
B1023164625090N00809470EA0183101900
B1023174625086N00809466EA0183201901
B1023184625082N00809463EA0183301902
B1023194625080N00809459EA0183401903
B1023204625078N00809454EA0183301902
B1023214625077N00809447EA0183401903
B1023224625078N00809440EA0183401903
B1023234625079N00809433EA0183501904
B1023244625084N00809427EA0183501904
B1023254625089N00809424EA0183501903
B1023264625094N00809422EA0183401903
B1023274625101N00809422EA0183501904
B1023284625106N00809425EA0183701906
B1023294625110N00809431EA0183901907
B1023304625114N00809436EA0183901908
B1023314625116N00809443EA0184001908
B1023324625115N00809451EA0184101910
B1023334625113N00809458EA0184301912
B1023344625110N00809466EA0184601915
B1023354625107N00809471EA0184901918
B1023364625100N00809475EA0185101920
B1023374625095N00809476EA0185201921
B1023384625091N00809475EA0185201921
B1023394625089N00809470EA0185201921
B1023404625088N00809463EA0185201921
B1023414625088N00809456EA0185201921
B1023424625090N00809450EA0185101920
B1023434625094N00809444EA0185101920
B1023444625100N00809441EA0185101920
B1023454625106N00809439EA0185201921
B1023464625112N00809438EA0185401922
B1023474625118N00809438EA0185501924
B1023484625123N00809437EA0185501924
B1023494625127N00809438EA0185601925
B1023504625131N00809438EA0185501924
B1023514625135N00809439EA0185301922
B1023524625141N00809441EA0185301922
B1023534625146N00809446EA0185201921
B1023544625150N00809453EA0185201921
B1023554625152N00809462EA0185101920
B1023564625153N00809471EA0185201920
B1023574625152N00809479EA0185101920
B1023584625150N00809487EA0185001919
B1023594625148N00809494EA0185001919
B1024004625145N00809502EA0185001919
B1024014625142N00809509EA0185201921
B1024024625136N00809515EA0185501924
B1024034625130N00809520EA0185901928
B1024044625125N00809525EA0186201931
B1024054625121N00809531EA0186401933
B1024064625117N00809534EA0186701936
B1024074625113N00809537EA0186901938
B1024084625109N00809536EA0187101940
B1024094625106N00809533EA0187201941
B1024104625104N00809529EA0187401943
B1024114625103N00809524EA0187701946
B1024124625105N00809517EA0187901948
B1024134625109N00809511EA0188201951
B1024144625114N00809508EA0188501953
B1024154625120N00809505EA0188701955
B1024164625126N00809506EA0188801957
B1024174625132N00809508EA0188801957
B1024184625137N00809513EA0189001959
B1024194625142N00809521EA0189301961
B1024204625145N00809529EA0189501964
B1024214625145N00809538EA0189801967
B1024224625144N00809547EA0190001969
B1024234625141N00809555EA0190201971
B1024244625136N00809560EA0190501974
B1024254625131N00809566EA0190801977
B1024264625126N00809565EA0191101980
B1024274625123N00809562EA0191301982
B1024284625123N00809555EA0191501984
B1024294625123N00809549EA0191701986
B1024304625126N00809542EA0192001989
B1024314625128N00809536EA0192301992
B1024324625132N00809533EA0192501994
B1024334625138N00809532EA0192501994
B1024344625145N00809533EA0192601995
B1024354625152N00809536EA0192901997
B1024364625158N00809540EA0193202000
B1024374625164N00809547EA0193302002
B1024384625169N00809554EA0193302002
B1024394625167N00809563EA0193302002
B1024404625166N00809571EA0193402003
B1024414625164N00809580EA0193602005
B1024424625162N00809588EA0193902007
B1024434625159N00809595EA0194002009
B1024444625157N00809601EA0194202011
B1024454625155N00809605EA0194402013
B1024464625153N00809605EA0194802017
B1024474625148N00809600EA0195102019
B1024474625148N00809600EA0195202021
B1024484625148N00809597EA0195202021
B1024494625149N00809593EA0195302022
B1024504625151N00809587EA0195502024
B1024514625154N00809581EA0195602025
B1024524625157N00809573EA0195702026
B1024534625161N00809569EA0195802026
B1024544625167N00809569EA0195902028
B1024554625174N00809571EA0196102030
B1024564625180N00809575EA0196402032
B1024574625185N00809580EA0196402033
B1024584625188N00809587EA0196302032
B1024594625189N00809596EA0196302032
B1025004625188N00809605EA0196302032
B1025014625187N00809614EA0196502034
B1025024625184N00809620EA0196702036
B1025034625180N00809624EA0196902038
B1025044625176N00809627EA0197102040
B1025054625173N00809627EA0197202041
B1025064625170N00809625EA0197302042
B1025074625167N00809620EA0197402043
B1025084625166N00809615EA0197602045
B1025094625165N00809608EA0197802047
B1025104625165N00809601EA0198002049
B1025114625167N00809595EA0198102050
B1025124625171N00809590EA0198202051
B1025134625176N00809587EA0198302052
B1025144625183N00809586EA0198402053
B1025154625189N00809587EA0198402053
B1025164625195N00809590EA0198402053
B1025174625201N00809596EA0198402053
B1025184625205N00809605EA0198402053
B1025194625207N00809614EA0198502053
B1025204625207N00809623EA0198502054
B1025214625206N00809631EA0198602055
B1025224625204N00809638EA0198602055
B1025234625202N00809645EA0198602055
B1025244625200N00809650EA0198702056
B1025254625199N00809654EA0198702056
B1025264625197N00809656EA0198802057
B1025274625196N00809654EA0199002059
B1025284625195N00809653EA0199302062
B1025294625195N00809646EA0199402063
B1025304625194N00809642EA0199502064
B1025314625192N00809639EA0199502064
B1025324625190N00809635EA0199502064
B1025334625185N00809630EA0199602064
B1025344625183N00809625EA0199602065
B1025354625181N00809620EA0199702066
B1025364625180N00809615EA0199702066
B1025374625180N00809611EA0199502064
B1025384625180N00809608EA0199202061
B1025394625182N00809599EA0199002058
B1025404625183N00809591EA0198702056
B1025414625188N00809584EA0198402053
B1025424625194N00809578EA0198302052
B1025434625201N00809574EA0198202051
B1025444625209N00809573EA0198002049
B1025454625217N00809574EA0197902048
B1025464625225N00809576EA0197702046
B1025474625231N00809579EA0197502044
B1025484625237N00809585EA0197302042
B1025494625242N00809593EA0197102040
B1025504625246N00809602EA0197002039
B1025514625249N00809612EA0196802037
B1025524625250N00809623EA0196602035
B1025534625250N00809633EA0196402033
B1025544625250N00809644EA0196202031
B1025554625249N00809654EA0196002029
B1025554625249N00809654EA0195902028
B1025564625247N00809662EA0195902028
B1025574625245N00809671EA0195902028
B1025584625242N00809677EA0196102030
B1025594625238N00809682EA0196102030
B1026004625233N00809683EA0196102030
B1026014625228N00809686EA0196102030
B1026024625223N00809688EA0196102030
B1026034625219N00809691EA0196102030
B1026044625212N00809695EA0196302031
B1026054625206N00809698EA0196502034
B1026064625199N00809701EA0196702036
B1026074625193N00809703EA0196902038
B1026084625189N00809706EA0197002038
B1026094625185N00809710EA0196902038
B1026104625181N00809714EA0196802037
B1026114625177N00809718EA0196602035
B1026124625174N00809723EA0196302032
B1026134625170N00809727EA0196102030
B1026144625166N00809733EA0195802027
B1026154625163N00809738EA0195502024
B1026164625158N00809744EA0195302022
B1026174625153N00809750EA0195302022
B1026184625148N00809757EA0195302021
B1026184625148N00809757EA0195202021
B1026194625144N00809763EA0195202021
B1026204625139N00809769EA0195002019
B1026214625134N00809774EA0194802017
B1026224625129N00809779EA0194702016
B1026234625125N00809784EA0194602015
B1026244625120N00809790EA0194602015
B1026254625116N00809795EA0194402013
B1026264625111N00809800EA0194302012
B1026274625107N00809805EA0194302011
B1026284625101N00809810EA0194202011
B1026294625097N00809814EA0194202011
B1026304625092N00809819EA0194102010
B1026314625088N00809823EA0193902008
B1026324625083N00809827EA0193702006
B1026334625078N00809831EA0193402003
B1026344625073N00809835EA0193102000
B1026354625067N00809840EA0192901998
B1026364625061N00809846EA0192801997
B1026374625056N00809852EA0192601995
B1026384625051N00809857EA0192401993
B1026394625046N00809862EA0192201991
B1026404625042N00809867EA0192001989
B1026414625037N00809872EA0192001989
B1026424625033N00809876EA0192101990
B1026434625028N00809880EA0192001989
B1026444625023N00809883EA0192201990
B1026454625020N00809886EA0192001989
B1026464625016N00809891EA0191901988
B1026474625011N00809894EA0191801987
B1026484625007N00809899EA0191801987
B1026494625004N00809905EA0191701986
B1026504625000N00809912EA0191601985
B1026514624996N00809918EA0191601985
B1026524624993N00809925EA0191501984
B1026534624989N00809931EA0191401983
B1026544624986N00809937EA0191301982
B1026554624983N00809943EA0191201981
B1026564624979N00809949EA0191101980
B1026574624976N00809955EA0191001979
B1026584624973N00809960EA0190901978
B1026594624970N00809965EA0190701976
B1027004624966N00809970EA0190601975
B1027014624962N00809975EA0190501974
B1027024624958N00809980EA0190301972
B1027034624954N00809985EA0190201971
B1027044624950N00809989EA0190201970
B1027054624945N00809994EA0190101970
B1027064624941N00809999EA0190101970
B1027074624936N00810004EA0189901968
B1027084624933N00810008EA0189801967
B1027094624928N00810013EA0189701966
B1027104624924N00810016EA0189601965
B1027114624920N00810021EA0189401963
B1027124624916N00810026EA0189401963
B1027134624912N00810031EA0189401962
B1027144624907N00810035EA0189301962
B1027154624903N00810039EA0189101960
B1027164624899N00810043EA0189101960
B1027174624895N00810048EA0189001959
B1027184624890N00810052EA0188901958
B1027194624885N00810056EA0188901958
B1027204624880N00810061EA0188801957
B1027214624876N00810065EA0188601955
B1027224624871N00810069EA0188501954
B1027234624866N00810073EA0188501954
B1027244624861N00810078EA0188501953
B1027254624857N00810083EA0188401953
B1027264624852N00810087EA0188301952
B1027274624848N00810091EA0188301952
B1027284624844N00810095EA0188201951
B1027294624839N00810099EA0188101950
B1027304624835N00810103EA0188001949
B1027304624835N00810103EA0187901948
B1027314624830N00810106EA0187901948
B1027324624827N00810111EA0187701946
B1027334624822N00810115EA0187601945
B1027344624817N00810119EA0187501944
B1027354624813N00810123EA0187501944
B1027364624809N00810127EA0187401943
B1027374624805N00810131EA0187301942
B1027384624801N00810136EA0187201941
B1027394624797N00810140EA0187101940
B1027404624793N00810145EA0187001939
B1027414624790N00810150EA0186901938
B1027424624786N00810154EA0186801937
B1027434624782N00810158EA0186801937
B1027444624778N00810162EA0186701936
B1027454624774N00810166EA0186501934
B1027464624770N00810170EA0186401933
B1027474624765N00810174EA0186301932
B1027484624761N00810179EA0186301932
B1027494624757N00810183EA0186201931
B1027504624753N00810187EA0186101930
B1027514624749N00810192EA0186101929
B1027524624746N00810196EA0185901928
B1027534624743N00810200EA0185801927
B1027544624739N00810204EA0185701926
B1027554624735N00810208EA0185601925
B1027564624731N00810211EA0185501924
B1027574624727N00810215EA0185501924
B1027574624727N00810215EA0185501924
B1027584624723N00810219EA0185501924
B1027584624723N00810219EA0185401923
B1027594624720N00810223EA0185401923
B1028004624716N00810226EA0185301922
B1028014624712N00810229EA0185101920
B1028024624708N00810233EA0185101920
B1028034624704N00810237EA0185101920
B1028044624700N00810240EA0185101920
B1028054624696N00810244EA0185101919
B1028064624692N00810248EA0184901918
B1028074624689N00810252EA0184801917
B1028084624685N00810256EA0184601915
B1028094624681N00810259EA0184601915
B1028104624677N00810262EA0184601915
B1028114624673N00810264EA0184701915
B1028124624669N00810267EA0184601915
B1028134624666N00810270EA0184501914
B1028144624663N00810273EA0184401913
B1028154624660N00810278EA0184201911
B1028164624656N00810281EA0184101910
B1028174624653N00810287EA0184101909
B1028184624650N00810292EA0184001909
B1028194624647N00810297EA0183901908
B1028204624645N00810301EA0183701906
B1028204624645N00810301EA0183501904
B1028214624643N00810306EA0183501904
B1028224624640N00810312EA0183301902
B1028234624638N00810318EA0183201901
B1028244624635N00810324EA0183001899
B1028254624633N00810329EA0182901897
B1028264624630N00810335EA0182701896
B1028274624628N00810341EA0182501894
B1028284624625N00810347EA0182401893
B1028294624623N00810353EA0182301892
B1028304624621N00810359EA0182301892
B1028314624619N00810365EA0182201891
B1028324624617N00810371EA0182001889
B1028334624614N00810377EA0181801887
B1028344624612N00810382EA0181601885
B1028354624609N00810388EA0181401883
B1028364624606N00810394EA0181301881
B1028374624604N00810400EA0181101880
B1028384624601N00810406EA0180901878
B1028394624599N00810411EA0180701876
B1028404624595N00810417EA0180601875
B1028414624592N00810422EA0180401873
B1028424624589N00810428EA0180301872
B1028434624586N00810433EA0180301871
B1028444624584N00810439EA0180101870
B1028454624581N00810445EA0179901868
B1028464624578N00810450EA0179701866
B1028474624575N00810456EA0179601865
B1028484624572N00810461EA0179501864
B1028494624569N00810466EA0179301862
B1028504624566N00810471EA0179201861
B1028514624562N00810475EA0179101860
B1028524624559N00810478EA0178901858
B1028534624556N00810480EA0178701856
B1028544624553N00810482EA0178501854
B1028554624549N00810484EA0178401853
B1028564624544N00810483EA0178201851
B1028574624540N00810481EA0178101849
B1028584624538N00810476EA0177801847
B1028594624536N00810469EA0177501844
B1028594624536N00810469EA0177501844
B1029004624538N00810462EA0177501844
B1029004624538N00810462EA0177701846
B1029014624543N00810454EA0177701846
B1029024624546N00810449EA0177701846
B1029034624550N00810445EA0177701845
B1029044624552N00810441EA0177401843
B1029054624555N00810437EA0177101840
B1029054624555N00810437EA0177001839
B1029064624559N00810432EA0177001839
B1029074624562N00810427EA0177001839
B1029084624565N00810421EA0177101840
B1029094624567N00810416EA0177001839
B1029104624567N00810411EA0176901838
B1029114624568N00810407EA0176801836
B1029124624569N00810402EA0176601835
B1029134624571N00810396EA0176501834
B1029144624573N00810390EA0176501834
B1029154624575N00810385EA0176401833
B1029164624577N00810380EA0176201831
B1029174624577N00810376EA0176101829
B1029184624578N00810371EA0176001828
B1029194624578N00810367EA0175901828
B1029204624574N00810364EA0175801827
B1029204624574N00810364EA0175701826
B1029214624570N00810364EA0175701826
B1029224624565N00810365EA0175701826
B1029234624562N00810366EA0175901828
B1029244624558N00810367EA0176001829
B1029254624556N00810367EA0175901828
B1029264624553N00810369EA0175701826
B1029274624550N00810372EA0175401823
B1029284624546N00810376EA0175401823
B1029294624543N00810383EA0175501824
B1029304624541N00810390EA0175601825
B1029314624539N00810396EA0175501824
B1029324624537N00810402EA0175201821
B1029334624536N00810406EA0175001819
B1029344624534N00810411EA0174801817
B1029354624531N00810417EA0174701816
B1029364624528N00810422EA0174701815
B1029374624524N00810424EA0174401813
B1029384624521N00810425EA0174101810
B1029394624520N00810424EA0173801807
B1029404624519N00810420EA0173601805
B1029414624522N00810415EA0173501804
B1029424624525N00810408EA0173601805
B1029434624528N00810402EA0173501804
B1029444624530N00810397EA0173401803
B1029454624531N00810393EA0173301802
B1029464624532N00810389EA0173201801
B1029474624531N00810384EA0173301801
B1029484624530N00810380EA0173301802
B1029494624525N00810375EA0173401803
B1029504624521N00810373EA0173501804
B1029514624518N00810373EA0173601805
B1029524624513N00810374EA0173601805
B1029534624509N00810378EA0173701806
B1029544624505N00810382EA0173601805
B1029554624502N00810388EA0173701806
B1029564624500N00810391EA0173601805
B1029574624496N00810394EA0173401803
B1029584624493N00810393EA0173301801
B1029594624491N00810390EA0173301802
B1030004624489N00810387EA0173301802
B1030014624488N00810383EA0173201801
B1030014624488N00810383EA0173101800
B1030024624488N00810378EA0173101800
B1030034624488N00810372EA0173101800
B1030044624490N00810366EA0173101800
B1030054624492N00810360EA0173101800
B1030064624496N00810355EA0173001799
B1030074624500N00810352EA0172901798
B1030084624504N00810348EA0172701796
B1030094624508N00810345EA0172701796
B1030104624511N00810341EA0172501794
B1030114624513N00810337EA0172301792
B1030124624515N00810333EA0172101790
B1030134624514N00810331EA0171801787
B1030144624509N00810330EA0171601785
B1030154624504N00810334EA0171601785
B1030164624502N00810340EA0171701786
B1030174624499N00810347EA0171701786
B1030184624496N00810354EA0171401783
B1030194624493N00810359EA0171101780
B1030204624490N00810364EA0171001779
B1030214624487N00810368EA0171101780
B1030224624483N00810371EA0171201781
B1030234624481N00810371EA0171201781
B1030244624480N00810371EA0171201781
B1030244624480N00810371EA0171201780
B1030254624479N00810371EA0171201780
B1030264624478N00810371EA0171101780
B1030274624478N00810370EA0171101780
B1030284624478N00810369EA0171201781
B1030294624478N00810369EA0171201781
B1030304624478N00810370EA0171201781
B1030314624478N00810370EA0171201781
B1030324624478N00810371EA0171201781
B1030334624478N00810371EA0171301782
B1030344624478N00810371EA0171301782
B1030354624478N00810372EA0171301782
B1030364624478N00810373EA0171301782
B1030374624480N00810373EA0171301782
B1030384624480N00810373EA0171301782
B1030394624481N00810374EA0171301782
B1030404624481N00810375EA0171301782
B1030414624480N00810375EA0171301782
B1030424624480N00810376EA0171301782
B1030434624480N00810376EA0171301782
B1030444624480N00810375EA0171301782
B1030454624480N00810375EA0171301782
B1030464624480N00810374EA0171301782
B1030474624480N00810374EA0171301782
B1030484624480N00810374EA0171301782
B1030494624480N00810373EA0171301782
B1030504624481N00810373EA0171301782
B1030514624481N00810372EA0171301782
B1030524624481N00810371EA0171301782
B1030534624480N00810371EA0171301782
B1030544624481N00810370EA0171301782
B1030554624480N00810371EA0171301782
B1030564624481N00810371EA0171301782
B1030574624481N00810371EA0171301782
B1030584624481N00810371EA0171301782
B1030594624480N00810371EA0171301782
B1031004624479N00810371EA0171301782
B1031014624479N00810370EA0171301782
B1031024624478N00810370EA0171301782
B1031034624478N00810370EA0171301782
B1031044624478N00810370EA0171301782
B1031054624477N00810370EA0171301782
B1031064624477N00810370EA0171301782
B1031074624476N00810369EA0171301782
B1031084624475N00810369EA0171301782
B1031094624475N00810368EA0171301782
B1031104624474N00810368EA0171301782
B1031114624474N00810368EA0171301782
B1031124624473N00810369EA0171301782
B1031134624472N00810369EA0171301782
B1031144624473N00810368EA0171301782
B1031154624475N00810368EA0171301782
B1031164624475N00810368EA0171301782
B1031174624475N00810368EA0171301782
B1031184624475N00810367EA0171301782
B1031194624475N00810367EA0171301782
B1031204624475N00810367EA0171301782
B1031204624475N00810367EA0171301782
B1031214624475N00810367EA0171301782
B1031224624475N00810367EA0171301782
B1031234624475N00810367EA0171301782
B1031244624475N00810367EA0171301782
B1031254624475N00810367EA0171301782
B1031264624475N00810366EA0171301782
B1031274624476N00810367EA0171301782
B1031284624478N00810369EA0171301782
B1031294624479N00810370EA0171301782
B1031304624479N00810370EA0171301782
B1031314624479N00810370EA0171301782
B1031324624479N00810370EA0171301782
B1031334624478N00810370EA0171301782
B1031344624478N00810370EA0171301782
B1031354624478N00810370EA0171301782
B1031364624479N00810370EA0171301782
B1031374624480N00810370EA0171201781
B1031384624480N00810370EA0171201781
B1031394624480N00810369EA0171201781
B1031404624481N00810370EA0171201781
B1031414624481N00810370EA0171201781
B1031424624481N00810370EA0171201781
B1031434624481N00810370EA0171301782
B1031444624482N00810371EA0171301782
B1031454624482N00810371EA0171301782
B1031464624481N00810371EA0171301782
B1031474624481N00810371EA0171301782
B1031484624482N00810370EA0171301782
B1031494624482N00810370EA0171301781
B1031504624482N00810370EA0171301782
B1031514624481N00810370EA0171301782
B1031524624481N00810370EA0171301782
B1031534624481N00810369EA0171301782
B1031544624479N00810369EA0171301782
B1031554624478N00810369EA0171301782
B1031564624478N00810368EA0171301782
B1031574624478N00810368EA0171301782
B1031584624477N00810368EA0171301782
B1031594624476N00810368EA0171301782
LXSX;GF:1.4
GB09E90C642024FDEBF52C213025AA2C6
