AXSX003 SKYTRAXX V3.0.4 SN:00000380
HOPLTPILOT:Sepp Bucher
HOGTYGLIDERTYPE:Sigma9
HOCIDCOMPETITIONID:0000
HODTM100GPSDATUM:WGS-84
HOCCLCOMPETITION CLASS:Paraglider (Standard)
HPSITSITE:Watles / Praemajur
HFDTE260916
B1252274641957N01030342EA0162101696
B1252284641956N01030342EA0161901695
B1252294641956N01030342EA0161901695
B1252304641956N01030343EA0161901695
B1252314641954N01030345EA0161801694
B1252324641953N01030346EA0161501692
B1252334641952N01030347EA0161401691
B1252344641950N01030349EA0161401692
B1252354641948N01030351EA0161401693
B1252364641945N01030355EA0161401693
B1252374641942N01030358EA0161201699
B1252384641938N01030360EA0161001697
B1252394641936N01030364EA0160901696
B1252404641934N01030369EA0160701694
B1252414641933N01030377EA0160601693
B1252424641933N01030385EA0160501692
B1252434641933N01030392EA0160501692
B1252444641934N01030400EA0160401691
B1252454641934N01030407EA0160301690
B1252464641935N01030415EA0160101688
B1252474641936N01030423EA0160001687
B1252484641936N01030431EA0160101688
B1252494641936N01030438EA0160201689
B1252504641937N01030446EA0160401691
B1252514641939N01030452EA0160401691
B1252524641941N01030458EA0160401691
B1252534641944N01030463EA0160601693
B1252544641947N01030469EA0160701694
B1252554641951N01030473EA0160901696
B1252564641955N01030477EA0161101698
B1252574641959N01030479EA0161101698
B1252584641963N01030482EA0161001697
B1252594641963N01030484EA0160701694
B1253004641963N01030489EA0160501692
B1253014641963N01030493EA0160601693
B1253024641963N01030498EA0160601693
B1253034641960N01030499EA0160501692
B1253044641957N01030500EA0160401691
B1253054641953N01030498EA0160401691
B1253064641950N01030495EA0160401691
B1253074641947N01030489EA0160401691
B1253084641946N01030482EA0160401691
B1253094641945N01030473EA0160601693
B1253104641946N01030465EA0160701694
B1253114641946N01030457EA0160701694
B1253124641946N01030450EA0160601693
B1253134641945N01030442EA0160501692
B1253144641943N01030434EA0160501692
B1253154641941N01030427EA0160401691
B1253164641938N01030421EA0160401691
B1253174641935N01030418EA0160501692
B1253184641931N01030416EA0160601693
B1253194641928N01030417EA0160501692
B1253204641927N01030420EA0160401691
B1253214641926N01030426EA0160201689
B1253224641925N01030432EA0160101688
B1253234641925N01030439EA0160101688
B1253244641926N01030446EA0160101688
B1253254641928N01030453EA0160101688
B1253264641930N01030459EA0160301690
B1253274641934N01030464EA0160601693
B1253284641937N01030469EA0160701694
B1253294641939N01030473EA0160701694
B1253304641941N01030477EA0160501692
B1253314641942N01030483EA0160301690
B1253324641943N01030491EA0160201689
B1253334641945N01030499EA0160501692
B1253344641946N01030508EA0160901696
B1253354641947N01030515EA0161201699
B1253354641947N01030515EA0161401701
B1253364641947N01030522EA0161401701
B1253374641946N01030529EA0161401701
B1253384641945N01030532EA0161301700
B1253394641943N01030535EA0161301700
B1253404641938N01030528EA0161501702
B1253414641935N01030525EA0161501702
B1253414641935N01030525EA0161701704
B1253424641932N01030519EA0161701704
B1253434641929N01030512EA0161701705
B1253444641929N01030504EA0161801705
B1253454641930N01030495EA0162001707
B1253464641936N01030487EA0162001707
B1253474641940N01030480EA0161901706
B1253484641946N01030477EA0161901706
B1253494641953N01030477EA0161801705
B1253504641960N01030478EA0161801705
B1253514641966N01030481EA0161901706
B1253524641972N01030485EA0162001707
B1253534641974N01030491EA0162101708
B1253544641976N01030497EA0162301710
B1253554641977N01030502EA0162401711
B1253564641976N01030508EA0162401711
B1253574641975N01030514EA0162301710
B1253584641972N01030517EA0162401711
B1253594641968N01030520EA0162701714
B1254004641964N01030519EA0162801715
B1254014641961N01030514EA0162901716
B1254024641960N01030507EA0162901716
B1254034641958N01030498EA0163101718
B1254044641958N01030489EA0163101718
B1254054641960N01030480EA0163101718
B1254064641963N01030473EA0163201719
B1254074641968N01030469EA0163201719
B1254084641976N01030469EA0163101718
B1254094641980N01030474EA0163001718
B1254104641983N01030481EA0163201719
B1254114641985N01030489EA0163401721
B1254124641986N01030496EA0163701724
B1254134641984N01030501EA0163901726
B1254144641983N01030505EA0163901726
B1254154641983N01030509EA0164001727
B1254164641982N01030513EA0164001727
B1254174641981N01030517EA0164101728
B1254184641979N01030522EA0164301730
B1254194641976N01030524EA0164401731
B1254204641972N01030525EA0164501732
B1254214641968N01030523EA0164601733
B1254224641963N01030518EA0164701734
B1254234641959N01030508EA0164901736
B1254244641958N01030497EA0165101738
B1254254641961N01030486EA0165201739
B1254264641965N01030479EA0165301740
B1254274641970N01030473EA0165301740
B1254284641977N01030476EA0165301740
B1254294641981N01030482EA0165501742
B1254304641983N01030488EA0165701744
B1254314641984N01030495EA0165901746
B1254324641985N01030501EA0166201749
B1254334641984N01030507EA0166301750
B1254344641984N01030513EA0166101748
B1254354641983N01030517EA0165901746
B1254364641981N01030520EA0165501742
B1254374641979N01030522EA0165201739
B1254384641976N01030522EA0165001737
B1254394641973N01030518EA0164901736
B1254404641968N01030510EA0164701734
B1254414641963N01030495EA0164701734
B1254424641964N01030483EA0164701734
B1254434641966N01030470EA0164901736
B1254444641969N01030459EA0165201739
B1254454641978N01030457EA0165301740
B1254464641984N01030455EA0165501742
B1254474641990N01030455EA0165601743
B1254484641995N01030457EA0165501742
B1254494641999N01030461EA0165401741
B1254504642002N01030466EA0165601743
B1254514642003N01030472EA0165701744
B1254524642002N01030477EA0165801745
B1254534642002N01030481EA0165801745
B1254534642002N01030481EA0165501742
B1254544642001N01030484EA0165501742
B1254554642001N01030487EA0165201739
B1254564642001N01030491EA0164901736
B1254574642001N01030495EA0164701734
B1254584642000N01030499EA0164601733
B1254594641995N01030502EA0164701734
B1255004641990N01030505EA0164901736
B1255014641986N01030507EA0165001737
B1255024641982N01030509EA0165101738
B1255034641976N01030509EA0165101738
B1255044641972N01030508EA0165001737
B1255054641968N01030505EA0164801735
B1255064641965N01030499EA0164801735
B1255074641963N01030492EA0164701734
B1255084641963N01030484EA0164601733
B1255094641964N01030474EA0164501732
B1255104641966N01030466EA0164601733
B1255114641972N01030459EA0164601733
B1255124641978N01030456EA0164401731
B1255134641984N01030457EA0164301730
B1255144641988N01030465EA0164401731
B1255154641991N01030472EA0164601733
B1255164641993N01030480EA0164901736
B1255174641995N01030485EA0165001737
B1255184641997N01030490EA0164801735
B1255194641998N01030495EA0164701734
B1255204641998N01030500EA0164501732
B1255214641998N01030505EA0164501732
B1255224641998N01030510EA0164501732
B1255234641993N01030514EA0164501732
B1255244641987N01030511EA0164701734
B1255254641982N01030508EA0164901736
B1255264641979N01030504EA0164901736
B1255274641976N01030499EA0164901736
B1255284641977N01030490EA0164801735
B1255294641979N01030482EA0164801735
B1255304641982N01030475EA0164801735
B1255314641986N01030469EA0164601733
B1255324641993N01030465EA0164601733
B1255334641998N01030463EA0164501732
B1255344642003N01030466EA0164301730
B1255354642008N01030471EA0164201729
B1255364642012N01030477EA0164201729
B1255374642016N01030484EA0164301730
B1255384642018N01030492EA0164401731
B1255394642020N01030498EA0164401731
B1255404642022N01030505EA0164401731
B1255414642023N01030512EA0164401731
B1255424642023N01030519EA0164301730
B1255434642023N01030526EA0164301730
B1255444642023N01030533EA0164401731
B1255454642024N01030541EA0164801735
B1255464642025N01030549EA0165101738
B1255474642025N01030555EA0165401742
B1255484642027N01030560EA0165601743
B1255494642028N01030565EA0165601743
B1255504642030N01030570EA0165701744
B1255504642030N01030570EA0165901746
B1255514642030N01030577EA0165901746
B1255524642029N01030582EA0166201749
B1255534642026N01030585EA0166401751
B1255544642022N01030587EA0166601753
B1255554642019N01030587EA0166801755
B1255564642015N01030583EA0167001757
B1255574642012N01030577EA0167201759
B1255584642010N01030569EA0167601763
B1255594642009N01030560EA0167601763
B1256004642011N01030551EA0167501762
B1256014642012N01030543EA0167501762
B1256024642015N01030536EA0167701764
B1256034642025N01030541EA0167901766
B1256044642029N01030549EA0168001767
B1256054642030N01030555EA0168301770
B1256054642030N01030555EA0168701774
B1256064642030N01030561EA0168701774
B1256074642030N01030566EA0169001777
B1256084642030N01030570EA0169201779
B1256094642030N01030574EA0169301780
B1256104642031N01030578EA0169301780
B1256114642031N01030583EA0169301780
B1256124642031N01030589EA0169401781
B1256134642029N01030595EA0169501782
B1256144642026N01030599EA0169701784
B1256154642022N01030601EA0169801785
B1256154642022N01030601EA0169901786
B1256164642018N01030602EA0169901786
B1256174642013N01030602EA0170101788
B1256184642008N01030600EA0170001788
B1256194642003N01030597EA0169901786
B1256204642000N01030592EA0169801785
B1256214641997N01030584EA0169601783
B1256224641996N01030573EA0169601783
B1256234641998N01030562EA0169701784
B1256244642002N01030552EA0169701784
B1256254642005N01030545EA0169801785
B1256264642010N01030539EA0169801785
B1256274642016N01030540EA0169901786
B1256284642022N01030543EA0169901786
B1256294642027N01030548EA0170101788
B1256304642031N01030553EA0170201789
B1256314642033N01030560EA0170501792
B1256324642033N01030565EA0170901796
B1256334642032N01030569EA0171101798
B1256344642030N01030573EA0171101798
B1256354642027N01030575EA0171201799
B1256364642023N01030576EA0171301800
B1256374642018N01030574EA0171201799
B1256384642012N01030569EA0171101798
B1256394642006N01030560EA0171001797
B1256404642003N01030552EA0170901796
B1256414642001N01030543EA0170701794
B1256424642001N01030533EA0170501792
B1256434642001N01030525EA0170301790
B1256444642005N01030516EA0170101788
B1256454642011N01030511EA0170001787
B1256464642018N01030509EA0169901786
B1256474642023N01030514EA0169801785
B1256484642028N01030521EA0169901786
B1256494642030N01030528EA0170101788
B1256504642032N01030535EA0170301790
B1256514642032N01030541EA0170501792
B1256524642032N01030547EA0170701794
B1256534642033N01030552EA0170801795
B1256544642034N01030557EA0171001798
B1256554642034N01030562EA0171101798
B1256564642034N01030566EA0171201799
B1256574642033N01030570EA0171201799
B1256584642031N01030573EA0171201799
B1256594642028N01030575EA0171101798
B1257004642024N01030575EA0170901796
B1257014642020N01030574EA0170801795
B1257024642015N01030569EA0170701794
B1257034642011N01030559EA0170501792
B1257044642009N01030551EA0170301790
B1257054642009N01030541EA0170101788
B1257064642011N01030531EA0170001787
B1257074642014N01030522EA0169801785
B1257084642019N01030516EA0169701784
B1257094642025N01030512EA0169701784
B1257104642032N01030513EA0169701784
B1257114642038N01030515EA0169701784
B1257124642042N01030520EA0169701784
B1257134642046N01030526EA0169601784
B1257144642047N01030531EA0169601783
B1257154642048N01030537EA0169701784
B1257164642048N01030543EA0169701784
B1257174642047N01030549EA0169701784
B1257174642047N01030549EA0169701784
B1257184642047N01030554EA0169701784
B1257194642047N01030560EA0169601783
B1257204642047N01030564EA0169601783
B1257214642046N01030569EA0169601783
B1257224642045N01030573EA0169601783
B1257234642044N01030580EA0169801785
B1257234642044N01030580EA0170001787
B1257244642042N01030585EA0170001787
B1257254642041N01030590EA0170201789
B1257264642041N01030594EA0170301790
B1257274642041N01030599EA0170401791
B1257284642041N01030604EA0170501792
B1257294642041N01030609EA0170501792
B1257304642040N01030615EA0170701794
B1257314642038N01030620EA0170701794
B1257324642036N01030624EA0170701794
B1257334642033N01030626EA0170701794
B1257344642029N01030627EA0170801795
B1257354642023N01030624EA0170901796
B1257364642019N01030619EA0171101798
B1257374642015N01030613EA0171201799
B1257384642013N01030604EA0171301800
B1257394642014N01030596EA0171501802
B1257404642017N01030587EA0171501803
B1257414642020N01030580EA0171801805
B1257424642030N01030581EA0172101808
B1257434642034N01030586EA0172101808
B1257444642037N01030592EA0172201809
B1257454642038N01030599EA0172301810
B1257464642038N01030605EA0172401811
B1257474642036N01030609EA0172501812
B1257484642033N01030611EA0172601813
B1257494642030N01030614EA0172601813
B1257504642027N01030615EA0172601813
B1257514642023N01030614EA0172701814
B1257524642019N01030611EA0172701814
B1257534642014N01030606EA0172701814
B1257544642011N01030599EA0172801815
B1257554642010N01030590EA0172701814
B1257564642012N01030580EA0172601813
B1257574642015N01030570EA0172601813
B1257584642019N01030560EA0173001817
B1257594642024N01030552EA0173301820
B1258004642031N01030547EA0173501822
B1258014642038N01030547EA0173801825
B1258024642045N01030548EA0174001827
B1258034642049N01030555EA0174201829
B1258044642051N01030561EA0174401831
B1258054642050N01030567EA0174601833
B1258064642049N01030571EA0174701834
B1258074642048N01030575EA0174801835
B1258084642046N01030579EA0174801835
B1258094642044N01030583EA0174801835
B1258104642042N01030586EA0174801835
B1258114642038N01030586EA0174701835
B1258124642034N01030583EA0174901836
B1258134642030N01030578EA0174901836
B1258144642028N01030572EA0174801835
B1258154642026N01030564EA0175101838
B1258164642026N01030555EA0175501842
B1258174642027N01030546EA0175701844
B1258184642031N01030537EA0175801845
B1258194642036N01030532EA0176001847
B1258204642041N01030527EA0176201849
B1258214642048N01030527EA0176501852
B1258224642052N01030532EA0176601854
B1258234642055N01030537EA0176901856
B1258244642057N01030544EA0177101858
B1258254642058N01030550EA0177401861
B1258264642058N01030554EA0177401861
B1258274642057N01030558EA0177401861
B1258284642057N01030562EA0177301861
B1258284642057N01030562EA0177401861
B1258294642054N01030563EA0177401861
B1258304642051N01030563EA0177401861
B1258314642047N01030560EA0177401861
B1258324642042N01030552EA0177501862
B1258334642040N01030541EA0177701864
B1258344642038N01030533EA0177701864
B1258354642040N01030523EA0177801865
B1258364642042N01030515EA0177801865
B1258374642047N01030507EA0178001867
B1258384642052N01030504EA0178301870
B1258394642057N01030502EA0178401871
B1258394642057N01030502EA0178601873
B1258404642060N01030506EA0178601873
B1258414642064N01030514EA0178701874
B1258424642064N01030520EA0178801875
B1258434642064N01030525EA0178801875
B1258444642063N01030529EA0178701875
B1258454642061N01030532EA0178701874
B1258464642059N01030533EA0178701874
B1258464642059N01030533EA0178701874
B1258474642056N01030531EA0178701874
B1258474642056N01030531EA0178701874
B1258484642051N01030525EA0178701874
B1258494642049N01030514EA0178701874
B1258504642050N01030505EA0178701874
B1258514642051N01030496EA0178701874
B1258524642056N01030489EA0178601874
B1258534642061N01030483EA0178701874
B1258544642066N01030479EA0178901876
B1258554642071N01030480EA0179201879
B1258564642075N01030484EA0179301881
B1258574642079N01030493EA0179401881
B1258584642081N01030500EA0179501882
B1258594642082N01030509EA0179501882
B1259004642082N01030515EA0179401881
B1259014642081N01030521EA0179401881
B1259024642078N01030526EA0179501882
B1259034642075N01030530EA0179501882
B1259044642072N01030535EA0179601883
B1259054642069N01030539EA0179501882
B1259064642067N01030543EA0179401881
B1259074642064N01030546EA0179301880
B1259084642061N01030549EA0179101878
B1259094642057N01030552EA0179101878
B1259104642053N01030554EA0179101878
B1259114642048N01030554EA0179001877
B1259124642044N01030553EA0178801875
B1259134642039N01030549EA0178601873
B1259144642035N01030542EA0178401871
B1259154642032N01030534EA0178401871
B1259164642030N01030524EA0178501872
B1259174642030N01030514EA0178501872
B1259184642031N01030505EA0178501872
B1259194642033N01030496EA0178301870
B1259204642035N01030488EA0178201869
B1259214642038N01030481EA0178001867
B1259224642043N01030475EA0177901866
B1259234642048N01030469EA0177901866
B1259244642054N01030467EA0178001867
B1259254642060N01030466EA0178001867
B1259264642065N01030468EA0178101868
B1259274642069N01030471EA0178101868
B1259284642074N01030474EA0178001867
B1259294642078N01030478EA0178001867
B1259304642082N01030484EA0177901866
B1259314642085N01030488EA0177701864
B1259324642085N01030494EA0177501862
B1259334642082N01030500EA0177401861
B1259344642078N01030505EA0177301860
B1259354642073N01030507EA0177201859
B1259364642068N01030508EA0177101858
B1259374642063N01030506EA0177101858
B1259384642059N01030502EA0177001857
B1259394642055N01030497EA0176801855
B1259404642052N01030491EA0176701854
B1259414642049N01030484EA0176601853
B1259424642047N01030477EA0176401851
B1259434642044N01030469EA0176301850
B1259444642042N01030461EA0176201849
B1259444642042N01030461EA0176101848
B1259454642041N01030452EA0176101848
B1259464642038N01030443EA0176101848
B1259474642037N01030434EA0175901846
B1259484642036N01030426EA0175701844
B1259494642034N01030418EA0175601843
B1259504642033N01030409EA0175501842
B1259514642031N01030401EA0175301840
B1259524642030N01030393EA0175201839
B1259534642028N01030385EA0175001837
B1259544642027N01030377EA0174901836
B1259554642025N01030368EA0174901836
B1259564642024N01030360EA0174901836
B1259574642022N01030351EA0175001837
B1259584642020N01030343EA0175101838
B1259594642019N01030335EA0175201839
B1300004642017N01030326EA0175301840
B1300014642016N01030318EA0175501842
B1300024642014N01030311EA0175601843
B1300034642013N01030302EA0175601843
B1300034642013N01030302EA0175701844
B1300044642012N01030294EA0175701844
B1300054642012N01030286EA0175701844
B1300064642011N01030278EA0175701844
B1300074642009N01030270EA0175601843
B1300084642007N01030262EA0175601843
B1300094642005N01030255EA0175701844
B1300104642002N01030248EA0175601843
B1300114641999N01030242EA0175601843
B1300124641995N01030237EA0175601843
B1300134641990N01030235EA0175701844
B1300144641986N01030234EA0175701844
B1300154641982N01030236EA0175601843
B1300164641980N01030240EA0175501842
B1300174641978N01030245EA0175501842
B1300184641976N01030250EA0175501842
B1300194641976N01030256EA0175401841
B1300204641979N01030261EA0175401841
B1300214641982N01030265EA0175301841
B1300224641985N01030268EA0175401841
B1300224641985N01030268EA0175401841
B1300234641990N01030269EA0175401841
B1300244641994N01030269EA0175301840
B1300254641999N01030268EA0175301840
B1300264642005N01030263EA0175401841
B1300274642011N01030259EA0175501842
B1300284642015N01030253EA0175401841
B1300294642018N01030247EA0175401841
B1300304642020N01030239EA0175401841
B1300314642023N01030231EA0175201839
B1300324642022N01030220EA0174901836
B1300334642022N01030212EA0174701834
B1300334642022N01030212EA0174501832
B1300344642019N01030204EA0174501832
B1300354642016N01030198EA0174501832
B1300364642011N01030196EA0174601833
B1300374642006N01030198EA0174601833
B1300384642002N01030199EA0174501832
B1300394641999N01030202EA0174401831
B1300404641996N01030205EA0174401831
B1300414641994N01030209EA0174301830
B1300414641994N01030209EA0174201829
B1300424641992N01030214EA0174201829
B1300434641990N01030219EA0174101828
B1300444641987N01030223EA0174001827
B1300454641984N01030226EA0173801825
B1300464641979N01030228EA0173601823
B1300474641975N01030228EA0173501822
B1300484641970N01030225EA0173401821
B1300494641965N01030220EA0173401821
B1300504641960N01030213EA0173301820
B1300514641955N01030207EA0173301820
B1300524641951N01030201EA0173201819
B1300534641947N01030195EA0173001817
B1300544641943N01030190EA0172901816
B1300554641939N01030184EA0172801815
B1300564641935N01030178EA0172701814
B1300574641930N01030172EA0172601813
B1300584641926N01030167EA0172501813
B1300594641922N01030161EA0172501812
B1301004641917N01030156EA0172301810
B1301014641914N01030149EA0172201809
B1301024641910N01030143EA0172001807
B1301034641906N01030138EA0171801805
B1301044641901N01030132EA0171601803
B1301054641897N01030125EA0171401801
B1301064641893N01030118EA0171301800
B1301074641889N01030111EA0171201799
B1301084641885N01030105EA0171001797
B1301094641881N01030099EA0170801795
B1301104641877N01030093EA0170701794
B1301114641873N01030086EA0170501792
B1301124641869N01030079EA0170301790
B1301134641865N01030072EA0170201789
B1301144641860N01030065EA0170101788
B1301154641857N01030058EA0170201789
B1301164641852N01030051EA0170101788
B1301174641848N01030044EA0170001787
B1301184641845N01030037EA0169801785
B1301194641841N01030030EA0169701784
B1301204641838N01030022EA0169601783
B1301214641834N01030013EA0169401781
B1301224641830N01030004EA0169501782
B1301234641825N01029995EA0169801785
B1301244641821N01029988EA0170201789
B1301254641818N01029981EA0170401791
B1301264641815N01029976EA0170301790
B1301274641814N01029971EA0170101788
B1301284641811N01029964EA0169901786
B1301294641808N01029957EA0169401782
B1301304641803N01029948EA0169301780
B1301314641798N01029940EA0169301780
B1301324641793N01029936EA0169101778
B1301334641788N01029934EA0168701774
B1301344641784N01029935EA0168501772
B1301354641781N01029938EA0168301770
B1301364641779N01029941EA0168101768
B1301374641777N01029944EA0167701764
B1301384641777N01029949EA0167301760
B1301394641778N01029955EA0166801755
B1301404641779N01029961EA0166401751
B1301414641781N01029967EA0166001747
B1301424641782N01029974EA0165701744
B1301434641784N01029980EA0165601743
B1301444641785N01029986EA0165501742
B1301454641785N01029992EA0165401741
B1301464641785N01029998EA0165101738
B1301474641785N01030004EA0164801735
B1301484641785N01030010EA0164801735
B1301494641787N01030016EA0165001737
B1301504641788N01030022EA0165201739
B1301514641790N01030026EA0165401741
B1301524641792N01030030EA0165301740
B1301534641793N01030032EA0165201739
B1301544641795N01030036EA0165001737
B1301554641797N01030041EA0165201739
B1301564641799N01030046EA0165301740
B1301574641801N01030052EA0165501743
B1301584641803N01030057EA0165601743
B1301594641806N01030060EA0165601743
B1302004641808N01030064EA0165601743
B1302014641811N01030068EA0165501742
B1302024641814N01030072EA0165301740
B1302024641814N01030072EA0165301740
B1302034641816N01030077EA0165301740
B1302044641818N01030082EA0165301740
B1302054641820N01030086EA0165301740
B1302064641821N01030090EA0165101738
B1302074641822N01030094EA0164801735
B1302084641823N01030098EA0164401731
B1302094641824N01030103EA0164101728
B1302104641826N01030108EA0163901726
B1302114641828N01030115EA0163801725
B1302124641829N01030122EA0163901726
B1302134641831N01030129EA0164001727
B1302144641833N01030135EA0163901726
B1302154641834N01030141EA0163801725
B1302154641834N01030141EA0164001727
B1302164641836N01030146EA0164001727
B1302164641836N01030146EA0164001727
B1302174641838N01030152EA0164001727
B1302184641840N01030156EA0164001727
B1302194641842N01030161EA0163701724
B1302204641844N01030165EA0163301720
B1302214641846N01030171EA0163001717
B1302224641847N01030178EA0163101718
B1302234641849N01030186EA0163401721
B1302244641851N01030193EA0163701724
B1302254641852N01030198EA0163901726
B1302264641852N01030202EA0163901726
B1302274641853N01030205EA0163701724
B1302284641853N01030209EA0163401721
B1302294641854N01030216EA0163301720
B1302304641855N01030223EA0163201719
B1302314641857N01030230EA0163301720
B1302324641858N01030237EA0163201719
B1302334641859N01030243EA0163101718
B1302344641860N01030248EA0162801715
B1302354641861N01030253EA0162601713
B1302364641862N01030259EA0162601713
B1302374641864N01030266EA0162501712
B1302374641864N01030266EA0162501712
B1302384641867N01030273EA0162501712
B1302394641869N01030279EA0162501712
B1302404641871N01030285EA0162401711
B1302414641873N01030290EA0162201709
B1302424641875N01030296EA0162001707
B1302434641876N01030301EA0161801705
B1302444641878N01030308EA0161501702
B1302454641879N01030314EA0161301700
B1302454641879N01030314EA0161101698
B1302464641881N01030321EA0161101698
B1302474641883N01030328EA0161001697
B1302484641884N01030336EA0160901696
B1302494641886N01030343EA0160801695
B1302504641888N01030350EA0160701694
B1302514641891N01030356EA0160601693
B1302524641893N01030362EA0160501692
B1302534641895N01030368EA0160301690
B1302544641898N01030375EA0160201689
B1302554641900N01030382EA0160501692
B1302564641903N01030388EA0160801695
B1302574641905N01030394EA0160801695
B1302584641906N01030397EA0160601693
B1302594641907N01030401EA0160101688
B1303004641909N01030405EA0159701684
B1303014641909N01030412EA0159401681
B1303024641911N01030420EA0159401681
B1303034641913N01030429EA0159601683
B1303044641915N01030436EA0159601683
B1303054641917N01030442EA0159601683
B1303064641919N01030447EA0159301680
B1303074641921N01030452EA0158901676
B1303084641922N01030459EA0158701674
B1303094641923N01030467EA0158801675
B1303104641925N01030475EA0159201679
B1303114641928N01030482EA0159501682
B1303124641931N01030486EA0159601683
B1303134641934N01030490EA0159701684
B1303144641938N01030492EA0159701684
B1303154641942N01030495EA0159601683
B1303164641948N01030496EA0159701684
B1303174641953N01030497EA0159701684
B1303184641957N01030500EA0159701684
B1303194641961N01030504EA0159501682
B1303204641963N01030510EA0159501682
B1303214641965N01030515EA0159601683
B1303224641967N01030521EA0159501682
B1303234641969N01030526EA0159201679
B1303244641972N01030531EA0159101678
B1303254641974N01030537EA0159201680
B1303264641976N01030543EA0159501682
B1303274641977N01030548EA0159701684
B1303284641979N01030553EA0159901686
B1303294641982N01030556EA0160001687
B1303304641985N01030559EA0160101688
B1303314641990N01030562EA0160101688
B1303324641994N01030564EA0160201689
B1303334641998N01030567EA0160101688
B1303344642001N01030570EA0159901686
B1303354642004N01030574EA0159801685
B1303364642006N01030579EA0159801685
B1303374642008N01030586EA0159901686
B1303384642009N01030592EA0160201689
B1303394642009N01030598EA0160201689
B1303404642007N01030603EA0160101688
B1303414642005N01030607EA0160001687
B1303424642002N01030611EA0160001687
B1303434642000N01030615EA0160101688
B1303444641996N01030619EA0160301690
B1303454641993N01030623EA0160301690
B1303464641990N01030626EA0160201689
B1303474641988N01030631EA0160001688
B1303484641987N01030638EA0160101688
B1303494641986N01030645EA0160101688
B1303504641987N01030652EA0160101688
B1303514641991N01030657EA0160101688
B1303524641995N01030660EA0160201689
B1303534641998N01030662EA0160201689
B1303544642003N01030664EA0160001687
B1303554642008N01030665EA0159901686
B1303564642013N01030665EA0159801685
B1303574642020N01030666EA0159801685
B1303584642026N01030667EA0159801685
B1303594642032N01030668EA0159701684
B1304004642036N01030671EA0159601683
B1304014642040N01030674EA0159401681
B1304024642043N01030680EA0159001677
B1304034642042N01030687EA0158801675
B1304044642041N01030693EA0158701674
B1304054642039N01030698EA0158601673
B1304064642035N01030704EA0158401671
B1304074642030N01030706EA0158201669
B1304074642030N01030706EA0158101669
B1304084642025N01030708EA0158101668
B1304094642020N01030710EA0158101668
B1304104642016N01030712EA0158001667
B1304114642011N01030714EA0158001667
B1304124642007N01030717EA0158001667
B1304134642003N01030720EA0158001667
B1304144641999N01030723EA0157901666
B1304154641996N01030726EA0157801665
B1304164641991N01030730EA0157801665
B1304174641987N01030733EA0157901666
B1304184641984N01030737EA0158001667
B1304194641981N01030741EA0158101668
B1304204641979N01030744EA0158301670
B1304214641977N01030749EA0158301670
B1304224641976N01030754EA0158401671
B1304234641976N01030759EA0158601673
B1304244641976N01030765EA0158801675
B1304254641976N01030770EA0158901676
B1304264641976N01030774EA0159001677
B1304274641975N01030778EA0159001677
B1304284641972N01030781EA0159001677
B1304294641970N01030785EA0159101678
B1304304641967N01030790EA0159301680
B1304314641964N01030794EA0159601683
B1304324641962N01030798EA0159701684
B1304334641960N01030801EA0159901686
B1304344641956N01030802EA0159901686
B1304344641956N01030802EA0160001687
B1304354641951N01030800EA0160001687
B1304364641946N01030795EA0160201689
B1304374641942N01030790EA0160401692
B1304384641939N01030784EA0160701694
B1304394641939N01030775EA0160801695
B1304394641939N01030775EA0161101698
B1304404641941N01030765EA0161101698
B1304414641944N01030757EA0161401701
B1304424641949N01030751EA0161601703
B1304434641955N01030747EA0161901706
B1304444641961N01030746EA0162001707
B1304454641967N01030746EA0162001707
B1304464641972N01030750EA0162101708
B1304474641976N01030755EA0162201709
B1304484641979N01030761EA0162401711
B1304494641981N01030768EA0162601713
B1304504641982N01030773EA0162701714
B1304514641982N01030778EA0162701714
B1304524641980N01030784EA0162701714
B1304534641979N01030790EA0162701714
B1304544641976N01030795EA0162801715
B1304554641972N01030798EA0162801715
B1304564641968N01030799EA0162701714
B1304574641963N01030797EA0162701714
B1304584641957N01030793EA0162801715
B1304594641952N01030787EA0163201719
B1305004641950N01030778EA0163501722
B1305014641951N01030769EA0163701724
B1305024641952N01030761EA0163901726
B1305034641956N01030754EA0164001727
B1305044641958N01030749EA0164001727
B1305054641964N01030745EA0164101728
B1305064641970N01030744EA0164201729
B1305064641970N01030744EA0164101728
B1305074641976N01030747EA0164101728
B1305084641979N01030752EA0164201729
B1305094641981N01030759EA0164401731
B1305104641980N01030765EA0164501732
B1305114641980N01030771EA0164601733
B1305124641979N01030776EA0164601733
B1305134641976N01030781EA0164501732
B1305144641974N01030784EA0164501732
B1305154641970N01030786EA0164501732
B1305164641966N01030787EA0164601733
B1305174641961N01030787EA0164601733
B1305184641957N01030786EA0164801735
B1305194641952N01030782EA0165001737
B1305204641948N01030778EA0165301740
B1305214641945N01030773EA0165401741
B1305224641944N01030768EA0165301740
B1305234641943N01030761EA0165201739
B1305244641943N01030753EA0165401741
B1305254641945N01030744EA0165601743
B1305264641949N01030736EA0165601743
B1305274641955N01030731EA0165701744
B1305284641962N01030731EA0165801745
B1305294641966N01030736EA0165901746
B1305304641968N01030743EA0166001747
B1305314641968N01030750EA0166201749
B1305324641966N01030755EA0166401751
B1305334641963N01030757EA0166501752
B1305344641960N01030757EA0166501752
B1305354641956N01030755EA0166401751
B1305364641953N01030749EA0166401751
B1305374641952N01030738EA0166601753
B1305384641951N01030729EA0166701754
B1305394641953N01030720EA0166901756
B1305404641957N01030712EA0167001757
B1305414641961N01030705EA0167201759
B1305424641967N01030702EA0167501762
B1305434641974N01030704EA0167801765
B1305444641979N01030708EA0167901766
B1305454641984N01030713EA0167901766
B1305464641987N01030719EA0168001767
B1305474641987N01030726EA0168201769
B1305484641987N01030733EA0168401771
B1305494641985N01030738EA0168601773
B1305504641982N01030743EA0168801775
B1305514641979N01030744EA0168801775
B1305524641975N01030744EA0168701774
B1305524641975N01030744EA0168701774
B1305534641971N01030742EA0168701774
B1305544641967N01030739EA0168901776
B1305554641963N01030733EA0169001777
B1305564641960N01030726EA0169301780
B1305574641959N01030719EA0169501782
B1305584641958N01030711EA0169601783
B1305594641958N01030704EA0169701784
B1306004641960N01030698EA0169701784
B1306014641961N01030691EA0169801785
B1306024641964N01030684EA0170001787
B1306034641967N01030677EA0170301790
B1306044641972N01030672EA0170501792
B1306054641978N01030670EA0170601793
B1306054641978N01030670EA0170801795
B1306064641983N01030671EA0170801795
B1306074641989N01030674EA0171001797
B1306084641993N01030679EA0171101798
B1306094641997N01030684EA0171201799
B1306104641996N01030690EA0171201799
B1306114641995N01030695EA0171401801
B1306124641992N01030699EA0171601803
B1306134641990N01030702EA0171801805
B1306144641984N01030698EA0171801805
B1306154641980N01030693EA0171901806
B1306164641976N01030687EA0171901806
B1306174641974N01030680EA0171901807
B1306184641972N01030671EA0172001807
B1306194641974N01030661EA0172201809
B1306204641978N01030652EA0172501812
B1306214641983N01030647EA0172701814
B1306224641990N01030645EA0172801815
B1306234641996N01030648EA0173001817
B1306244642000N01030653EA0173101818
B1306254642002N01030660EA0173201819
B1306264642002N01030666EA0173401821
B1306274642002N01030672EA0173601823
B1306284642000N01030673EA0173701824
B1306294641997N01030675EA0173801825
B1306304641993N01030675EA0174001827
B1306314641988N01030671EA0174201829
B1306324641984N01030665EA0174401831
B1306334641982N01030657EA0174601833
B1306344641980N01030648EA0174701834
B1306354641982N01030639EA0174801835
B1306364641984N01030630EA0175001837
B1306374641990N01030625EA0175201839
B1306384641997N01030624EA0175201839
B1306394642003N01030628EA0175301840
B1306404642008N01030632EA0175401842
B1306414642009N01030639EA0175501842
B1306424642009N01030645EA0175801845
B1306434642007N01030651EA0175901846
B1306444642005N01030655EA0176101848
B1306454642002N01030659EA0176501852
B1306464642000N01030662EA0176801855
B1306474641997N01030662EA0176901856
B1306484641994N01030660EA0177001857
B1306494641991N01030654EA0177101858
B1306504641988N01030647EA0177501862
B1306514641986N01030640EA0177801865
B1306524641987N01030631EA0178001867
B1306534641991N01030623EA0177901866
B1306544641997N01030617EA0177901866
B1306554642003N01030616EA0178001867
B1306564642010N01030621EA0178001867
B1306574642014N01030627EA0178101868
B1306584642016N01030633EA0178301870
B1306594642016N01030639EA0178401871
B1307004642016N01030643EA0178601873
B1307014642015N01030646EA0178701874
B1307024642012N01030649EA0178801875
B1307034642009N01030651EA0179001877
B1307044642005N01030651EA0179301880
B1307054642001N01030650EA0179601883
B1307064641997N01030650EA0179901886
B1307074641994N01030649EA0180101888
B1307084641991N01030649EA0180201889
B1307094641988N01030648EA0180301890
B1307104641984N01030645EA0180501892
B1307114641980N01030640EA0180901896
B1307124641977N01030632EA0181101898
B1307124641977N01030632EA0181401901
B1307134641976N01030622EA0181401901
B1307144641976N01030613EA0181701904
B1307154641979N01030604EA0181901906
B1307164641983N01030596EA0182101908
B1307174641988N01030591EA0182201909
B1307184641993N01030588EA0182301910
B1307194642000N01030591EA0182501912
B1307204642005N01030594EA0182801915
B1307214642008N01030600EA0183001917
B1307224642008N01030606EA0183301920
B1307234642008N01030611EA0183501922
B1307244642005N01030616EA0183801925
B1307254642001N01030616EA0184201929
B1307264641997N01030615EA0184501932
B1307274641994N01030610EA0184901936
B1307284641993N01030603EA0185001937
B1307294641994N01030594EA0185101938
B1307304641997N01030586EA0185401941
B1307314642000N01030579EA0185601943
B1307324642006N01030575EA0185601943
B1307334642012N01030573EA0185801945
B1307344642018N01030574EA0186101948
B1307354642023N01030578EA0186301950
B1307364642026N01030583EA0186501952
B1307374642027N01030590EA0186701954
B1307384642025N01030597EA0187001957
B1307394642024N01030603EA0187401961
B1307404642022N01030607EA0187601963
B1307414642019N01030608EA0187601963
B1307424642015N01030606EA0187601963
B1307434642011N01030605EA0187601963
B1307444642006N01030603EA0187801965
B1307454642001N01030599EA0188001967
B1307464641998N01030593EA0188201969
B1307474641995N01030585EA0188501972
B1307484641993N01030577EA0188801975
B1307494641995N01030568EA0189101978
B1307504641998N01030560EA0189301980
B1307504641998N01030560EA0189401981
B1307514642000N01030554EA0189401981
B1307524642007N01030555EA0189501982
B1307534642014N01030559EA0189601983
B1307544642018N01030564EA0189801985
B1307554642019N01030569EA0190001987
B1307564642019N01030574EA0190001987
B1307574642018N01030578EA0190101988
B1307584642017N01030582EA0190101988
B1307594642014N01030582EA0190201989
B1308004642012N01030580EA0190501992
B1308014642008N01030573EA0190901996
B1308024642006N01030561EA0191101998
B1308034642008N01030551EA0191201999
B1308044642012N01030545EA0191302000
B1308054642016N01030541EA0191402001
B1308064642022N01030538EA0191502002
B1308074642027N01030536EA0191702004
B1308084642032N01030537EA0191702005
B1308094642037N01030538EA0191702004
B1308104642042N01030540EA0191702004
B1308114642044N01030545EA0191802005
B1308124642045N01030550EA0192002007
B1308134642045N01030555EA0192202009
B1308144642041N01030563EA0192402011
B1308154642038N01030565EA0192402011
B1308164642035N01030567EA0192402011
B1308174642031N01030567EA0192302010
B1308184642026N01030568EA0192302010
B1308194642021N01030567EA0192402011
B1308204642016N01030565EA0192402011
B1308214642012N01030562EA0192602013
B1308224642008N01030557EA0192702014
B1308224642008N01030557EA0192902016
B1308234642004N01030553EA0192902016
B1308244642001N01030548EA0193202019
B1308254641998N01030543EA0193402021
B1308264641995N01030538EA0193702024
B1308274641992N01030532EA0193902026
B1308284641990N01030526EA0194102028
B1308294641988N01030518EA0194202029
B1308304641988N01030509EA0194402031
B1308314641990N01030501EA0194402031
B1308324641995N01030495EA0194402031
B1308334642001N01030491EA0194502032
B1308344642007N01030491EA0194502032
B1308354642012N01030495EA0194602033
B1308364642015N01030502EA0194902036
B1308374642014N01030509EA0195102038
B1308384642012N01030515EA0195302040
B1308384642012N01030515EA0195502042
B1308394642008N01030518EA0195502042
B1308404642003N01030519EA0195802045
B1308414641999N01030518EA0196002047
B1308424641995N01030516EA0196302050
B1308434641991N01030513EA0196602053
B1308444641987N01030510EA0196802055
B1308454641984N01030505EA0196902056
B1308464641982N01030498EA0197002057
B1308474641982N01030489EA0197002057
B1308484641984N01030479EA0197202059
B1308494641989N01030472EA0197202059
B1308504641995N01030468EA0197202059
B1308514642001N01030469EA0197202059
B1308524642005N01030475EA0197202059
B1308534642007N01030482EA0197302060
B1308544642006N01030490EA0197402061
B1308554642003N01030498EA0197702064
B1308564642001N01030504EA0197902066
B1308574641998N01030509EA0198002067
B1308584641992N01030509EA0198302070
B1308594641987N01030509EA0198602073
B1309004641981N01030508EA0198802075
B1309014641976N01030506EA0199002077
B1309024641972N01030502EA0199102078
B1309034641968N01030495EA0199202079
B1309044641966N01030486EA0199402081
B1309054641965N01030477EA0199502082
B1309064641966N01030467EA0199702084
B1309074641971N01030461EA0199702084
B1309084641976N01030459EA0199702084
B1309094641981N01030463EA0199802085
B1309104641984N01030469EA0199902086
B1309114641987N01030477EA0200102088
B1309124641987N01030485EA0200402091
B1309134641985N01030492EA0200702094
B1309144641982N01030497EA0201002097
B1309154641979N01030502EA0201202099
B1309164641976N01030505EA0201402101
B1309174641971N01030504EA0201602103
B1309184641966N01030500EA0201802105
B1309194641961N01030494EA0201702104
B1309204641959N01030486EA0201702104
B1309214641959N01030477EA0201802105
B1309224641963N01030467EA0202102108
B1309234641967N01030459EA0202302110
B1309244641972N01030456EA0202602113
B1309254641978N01030461EA0202702114
B1309264641982N01030470EA0202902116
B1309274641984N01030477EA0203002117
B1309274641984N01030477EA0203102118
B1309284641985N01030483EA0203102118
B1309294641983N01030489EA0203102118
B1309304641980N01030495EA0203002117
B1309314641976N01030500EA0203202119
B1309324641970N01030503EA0203502122
B1309334641965N01030503EA0203702125
B1309344641961N01030501EA0203902126
B1309354641957N01030497EA0203902126
B1309364641955N01030491EA0203902126
B1309374641954N01030482EA0203702124
B1309384641955N01030473EA0203802125
B1309394641958N01030464EA0203802125
B1309404641963N01030456EA0203802125
B1309414641968N01030452EA0203902126
B1309424641975N01030452EA0204002127
B1309434641980N01030454EA0204102128
B1309444641986N01030459EA0204302130
B1309454641989N01030465EA0204402131
B1309464641991N01030471EA0204502132
B1309474641993N01030478EA0204402131
B1309484641994N01030486EA0204402131
B1309494641993N01030494EA0204502132
B1309504641991N01030502EA0204702134
B1309514641987N01030509EA0204802135
B1309524641982N01030514EA0204702134
B1309534641976N01030516EA0204702134
B1309534641976N01030516EA0204802135
B1309544641971N01030517EA0204802135
B1309554641965N01030516EA0204902136
B1309564641960N01030514EA0205102138
B1309574641955N01030509EA0205202139
B1309584641951N01030504EA0205502142
B1309594641946N01030497EA0205602144
B1310004641943N01030492EA0205702144
B1310014641941N01030488EA0205802145
B1310024641938N01030483EA0205802145
B1310034641936N01030477EA0205802145
B1310044641936N01030470EA0205902146
B1310054641939N01030462EA0206102149
B1310064641942N01030457EA0206402151
B1310074641946N01030454EA0206602153
B1310084641952N01030454EA0206602153
B1310094641955N01030460EA0206502152
B1310104641957N01030468EA0206302150
B1310114641957N01030476EA0206202149
B1310124641956N01030485EA0206202149
B1310134641953N01030492EA0206302150
B1310144641948N01030498EA0206402151
B1310154641942N01030501EA0206402151
B1310164641936N01030498EA0206402151
B1310174641932N01030493EA0206302150
B1310184641929N01030486EA0206302150
B1310194641928N01030478EA0206202149
B1310204641928N01030469EA0206202149
B1310214641930N01030462EA0206302150
B1310224641935N01030458EA0206502152
B1310234641940N01030455EA0206702154
B1310244641944N01030455EA0206802155
B1310254641949N01030454EA0206802155
B1310264641953N01030453EA0206702154
B1310274641957N01030452EA0206602153
B1310284641961N01030453EA0206402151
B1310294641966N01030458EA0206202149
B1310304641971N01030464EA0206302150
B1310314641974N01030473EA0206302150
B1310324641975N01030482EA0206302150
B1310334641973N01030491EA0206102148
B1310344641970N01030499EA0206002147
B1310354641965N01030505EA0205902146
B1310364641960N01030509EA0205702144
B1310374641954N01030512EA0205602143
B1310384641947N01030512EA0205502142
B1310394641941N01030511EA0205502142
B1310404641935N01030507EA0205402141
B1310414641929N01030503EA0205402141
B1310424641924N01030496EA0205302140
B1310434641919N01030490EA0205302140
B1310444641916N01030482EA0205302140
B1310454641914N01030474EA0205302140
B1310464641912N01030465EA0205202139
B1310474641911N01030456EA0205102138
B1310484641913N01030447EA0205102138
B1310494641915N01030439EA0205002137
B1310504641919N01030433EA0205102138
B1310514641922N01030428EA0205202139
B1310524641926N01030424EA0205202139
B1310524641926N01030424EA0205202139
B1310534641930N01030422EA0205202139
B1310544641934N01030421EA0205002137
B1310554641939N01030420EA0204702134
B1310564641945N01030423EA0204602133
B1310574641950N01030426EA0204502132
B1310584641955N01030431EA0204502132
B1310594641960N01030436EA0204502132
B1311004641963N01030442EA0204402132
B1311014641967N01030448EA0204402131
B1311024641970N01030454EA0204302130
B1311034641974N01030461EA0204202129
B1311044641977N01030467EA0204202129
B1311054641980N01030474EA0204102128
B1311064641984N01030480EA0204002127
B1311074641987N01030486EA0203702124
B1311084641989N01030492EA0203502122
B1311094641992N01030500EA0203202119
B1311104641994N01030508EA0203002117
B1311114641995N01030516EA0203002117
B1311124641995N01030525EA0202802115
B1311134641993N01030533EA0202502112
B1311144641990N01030541EA0202202109
B1311154641986N01030546EA0202002107
B1311164641982N01030552EA0201702104
B1311174641976N01030554EA0201302100
B1311184641968N01030550EA0200902096
B1311194641961N01030545EA0200602093
B1311204641954N01030540EA0200302090
B1311214641949N01030534EA0200202089
B1311224641943N01030528EA0200002087
B1311234641938N01030523EA0199702084
B1311244641934N01030517EA0199502082
B1311254641930N01030511EA0199302080
B1311264641926N01030503EA0199202079
B1311274641923N01030495EA0199002077
B1311284641921N01030487EA0198802075
B1311294641919N01030479EA0198602073
B1311304641917N01030471EA0198402071
B1311314641916N01030462EA0198302070
B1311324641916N01030452EA0198302070
B1311324641916N01030452EA0198302070
B1311334641917N01030442EA0198302070
B1311334641917N01030442EA0198202069
B1311344641917N01030434EA0198202069
B1311354641917N01030426EA0198002067
B1311364641919N01030418EA0197702064
B1311374641921N01030411EA0197402061
B1311384641923N01030404EA0197102058
B1311394641926N01030396EA0196902056
B1311404641929N01030388EA0196802055
B1311414641933N01030381EA0196702054
B1311424641938N01030376EA0196602053
B1311434641943N01030374EA0196602053
B1311444641948N01030375EA0196402051
B1311454641951N01030379EA0196402051
B1311464641954N01030383EA0196302050
B1311474641955N01030388EA0196002047
B1311484641956N01030394EA0195702044
B1311494641956N01030401EA0195402041
B1311504641956N01030409EA0195202039
B1311514641955N01030418EA0195002037
B1311524641955N01030426EA0194902036
B1311534641954N01030434EA0194602033
B1311544641954N01030442EA0194502032
B1311554641953N01030449EA0194102028
B1311564641953N01030457EA0193802025
B1311574641953N01030467EA0193502022
B1311584641952N01030476EA0193502022
B1311594641951N01030485EA0193402021
B1312004641950N01030494EA0193402021
B1312014641948N01030501EA0193402021
B1312024641947N01030508EA0193202019
B1312034641946N01030515EA0192802015
B1312044641945N01030522EA0192402011
B1312054641943N01030530EA0192102008
B1312064641941N01030539EA0192002007
B1312074641939N01030547EA0191902006
B1312084641938N01030555EA0191802005
B1312094641936N01030564EA0191602003
B1312104641936N01030572EA0191502002
B1312114641934N01030581EA0191302000
B1312124641932N01030589EA0191201999
B1312134641931N01030598EA0191101998
B1312144641929N01030606EA0190901996
B1312154641928N01030615EA0190801995
B1312164641927N01030623EA0190801995
B1312174641926N01030631EA0190701994
B1312184641924N01030639EA0190601993
B1312194641922N01030647EA0190401991
B1312204641920N01030655EA0190201989
B1312214641919N01030664EA0190201989
B1312224641917N01030673EA0190101988
B1312234641916N01030682EA0190101988
B1312244641914N01030690EA0190101988
B1312254641913N01030698EA0190001987
B1312264641912N01030705EA0189901986
B1312274641910N01030713EA0189801985
B1312284641909N01030721EA0189701984
B1312294641907N01030729EA0189801985
B1312304641906N01030737EA0189901986
B1312314641905N01030744EA0189801985
B1312324641904N01030751EA0189701984
B1312334641903N01030759EA0189601983
B1312344641902N01030767EA0189401981
B1312354641902N01030775EA0189401981
B1312364641901N01030783EA0189401981
B1312374641900N01030792EA0189401981
B1312384641899N01030799EA0189401981
B1312394641899N01030806EA0189301980
B1312404641898N01030814EA0189101978
B1312414641898N01030821EA0189101978
B1312424641898N01030829EA0189101978
B1312434641897N01030837EA0189101978
B1312444641895N01030845EA0188901976
B1312454641895N01030852EA0188801975
B1312464641893N01030860EA0188601973
B1312474641892N01030867EA0188401971
B1312474641892N01030867EA0188201969
B1312484641891N01030876EA0188201969
B1312484641891N01030876EA0188101968
B1312494641890N01030884EA0188101968
B1312504641890N01030892EA0188101968
B1312514641889N01030900EA0188001967
B1312524641888N01030908EA0187901966
B1312534641887N01030916EA0187901966
B1312544641886N01030923EA0187701964
B1312544641886N01030923EA0187601963
B1312554641885N01030931EA0187601963
B1312564641884N01030939EA0187501962
B1312574641884N01030947EA0187301960
B1312584641884N01030956EA0187201959
B1312594641883N01030964EA0187201959
B1313004641882N01030972EA0187101958
B1313014641882N01030980EA0186901956
B1313024641881N01030988EA0186701954
B1313034641880N01030996EA0186401951
B1313044641879N01031004EA0186201949
B1313054641877N01031013EA0186001947
B1313064641876N01031021EA0185801945
B1313074641876N01031030EA0185601943
B1313074641876N01031030EA0185401941
B1313084641875N01031038EA0185401941
B1313094641875N01031046EA0185101938
B1313094641875N01031046EA0184901936
B1313104641874N01031054EA0184901936
B1313114641873N01031063EA0184701934
B1313124641873N01031072EA0184501932
B1313134641872N01031080EA0184401931
B1313144641872N01031089EA0184201929
B1313154641871N01031097EA0184001927
B1313164641870N01031105EA0183801925
B1313174641869N01031113EA0183601923
B1313184641867N01031122EA0183401921
B1313194641866N01031130EA0183301920
B1313204641865N01031139EA0183201919
B1313214641864N01031147EA0183101918
B1313224641863N01031156EA0182901916
B1313234641862N01031164EA0182801915
B1313244641862N01031172EA0182801915
B1313254641861N01031180EA0182701915
B1313264641861N01031187EA0182601913
B1313274641861N01031195EA0182401911
B1313284641861N01031202EA0182301910
B1313294641861N01031210EA0182101908
B1313304641860N01031218EA0181901906
B1313314641860N01031226EA0181801905
B1313324641860N01031235EA0181801905
B1313334641860N01031243EA0181701905
B1313344641860N01031251EA0181701904
B1313354641859N01031259EA0181601903
B1313364641859N01031266EA0181601903
B1313374641859N01031274EA0181501902
B1313384641859N01031282EA0181401901
B1313394641859N01031289EA0181301900
B1313404641859N01031297EA0181201899
B1313414641859N01031304EA0181101898
B1313424641858N01031312EA0181001897
B1313434641858N01031319EA0180901896
B1313444641858N01031327EA0180801895
B1313444641858N01031327EA0180701894
B1313454641858N01031335EA0180701894
B1313464641858N01031343EA0180601893
B1313474641858N01031351EA0180401891
B1313484641858N01031359EA0180301890
B1313494641858N01031367EA0180101888
B1313504641858N01031376EA0180001887
B1313514641858N01031385EA0180001887
B1313524641858N01031393EA0179901886
B1313534641858N01031401EA0179801885
B1313544641858N01031409EA0179601883
B1313554641859N01031417EA0179501882
B1313564641859N01031425EA0179401881
B1313574641859N01031433EA0179301880
B1313584641859N01031441EA0179201879
B1313594641859N01031449EA0179101878
B1314004641859N01031457EA0179001877
B1314014641859N01031465EA0178901876
B1314024641859N01031473EA0178801875
B1314034641858N01031481EA0178701874
B1314044641858N01031490EA0178601873
B1314054641858N01031498EA0178501872
B1314064641858N01031506EA0178401871
B1314074641858N01031515EA0178201869
B1314084641858N01031523EA0178101868
B1314094641858N01031531EA0178101868
B1314104641858N01031540EA0177901866
B1314114641857N01031548EA0177801865
B1314124641857N01031556EA0177601863
B1314134641857N01031565EA0177501862
B1314144641857N01031573EA0177401861
B1314154641857N01031581EA0177301860
B1314164641856N01031589EA0177201859
B1314174641855N01031598EA0177101858
B1314184641855N01031606EA0177001857
B1314194641854N01031614EA0176901856
B1314204641854N01031622EA0176801855
B1314214641853N01031630EA0176601853
B1314224641852N01031637EA0176401851
B1314234641851N01031645EA0176201849
B1314244641849N01031654EA0176001847
B1314254641848N01031662EA0175901846
B1314264641847N01031671EA0175801845
B1314274641847N01031680EA0175701845
B1314284641847N01031688EA0175701844
B1314294641846N01031696EA0175601843
B1314304641846N01031705EA0175401841
B1314314641845N01031713EA0175201839
B1314324641844N01031722EA0175101838
B1314334641843N01031731EA0175101838
B1314344641841N01031740EA0175101838
B1314354641840N01031748EA0175101838
B1314364641838N01031756EA0175001837
B1314374641838N01031764EA0174801835
B1314384641837N01031772EA0174601833
B1314394641836N01031781EA0174501832
B1314404641835N01031790EA0174301830
B1314414641833N01031799EA0174201829
B1314424641832N01031807EA0174101828
B1314434641830N01031816EA0174001827
B1314444641829N01031824EA0173801825
B1314454641827N01031833EA0173701824
B1314464641826N01031841EA0173501822
B1314474641825N01031850EA0173301820
B1314484641824N01031859EA0173101818
B1314494641823N01031868EA0173001817
B1314504641822N01031876EA0172901816
B1314514641821N01031885EA0172701814
B1314524641820N01031893EA0172601813
B1314534641820N01031901EA0172301810
B1314544641820N01031908EA0172101808
B1314554641819N01031916EA0171801805
B1314564641818N01031925EA0171701804
B1314574641817N01031933EA0171501802
B1314584641816N01031942EA0171301800
B1314594641816N01031950EA0171101798
B1315004641815N01031958EA0170901796
B1315014641814N01031966EA0170701794
B1315024641813N01031974EA0170501792
B1315034641811N01031982EA0170301790
B1315044641810N01031990EA0170201789
B1315054641809N01031998EA0170101788
B1315064641808N01032006EA0169901786
B1315074641807N01032013EA0169801785
B1315084641806N01032021EA0169601783
B1315084641806N01032021EA0169601783
B1315094641805N01032029EA0169601783
B1315104641803N01032036EA0169501782
B1315114641802N01032044EA0169301781
B1315124641802N01032051EA0169201779
B1315134641801N01032059EA0169001777
B1315144641801N01032067EA0168901776
B1315144641801N01032067EA0168801775
B1315154641801N01032075EA0168801775
B1315164641800N01032083EA0168801775
B1315174641800N01032091EA0168601773
B1315184641800N01032098EA0168501772
B1315194641800N01032106EA0168401771
B1315204641799N01032114EA0168201769
B1315214641799N01032122EA0168201769
B1315224641799N01032130EA0168101768
B1315234641799N01032138EA0167901766
B1315244641798N01032146EA0167801765
B1315254641798N01032154EA0167701764
B1315264641798N01032161EA0167501762
B1315274641798N01032169EA0167501762
B1315284641798N01032177EA0167401761
B1315294641799N01032184EA0167401761
B1315304641799N01032192EA0167301761
B1315314641799N01032199EA0167301760
B1315324641799N01032205EA0167201759
B1315334641799N01032212EA0167201759
B1315344641800N01032219EA0167101758
B1315354641800N01032226EA0167101758
B1315364641801N01032233EA0167001757
B1315364641801N01032233EA0166901756
B1315374641801N01032240EA0166901756
B1315384641801N01032247EA0166901756
B1315394641801N01032254EA0166801755
B1315404641801N01032261EA0166701754
B1315414641801N01032269EA0166701754
B1315424641801N01032276EA0166601753
B1315434641801N01032283EA0166501752
B1315444641802N01032291EA0166301750
B1315454641803N01032298EA0166201749
B1315464641804N01032305EA0166101748
B1315474641805N01032313EA0166201749
B1315484641805N01032321EA0166101748
B1315494641806N01032328EA0166101748
B1315504641807N01032335EA0166001747
B1315504641807N01032335EA0165901746
B1315514641809N01032342EA0165901746
B1315524641810N01032349EA0165801745
B1315534641811N01032357EA0165801745
B1315544641813N01032365EA0165701744
B1315554641814N01032372EA0165701744
B1315564641815N01032379EA0165501742
B1315574641817N01032386EA0165401741
B1315574641817N01032386EA0165301740
B1315584641819N01032393EA0165301740
B1315594641821N01032400EA0165101738
B1316004641822N01032408EA0165101738
B1316014641823N01032416EA0165001737
B1316024641825N01032423EA0165001737
B1316034641826N01032431EA0164901736
B1316044641828N01032438EA0164801735
B1316054641830N01032444EA0164601733
B1316064641832N01032451EA0164501732
B1316074641833N01032458EA0164401731
B1316084641835N01032465EA0164301730
B1316094641836N01032473EA0164201729
B1316104641838N01032480EA0164101728
B1316114641840N01032488EA0164001727
B1316124641841N01032495EA0163901726
B1316134641843N01032503EA0163801725
B1316144641845N01032510EA0163701724
B1316154641847N01032518EA0163601723
B1316164641848N01032525EA0163401721
B1316174641849N01032533EA0163301720
B1316184641850N01032540EA0163301720
B1316194641852N01032548EA0163201719
B1316204641854N01032555EA0163101718
B1316214641855N01032562EA0163001717
B1316224641857N01032569EA0162801715
B1316234641858N01032576EA0162601713
B1316244641860N01032583EA0162501712
B1316254641862N01032590EA0162501712
B1316264641863N01032597EA0162401711
B1316274641865N01032604EA0162401711
B1316284641867N01032611EA0162301710
B1316294641869N01032618EA0162101708
B1316304641871N01032625EA0162101708
B1316314641873N01032632EA0162001707
B1316324641876N01032640EA0162001707
B1316334641877N01032647EA0162001707
B1316344641879N01032654EA0161901706
B1316354641881N01032661EA0161801705
B1316364641883N01032668EA0161601703
B1316374641885N01032676EA0161501702
B1316384641886N01032684EA0161501702
B1316394641888N01032692EA0161401701
B1316404641889N01032699EA0161301700
B1316404641889N01032699EA0161201699
B1316414641891N01032707EA0161201699
B1316424641892N01032714EA0161201699
B1316434641894N01032722EA0161101698
B1316444641895N01032729EA0160901696
B1316454641897N01032736EA0160901696
B1316464641899N01032743EA0160801695
B1316474641901N01032751EA0160801695
B1316484641903N01032757EA0160801695
B1316494641905N01032764EA0160601693
B1316504641907N01032770EA0160401691
B1316514641910N01032776EA0160201689
B1316524641912N01032782EA0160101688
B1316534641914N01032790EA0160001687
B1316544641916N01032798EA0160001687
B1316554641917N01032805EA0159901686
B1316564641919N01032812EA0159801685
B1316574641921N01032819EA0159601683
B1316584641922N01032825EA0159401681
B1316594641925N01032832EA0159201679
B1317004641927N01032839EA0159101678
B1317014641928N01032846EA0159001677
B1317024641930N01032854EA0158901676
B1317034641932N01032860EA0158901676
B1317044641934N01032866EA0158801675
B1317054641936N01032872EA0158601673
B1317064641938N01032879EA0158401671
B1317074641939N01032885EA0158201669
B1317084641941N01032892EA0158001667
B1317094641943N01032899EA0157901666
B1317104641945N01032905EA0157601663
B1317114641948N01032912EA0157401661
B1317124641950N01032918EA0157301660
B1317134641952N01032925EA0157201659
B1317144641954N01032932EA0157001657
B1317154641956N01032939EA0156901656
B1317164641958N01032946EA0156701654
B1317164641958N01032946EA0156501652
B1317174641960N01032952EA0156501652
B1317184641963N01032959EA0156301650
B1317194641964N01032966EA0156101648
B1317204641966N01032974EA0156001647
B1317214641969N01032982EA0156001647
B1317224641971N01032989EA0156001647
B1317234641973N01032996EA0156001647
B1317244641974N01033002EA0155801645
B1317254641976N01033008EA0155601643
B1317264641979N01033015EA0155401641
B1317274641980N01033022EA0155301640
B1317284641982N01033030EA0155301640
B1317294641983N01033037EA0155301640
B1317304641985N01033044EA0155301640
B1317314641987N01033051EA0155201639
B1317324641988N01033057EA0155001637
B1317334641989N01033063EA0154801635
B1317344641990N01033070EA0154801635
B1317354641992N01033077EA0154701634
B1317364641993N01033084EA0154601633
B1317374641995N01033091EA0154401631
B1317384641995N01033097EA0154301630
B1317394641996N01033104EA0154101628
B1317404641997N01033112EA0154001627
B1317414641997N01033119EA0154001627
B1317424641998N01033126EA0153801625
B1317434641998N01033133EA0153701624
B1317444641998N01033140EA0153501622
B1317454641998N01033147EA0153301620
B1317464641998N01033153EA0153201619
B1317474641998N01033161EA0153101618
B1317484641997N01033167EA0153001617
B1317494641996N01033173EA0152901616
B1317504641994N01033179EA0152901616
B1317514641992N01033183EA0153001617
B1317524641990N01033187EA0153101618
B1317534641988N01033189EA0153201619
B1317544641986N01033191EA0153201619
B1317554641984N01033193EA0153001617
B1317564641982N01033197EA0152701614
B1317574641980N01033202EA0152601613
B1317584641978N01033209EA0152601613
B1317594641976N01033215EA0152901616
B1317594641976N01033215EA0153001617
B1318004641974N01033220EA0153001617
B1318014641972N01033225EA0153001617
B1318024641970N01033230EA0153001617
B1318034641968N01033235EA0153001617
B1318044641966N01033241EA0153001617
B1318054641964N01033248EA0153201619
B1318064641963N01033252EA0153301620
B1318074641961N01033256EA0153301620
B1318084641960N01033257EA0153201619
B1318094641958N01033259EA0153101618
B1318104641955N01033257EA0153201619
B1318114641952N01033254EA0153101618
B1318124641950N01033249EA0153101618
B1318134641951N01033242EA0152901616
B1318144641953N01033234EA0152801615
B1318154641955N01033227EA0152701614
B1318164641960N01033220EA0152701614
B1318174641966N01033215EA0152701614
B1318174641966N01033215EA0152701614
B1318184641972N01033210EA0152701614
B1318194641978N01033206EA0152601613
B1318204641983N01033202EA0152601613
B1318214641989N01033197EA0152501612
B1318224641994N01033192EA0152501612
B1318234641999N01033187EA0152701614
B1318244642004N01033181EA0152801615
B1318254642009N01033175EA0152901616
B1318264642014N01033170EA0153001617
B1318274642019N01033165EA0153001617
B1318284642023N01033161EA0152801615
B1318294642028N01033157EA0152601613
B1318294642028N01033157EA0152501612
B1318304642033N01033152EA0152501612
B1318314642038N01033145EA0152601613
B1318324642042N01033138EA0153001617
B1318334642045N01033131EA0153301620
B1318344642048N01033125EA0153401621
B1318354642049N01033120EA0153401621
B1318364642050N01033115EA0153201619
B1318374642050N01033109EA0153001617
B1318384642050N01033102EA0152901616
B1318394642049N01033096EA0152701614
B1318404642047N01033093EA0152501612
B1318414642044N01033094EA0152401611
B1318424642041N01033096EA0152301610
B1318434642038N01033100EA0152201609
B1318444642037N01033105EA0152001607
B1318454642034N01033109EA0151801605
B1318464642032N01033112EA0151601603
B1318474642028N01033115EA0151501603
B1318484642025N01033117EA0151501602
B1318494642022N01033119EA0151401601
B1318504642019N01033122EA0151301600
B1318514642016N01033125EA0151201599
B1318524642013N01033129EA0151101598
B1318534642011N01033132EA0151001597
B1318544642008N01033137EA0150801595
B1318554642005N01033142EA0150801595
B1318564642002N01033147EA0150901596
B1318574642000N01033151EA0150901596
B1318584641998N01033156EA0150901596
B1318594641995N01033161EA0150801595
B1319004641993N01033166EA0150701594
B1319014641991N01033171EA0150601593
B1319024641989N01033176EA0150701594
B1319034641987N01033182EA0150901596
B1319044641985N01033187EA0151101598
B1319054641984N01033192EA0151001597
B1319064641984N01033197EA0150801595
B1319074641985N01033203EA0150801595
B1319084641986N01033210EA0150701595
B1319094641985N01033217EA0150701594
B1319104641984N01033222EA0150701594
B1319114641982N01033227EA0150701595
B1319124641980N01033229EA0150801595
B1319134641977N01033230EA0150601593
B1319144641975N01033230EA0150501592
B1319154641972N01033228EA0150401591
B1319164641969N01033224EA0150301590
B1319174641967N01033218EA0150101588
B1319184641967N01033211EA0150001587
B1319194641967N01033203EA0150001587
B1319204641969N01033194EA0150001587
B1319214641972N01033186EA0150001587
B1319224641975N01033178EA0149901586
B1319234641978N01033170EA0149901586
B1319244641981N01033162EA0149901586
B1319254641985N01033154EA0149901586
B1319264641989N01033146EA0149901586
B1319274641993N01033139EA0149801585
B1319284641997N01033132EA0149801585
B1319294642001N01033125EA0149701584
B1319304642005N01033118EA0149701584
B1319314642010N01033111EA0149601583
B1319324642014N01033104EA0149501582
B1319334642019N01033097EA0149501582
B1319344642023N01033090EA0149401581
B1319354642027N01033083EA0149301580
B1319364642031N01033076EA0149401581
B1319374642036N01033069EA0149501582
B1319384642040N01033062EA0149601583
B1319394642044N01033054EA0149501582
B1319404642048N01033047EA0149401581
B1319414642052N01033040EA0149301580
B1319424642056N01033033EA0149201579
B1319424642056N01033033EA0149101578
B1319434642060N01033026EA0149101578
B1319444642066N01033019EA0149001577
B1319454642070N01033012EA0148901576
B1319464642075N01033006EA0148901576
B1319474642080N01032999EA0148701574
B1319484642085N01032993EA0148501572
B1319494642089N01032985EA0148301570
B1319504642093N01032977EA0147901566
B1319514642096N01032968EA0147801565
B1319524642096N01032958EA0147901566
B1319534642096N01032950EA0148001567
B1319544642095N01032942EA0147901566
B1319554642095N01032936EA0148001567
B1319564642094N01032928EA0148201569
B1319574642092N01032921EA0148401571
B1319584642091N01032914EA0148501572
B1319594642089N01032909EA0148501572
B1320004642089N01032905EA0148401571
B1320014642088N01032900EA0148301570
B1320024642087N01032894EA0148101568
B1320024642087N01032894EA0148101568
B1320034642084N01032890EA0148101568
B1320034642084N01032890EA0148401571
B1320044642079N01032887EA0148401571
B1320054642075N01032886EA0148701574
B1320064642072N01032886EA0148901576
B1320074642070N01032886EA0148901576
B1320084642068N01032885EA0148701574
B1320094642066N01032884EA0148701574
B1320104642062N01032886EA0148901576
B1320114642058N01032890EA0149101578
B1320124642054N01032895EA0149101578
B1320134642052N01032899EA0149201579
B1320144642053N01032907EA0149501582
B1320154642060N01032911EA0149801585
B1320164642069N01032914EA0150001587
B1320174642075N01032915EA0149901586
B1320184642082N01032914EA0149701584
B1320194642088N01032911EA0149601583
B1320204642094N01032905EA0149601583
B1320214642098N01032896EA0149801585
B1320224642102N01032887EA0150001587
B1320234642104N01032880EA0150101588
B1320234642104N01032880EA0150101588
B1320244642106N01032874EA0150101588
B1320254642107N01032868EA0150001587
B1320264642107N01032861EA0149701584
B1320274642106N01032854EA0149801585
B1320284642104N01032845EA0150101588
B1320294642101N01032839EA0150401591
B1320294642101N01032839EA0150601593
B1320304642098N01032835EA0150601593
B1320314642096N01032834EA0150601593
B1320324642095N01032834EA0150401591
B1320334642093N01032834EA0150301590
B1320344642090N01032833EA0150201589
B1320354642088N01032832EA0150101588
B1320364642085N01032832EA0150001587
B1320374642084N01032834EA0149801585
B1320384642082N01032838EA0149701584
B1320394642082N01032842EA0149501582
B1320404642081N01032847EA0149501582
B1320414642081N01032853EA0149301580
B1320424642082N01032859EA0149301580
B1320434642084N01032864EA0149301580
B1320444642086N01032870EA0149301580
B1320454642090N01032874EA0149401581
B1320464642095N01032878EA0149401581
B1320474642101N01032880EA0149401581
B1320484642107N01032880EA0149301580
B1320494642115N01032878EA0149301580
B1320504642122N01032876EA0149401581
B1320504642122N01032876EA0149301580
B1320514642129N01032873EA0149301580
B1320524642136N01032872EA0149401581
B1320534642143N01032870EA0149401581
B1320544642150N01032868EA0149401581
B1320554642156N01032866EA0149301580
B1320564642162N01032862EA0149501582
B1320574642168N01032857EA0149501582
B1320584642172N01032851EA0149401581
B1320594642175N01032845EA0149501582
B1321004642176N01032838EA0149901586
B1321014642174N01032830EA0150101588
B1321024642174N01032824EA0150201589
B1321034642175N01032818EA0150001587
B1321044642177N01032812EA0149701584
B1321054642178N01032804EA0149501582
B1321064642180N01032796EA0149201579
B1321074642180N01032788EA0149101578
B1321084642178N01032783EA0148701574
B1321094642175N01032783EA0148601573
B1321104642172N01032784EA0148501572
B1321104642172N01032784EA0148501572
B1321104642172N01032784EA0148501572
B1321114642169N01032786EA0148401572
B1321124642168N01032786EA0148301570
B1321134642165N01032786EA0148001567
B1321144642163N01032786EA0147501562
B1321154642160N01032788EA0147201559
B1321164642158N01032791EA0147101558
B1321174642155N01032795EA0147101558
B1321184642152N01032798EA0147001557
B1321194642150N01032801EA0146901556
B1321204642147N01032803EA0146701554
B1321214642144N01032805EA0146401551
B1321224642141N01032807EA0146301550
B1321234642138N01032808EA0146301550
B1321244642135N01032810EA0146301550
B1321254642133N01032814EA0146401551
B1321264642131N01032818EA0146301551
B1321274642130N01032822EA0146201549
B1321284642128N01032824EA0146101548
B1321294642126N01032826EA0145901546
B1321304642125N01032828EA0145601543
B1321314642122N01032831EA0145401541
B1321324642119N01032834EA0145301540
B1321334642116N01032836EA0145301540
B1321344642113N01032836EA0145301540
B1321354642109N01032837EA0145201539
B1321364642106N01032837EA0145201539
B1321374642104N01032837EA0145101538
B1321384642102N01032837EA0144901536
B1321394642099N01032836EA0144601533
B1321404642096N01032836EA0144401531
B1321414642093N01032837EA0144201529
B1321424642089N01032837EA0144401531
B1321434642085N01032838EA0144501532
B1321444642082N01032838EA0144601533
B1321454642080N01032838EA0144501532
B1321464642079N01032836EA0144301530
B1321474642077N01032835EA0144101528
B1321484642075N01032834EA0143701524
B1321494642072N01032834EA0143501522
B1321504642069N01032834EA0143301520
B1321514642066N01032833EA0143201519
B1321524642063N01032832EA0143001517
B1321534642060N01032833EA0142801515
B1321544642058N01032834EA0142601513
B1321554642055N01032835EA0142301510
B1321564642052N01032835EA0142001507
B1321574642049N01032835EA0141801505
B1321584642046N01032834EA0141701504
B1321584642046N01032834EA0141401501
B1321594642042N01032833EA0141401501
B1322004642038N01032831EA0141201499
B1322014642035N01032829EA0140801495
B1322024642032N01032827EA0140501492
B1322034642028N01032827EA0140201489
B1322044642024N01032827EA0139701484
B1322054642019N01032827EA0139501482
B1322064642013N01032828EA0139401481
B1322074642008N01032829EA0139401481
B1322084642003N01032831EA0139301480
B1322094641999N01032832EA0139201479
B1322104641995N01032833EA0139001477
B1322114641991N01032834EA0138601473
B1322124641986N01032836EA0138401471
B1322134641982N01032837EA0138301470
B1322144641977N01032838EA0138201469
B1322144641977N01032838EA0138301470
B1322154641972N01032839EA0138301470
B1322164641968N01032840EA0138301470
B1322174641965N01032840EA0138101468
B1322184641962N01032840EA0137901466
B1322194641958N01032839EA0137801465
B1322204641955N01032838EA0137801465
B1322214641950N01032836EA0137801466
B1322224641946N01032836EA0138001467
B1322234641943N01032835EA0138101468
B1322244641939N01032836EA0138301470
B1322254641937N01032837EA0138401471
B1322264641935N01032838EA0138501472
B1322274641932N01032838EA0138401471
B1322284641929N01032839EA0138301470
B1322294641926N01032841EA0138401471
B1322304641923N01032844EA0138401471
B1322314641919N01032847EA0138501472
B1322324641917N01032852EA0138401471
B1322334641914N01032856EA0138401471
B1322344641912N01032862EA0138401471
B1322354641910N01032867EA0138601473
B1322364641907N01032872EA0138801475
B1322374641904N01032877EA0139101478
B1322384641901N01032882EA0139301480
B1322394641899N01032886EA0139301480
B1322404641898N01032890EA0139401481
B1322414641896N01032895EA0139401481
B1322414641896N01032895EA0139601483
B1322424641895N01032900EA0139601483
B1322434641892N01032904EA0139901486
B1322444641892N01032908EA0139901486
B1322454641892N01032910EA0139701484
B1322464641892N01032911EA0139501482
B1322474641889N01032913EA0139201479
B1322484641886N01032915EA0139401481
B1322484641886N01032915EA0139501482
B1322494641883N01032915EA0139501482
B1322504641880N01032912EA0139601483
B1322514641877N01032908EA0139701484
B1322524641875N01032903EA0139801485
B1322534641874N01032897EA0139801485
B1322544641875N01032890EA0139701484
B1322554641877N01032882EA0139701484
B1322564641881N01032874EA0139701484
B1322574641886N01032867EA0139601483
B1322584641892N01032864EA0139501482
B1322594641900N01032866EA0139301480
B1323004641905N01032872EA0139401481
B1323014641908N01032879EA0139301480
B1323024641909N01032886EA0139301480
B1323034641909N01032892EA0139301480
B1323044641908N01032898EA0139401481
B1323054641906N01032904EA0139501482
B1323064641904N01032910EA0139701484
B1323074641903N01032915EA0139901486
B1323084641902N01032920EA0140101488
B1323094641900N01032922EA0140201489
B1323104641898N01032924EA0140101488
B1323114641896N01032923EA0139901486
B1323124641893N01032922EA0139601483
B1323134641890N01032919EA0139501482
B1323144641887N01032915EA0139201479
B1323154641884N01032907EA0138901476
B1323164641884N01032899EA0138701474
B1323174641887N01032890EA0138501472
B1323184641891N01032882EA0138301470
B1323194641895N01032876EA0138201469
B1323204641900N01032870EA0138001467
B1323214641906N01032865EA0137801466
B1323224641912N01032859EA0137801465
B1323234641917N01032852EA0137801465
B1323244641920N01032845EA0137801465
B1323254641924N01032838EA0137701464
B1323264641927N01032832EA0137601463
B1323274641929N01032826EA0137501462
B1323284641930N01032819EA0137401461
B1323294641930N01032812EA0137301460
B1323304641929N01032806EA0137301460
B1323314641928N01032800EA0137201459
B1323324641927N01032793EA0137001457
B1323334641926N01032786EA0136901456
B1323344641924N01032779EA0136801455
B1323354641922N01032773EA0136801455
B1323364641919N01032768EA0136701454
B1323374641916N01032765EA0136501452
B1323384641913N01032761EA0136301450
B1323394641909N01032758EA0135901446
B1323404641905N01032754EA0135601443
B1323414641902N01032748EA0135401441
B1323424641900N01032741EA0135201439
B1323434641898N01032733EA0135201439
B1323444641896N01032724EA0135101438
B1323454641895N01032715EA0134901436
B1323464641894N01032707EA0134701434
B1323474641892N01032699EA0134401431
B1323484641891N01032690EA0134201429
B1323494641889N01032681EA0134101428
B1323504641887N01032672EA0134001427
B1323514641885N01032662EA0134001427
B1323524641883N01032655EA0133801425
B1323524641883N01032655EA0133501422
B1323534641882N01032648EA0133501422
B1323544641880N01032641EA0133101418
B1323554641879N01032632EA0132701414
B1323564641879N01032622EA0132501412
B1323574641878N01032613EA0132401411
B1323584641876N01032604EA0132301410
B1323594641875N01032596EA0132101408
B1323594641875N01032596EA0131901406
B1324004641874N01032589EA0131901406
B1324014641873N01032581EA0131701404
B1324024641872N01032573EA0131501402
B1324034641870N01032565EA0131201399
B1324044641868N01032557EA0131201399
B1324054641866N01032550EA0131201399
B1324064641865N01032543EA0131001397
B1324064641865N01032543EA0130801395
B1324074641864N01032537EA0130801395
B1324084641863N01032530EA0130401391
B1324094641863N01032524EA0130501392
B1324104641864N01032515EA0130301390
B1324114641864N01032506EA0130101388
B1324124641864N01032498EA0130101388
B1324124641864N01032498EA0130101388
B1324134641864N01032490EA0130101388
B1324144641862N01032483EA0130001387
B1324154641861N01032476EA0129901386
B1324164641861N01032469EA0129701384
B1324174641860N01032463EA0129601383
B1324184641858N01032456EA0129601383
B1324184641858N01032456EA0129601383
B1324194641857N01032449EA0129601383
B1324204641857N01032442EA0129501382
B1324214641857N01032436EA0129401381
B1324224641857N01032429EA0129201379
B1324234641857N01032423EA0129001377
B1324244641856N01032417EA0128701374
B1324254641854N01032410EA0128601373
B1324264641853N01032403EA0128601373
B1324274641851N01032396EA0128501372
B1324284641850N01032390EA0128501372
B1324294641848N01032383EA0128401371
B1324304641847N01032377EA0128301370
B1324314641845N01032370EA0128201369
B1324324641844N01032363EA0128101368
B1324334641843N01032356EA0128101368
B1324344641841N01032349EA0128001367
B1324354641840N01032343EA0128001367
B1324364641838N01032337EA0127901366
B1324374641837N01032331EA0127801365
B1324384641837N01032324EA0127601363
B1324394641836N01032318EA0127501362
B1324404641835N01032311EA0127401361
B1324414641833N01032303EA0127501362
B1324424641831N01032297EA0127601363
B1324434641830N01032291EA0127601363
B1324444641829N01032286EA0127501362
B1324454641828N01032280EA0127301360
B1324464641827N01032273EA0127101358
B1324474641826N01032265EA0127101358
B1324484641825N01032257EA0127201359
B1324494641824N01032249EA0127301360
B1324504641824N01032243EA0127301360
B1324514641824N01032236EA0127301360
B1324524641823N01032230EA0127201359
B1324534641822N01032223EA0127101358
B1324544641821N01032215EA0127101358
B1324554641820N01032209EA0127001357
B1324564641817N01032203EA0126901356
B1324574641815N01032196EA0126801355
B1324584641814N01032188EA0126701354
B1324594641814N01032180EA0126701354
B1325004641813N01032171EA0126701354
B1325014641811N01032163EA0126801355
B1325024641810N01032156EA0126901356
B1325034641808N01032149EA0126901356
B1325044641807N01032143EA0126701354
B1325054641806N01032137EA0126501352
B1325064641805N01032131EA0126301350
B1325074641803N01032124EA0126101348
B1325084641801N01032116EA0126201349
B1325094641799N01032109EA0126301350
B1325104641798N01032102EA0126201349
B1325104641798N01032102EA0126101349
B1325114641797N01032095EA0126101349
B1325124641795N01032089EA0126201349
B1325134641793N01032082EA0126201349
B1325144641792N01032076EA0126001347
B1325154641791N01032068EA0126001347
B1325164641791N01032061EA0125901346
B1325174641790N01032053EA0125801345
B1325184641789N01032044EA0125801345
B1325194641790N01032035EA0125701344
B1325204641790N01032027EA0125501342
B1325214641791N01032018EA0125401341
B1325224641791N01032009EA0125301340
B1325234641791N01031999EA0125201339
B1325244641791N01031989EA0125201339
B1325254641792N01031980EA0125201339
B1325264641792N01031971EA0125101338
B1325274641792N01031963EA0124901336
B1325284641793N01031954EA0124701334
B1325294641794N01031944EA0124501332
B1325294641794N01031944EA0124401331
B1325304641795N01031935EA0124401331
B1325314641795N01031926EA0124301330
B1325324641796N01031916EA0124201329
B1325334641797N01031908EA0124001327
B1325344641799N01031899EA0123901326
B1325354641800N01031890EA0123701324
B1325364641801N01031882EA0123501322
B1325374641802N01031873EA0123301320
B1325384641803N01031864EA0123201319
B1325394641804N01031855EA0123001317
B1325404641805N01031847EA0122901316
B1325414641807N01031838EA0122701314
B1325424641808N01031829EA0122601313
B1325434641810N01031819EA0122601313
B1325444641811N01031810EA0122401311
B1325454641811N01031801EA0122201309
B1325464641811N01031793EA0122001307
B1325474641811N01031784EA0121801305
B1325484641811N01031774EA0121601303
B1325494641812N01031764EA0121601303
B1325504641813N01031754EA0121501302
B1325514641814N01031745EA0121401301
B1325524641815N01031736EA0121301300
B1325534641816N01031727EA0121101298
B1325544641817N01031718EA0120901296
B1325554641817N01031709EA0120801295
B1325564641818N01031700EA0120701294
B1325574641819N01031691EA0120601293
B1325584641820N01031682EA0120401291
B1325594641820N01031673EA0120201289
B1326004641821N01031664EA0120101288
B1326014641822N01031654EA0120001287
B1326024641822N01031646EA0120001287
B1326034641823N01031638EA0120001287
B1326044641823N01031630EA0119801285
B1326054641823N01031622EA0119601283
B1326064641823N01031614EA0119501282
B1326074641823N01031606EA0119301280
B1326084641822N01031597EA0119301280
B1326094641821N01031589EA0119201279
B1326104641821N01031581EA0119101278
B1326114641821N01031574EA0119001277
B1326124641821N01031566EA0118801275
B1326134641820N01031558EA0118701274
B1326144641819N01031549EA0118701274
B1326144641819N01031549EA0118701274
B1326154641819N01031541EA0118701274
B1326164641819N01031533EA0118801275
B1326174641819N01031526EA0118701274
B1326184641818N01031520EA0118501272
B1326194641816N01031514EA0118501272
B1326204641814N01031509EA0118401271
B1326214641811N01031506EA0118501272
B1326224641808N01031504EA0118601273
B1326234641806N01031505EA0118501272
B1326244641804N01031508EA0118401271
B1326254641803N01031511EA0118301270
B1326264641802N01031515EA0118101268
B1326274641801N01031520EA0118001267
B1326284641800N01031525EA0118001267
B1326294641799N01031531EA0117901266
B1326304641798N01031536EA0117801265
B1326314641798N01031540EA0117701264
B1326324641797N01031545EA0117501262
B1326334641795N01031549EA0117501262
B1326344641795N01031555EA0117501262
B1326354641793N01031560EA0117501262
B1326364641793N01031565EA0117501262
B1326374641792N01031569EA0117401261
B1326384641792N01031573EA0117201259
B1326394641791N01031578EA0117201259
B1326404641789N01031582EA0117201259
B1326404641789N01031582EA0117201259
B1326414641788N01031587EA0117201259
B1326424641788N01031592EA0117201259
B1326434641788N01031596EA0117101258
B1326444641788N01031601EA0116901256
B1326454641788N01031606EA0116801255
B1326464641787N01031612EA0116801255
B1326474641787N01031617EA0116701254
B1326484641786N01031622EA0116701254
B1326494641786N01031626EA0116501253
B1326504641785N01031631EA0116401251
B1326514641785N01031636EA0116101248
B1326524641784N01031641EA0115901246
B1326534641783N01031647EA0115701244
B1326544641782N01031653EA0115701244
B1326554641780N01031657EA0115601243
B1326564641778N01031662EA0115501242
B1326574641777N01031666EA0115401241
B1326584641776N01031670EA0115401241
B1326594641776N01031675EA0115301240
B1327004641776N01031679EA0115201239
B1327014641776N01031684EA0115201239
B1327024641775N01031688EA0115101238
B1327034641774N01031692EA0114901236
B1327044641773N01031695EA0114801235
B1327054641770N01031695EA0114601233
B1327064641766N01031695EA0114501232
B1327064641766N01031695EA0114501232
B1327074641762N01031691EA0114501232
B1327084641759N01031686EA0114401231
B1327094641757N01031679EA0114301230
B1327104641755N01031672EA0114201229
B1327114641753N01031664EA0114101228
B1327124641752N01031656EA0114001227
B1327134641751N01031648EA0114001227
B1327144641751N01031640EA0113801225
B1327154641750N01031632EA0113601223
B1327164641750N01031624EA0113501222
B1327174641750N01031615EA0113401221
B1327184641750N01031606EA0113301220
B1327194641750N01031598EA0113201219
B1327204641750N01031589EA0113101218
B1327214641750N01031581EA0113001217
B1327224641749N01031573EA0112901216
B1327234641749N01031564EA0112901216
B1327244641749N01031556EA0112901216
B1327254641749N01031549EA0112701215
B1327264641748N01031542EA0112601213
B1327274641748N01031535EA0112401211
B1327284641746N01031527EA0112301210
B1327294641745N01031519EA0112301210
B1327304641745N01031511EA0112401211
B1327314641745N01031503EA0112501212
B1327324641745N01031496EA0112501212
B1327334641745N01031490EA0112501212
B1327344641745N01031485EA0112301210
B1327354641743N01031479EA0112101208
B1327364641742N01031473EA0111801205
B1327374641740N01031468EA0111701204
B1327384641737N01031465EA0111601203
B1327394641733N01031465EA0111601203
B1327404641730N01031465EA0111501202
B1327414641729N01031467EA0111401201
B1327424641727N01031470EA0111201199
B1327434641724N01031473EA0111101198
B1327444641722N01031477EA0111101198
B1327454641720N01031481EA0111201199
B1327464641718N01031484EA0111301200
B1327474641716N01031486EA0111301200
B1327484641716N01031488EA0111101198
B1327494641715N01031490EA0110901196
B1327504641714N01031493EA0110701194
B1327514641712N01031495EA0110601193
B1327524641710N01031498EA0110601193
B1327534641708N01031500EA0110601193
B1327544641705N01031502EA0110501192
B1327554641704N01031504EA0110301190
B1327564641703N01031506EA0110001187
B1327574641701N01031509EA0109801185
B1327584641699N01031512EA0109601183
B1327594641697N01031517EA0109501182
B1328004641693N01031520EA0109401181
B1328014641692N01031523EA0109301180
B1328024641689N01031526EA0109201179
B1328034641687N01031529EA0109101178
B1328044641686N01031532EA0109101178
B1328054641684N01031535EA0109101178
B1328064641682N01031537EA0109101178
B1328074641681N01031540EA0108901176
B1328084641680N01031543EA0108701174
B1328094641678N01031546EA0108501172
B1328104641677N01031549EA0108301170
B1328114641675N01031551EA0108201169
B1328124641672N01031553EA0108101168
B1328134641670N01031555EA0108001167
B1328144641668N01031556EA0107801165
B1328154641666N01031558EA0107601163
B1328164641664N01031560EA0107401161
B1328174641661N01031562EA0107201159
B1328184641658N01031565EA0107201159
B1328194641655N01031568EA0107101158
B1328204641653N01031570EA0107001157
B1328214641650N01031572EA0106801155
B1328224641648N01031574EA0106601153
B1328234641646N01031576EA0106401151
B1328244641643N01031579EA0106201149
B1328254641640N01031581EA0106101148
B1328264641637N01031584EA0106001147
B1328274641634N01031587EA0106001147
B1328284641631N01031589EA0105901146
B1328294641628N01031591EA0105701144
B1328304641626N01031593EA0105501142
B1328314641623N01031595EA0105301140
B1328324641619N01031598EA0105201139
B1328334641616N01031600EA0105201139
B1328344641612N01031603EA0105201139
B1328354641609N01031605EA0105301140
B1328364641606N01031607EA0105401141
B1328374641605N01031607EA0105301140
B1328384641602N01031607EA0105101138
B1328394641600N01031607EA0105001137
B1328404641596N01031607EA0104901136
B1328414641592N01031606EA0104901136
B1328424641588N01031605EA0105001137
B1328434641584N01031601EA0105001137
B1328444641581N01031597EA0105001137
B1328454641578N01031592EA0104901136
B1328464641577N01031587EA0104801135
B1328474641575N01031583EA0104601134
B1328484641573N01031581EA0104501132
B1328494641570N01031582EA0104401131
B1328504641569N01031584EA0104301130
B1328514641568N01031587EA0104101128
B1328524641568N01031591EA0103901126
B1328534641568N01031594EA0103701124
B1328544641568N01031598EA0103501122
B1328554641566N01031601EA0103301120
B1328564641564N01031605EA0103101118
B1328574641562N01031608EA0102901116
B1328584641560N01031612EA0102701114
B1328594641559N01031615EA0102501112
B1329004641556N01031618EA0102101108
B1329014641554N01031622EA0102001107
B1329024641551N01031627EA0102001107
B1329034641548N01031631EA0102101108
B1329044641545N01031634EA0102201109
B1329054641543N01031637EA0102201109
B1329064641542N01031640EA0102001107
B1329074641541N01031643EA0101901106
B1329084641540N01031646EA0101701104
B1329094641538N01031649EA0101701104
B1329104641537N01031652EA0101601103
B1329114641536N01031656EA0101501102
B1329124641535N01031660EA0101401101
B1329134641534N01031664EA0101301100
B1329144641532N01031666EA0101101098
B1329154641529N01031668EA0101001097
B1329164641526N01031669EA0101001097
B1329174641524N01031670EA0100901096
B1329184641522N01031672EA0100701094
B1329194641521N01031675EA0100501092
B1329204641519N01031677EA0100401091
B1329214641517N01031679EA0100401091
B1329224641516N01031680EA0100501092
B1329234641515N01031681EA0100501092
B1329244641516N01031681EA0100501092
B1329254641516N01031681EA0100501093
B1329264641516N01031681EA0100501092
B1329274641516N01031681EA0100501092
B1329284641516N01031681EA0100501092
B1329294641516N01031681EA0100501093
B1329304641516N01031681EA0100501092
B1329314641516N01031681EA0100501092
B1329324641516N01031682EA0100501092
B1329334641516N01031682EA0100501092
B1329344641517N01031682EA0100501092
B1329354641517N01031682EA0100501092
B1329364641517N01031682EA0100501092
B1329374641517N01031682EA0100501092
B1329384641516N01031682EA0100501092
B1329394641517N01031682EA0100501092
B1329404641517N01031682EA0100501092
B1329414641517N01031682EA0100501092
B1329424641517N01031682EA0100501092
B1329434641517N01031682EA0100501092
B1329444641517N01031682EA0100501092
B1329454641517N01031682EA0100501092
B1329464641517N01031682EA0100501092
B1329474641517N01031682EA0100501092
B1329484641517N01031682EA0100501092
B1329494641517N01031682EA0100501092
B1329504641517N01031682EA0100501092
B1329514641517N01031682EA0100501092
B1329524641517N01031682EA0100501092
B1329534641517N01031682EA0100501092
B1329534641517N01031682EA0100501092
B1329544641517N01031682EA0100501092
B1329554641517N01031683EA0100501092
B1329564641517N01031683EA0100501092
B1329574641517N01031683EA0100501092
B1329584641517N01031682EA0100501092
B1329594641516N01031682EA0100501092
B1330004641516N01031682EA0100501092
B1330014641516N01031682EA0100501092
B1330024641516N01031683EA0100501092
B1330034641516N01031683EA0100501092
B1330044641516N01031683EA0100501092
B1330054641516N01031683EA0100501092
B1330064641516N01031683EA0100501092
B1330074641516N01031683EA0100501092
B1330084641516N01031683EA0100501092
B1330094641516N01031682EA0100501092
B1330094641516N01031682EA0100501092
B1330104641516N01031682EA0100501092
B1330114641516N01031682EA0100501092
B1330124641516N01031682EA0100501092
B1330134641516N01031682EA0100501092
B1330144641516N01031682EA0100501092
B1330154641516N01031682EA0100501092
B1330164641516N01031682EA0100501092
B1330174641516N01031682EA0100501092
B1330184641516N01031682EA0100501092
B1330184641516N01031682EA0100501092
B1330194641516N01031682EA0100501092
B1330204641516N01031682EA0100501092
B1330214641516N01031682EA0100501092
B1330224641516N01031682EA0100501092
B1330234641516N01031682EA0100501092
B1330244641516N01031682EA0100501092
B1330254641516N01031682EA0100501092
B1330264641516N01031682EA0100501092
B1330274641516N01031682EA0100501092
B1330274641516N01031682EA0100501092
B1330284641516N01031682EA0100501092
B1330294641516N01031682EA0100501092
B1330304641516N01031683EA0100501092
B1330314641516N01031683EA0100501092
B1330324641516N01031683EA0100501092
B1330334641516N01031683EA0100501092
B1330344641516N01031683EA0100501092
B1330354641516N01031683EA0100501092
B1330364641516N01031683EA0100501092
B1330364641516N01031683EA0100501092
B1330374641516N01031683EA0100501092
B1330384641516N01031683EA0100501092
B1330394641516N01031683EA0100501092
B1330404641516N01031683EA0100501092
B1330414641516N01031683EA0100501092
B1330424641516N01031683EA0100501092
B1330434641516N01031683EA0100501092
B1330434641516N01031683EA0100501092
LXSX;GF:1.4
G6AA44E604CF6528C3F04DDD0BAB50626
