AXSX003 SKYTRAXX V3.0.5 SN:00000380
HOPLTPILOT:Sepp Bucher
HOGTYGLIDERTYPE:Sigma9
HOCIDCOMPETITIONID:0000
HODTM100GPSDATUM:WGS-84
HOCCLCOMPETITION CLASS:Paraglider (Standard)
HPSITSITE:Bellwald - Ried
HFDTE231216
B1052084626879N00809825EA0225102400
B1052094626879N00809825EA0225002399
B1052104626879N00809825EA0224902398
B1052114626879N00809825EA0224902399
B1052124626879N00809825EA0224902399
B1052134626877N00809824EA0224702397
B1052144626876N00809824EA0224402395
B1052154626876N00809824EA0224102392
B1052164626873N00809824EA0223702390
B1052174626870N00809824EA0223702396
B1052184626864N00809822EA0223702401
B1052194626860N00809821EA0223802401
B1052204626854N00809821EA0223402398
B1052214626848N00809821EA0223302397
B1052224626842N00809822EA0223202396
B1052224626842N00809822EA0223302396
B1052234626836N00809823EA0223302396
B1052244626831N00809824EA0223102395
B1052254626825N00809825EA0223002394
B1052254626825N00809825EA0222802392
B1052264626820N00809826EA0222802392
B1052274626814N00809828EA0222802391
B1052284626809N00809830EA0222602390
B1052294626804N00809831EA0222602390
B1052304626798N00809834EA0222402388
B1052314626793N00809837EA0222402388
B1052324626789N00809841EA0222402388
B1052334626785N00809845EA0222402388
B1052344626781N00809850EA0222302387
B1052354626777N00809854EA0222302386
B1052364626773N00809860EA0222302386
B1052374626770N00809866EA0222402388
B1052384626767N00809873EA0222602390
B1052394626765N00809879EA0222702390
B1052404626763N00809886EA0222702391
B1052414626761N00809894EA0222702391
B1052424626761N00809902EA0222602389
B1052434626760N00809910EA0222702390
B1052444626760N00809918EA0223002393
B1052454626759N00809925EA0223002393
B1052464626758N00809931EA0223002394
B1052474626757N00809937EA0222902393
B1052484626755N00809943EA0222902393
B1052494626754N00809950EA0222902393
B1052504626754N00809958EA0222902392
B1052514626754N00809966EA0223002393
B1052524626754N00809973EA0223002394
B1052534626754N00809980EA0223002394
B1052544626754N00809987EA0222902393
B1052554626753N00809994EA0222602390
B1052564626752N00810001EA0222802391
B1052574626752N00810009EA0222802392
B1052584626752N00810017EA0222802392
B1052594626753N00810025EA0222802391
B1053004626754N00810033EA0222602389
B1053014626754N00810041EA0222402388
B1053024626756N00810049EA0222302387
B1053034626757N00810057EA0222202386
B1053044626759N00810065EA0222002383
B1053054626761N00810073EA0221902382
B1053054626761N00810073EA0221702381
B1053064626764N00810081EA0221702381
B1053074626766N00810088EA0221602379
B1053084626769N00810096EA0221502379
B1053094626770N00810104EA0221602380
B1053104626772N00810110EA0221702380
B1053114626773N00810117EA0221602380
B1053124626774N00810124EA0221602380
B1053134626776N00810130EA0221602380
B1053144626778N00810137EA0221502379
B1053154626780N00810144EA0221402378
B1053164626782N00810151EA0221502378
B1053174626783N00810158EA0221502379
B1053184626784N00810165EA0221402378
B1053194626785N00810172EA0221202376
B1053204626786N00810179EA0220902373
B1053214626788N00810186EA0220802372
B1053214626788N00810186EA0220802372
B1053224626789N00810193EA0220802372
B1053234626792N00810200EA0220902372
B1053244626795N00810207EA0220802371
B1053254626796N00810214EA0220702371
B1053264626799N00810221EA0220702371
B1053274626801N00810228EA0220702370
B1053284626803N00810234EA0220702371
B1053294626805N00810241EA0220702371
B1053304626807N00810247EA0220602369
B1053314626809N00810254EA0220402368
B1053324626811N00810260EA0220202365
B1053334626814N00810266EA0219902363
B1053344626816N00810273EA0219802361
B1053354626818N00810281EA0219602360
B1053364626821N00810288EA0219402358
B1053374626823N00810296EA0219302357
B1053384626826N00810303EA0219202356
B1053394626828N00810310EA0219002354
B1053404626830N00810317EA0218802351
B1053414626833N00810325EA0218502349
B1053424626835N00810332EA0218402347
B1053434626837N00810339EA0218402348
B1053444626840N00810346EA0218302347
B1053454626842N00810352EA0218302346
B1053464626845N00810357EA0218202346
B1053474626846N00810362EA0218002344
B1053484626848N00810367EA0217802342
B1053494626851N00810372EA0217502339
B1053504626854N00810378EA0217402338
B1053514626858N00810383EA0217402337
B1053524626862N00810388EA0217302337
B1053534626865N00810393EA0217102334
B1053544626867N00810399EA0216802332
B1053554626870N00810404EA0216802332
B1053564626873N00810411EA0216802332
B1053574626876N00810418EA0217102335
B1053584626879N00810424EA0217202336
B1053594626882N00810428EA0217102335
B1054004626886N00810431EA0217002333
B1054014626890N00810435EA0216902333
B1054024626894N00810440EA0217002334
B1054034626898N00810446EA0217202336
B1054044626901N00810453EA0217402338
B1054054626904N00810458EA0217402338
B1054064626908N00810462EA0217402337
B1054074626913N00810464EA0217402338
B1054084626917N00810468EA0217502338
B1054094626921N00810472EA0217602339
B1054104626925N00810477EA0217702341
B1054114626928N00810483EA0217802342
B1054124626930N00810489EA0217902343
B1054134626931N00810496EA0217802342
B1054144626932N00810502EA0217802342
B1054154626933N00810509EA0217802342
B1054164626934N00810517EA0218002344
B1054174626933N00810523EA0218202346
B1054184626932N00810529EA0218402347
B1054194626929N00810533EA0218402348
B1054204626925N00810537EA0218402348
B1054214626921N00810539EA0218502348
B1054224626915N00810537EA0218602350
B1054234626911N00810533EA0218702350
B1054244626907N00810526EA0218702351
B1054254626905N00810517EA0218802352
B1054264626904N00810509EA0218902353
B1054274626904N00810500EA0219002353
B1054284626906N00810491EA0218902353
B1054294626908N00810483EA0218902353
B1054304626913N00810477EA0219002354
B1054314626919N00810472EA0219102354
B1054324626927N00810472EA0219102355
B1054334626934N00810474EA0219102355
B1054344626940N00810479EA0219302356
B1054354626945N00810485EA0219402358
B1054364626950N00810491EA0219502359
B1054374626954N00810497EA0219602360
B1054384626957N00810503EA0219802362
B1054394626961N00810508EA0220002363
B1054404626965N00810514EA0219902363
B1054414626969N00810519EA0219902363
B1054424626973N00810524EA0219802361
B1054434626976N00810530EA0219602360
B1054444626979N00810537EA0219502358
B1054454626982N00810544EA0219202356
B1054464626986N00810551EA0219002354
B1054474626989N00810558EA0218802352
B1054484626993N00810566EA0218502349
B1054494626997N00810573EA0218302347
B1054504627000N00810581EA0218002344
B1054514627001N00810589EA0217702341
B1054524627003N00810598EA0217402338
B1054534627004N00810607EA0217302336
B1054544627005N00810617EA0217202336
B1054554627006N00810627EA0217202335
B1054554627006N00810627EA0217102335
B1054564627006N00810636EA0217102335
B1054574627007N00810644EA0217002334
B1054584627007N00810652EA0216802332
B1054594627007N00810660EA0216602330
B1055004627008N00810668EA0216402328
B1055014627009N00810677EA0216302327
B1055024627010N00810686EA0216302327
B1055034627011N00810695EA0216302327
B1055044627012N00810702EA0216202326
B1055054627014N00810709EA0215902323
B1055064627015N00810716EA0215502319
B1055074627016N00810724EA0215202315
B1055084627019N00810733EA0215002314
B1055094627021N00810742EA0214902312
B1055104627022N00810752EA0214702311
B1055114627024N00810761EA0214502308
B1055124627026N00810769EA0214202306
B1055134627027N00810778EA0214102305
B1055144627028N00810786EA0214102305
B1055154627029N00810794EA0214102304
B1055164627029N00810802EA0213802302
B1055174627030N00810810EA0213502299
B1055184627032N00810819EA0213402298
B1055194627034N00810827EA0213402298
B1055204627035N00810836EA0213502298
B1055214627037N00810844EA0213402298
B1055224627038N00810851EA0213202296
B1055234627040N00810859EA0213102295
B1055244627042N00810866EA0213102294
B1055254627045N00810874EA0213002294
B1055264627047N00810881EA0213002294
B1055274627049N00810889EA0212902293
B1055284627051N00810896EA0212802291
B1055284627051N00810896EA0212502289
B1055294627052N00810903EA0212502289
B1055304627054N00810911EA0212502288
B1055304627054N00810911EA0212302287
B1055314627055N00810918EA0212302287
B1055324627057N00810926EA0212202286
B1055334627060N00810933EA0212202286
B1055344627062N00810940EA0212002284
B1055354627063N00810947EA0211802282
B1055364627065N00810953EA0211602279
B1055374627067N00810961EA0211302276
B1055384627070N00810968EA0211102275
B1055394627072N00810976EA0211102275
B1055404627075N00810983EA0211002274
B1055414627078N00810990EA0210802272
B1055424627080N00810997EA0210602270
B1055434627082N00811004EA0210402268
B1055444627085N00811011EA0210302267
B1055454627087N00811019EA0210102265
B1055464627090N00811026EA0210002264
B1055474627092N00811034EA0209902262
B1055484627094N00811041EA0209802262
B1055494627097N00811049EA0209702261
B1055504627099N00811056EA0209602260
B1055514627102N00811064EA0209502259
B1055524627104N00811071EA0209502259
B1055534627106N00811078EA0209502258
B1055544627108N00811084EA0209302257
B1055554627110N00811090EA0209102255
B1055564627113N00811097EA0208902253
B1055574627115N00811104EA0208902253
B1055584627117N00811110EA0208802252
B1055594627119N00811117EA0208602250
B1056004627122N00811123EA0208402248
B1056014627125N00811129EA0208202246
B1056024627128N00811134EA0208002243
B1056034627131N00811140EA0207702241
B1056044627135N00811146EA0207402238
B1056054627138N00811153EA0207302237
B1056064627141N00811158EA0207102235
B1056074627144N00811164EA0206902233
B1056084627148N00811169EA0206602230
B1056094627152N00811174EA0206402228
B1056104627155N00811179EA0206302226
B1056114627159N00811185EA0206202225
B1056124627163N00811192EA0206202226
B1056134627166N00811199EA0206202226
B1056144627169N00811205EA0206302226
B1056154627172N00811211EA0206302227
B1056164627175N00811217EA0206302227
B1056174627179N00811222EA0206202225
B1056184627183N00811228EA0206102225
B1056194627187N00811234EA0206102225
B1056194627187N00811234EA0206302227
B1056204627190N00811241EA0206302227
B1056214627194N00811248EA0206502229
B1056224627197N00811254EA0206702231
B1056234627202N00811260EA0207102234
B1056244627206N00811264EA0207402238
B1056254627211N00811267EA0207802242
B1056264627216N00811269EA0208202246
B1056274627220N00811270EA0208502249
B1056284627223N00811272EA0208802252
B1056294627226N00811275EA0209002253
B1056304627231N00811278EA0209302257
B1056314627235N00811282EA0209702261
B1056324627240N00811286EA0210002263
B1056334627244N00811290EA0210002264
B1056344627248N00811294EA0210202265
B1056354627252N00811299EA0210302267
B1056364627256N00811305EA0210302266
B1056374627261N00811311EA0210402268
B1056384627265N00811318EA0210602270
B1056394627268N00811325EA0210502269
B1056404627271N00811331EA0210302267
B1056414627274N00811336EA0210102264
B1056424627279N00811343EA0210002263
B1056434627283N00811350EA0209902263
B1056444627286N00811357EA0209702261
B1056454627289N00811363EA0209602259
B1056464627292N00811370EA0209402258
B1056474627294N00811376EA0209202256
B1056484627297N00811383EA0209102255
B1056494627299N00811390EA0208902252
B1056504627302N00811397EA0208702251
B1056504627302N00811397EA0208802252
B1056514627306N00811404EA0208802252
B1056524627308N00811411EA0208702251
B1056534627311N00811417EA0208602249
B1056544627314N00811423EA0208302247
B1056554627317N00811430EA0208202246
B1056564627320N00811437EA0208202246
B1056574627323N00811445EA0208102245
B1056584627326N00811452EA0208102245
B1056594627328N00811459EA0208002244
B1056594627328N00811459EA0207902243
B1057004627330N00811466EA0207902243
B1057014627333N00811472EA0207702241
B1057024627334N00811480EA0207602239
B1057034627337N00811487EA0207502238
B1057044627338N00811495EA0207402238
B1057054627340N00811503EA0207402238
B1057064627342N00811511EA0207402237
B1057074627342N00811518EA0207402238
B1057084627343N00811525EA0207302237
B1057094627343N00811532EA0207202236
B1057104627342N00811538EA0207102234
B1057114627342N00811545EA0206902232
B1057124627343N00811551EA0206602230
B1057134627344N00811559EA0206402227
B1057134627344N00811559EA0206102225
B1057144627346N00811566EA0206102225
B1057154627347N00811575EA0205902223
B1057164627348N00811583EA0205902223
B1057174627348N00811591EA0205902223
B1057184627349N00811598EA0205702221
B1057194627350N00811605EA0205502218
B1057204627351N00811612EA0205102215
B1057214627351N00811619EA0204802211
B1057224627352N00811627EA0204502209
B1057234627352N00811635EA0204402207
B1057244627352N00811644EA0204202205
B1057254627353N00811652EA0204002204
B1057264627354N00811660EA0204002203
B1057274627354N00811667EA0203802202
B1057284627355N00811675EA0203602200
B1057294627355N00811682EA0203202196
B1057304627355N00811689EA0202902193
B1057314627355N00811697EA0202702191
B1057324627356N00811706EA0202602189
B1057334627355N00811714EA0202302187
B1057344627353N00811722EA0202002184
B1057354627352N00811730EA0201802181
B1057364627351N00811738EA0201502178
B1057374627351N00811746EA0201402177
B1057384627352N00811755EA0201302177
B1057394627353N00811763EA0201302177
B1057404627353N00811771EA0201202176
B1057414627354N00811778EA0201002174
B1057424627355N00811784EA0200702171
B1057434627356N00811791EA0200402168
B1057444627357N00811799EA0200202166
B1057454627359N00811808EA0200102164
B1057464627360N00811816EA0200102165
B1057474627361N00811824EA0200002164
B1057484627362N00811832EA0199802162
B1057494627364N00811839EA0199602160
B1057504627365N00811847EA0199402157
B1057514627367N00811855EA0199302157
B1057524627369N00811863EA0199302157
B1057534627370N00811871EA0199202156
B1057544627371N00811878EA0199102155
B1057554627372N00811886EA0199002153
B1057564627372N00811893EA0198802151
B1057574627373N00811901EA0198602150
B1057584627374N00811908EA0198502149
B1057594627375N00811916EA0198402148
B1058004627377N00811924EA0198302147
B1058014627378N00811931EA0198202146
B1058024627379N00811937EA0198102144
B1058034627380N00811944EA0197902143
B1058044627382N00811951EA0197802142
B1058054627384N00811959EA0197702140
B1058064627386N00811966EA0197602139
B1058074627388N00811972EA0197502138
B1058084627389N00811979EA0197402138
B1058094627391N00811986EA0197302136
B1058104627393N00811993EA0197102135
B1058114627394N00812000EA0197002134
B1058124627396N00812007EA0196902133
B1058124627396N00812007EA0196802131
B1058134627397N00812014EA0196702131
B1058144627399N00812021EA0196602130
B1058154627401N00812028EA0196602129
B1058164627403N00812035EA0196402128
B1058174627404N00812042EA0196302127
B1058184627406N00812049EA0196102125
B1058194627408N00812056EA0196002124
B1058194627408N00812056EA0195902123
B1058204627409N00812064EA0195902123
B1058214627411N00812071EA0195802122
B1058224627412N00812078EA0195702120
B1058234627414N00812085EA0195502119
B1058244627415N00812092EA0195402118
B1058254627417N00812099EA0195302117
B1058264627418N00812106EA0195202115
B1058274627421N00812113EA0194902113
B1058284627422N00812120EA0194702111
B1058294627424N00812128EA0194702111
B1058294627424N00812128EA0194602110
B1058304627426N00812136EA0194602109
B1058314627428N00812143EA0194402108
B1058324627430N00812150EA0194302107
B1058334627432N00812157EA0194202106
B1058344627433N00812165EA0194102105
B1058354627434N00812172EA0194002103
B1058364627437N00812179EA0193802102
B1058374627438N00812187EA0193602100
B1058384627439N00812195EA0193502099
B1058394627440N00812202EA0193402097
B1058404627441N00812210EA0193202096
B1058414627443N00812218EA0193002094
B1058424627444N00812225EA0192802092
B1058434627445N00812233EA0192702091
B1058444627446N00812241EA0192602090
B1058454627448N00812248EA0192502089
B1058464627449N00812256EA0192302087
B1058474627451N00812263EA0192102085
B1058484627452N00812271EA0192002084
B1058494627454N00812278EA0192002083
B1058504627455N00812285EA0191902082
B1058514627456N00812293EA0191602080
B1058524627458N00812299EA0191502079
B1058534627459N00812307EA0191402078
B1058544627460N00812313EA0191402078
B1058554627461N00812320EA0191202076
B1058564627462N00812327EA0191002074
B1058574627464N00812333EA0190802071
B1058574627464N00812333EA0190502069
B1058584627467N00812341EA0190502069
B1058594627468N00812348EA0190402068
B1059004627470N00812355EA0190402068
B1059014627471N00812363EA0190202066
B1059024627472N00812369EA0190002064
B1059034627473N00812376EA0189802062
B1059044627474N00812383EA0189602060
B1059054627475N00812390EA0189502059
B1059064627476N00812397EA0189302057
B1059074627477N00812404EA0189302057
B1059084627478N00812412EA0189202056
B1059094627480N00812418EA0189102054
B1059104627481N00812425EA0188902053
B1059114627483N00812432EA0188702051
B1059124627484N00812439EA0188502049
B1059134627485N00812446EA0188402048
B1059144627487N00812453EA0188302047
B1059154627488N00812459EA0188202045
B1059164627489N00812466EA0187902043
B1059174627491N00812473EA0187702041
B1059184627492N00812480EA0187502039
B1059194627494N00812487EA0187202036
B1059204627495N00812495EA0187102035
B1059214627496N00812503EA0187202036
B1059224627496N00812510EA0187202036
B1059234627498N00812517EA0187002034
B1059244627499N00812523EA0186802032
B1059254627501N00812528EA0186702031
B1059264627503N00812534EA0186502029
B1059274627506N00812538EA0186302026
B1059284627510N00812542EA0186102025
B1059294627514N00812546EA0186002024
B1059304627518N00812550EA0186002024
B1059314627522N00812555EA0185902022
B1059324627526N00812559EA0185702020
B1059334627530N00812562EA0185502018
B1059344627535N00812566EA0185402017
B1059354627540N00812569EA0185302017
B1059364627545N00812573EA0185302016
B1059374627550N00812578EA0185202016
B1059384627554N00812581EA0185002014
B1059394627558N00812584EA0184902012
B1059404627562N00812588EA0184702010
B1059414627566N00812592EA0184502009
B1059424627571N00812596EA0184402007
B1059434627575N00812600EA0184302006
B1059444627579N00812604EA0184202005
B1059454627583N00812608EA0184102004
B1059464627587N00812612EA0183902003
B1059464627587N00812612EA0183802001
B1059474627591N00812616EA0183802001
B1059484627595N00812619EA0183602000
B1059494627600N00812623EA0183401998
B1059504627605N00812626EA0183301996
B1059514627609N00812630EA0183201996
B1059524627614N00812633EA0183101995
B1059534627619N00812635EA0183001993
B1059544627624N00812638EA0182801992
B1059554627628N00812641EA0182601990
B1059564627633N00812644EA0182601989
B1059574627638N00812648EA0182401988
B1059584627643N00812651EA0182201986
B1059594627647N00812654EA0182101985
B1100004627652N00812658EA0182101985
B1100014627656N00812662EA0182101985
B1100024627660N00812666EA0182001984
B1100034627664N00812670EA0182001983
B1100044627667N00812673EA0181901982
B1100054627671N00812676EA0181701981
B1100064627674N00812678EA0181501979
B1100074627678N00812681EA0181301977
B1100084627682N00812684EA0181101975
B1100094627685N00812687EA0181001973
B1100104627689N00812690EA0180901972
B1100114627693N00812694EA0180901973
B1100124627697N00812697EA0181001974
B1100134627702N00812699EA0181001974
B1100144627705N00812700EA0181001973
B1100154627708N00812701EA0180901972
B1100164627712N00812702EA0180701971
B1100174627715N00812703EA0180601969
B1100184627719N00812705EA0180401967
B1100194627724N00812707EA0180301967
B1100204627728N00812709EA0180301967
B1100214627732N00812711EA0180301967
B1100224627736N00812713EA0180301967
B1100234627740N00812715EA0180301966
B1100244627744N00812718EA0180201965
B1100254627747N00812720EA0180001964
B1100264627750N00812722EA0179801962
B1100274627754N00812724EA0179601959
B1100284627757N00812726EA0179401957
B1100294627762N00812728EA0179201956
B1100304627766N00812730EA0179101955
B1100314627770N00812731EA0179001954
B1100324627774N00812733EA0179001954
B1100334627778N00812736EA0178901953
B1100344627782N00812738EA0178801952
B1100354627787N00812740EA0178801951
B1100364627791N00812742EA0178801952
B1100374627794N00812744EA0178801952
B1100384627799N00812745EA0178701951
B1100394627804N00812745EA0178701951
B1100404627808N00812745EA0178701951
B1100414627813N00812746EA0178601950
B1100424627817N00812746EA0178401948
B1100434627822N00812746EA0178301947
B1100444627826N00812746EA0178101945
B1100454627830N00812748EA0177901943
B1100464627833N00812749EA0177801941
B1100474627837N00812750EA0177701941
B1100484627841N00812751EA0177801942
B1100494627845N00812753EA0178001944
B1100504627850N00812756EA0178201946
B1100514627854N00812759EA0178401947
B1100524627857N00812759EA0178401947
B1100534627860N00812759EA0178301947
B1100534627860N00812759EA0178101945
B1100544627863N00812759EA0178101945
B1100554627866N00812760EA0177701941
B1100564627869N00812765EA0177401938
B1100574627871N00812771EA0177301937
B1100584627872N00812779EA0177601940
B1100594627872N00812786EA0177601939
B1101004627872N00812791EA0177301937
B1101014627873N00812795EA0177001934
B1101024627876N00812800EA0176801932
B1101034627877N00812806EA0176601930
B1101044627879N00812813EA0176601929
B1101054627879N00812820EA0176501928
B1101064627880N00812827EA0176301926
B1101074627880N00812834EA0176101924
B1101074627880N00812834EA0175901923
B1101084627881N00812840EA0175901923
B1101094627882N00812846EA0175801922
B1101104627884N00812853EA0175801921
B1101114627885N00812860EA0175601920
B1101124627887N00812866EA0175401918
B1101134627889N00812872EA0175301917
B1101144627891N00812878EA0175201916
B1101154627892N00812885EA0175101914
B1101164627894N00812891EA0174901913
B1101174627895N00812897EA0174801912
B1101174627895N00812897EA0174701910
B1101184627897N00812904EA0174701910
B1101194627900N00812910EA0174501909
B1101204627902N00812915EA0174501908
B1101214627904N00812921EA0174301907
B1101224627906N00812927EA0174201906
B1101234627908N00812933EA0174001904
B1101244627910N00812938EA0173801902
B1101254627912N00812944EA0173601900
B1101264627914N00812950EA0173401898
B1101274627916N00812957EA0173301896
B1101284627918N00812963EA0173101894
B1101294627920N00812969EA0172801892
B1101304627922N00812976EA0172701890
B1101314627924N00812983EA0172601890
B1101324627925N00812990EA0172601889
B1101334627927N00812997EA0172501889
B1101344627928N00813003EA0172301887
B1101354627930N00813008EA0172201886
B1101364627932N00813015EA0172001884
B1101374627934N00813022EA0171901883
B1101384627936N00813029EA0171801882
B1101394627938N00813035EA0171701881
B1101394627938N00813035EA0171601880
B1101404627941N00813041EA0171601880
B1101414627943N00813046EA0171401878
B1101424627947N00813052EA0171201875
B1101434627950N00813057EA0170901873
B1101444627954N00813063EA0170801871
B1101454627957N00813069EA0170701870
B1101464627960N00813076EA0170601870
B1101474627962N00813082EA0170501869
B1101484627965N00813088EA0170501868
B1101484627965N00813088EA0170201866
B1101494627967N00813094EA0170201866
B1101504627969N00813101EA0170101864
B1101514627972N00813107EA0170001864
B1101524627976N00813113EA0170001864
B1101534627979N00813119EA0170201866
B1101544627981N00813125EA0170101865
B1101544627981N00813125EA0170101864
B1101554627983N00813131EA0170101864
B1101564627985N00813137EA0170001864
B1101574627988N00813143EA0170001863
B1101584627990N00813149EA0170001863
B1101594627993N00813153EA0170001864
B1102004627996N00813158EA0169901863
B1102014627999N00813162EA0169801862
B1102024628002N00813167EA0169701861
B1102034628006N00813173EA0169701860
B1102044628010N00813178EA0169801862
B1102054628013N00813184EA0170101865
B1102064628016N00813189EA0170201866
B1102074628018N00813193EA0170201866
B1102084628019N00813196EA0170001864
B1102094628020N00813200EA0169801862
B1102104628022N00813205EA0169901863
B1102114628024N00813210EA0169901863
B1102124628026N00813215EA0170101865
B1102134628029N00813219EA0170001864
B1102144628031N00813223EA0170001864
B1102154628033N00813226EA0169801862
B1102164628036N00813229EA0169501859
B1102174628038N00813235EA0169301857
B1102184628040N00813241EA0169201856
B1102194628040N00813248EA0169201855
B1102204628041N00813254EA0169101855
B1102214628040N00813259EA0168901852
B1102224628040N00813264EA0168601850
B1102234628040N00813269EA0168501848
B1102244628041N00813275EA0168501848
B1102254628042N00813281EA0168501848
B1102264628045N00813287EA0168501849
B1102264628045N00813287EA0168601850
B1102274628047N00813292EA0168601850
B1102284628049N00813296EA0168601850
B1102294628051N00813301EA0168801851
B1102304628052N00813305EA0168901853
B1102314628053N00813310EA0168901853
B1102324628053N00813314EA0168701851
B1102334628053N00813319EA0168501848
B1102344628052N00813325EA0168401848
B1102354628050N00813332EA0168501849
B1102364628048N00813339EA0168801852
B1102374628045N00813346EA0169001854
B1102384628042N00813351EA0169001853
B1102384628042N00813351EA0168801852
B1102394628039N00813356EA0168801852
B1102404628036N00813360EA0168501849
B1102414628032N00813364EA0168301847
B1102424628025N00813367EA0168201846
B1102434628019N00813371EA0168201846
B1102444628012N00813374EA0168401848
B1102454628006N00813376EA0168401848
B1102464628001N00813379EA0168301846
B1102474627996N00813381EA0168101844
B1102484627991N00813384EA0167801842
B1102494627985N00813386EA0167601840
B1102504627979N00813388EA0167601840
B1102504627979N00813388EA0167601840
B1102514627973N00813390EA0167601840
B1102524627968N00813392EA0167501838
B1102534627964N00813397EA0167201836
B1102544627962N00813403EA0166901832
B1102554627960N00813411EA0166801831
B1102554627960N00813411EA0166601830
B1102564627959N00813419EA0166601830
B1102574627960N00813426EA0166401828
B1102584627962N00813432EA0166401827
B1102594627965N00813437EA0166301826
B1103004627972N00813442EA0166101825
B1103014627976N00813445EA0165901823
B1103024627981N00813450EA0165801821
B1103034627983N00813456EA0165601820
B1103044627984N00813462EA0165501818
B1103054627985N00813468EA0165301817
B1103054627985N00813468EA0165101815
B1103064627985N00813475EA0165101815
B1103074627982N00813482EA0164901813
B1103084627979N00813487EA0164701811
B1103094627975N00813493EA0164601810
B1103104627971N00813499EA0164501808
B1103114627966N00813504EA0164401808
B1103124627962N00813509EA0164301807
B1103124627962N00813509EA0164101805
B1103134627958N00813514EA0164101805
B1103144627954N00813519EA0164001804
B1103154627949N00813524EA0163801802
B1103164627945N00813529EA0163701801
B1103174627941N00813535EA0163601800
B1103184627937N00813540EA0163501799
B1103194627934N00813545EA0163501798
B1103204627930N00813550EA0163301797
B1103214627926N00813555EA0163101795
B1103224627922N00813561EA0163001794
B1103234627919N00813566EA0163001793
B1103244627916N00813571EA0162801792
B1103254627912N00813577EA0162701791
B1103264627909N00813583EA0162501789
B1103274627906N00813588EA0162401787
B1103284627904N00813594EA0162201786
B1103294627902N00813600EA0162201785
B1103304627900N00813606EA0162101784
B1103314627897N00813612EA0161801782
B1103324627895N00813618EA0161701781
B1103334627893N00813624EA0161601779
B1103344627891N00813630EA0161401778
B1103354627888N00813636EA0161201776
B1103364627885N00813642EA0161101775
B1103374627882N00813647EA0161001774
B1103384627878N00813652EA0160901773
B1103394627873N00813656EA0160801771
B1103404627869N00813659EA0160701770
B1103414627864N00813661EA0160501769
B1103424627858N00813662EA0160401768
B1103434627853N00813663EA0160201766
B1103444627847N00813663EA0160101765
B1103454627841N00813662EA0160001764
B1103464627835N00813660EA0159901763
B1103474627830N00813657EA0159701761
B1103484627824N00813653EA0159601760
B1103494627819N00813648EA0159501759
B1103504627814N00813642EA0159401758
B1103514627811N00813635EA0159301757
B1103524627808N00813627EA0159201756
B1103534627806N00813619EA0159101755
B1103544627805N00813611EA0159001754
B1103554627804N00813603EA0158901753
B1103564627804N00813594EA0158701751
B1103574627804N00813586EA0158601750
B1103584627805N00813577EA0158501748
B1103594627806N00813568EA0158201746
B1104004627809N00813560EA0158301747
B1104014627811N00813551EA0158201746
B1104024627813N00813544EA0158101745
B1104034627815N00813538EA0157901743
B1104044627819N00813534EA0157601740
B1104054627828N00813533EA0157401738
B1104064627834N00813533EA0157301737
B1104074627841N00813534EA0157201735
B1104084627845N00813537EA0157001733
B1104094627850N00813541EA0156801732
B1104104627851N00813547EA0156701731
B1104114627854N00813554EA0156601729
B1104124627854N00813560EA0156401728
B1104134627854N00813567EA0156301726
B1104144627854N00813573EA0156101725
B1104154627850N00813580EA0156001724
B1104164627846N00813586EA0155801722
B1104174627841N00813590EA0155801721
B1104184627836N00813593EA0155701720
B1104184627836N00813593EA0155601719
B1104194627830N00813595EA0155601719
B1104204627824N00813595EA0155401718
B1104214627817N00813593EA0155201716
B1104214627817N00813593EA0155101714
B1104224627811N00813591EA0155101714
B1104234627804N00813588EA0155001714
B1104244627798N00813583EA0154801712
B1104254627792N00813579EA0154601710
B1104264627787N00813574EA0154401708
B1104274627782N00813568EA0154201706
B1104284627777N00813561EA0154101705
B1104294627772N00813554EA0154001703
B1104304627767N00813547EA0153801702
B1104314627763N00813541EA0153701701
B1104324627758N00813534EA0153601700
B1104334627754N00813528EA0153401698
B1104334627754N00813528EA0153301697
B1104344627749N00813521EA0153301697
B1104354627745N00813514EA0153101695
B1104364627741N00813507EA0153001694
B1104374627736N00813500EA0152901693
B1104384627732N00813492EA0152801692
B1104394627727N00813485EA0152701691
B1104404627724N00813477EA0152601689
B1104414627720N00813469EA0152401687
B1104424627717N00813461EA0152201686
B1104434627713N00813453EA0152101685
B1104434627713N00813453EA0152001683
B1104444627710N00813444EA0152001683
B1104454627707N00813436EA0151901683
B1104464627703N00813429EA0151801682
B1104474627700N00813421EA0151701680
B1104484627695N00813415EA0151501679
B1104494627691N00813409EA0151401678
B1104504627686N00813403EA0151401677
B1104514627680N00813399EA0151301676
B1104524627675N00813395EA0151201676
B1104534627669N00813393EA0151101674
B1104544627663N00813393EA0150901673
B1104554627657N00813394EA0150801672
B1104564627652N00813397EA0150701671
B1104574627647N00813399EA0150601669
B1104584627642N00813403EA0150401668
B1104594627638N00813409EA0150201666
B1105004627635N00813414EA0150101665
B1105014627632N00813421EA0150001664
B1105024627630N00813428EA0149901663
B1105034627630N00813435EA0149801662
B1105044627630N00813441EA0149701660
B1105054627632N00813447EA0149501659
B1105064627634N00813453EA0149401658
B1105064627634N00813453EA0149301656
B1105074627636N00813458EA0149301656
B1105084627638N00813463EA0149101655
B1105094627641N00813468EA0148901653
B1105104627644N00813472EA0148801652
B1105114627648N00813476EA0148601650
B1105124627651N00813479EA0148501649
B1105134627655N00813482EA0148401648
B1105144627659N00813485EA0148301647
B1105154627664N00813486EA0148101645
B1105164627668N00813486EA0147901643
B1105174627673N00813485EA0147801642
B1105184627678N00813483EA0147701640
B1105194627682N00813479EA0147501639
B1105204627686N00813475EA0147301637
B1105214627691N00813468EA0147201635
B1105224627693N00813459EA0147001634
B1105234627694N00813450EA0146901633
B1105234627694N00813450EA0146801632
B1105244627695N00813439EA0146801632
B1105254627694N00813429EA0146601630
B1105264627692N00813420EA0146501628
B1105274627689N00813411EA0146301627
B1105284627686N00813402EA0146201626
B1105294627682N00813394EA0146101625
B1105304627677N00813387EA0145901623
B1105314627672N00813382EA0145801622
B1105314627672N00813382EA0145701620
B1105324627666N00813380EA0145701620
B1105334627660N00813378EA0145601619
B1105344627654N00813379EA0145401618
B1105354627649N00813380EA0145301617
B1105364627644N00813383EA0145201615
B1105374627639N00813387EA0145001614
B1105384627636N00813392EA0144901613
B1105394627633N00813398EA0144801612
B1105404627631N00813404EA0144701611
B1105414627630N00813411EA0144601609
B1105424627630N00813417EA0144501608
B1105434627631N00813423EA0144301607
B1105444627633N00813429EA0144201605
B1105454627635N00813433EA0144001604
B1105464627638N00813437EA0143901602
B1105474627643N00813440EA0143701601
B1105484627646N00813443EA0143601599
B1105494627650N00813447EA0143501599
B1105504627654N00813451EA0143401598
B1105514627657N00813454EA0143301597
B1105524627661N00813458EA0143101595
B1105534627665N00813461EA0143001594
B1105544627668N00813464EA0142901592
B1105554627672N00813466EA0142801591
B1105564627677N00813469EA0142601590
B1105574627680N00813472EA0142501589
B1105584627685N00813475EA0142401588
B1105594627689N00813477EA0142301587
B1106004627692N00813480EA0142101585
B1106014627695N00813485EA0142001584
B1106024627696N00813490EA0141901582
B1106034627697N00813496EA0141701581
B1106044627698N00813502EA0141601580
B1106054627698N00813508EA0141601580
B1106064627697N00813513EA0141501578
B1106074627695N00813519EA0141301577
B1106084627692N00813524EA0141201575
B1106094627689N00813529EA0141001574
B1106104627684N00813533EA0140901573
B1106114627680N00813537EA0140801572
B1106124627674N00813540EA0140701571
B1106134627668N00813542EA0140601570
B1106144627663N00813543EA0140501569
B1106154627657N00813543EA0140401567
B1106164627651N00813542EA0140201566
B1106174627645N00813540EA0140101565
B1106184627638N00813536EA0140001563
B1106194627632N00813532EA0139901562
B1106204627626N00813527EA0139801561
B1106214627621N00813520EA0139701560
B1106224627616N00813513EA0139601559
B1106234627612N00813506EA0139401558
B1106244627608N00813497EA0139201556
B1106254627605N00813487EA0139101555
B1106264627604N00813478EA0139101554
B1106274627603N00813468EA0138901553
B1106284627603N00813458EA0138801552
B1106294627604N00813449EA0138701551
B1106304627605N00813440EA0138601550
B1106314627607N00813432EA0138501549
B1106324627609N00813425EA0138401548
B1106334627612N00813419EA0138301547
B1106344627617N00813414EA0138201546
B1106354627621N00813409EA0138101544
B1106364627625N00813406EA0137901543
B1106374627630N00813405EA0137801542
B1106384627635N00813406EA0137701541
B1106394627641N00813409EA0137601539
B1106404627645N00813414EA0137401538
B1106414627648N00813419EA0137301536
B1106424627649N00813425EA0137101535
B1106434627650N00813431EA0137001534
B1106444627651N00813437EA0136901532
B1106454627652N00813443EA0136701531
B1106464627652N00813449EA0136601530
B1106474627653N00813455EA0136501528
B1106484627654N00813461EA0136301527
B1106494627654N00813467EA0136201526
B1106504627654N00813473EA0136101525
B1106514627654N00813479EA0136001524
B1106524627655N00813485EA0135901523
B1106534627655N00813491EA0135801522
B1106544627656N00813497EA0135701521
B1106554627657N00813502EA0135601520
B1106564627658N00813508EA0135501519
B1106574627659N00813513EA0135401518
B1106584627660N00813519EA0135301517
B1106594627661N00813525EA0135201516
B1107004627662N00813530EA0135101515
B1107014627663N00813536EA0135001514
B1107024627664N00813541EA0134901513
B1107034627666N00813546EA0134801512
B1107044627667N00813552EA0134701511
B1107054627668N00813557EA0134601509
B1107064627670N00813563EA0134401508
B1107074627670N00813568EA0134301507
B1107084627672N00813574EA0134201506
B1107094627673N00813579EA0134101505
B1107104627674N00813584EA0134001504
B1107114627676N00813588EA0133901502
B1107124627678N00813594EA0133701501
B1107134627679N00813599EA0133601500
B1107144627681N00813604EA0133501499
B1107154627683N00813609EA0133401498
B1107164627684N00813615EA0133301497
B1107174627686N00813620EA0133201496
B1107184627688N00813625EA0133101495
B1107194627689N00813630EA0133001494
B1107204627690N00813636EA0133001493
B1107214627691N00813641EA0132901492
B1107224627691N00813646EA0132701491
B1107234627691N00813651EA0132601490
B1107244627689N00813657EA0132501489
B1107254627687N00813662EA0132401488
B1107264627683N00813667EA0132301487
B1107274627679N00813670EA0132201486
B1107284627673N00813672EA0132101485
B1107294627668N00813674EA0132001484
B1107304627662N00813673EA0131901483
B1107314627656N00813672EA0131901483
B1107324627650N00813669EA0131801482
B1107334627645N00813664EA0131701481
B1107344627640N00813659EA0131601479
B1107354627635N00813652EA0131401478
B1107364627631N00813644EA0131301477
B1107374627628N00813635EA0131101475
B1107384627626N00813626EA0130901473
B1107394627626N00813616EA0130801472
B1107404627625N00813607EA0130701471
B1107414627626N00813598EA0130601470
B1107424627628N00813590EA0130501468
B1107434627630N00813582EA0130301467
B1107444627632N00813576EA0130101465
B1107454627635N00813571EA0129901463
B1107464627642N00813566EA0129801462
B1107474627647N00813563EA0129701461
B1107484627652N00813562EA0129501459
B1107494627657N00813565EA0129401458
B1107494627657N00813565EA0129301456
B1107504627660N00813568EA0129301456
B1107514627663N00813573EA0129101455
B1107524627666N00813578EA0129001454
B1107534627667N00813583EA0128901452
B1107544627670N00813588EA0128801452
B1107554627671N00813593EA0128801451
B1107564627673N00813597EA0128701450
B1107574627675N00813602EA0128501449
B1107584627676N00813606EA0128401447
B1107594627678N00813611EA0128201446
B1108004627680N00813615EA0128101445
B1108014627682N00813621EA0128101445
B1108024627683N00813626EA0128001444
B1108034627685N00813630EA0127901442
B1108044627686N00813634EA0127701441
B1108054627689N00813638EA0127601440
B1108064627691N00813642EA0127501438
B1108074627692N00813647EA0127401438
B1108084627694N00813652EA0127301437
B1108094627696N00813656EA0127201435
B1108104627698N00813660EA0127001434
B1108114627700N00813664EA0126901432
B1108114627700N00813664EA0126801431
B1108124627702N00813668EA0126801431
B1108134627704N00813673EA0126701430
B1108144627705N00813677EA0126601429
B1108154627708N00813682EA0126501428
B1108164627710N00813687EA0126401427
B1108174627711N00813691EA0126201426
B1108184627712N00813696EA0126101425
B1108194627714N00813700EA0126001424
B1108204627715N00813705EA0125901423
B1108214627715N00813711EA0125801421
B1108224627715N00813716EA0125601420
B1108234627714N00813722EA0125501419
B1108244627712N00813727EA0125501418
B1108254627709N00813732EA0125401418
B1108264627707N00813737EA0125301417
B1108274627703N00813742EA0125201416
B1108284627700N00813746EA0125101415
B1108294627697N00813750EA0125001414
B1108304627694N00813754EA0124901413
B1108314627692N00813758EA0124801412
B1108324627689N00813762EA0124701411
B1108334627686N00813767EA0124601410
B1108344627683N00813771EA0124501409
B1108354627681N00813776EA0124401407
B1108364627678N00813780EA0124301406
B1108374627675N00813784EA0124201405
B1108384627672N00813789EA0124001404
B1108394627669N00813793EA0123901403
B1108404627666N00813797EA0123801402
B1108404627666N00813797EA0123701401
B1108414627662N00813801EA0123701401
B1108424627658N00813805EA0123601400
B1108434627654N00813808EA0123501399
B1108444627650N00813810EA0123301397
B1108454627645N00813811EA0123101395
B1108464627639N00813811EA0122901393
B1108474627632N00813810EA0122801392
B1108484627626N00813807EA0122701391
B1108494627620N00813804EA0122701390
B1108504627614N00813800EA0122601389
B1108514627608N00813795EA0122401388
B1108524627604N00813790EA0122201386
B1108534627598N00813785EA0122101385
B1108544627593N00813779EA0122101384
B1108554627587N00813774EA0122001384
B1108564627583N00813768EA0121901383
B1108574627578N00813762EA0121801382
B1108584627573N00813756EA0121701380
B1108594627568N00813750EA0121501379
B1109004627563N00813745EA0121401378
B1109014627558N00813739EA0121301377
B1109024627553N00813733EA0121201376
B1109034627547N00813726EA0121101375
B1109044627543N00813720EA0121101374
B1109054627539N00813713EA0121001373
B1109064627535N00813706EA0120901372
B1109074627532N00813698EA0120701371
B1109084627529N00813691EA0120601370
B1109094627526N00813682EA0120501368
B1109104627524N00813673EA0120401368
B1109114627524N00813664EA0120201366
B1109124627524N00813655EA0120101365
B1109134627524N00813647EA0119901363
B1109144627525N00813639EA0119701361
B1109154627527N00813633EA0119601359
B1109164627529N00813628EA0119501359
B1109174627535N00813625EA0119401358
B1109184627540N00813623EA0119301357
B1109194627546N00813622EA0119101355
B1109204627551N00813622EA0118901353
B1109214627555N00813622EA0118601350
B1109224627560N00813623EA0118401348
B1109234627564N00813625EA0118301347
B1109244627568N00813627EA0118401347
B1109254627572N00813630EA0118301347
B1109264627576N00813631EA0118201345
B1109274627579N00813632EA0118001343
B1109284627583N00813633EA0117801341
B1109294627587N00813634EA0117701340
B1109304627591N00813636EA0117601340
B1109314627595N00813637EA0117501339
B1109324627598N00813639EA0117501339
B1109334627601N00813640EA0117401337
B1109344627604N00813642EA0117201336
B1109354627606N00813643EA0117201336
B1109364627608N00813645EA0117301337
B1109374627609N00813646EA0117401337
B1109384627610N00813648EA0117301337
B1109394627610N00813649EA0117401337
B1109404627610N00813649EA0117401338
B1109414627610N00813650EA0117401338
B1109424627611N00813650EA0117401338
B1109434627611N00813650EA0117401338
B1109444627611N00813650EA0117401338
B1109454627611N00813650EA0117401338
B1109464627611N00813650EA0117401338
B1109474627611N00813649EA0117401338
B1109484627612N00813649EA0117401338
B1109494627612N00813649EA0117401338
B1109504627612N00813649EA0117401338
B1109514627612N00813649EA0117401338
B1109524627613N00813649EA0117401338
B1109534627613N00813649EA0117401338
B1109534627613N00813649EA0117401338
B1109544627613N00813649EA0117401338
B1109554627613N00813649EA0117401338
B1109564627613N00813649EA0117401338
B1109574627614N00813649EA0117401338
B1109584627614N00813649EA0117401338
B1109594627614N00813649EA0117401338
B1110004627614N00813648EA0117401338
B1110014627614N00813648EA0117401338
B1110024627614N00813648EA0117401338
B1110034627614N00813648EA0117401338
B1110044627614N00813648EA0117501338
B1110054627614N00813648EA0117401338
B1110064627614N00813649EA0117401338
B1110074627614N00813649EA0117501338
B1110084627614N00813648EA0117501338
B1110094627614N00813648EA0117501338
B1110104627614N00813648EA0117501339
B1110114627614N00813648EA0117501339
B1110124627614N00813648EA0117501339
B1110134627614N00813648EA0117501339
B1110144627614N00813648EA0117501339
B1110154627614N00813648EA0117501339
B1110164627614N00813648EA0117501339
B1110174627614N00813648EA0117501339
B1110184627614N00813648EA0117501339
B1110184627614N00813648EA0117601339
B1110194627614N00813648EA0117601339
B1110204627614N00813648EA0117501339
B1110214627614N00813648EA0117501338
B1110224627614N00813648EA0117501338
B1110234627614N00813648EA0117501339
B1110244627614N00813648EA0117501338
B1110254627614N00813649EA0117401338
B1110264627614N00813649EA0117501338
B1110274627614N00813649EA0117401338
B1110284627615N00813649EA0117401338
B1110294627615N00813649EA0117401338
B1110304627615N00813650EA0117401338
B1110314627615N00813650EA0117401338
B1110324627615N00813650EA0117401338
B1110334627615N00813651EA0117401338
B1110344627615N00813651EA0117401338
B1110354627615N00813652EA0117401338
B1110354627615N00813652EA0117401338
B1110364627615N00813652EA0117401338
B1110374627615N00813653EA0117401338
B1110384627616N00813654EA0117401338
B1110394627616N00813655EA0117501338
B1110404627615N00813656EA0117501338
B1110414627615N00813657EA0117501338
B1110424627616N00813657EA0117501339
B1110434627616N00813661EA0117501339
B1110444627616N00813662EA0117501338
B1110454627613N00813668EA0117501338
B1110464627613N00813669EA0117501338
B1110474627614N00813670EA0117501338
B1110484627613N00813671EA0117501339
B1110494627614N00813672EA0117501339
B1110504627615N00813673EA0117501339
B1110514627616N00813673EA0117501339
B1110524627617N00813673EA0117501338
B1110534627618N00813673EA0117501339
B1110544627619N00813674EA0117501339
B1110554627619N00813673EA0117501339
B1110564627618N00813673EA0117501338
B1110574627618N00813672EA0117501338
B1110584627619N00813672EA0117501338
B1110594627619N00813672EA0117501338
B1111004627619N00813672EA0117501339
B1111014627619N00813672EA0117501338
B1111024627619N00813672EA0117501339
B1111034627619N00813671EA0117501339
B1111044627619N00813671EA0117501339
B1111054627619N00813671EA0117501338
B1111064627619N00813671EA0117501339
B1111074627619N00813671EA0117501339
B1111084627619N00813671EA0117501339
B1111094627619N00813671EA0117501339
B1111104627619N00813671EA0117501338
B1111114627619N00813671EA0117501338
B1111124627619N00813671EA0117501338
B1111134627620N00813671EA0117501338
B1111144627620N00813670EA0117501338
B1111154627620N00813670EA0117501338
B1111164627620N00813670EA0117501339
B1111174627620N00813670EA0117501339
B1111184627620N00813670EA0117501339
B1111194627620N00813670EA0117501339
B1111204627620N00813670EA0117501339
B1111214627620N00813669EA0117501339
B1111224627620N00813669EA0117501339
B1111234627620N00813669EA0117501339
LXSX;GF:1.4
G83BF0665B5321B0E6BC062058F549E88
