AXSX003 SKYTRAXX V3.0.4 SN:00000380
HOPLTPILOT:Sepp Bucher
HOGTYGLIDERTYPE:Sigma9
HOCIDCOMPETITIONID:0000
HODTM100GPSDATUM:WGS-84
HOCCLCOMPETITION CLASS:Paraglider (Standard)
HPSITSITE:St Vincent Les Forts
HFDTE051016
B1508224426610N00622297EA0124101278
B1508234426608N00622297EA0124101280
B1508234426608N00622297EA0124001282
B1508244426607N00622299EA0124001284
B1508244426607N00622299EA0124101286
B1508254426605N00622302EA0124101287
B1508264426605N00622305EA0124201289
B1508274426604N00622309EA0124201291
B1508284426604N00622312EA0123801287
B1508294426603N00622315EA0123801287
B1508304426602N00622317EA0123801288
B1508314426600N00622315EA0123801288
B1508324426598N00622314EA0124101291
B1508334426594N00622317EA0124101291
B1508344426587N00622312EA0124101290
B1508354426591N00622281EA0124101291
B1508364426588N00622276EA0124001290
B1508374426589N00622271EA0123801288
B1508384426588N00622271EA0123901289
B1508394426589N00622268EA0124101291
B1508404426587N00622269EA0124301293
B1508414426591N00622264EA0124401294
B1508424426595N00622270EA0124501295
B1508434426596N00622272EA0124601296
B1508444426601N00622271EA0124601296
B1508454426604N00622270EA0124601296
B1508464426609N00622268EA0124601296
B1508474426612N00622268EA0124601296
B1508484426618N00622266EA0124601296
B1508494426622N00622266EA0124701297
B1508504426627N00622265EA0124601296
B1508514426631N00622266EA0124401293
B1508524426633N00622265EA0124601296
B1508534426637N00622268EA0124601296
B1508544426640N00622270EA0124601296
B1508554426646N00622268EA0124701297
B1508564426651N00622268EA0124701297
B1508574426661N00622266EA0124701297
B1508584426666N00622268EA0124801298
B1508594426672N00622268EA0124901298
B1509004426678N00622268EA0124901299
B1509014426681N00622267EA0124901299
B1509024426686N00622266EA0124901299
B1509034426689N00622266EA0124901299
B1509044426693N00622266EA0125001300
B1509054426696N00622266EA0125101301
B1509064426701N00622266EA0125201302
B1509074426704N00622266EA0125201302
B1509084426707N00622266EA0125201302
B1509094426711N00622266EA0125301303
B1509104426715N00622266EA0125201302
B1509114426719N00622266EA0125301303
B1509124426723N00622266EA0125401304
B1509134426727N00622266EA0125401304
B1509144426730N00622267EA0125401304
B1509154426734N00622268EA0125401304
B1509164426739N00622268EA0125401304
B1509174426743N00622269EA0125301303
B1509184426747N00622269EA0125201302
B1509194426752N00622269EA0125401303
B1509204426757N00622269EA0125401303
B1509214426762N00622269EA0125401304
B1509224426767N00622269EA0125401304
B1509234426771N00622270EA0125501305
B1509244426776N00622270EA0125401304
B1509254426781N00622269EA0125401304
B1509264426786N00622267EA0125501305
B1509274426791N00622266EA0125401304
B1509284426796N00622265EA0125501305
B1509294426800N00622264EA0125501305
B1509304426805N00622263EA0125601306
B1509314426811N00622263EA0125701307
B1509324426815N00622262EA0125601306
B1509334426820N00622261EA0125501305
B1509344426824N00622260EA0125501305
B1509354426829N00622259EA0125601306
B1509364426833N00622259EA0125801308
B1509374426837N00622259EA0125901308
B1509384426842N00622260EA0125901309
B1509394426846N00622264EA0125901309
B1509394426846N00622264EA0125901309
B1509404426849N00622266EA0125901309
B1509414426854N00622270EA0126001310
B1509424426858N00622273EA0126101311
B1509424426858N00622273EA0126101311
B1509434426862N00622277EA0126101311
B1509444426867N00622280EA0126301313
B1509454426872N00622283EA0126401314
B1509464426876N00622286EA0126401314
B1509474426881N00622290EA0126501314
B1509484426885N00622294EA0126401314
B1509494426888N00622297EA0126401314
B1509504426892N00622301EA0126301312
B1509514426897N00622305EA0126201312
B1509524426902N00622309EA0126401314
B1509534426907N00622313EA0126501315
B1509544426912N00622317EA0126701317
B1509554426916N00622320EA0126701317
B1509564426920N00622320EA0126801318
B1509574426923N00622319EA0126901319
B1509584426926N00622317EA0127001320
B1509584426926N00622317EA0127001320
B1509594426928N00622315EA0127001320
B1510004426929N00622311EA0127001320
B1510014426928N00622307EA0126901319
B1510024426926N00622303EA0126901319
B1510034426923N00622300EA0126901319
B1510044426917N00622298EA0127001320
B1510054426911N00622297EA0127001320
B1510064426905N00622296EA0127001320
B1510074426899N00622295EA0126801318
B1510084426892N00622294EA0126901319
B1510094426886N00622294EA0127101321
B1510104426879N00622293EA0127201322
B1510114426873N00622294EA0127301323
B1510124426868N00622296EA0127301323
B1510134426862N00622298EA0127301323
B1510144426857N00622300EA0127401324
B1510154426851N00622302EA0127501325
B1510164426845N00622304EA0127801328
B1510164426845N00622304EA0128001330
B1510174426839N00622307EA0128001330
B1510184426835N00622310EA0128201332
B1510194426830N00622313EA0128301333
B1510204426825N00622315EA0128401334
B1510214426821N00622316EA0128401334
B1510224426816N00622315EA0128501335
B1510234426811N00622313EA0128501335
B1510244426808N00622310EA0128601336
B1510254426807N00622303EA0128601336
B1510264426806N00622297EA0128601336
B1510264426806N00622297EA0128501335
B1510274426808N00622292EA0128501335
B1510284426810N00622287EA0128501335
B1510294426813N00622283EA0128601336
B1510304426818N00622282EA0128701337
B1510314426824N00622284EA0128901338
B1510324426830N00622287EA0129001340
B1510334426835N00622292EA0129101341
B1510344426839N00622298EA0129201342
B1510344426839N00622298EA0129301343
B1510354426843N00622304EA0129301343
B1510364426847N00622310EA0129401344
B1510374426852N00622315EA0129501345
B1510384426857N00622321EA0129601346
B1510394426860N00622326EA0129601346
B1510404426864N00622331EA0129601346
B1510414426868N00622336EA0129601346
B1510424426872N00622341EA0129601346
B1510434426877N00622345EA0129701347
B1510444426882N00622348EA0129901349
B1510454426887N00622352EA0130101351
B1510464426891N00622355EA0130301353
B1510464426891N00622355EA0130401354
B1510474426895N00622358EA0130401354
B1510484426898N00622361EA0130301353
B1510494426901N00622364EA0130001350
B1510504426905N00622366EA0129801348
B1510504426905N00622366EA0129801348
B1510514426908N00622365EA0129801348
B1510524426910N00622363EA0129701347
B1510534426912N00622358EA0129601346
B1510544426907N00622354EA0129601346
B1510554426902N00622352EA0129701347
B1510564426898N00622351EA0129701347
B1510574426892N00622351EA0129601346
B1510584426888N00622351EA0129601346
B1510594426882N00622351EA0129601346
B1511004426876N00622351EA0129601346
B1511014426870N00622351EA0129801348
B1511024426864N00622352EA0130001350
B1511034426859N00622353EA0130001350
B1511044426854N00622355EA0129901349
B1511054426849N00622356EA0129801348
B1511064426843N00622358EA0129701347
B1511074426837N00622360EA0129701347
B1511084426829N00622362EA0129901349
B1511094426821N00622363EA0130301353
B1511104426814N00622364EA0130601356
B1511114426809N00622364EA0130901359
B1511124426805N00622364EA0131001360
B1511134426801N00622360EA0131201362
B1511144426798N00622356EA0131401364
B1511154426795N00622349EA0131501365
B1511164426795N00622342EA0131801368
B1511174426796N00622336EA0132101371
B1511184426799N00622333EA0132301373
B1511184426799N00622333EA0132601376
B1511194426803N00622332EA0132601376
B1511204426807N00622333EA0132901379
B1511214426811N00622334EA0133101381
B1511224426815N00622335EA0133201382
B1511234426819N00622336EA0133301383
B1511244426822N00622336EA0133401384
B1511254426825N00622336EA0133501385
B1511264426829N00622337EA0133501385
B1511274426833N00622337EA0133601386
B1511284426837N00622338EA0133501385
B1511294426841N00622339EA0133501385
B1511304426845N00622341EA0133501384
B1511314426850N00622343EA0133401384
B1511324426854N00622343EA0133301383
B1511334426858N00622341EA0133201382
B1511344426862N00622337EA0133201382
B1511354426864N00622332EA0133301383
B1511364426865N00622327EA0133401384
B1511374426864N00622323EA0133301383
B1511384426862N00622320EA0133301383
B1511394426859N00622317EA0133201382
B1511404426853N00622317EA0133201382
B1511414426846N00622317EA0133301383
B1511424426840N00622318EA0133501385
B1511434426835N00622321EA0133601386
B1511444426830N00622323EA0133701387
B1511454426824N00622325EA0133701387
B1511464426820N00622328EA0133601386
B1511474426814N00622331EA0133601386
B1511484426809N00622335EA0133601386
B1511494426803N00622338EA0133701387
B1511504426797N00622340EA0133801388
B1511514426792N00622342EA0133901389
B1511524426787N00622344EA0134001390
B1511534426781N00622345EA0134001390
B1511544426776N00622347EA0133901389
B1511554426770N00622347EA0133701387
B1511564426765N00622347EA0133701387
B1511574426759N00622346EA0133801388
B1511584426753N00622345EA0133901389
B1511594426749N00622342EA0133901389
B1512004426745N00622339EA0134101391
B1512014426742N00622334EA0134301393
B1512024426741N00622327EA0134501395
B1512034426742N00622322EA0134701396
B1512044426743N00622319EA0134701397
B1512054426747N00622320EA0134801398
B1512064426751N00622321EA0134901399
B1512074426754N00622324EA0135001400
B1512084426757N00622327EA0135001400
B1512094426760N00622330EA0134901398
B1512104426763N00622332EA0134701397
B1512114426768N00622333EA0134701397
B1512124426773N00622332EA0134801398
B1512134426777N00622331EA0134901399
B1512134426777N00622331EA0135001400
B1512144426779N00622328EA0135001400
B1512154426780N00622325EA0135001400
B1512164426780N00622322EA0134901399
B1512174426780N00622319EA0134801398
B1512184426779N00622315EA0134601396
B1512194426778N00622311EA0134501395
B1512204426775N00622308EA0134401394
B1512214426769N00622305EA0134401394
B1512214426769N00622305EA0134501395
B1512224426763N00622304EA0134501395
B1512234426757N00622305EA0134601396
B1512244426751N00622306EA0134701397
B1512254426746N00622307EA0134801398
B1512264426740N00622309EA0135001400
B1512274426734N00622310EA0135101401
B1512284426727N00622312EA0135201402
B1512294426721N00622313EA0135401404
B1512304426715N00622315EA0135501405
B1512314426709N00622315EA0135501405
B1512324426704N00622314EA0135501405
B1512334426699N00622313EA0135501405
B1512344426695N00622309EA0135401404
B1512354426695N00622305EA0135201402
B1512364426695N00622302EA0135101401
B1512374426698N00622298EA0134901399
B1512384426701N00622295EA0134901399
B1512394426705N00622294EA0134901399
B1512404426709N00622295EA0134901399
B1512414426714N00622296EA0134801398
B1512424426718N00622299EA0134601395
B1512434426724N00622302EA0134401394
B1512444426729N00622305EA0134401394
B1512454426734N00622310EA0134701397
B1512464426739N00622314EA0134901399
B1512464426739N00622314EA0135201402
B1512474426744N00622315EA0135201402
B1512474426744N00622315EA0135301403
B1512484426748N00622318EA0135301403
B1512494426752N00622320EA0135401404
B1512504426756N00622325EA0135501405
B1512514426761N00622330EA0135501405
B1512524426765N00622335EA0135601406
B1512534426769N00622340EA0135601406
B1512544426773N00622344EA0135501405
B1512554426778N00622345EA0135401404
B1512564426782N00622345EA0135401404
B1512574426785N00622341EA0135401404
B1512584426787N00622337EA0135501404
B1512594426786N00622332EA0135401404
B1513004426783N00622328EA0135201402
B1513014426780N00622324EA0135201402
B1513024426776N00622322EA0135301402
B1513034426771N00622321EA0135201402
B1513044426766N00622322EA0135001400
B1513054426760N00622324EA0135001400
B1513064426754N00622326EA0135001400
B1513074426748N00622329EA0135001400
B1513084426742N00622331EA0135101401
B1513094426736N00622334EA0135101401
B1513104426731N00622336EA0135001400
B1513114426726N00622338EA0135001399
B1513124426721N00622339EA0135001400
B1513134426715N00622339EA0134901399
B1513144426711N00622338EA0135001400
B1513154426707N00622336EA0134901398
B1513164426708N00622328EA0134901399
B1513174426711N00622323EA0135101401
B1513184426714N00622322EA0135201402
B1513194426718N00622323EA0135201402
B1513204426723N00622326EA0135201402
B1513214426727N00622329EA0135201402
B1513224426731N00622334EA0135201402
B1513234426736N00622338EA0135101401
B1513244426741N00622343EA0135101401
B1513254426745N00622347EA0135001400
B1513264426749N00622351EA0135001400
B1513274426753N00622355EA0135001400
B1513284426757N00622360EA0135001400
B1513294426762N00622364EA0135001400
B1513304426766N00622368EA0135001400
B1513314426771N00622371EA0135001400
B1513324426775N00622374EA0135001400
B1513334426780N00622377EA0135101401
B1513344426784N00622379EA0135201402
B1513354426788N00622380EA0135201402
B1513364426791N00622379EA0135101401
B1513374426793N00622376EA0135101401
B1513384426795N00622372EA0135201402
B1513394426795N00622368EA0135201402
B1513404426793N00622364EA0135301403
B1513414426789N00622361EA0135201402
B1513424426786N00622359EA0135101401
B1513434426782N00622357EA0134901399
B1513444426777N00622355EA0134901399
B1513454426772N00622353EA0134901399
B1513464426767N00622351EA0135101400
B1513474426761N00622350EA0135201402
B1513484426755N00622350EA0135301403
B1513494426749N00622352EA0135401404
B1513504426744N00622355EA0135401404
B1513514426739N00622359EA0135301403
B1513524426733N00622364EA0135301403
B1513534426727N00622369EA0135301403
B1513544426722N00622372EA0135201402
B1513554426716N00622374EA0135101401
B1513564426712N00622374EA0135101401
B1513574426708N00622372EA0135001400
B1513584426705N00622368EA0135001400
B1513594426704N00622363EA0135101401
B1514004426704N00622358EA0135001400
B1514014426706N00622355EA0134901398
B1514024426708N00622355EA0134701397
B1514034426712N00622355EA0134601396
B1514044426717N00622354EA0134401394
B1514054426721N00622354EA0134301393
B1514064426726N00622355EA0134301393
B1514074426730N00622356EA0134301393
B1514084426735N00622359EA0134201392
B1514094426740N00622363EA0134101391
B1514104426745N00622366EA0134001390
B1514114426750N00622370EA0134001390
B1514124426755N00622372EA0134201392
B1514134426760N00622375EA0134401394
B1514144426764N00622378EA0134401394
B1514154426768N00622380EA0134301393
B1514164426771N00622383EA0134101391
B1514174426775N00622384EA0133901389
B1514184426780N00622386EA0133901389
B1514194426785N00622388EA0134001390
B1514204426789N00622390EA0134101391
B1514214426794N00622392EA0134201392
B1514224426798N00622394EA0134101391
B1514234426803N00622395EA0134101391
B1514244426807N00622396EA0134101391
B1514254426811N00622397EA0134101391
B1514264426815N00622397EA0134001390
B1514274426818N00622395EA0134001390
B1514284426820N00622391EA0134001390
B1514284426820N00622391EA0134201392
B1514294426821N00622386EA0134201392
B1514304426820N00622381EA0134301393
B1514314426818N00622378EA0134401393
B1514324426815N00622376EA0134301393
B1514334426811N00622375EA0134201392
B1514334426811N00622375EA0134201392
B1514344426805N00622375EA0134201392
B1514354426799N00622377EA0134201392
B1514364426793N00622382EA0134301393
B1514374426787N00622388EA0134401394
B1514384426781N00622393EA0134501395
B1514394426775N00622398EA0134501395
B1514404426770N00622401EA0134501395
B1514414426764N00622402EA0134501395
B1514424426759N00622401EA0134501395
B1514434426755N00622397EA0134501395
B1514444426752N00622392EA0134401394
B1514454426751N00622387EA0134401394
B1514464426751N00622382EA0134401394
B1514474426752N00622378EA0134401394
B1514484426755N00622374EA0134501395
B1514494426759N00622374EA0134501395
B1514504426763N00622374EA0134501395
B1514514426767N00622374EA0134601395
B1514524426770N00622375EA0134501395
B1514534426775N00622376EA0134501395
B1514544426779N00622378EA0134601396
B1514554426783N00622380EA0134601396
B1514564426788N00622380EA0134601396
B1514574426792N00622381EA0134701396
B1514584426796N00622381EA0134701397
B1514594426800N00622381EA0134701397
B1515004426805N00622382EA0134801398
B1515014426809N00622383EA0134801398
B1515024426812N00622384EA0134901399
B1515034426815N00622384EA0134801398
B1515044426818N00622383EA0134801398
B1515054426821N00622381EA0134801398
B1515064426822N00622378EA0134801398
B1515074426823N00622374EA0134801398
B1515084426821N00622370EA0134901399
B1515094426819N00622367EA0134901399
B1515104426816N00622364EA0134901399
B1515114426812N00622362EA0134901399
B1515124426808N00622360EA0134801398
B1515134426803N00622359EA0134801398
B1515144426798N00622357EA0134701397
B1515154426792N00622355EA0134801398
B1515164426788N00622354EA0134901399
B1515174426783N00622353EA0135001400
B1515184426778N00622351EA0135101401
B1515194426774N00622350EA0135201401
B1515194426774N00622350EA0135101401
B1515204426770N00622349EA0135101401
B1515214426766N00622349EA0135101401
B1515224426760N00622348EA0135101401
B1515234426755N00622347EA0135201402
B1515244426751N00622344EA0135301403
B1515254426747N00622341EA0135301403
B1515264426744N00622337EA0135301403
B1515274426742N00622333EA0135301402
B1515284426741N00622329EA0135301403
B1515294426740N00622324EA0135201402
B1515304426741N00622319EA0135101401
B1515314426743N00622314EA0135101401
B1515324426746N00622311EA0135101401
B1515334426749N00622309EA0135001400
B1515344426753N00622308EA0135101401
B1515354426757N00622308EA0135201402
B1515364426762N00622309EA0135201402
B1515374426767N00622311EA0135301403
B1515384426772N00622314EA0135401404
B1515394426776N00622317EA0135401404
B1515404426780N00622323EA0135401404
B1515414426784N00622330EA0135401404
B1515424426785N00622340EA0135401404
B1515434426785N00622350EA0135501405
B1515444426783N00622359EA0135501405
B1515454426778N00622367EA0135501405
B1515464426773N00622373EA0135501405
B1515474426767N00622378EA0135601406
B1515484426761N00622381EA0135601406
B1515494426754N00622382EA0135701407
B1515504426749N00622382EA0135701407
B1515514426744N00622381EA0135701407
B1515524426739N00622379EA0135801408
B1515534426735N00622376EA0135701407
B1515544426732N00622372EA0135701407
B1515554426730N00622369EA0135501405
B1515554426730N00622369EA0135401404
B1515564426729N00622365EA0135401404
B1515574426729N00622360EA0135401404
B1515584426730N00622356EA0135401404
B1515594426731N00622351EA0135301403
B1516004426734N00622348EA0135201402
B1516014426737N00622345EA0135201402
B1516024426741N00622342EA0135201402
B1516034426745N00622339EA0135201402
B1516034426745N00622339EA0135301403
B1516044426749N00622338EA0135301403
B1516054426754N00622338EA0135401404
B1516064426758N00622337EA0135401404
B1516074426763N00622336EA0135401404
B1516084426766N00622335EA0135301403
B1516094426770N00622334EA0135301403
B1516104426774N00622334EA0135301403
B1516114426779N00622334EA0135301403
B1516124426783N00622335EA0135301403
B1516134426788N00622336EA0135301403
B1516144426792N00622337EA0135201402
B1516154426797N00622337EA0135201402
B1516164426802N00622337EA0135201402
B1516174426807N00622337EA0135201402
B1516184426812N00622338EA0135201402
B1516194426816N00622338EA0135101401
B1516204426821N00622339EA0135101401
B1516214426825N00622338EA0135001400
B1516224426829N00622337EA0134901399
B1516234426832N00622334EA0134801398
B1516244426835N00622329EA0134701397
B1516254426835N00622323EA0134801398
B1516264426835N00622318EA0135001400
B1516274426833N00622313EA0135001400
B1516284426831N00622309EA0135001400
B1516294426827N00622306EA0134901399
B1516304426824N00622304EA0134801398
B1516314426819N00622303EA0134701397
B1516324426814N00622301EA0134601396
B1516334426808N00622300EA0134601396
B1516344426802N00622299EA0134601396
B1516354426796N00622297EA0134601396
B1516364426791N00622296EA0134501395
B1516364426791N00622296EA0134501395
B1516374426786N00622295EA0134501395
B1516384426781N00622294EA0134301393
B1516394426776N00622294EA0134201392
B1516404426770N00622292EA0134101391
B1516414426765N00622292EA0134201392
B1516424426759N00622292EA0134201392
B1516434426754N00622292EA0134101391
B1516444426749N00622293EA0134001389
B1516454426744N00622294EA0133801388
B1516464426738N00622294EA0133701387
B1516474426733N00622294EA0133701387
B1516484426727N00622293EA0133601386
B1516494426722N00622293EA0133601386
B1516504426716N00622293EA0133701387
B1516514426711N00622293EA0133601386
B1516524426705N00622293EA0133601386
B1516534426701N00622292EA0133601386
B1516544426695N00622292EA0133601385
B1516554426690N00622292EA0133501385
B1516564426684N00622292EA0133501385
B1516574426679N00622292EA0133601386
B1516584426674N00622291EA0133501385
B1516594426670N00622289EA0133401384
B1517004426667N00622284EA0133301382
B1517014426667N00622278EA0133101381
B1517024426667N00622273EA0133101381
B1517034426668N00622268EA0133001380
B1517044426671N00622265EA0132901379
B1517054426674N00622264EA0132901379
B1517064426678N00622262EA0132901379
B1517074426683N00622262EA0132801377
B1517084426686N00622263EA0132601376
B1517094426692N00622265EA0132601376
B1517104426696N00622269EA0132701376
B1517114426701N00622273EA0132701376
B1517124426705N00622277EA0132601376
B1517134426710N00622281EA0132601376
B1517144426714N00622286EA0132601376
B1517154426718N00622290EA0132501375
B1517164426723N00622295EA0132501375
B1517174426727N00622299EA0132401374
B1517184426732N00622302EA0132401374
B1517194426737N00622305EA0132301373
B1517204426742N00622307EA0132301373
B1517214426747N00622309EA0132201372
B1517224426751N00622311EA0132101371
B1517234426755N00622314EA0132001370
B1517244426760N00622317EA0131901369
B1517254426764N00622320EA0131801368
B1517264426769N00622324EA0131701367
B1517274426773N00622328EA0131601366
B1517284426778N00622332EA0131601366
B1517294426783N00622337EA0131701367
B1517304426787N00622342EA0131801368
B1517314426791N00622348EA0131801368
B1517324426795N00622354EA0131801368
B1517334426798N00622359EA0131801368
B1517344426803N00622365EA0131801368
B1517354426807N00622369EA0131801368
B1517364426811N00622374EA0131801368
B1517374426815N00622378EA0131701367
B1517384426820N00622381EA0131701367
B1517394426825N00622385EA0131701367
B1517404426830N00622389EA0131801368
B1517414426834N00622393EA0131801368
B1517424426839N00622396EA0131901369
B1517434426843N00622400EA0131901369
B1517444426848N00622403EA0132001369
B1517454426853N00622406EA0132001370
B1517464426857N00622409EA0132101371
B1517474426862N00622412EA0132201372
B1517484426866N00622414EA0132301373
B1517494426870N00622416EA0132301373
B1517504426875N00622419EA0132301373
B1517514426879N00622421EA0132201372
B1517524426884N00622422EA0132201372
B1517534426888N00622423EA0132101371
B1517544426892N00622423EA0132101371
B1517554426895N00622423EA0132001370
B1517564426898N00622421EA0131901368
B1517574426900N00622416EA0131701367
B1517584426901N00622411EA0131701367
B1517594426900N00622406EA0131601366
B1518004426898N00622402EA0131601366
B1518014426895N00622399EA0131701367
B1518024426892N00622396EA0131701367
B1518034426888N00622394EA0131601366
B1518044426884N00622393EA0131601366
B1518054426879N00622391EA0131601366
B1518064426874N00622390EA0131701367
B1518074426870N00622389EA0131701367
B1518084426865N00622387EA0131701367
B1518094426861N00622386EA0131701367
B1518104426857N00622384EA0131701367
B1518114426852N00622382EA0131701367
B1518124426847N00622381EA0131701367
B1518134426842N00622381EA0131701367
B1518144426837N00622380EA0131801368
B1518154426831N00622381EA0131801367
B1518164426825N00622382EA0131701367
B1518174426819N00622384EA0131701367
B1518184426814N00622386EA0131701367
B1518194426808N00622389EA0131701367
B1518204426802N00622391EA0131701367
B1518214426796N00622393EA0131601366
B1518224426790N00622396EA0131601366
B1518234426784N00622399EA0131601366
B1518244426778N00622401EA0131601366
B1518254426772N00622402EA0131601366
B1518264426766N00622401EA0131601366
B1518274426761N00622400EA0131501365
B1518284426758N00622396EA0131401364
B1518294426755N00622391EA0131301363
B1518304426753N00622385EA0131201362
B1518314426752N00622380EA0131101361
B1518324426753N00622375EA0131101360
B1518334426755N00622371EA0131001360
B1518344426758N00622368EA0130901359
B1518354426762N00622365EA0130901359
B1518364426766N00622364EA0130901359
B1518374426770N00622363EA0130901359
B1518384426774N00622362EA0130901359
B1518394426778N00622362EA0130901359
B1518404426781N00622362EA0130901359
B1518414426785N00622361EA0130901359
B1518424426789N00622360EA0131001360
B1518434426792N00622359EA0131201362
B1518444426796N00622358EA0131401364
B1518454426800N00622358EA0131501365
B1518464426804N00622358EA0131501365
B1518474426807N00622357EA0131501365
B1518484426811N00622356EA0131601366
B1518494426815N00622355EA0131701366
B1518504426819N00622354EA0131801367
B1518514426823N00622354EA0131901369
B1518524426827N00622353EA0132001370
B1518534426830N00622352EA0132101371
B1518544426833N00622350EA0132201372
B1518554426835N00622346EA0132301373
B1518564426835N00622342EA0132501375
B1518574426835N00622337EA0132601376
B1518584426833N00622333EA0132801378
B1518594426831N00622329EA0133001380
B1519004426827N00622326EA0133101381
B1519014426823N00622325EA0133201382
B1519024426817N00622326EA0133301383
B1519034426812N00622328EA0133401384
B1519044426807N00622330EA0133501385
B1519054426802N00622331EA0133501385
B1519064426797N00622331EA0133501385
B1519074426792N00622329EA0133501385
B1519084426789N00622325EA0133501384
B1519094426789N00622319EA0133401384
B1519104426791N00622314EA0133501385
B1519114426792N00622310EA0133501385
B1519124426796N00622308EA0133401384
B1519134426800N00622308EA0133301383
B1519144426805N00622310EA0133201382
B1519154426810N00622312EA0133201382
B1519164426814N00622316EA0133201382
B1519174426819N00622321EA0133101381
B1519184426824N00622326EA0133101381
B1519194426829N00622330EA0133001380
B1519204426835N00622334EA0133001380
B1519214426840N00622338EA0133001380
B1519224426845N00622341EA0133101381
B1519234426851N00622345EA0133101381
B1519244426855N00622349EA0133201382
B1519254426860N00622352EA0133201382
B1519264426865N00622354EA0133101381
B1519274426870N00622356EA0133101381
B1519284426876N00622358EA0133101381
B1519294426881N00622360EA0133201382
B1519304426887N00622361EA0133301383
B1519314426892N00622362EA0133301383
B1519324426896N00622363EA0133401384
B1519334426900N00622362EA0133201382
B1519344426903N00622360EA0133001380
B1519354426904N00622355EA0132901379
B1519364426905N00622349EA0133001380
B1519374426904N00622344EA0133001380
B1519384426899N00622342EA0133001380
B1519394426896N00622341EA0133001380
B1519404426892N00622341EA0133001380
B1519414426887N00622341EA0132901379
B1519424426882N00622340EA0133001380
B1519434426877N00622340EA0133101381
B1519444426872N00622340EA0133201382
B1519454426867N00622341EA0133301383
B1519464426861N00622342EA0133401384
B1519474426856N00622344EA0133301383
B1519484426851N00622347EA0133301383
B1519494426846N00622350EA0133201382
B1519504426840N00622354EA0133201382
B1519514426835N00622356EA0133301383
B1519524426829N00622358EA0133301383
B1519534426824N00622359EA0133301383
B1519544426819N00622360EA0133301383
B1519554426814N00622360EA0133201382
B1519564426809N00622360EA0133201382
B1519574426803N00622359EA0133201382
B1519584426798N00622358EA0133201382
B1519594426792N00622358EA0133201382
B1520004426786N00622358EA0133301383
B1520014426780N00622358EA0133401384
B1520024426775N00622358EA0133401384
B1520034426770N00622358EA0133301382
B1520044426766N00622358EA0133101381
B1520054426761N00622358EA0132901379
B1520064426755N00622357EA0132901379
B1520074426750N00622355EA0132901379
B1520074426750N00622355EA0132901379
B1520084426745N00622354EA0132901379
B1520094426739N00622353EA0132901378
B1520104426733N00622352EA0132801378
B1520114426727N00622351EA0132901379
B1520124426722N00622351EA0132901379
B1520134426716N00622351EA0132901379
B1520144426711N00622350EA0132901379
B1520154426706N00622349EA0132701377
B1520154426706N00622349EA0132601376
B1520164426701N00622349EA0132601376
B1520174426696N00622348EA0132401374
B1520184426690N00622347EA0132301373
B1520194426685N00622346EA0132201372
B1520204426679N00622345EA0132101371
B1520214426674N00622344EA0132001370
B1520224426668N00622344EA0131801368
B1520234426663N00622344EA0131701367
B1520244426656N00622344EA0131501365
B1520254426650N00622344EA0131401364
B1520254426650N00622344EA0131401364
B1520264426645N00622343EA0131401364
B1520274426639N00622342EA0131301363
B1520284426634N00622341EA0131201362
B1520294426629N00622340EA0131101361
B1520304426624N00622339EA0131001360
B1520314426619N00622338EA0130901359
B1520324426613N00622336EA0130801358
B1520334426608N00622334EA0130901359
B1520344426602N00622332EA0130901359
B1520354426596N00622331EA0131001360
B1520364426591N00622330EA0131001360
B1520374426586N00622329EA0131001360
B1520384426580N00622328EA0131101360
B1520394426575N00622328EA0131001360
B1520404426570N00622327EA0130901359
B1520404426570N00622327EA0130901359
B1520414426564N00622327EA0130901359
B1520424426559N00622326EA0130901359
B1520434426553N00622326EA0130901359
B1520444426548N00622326EA0130801358
B1520454426543N00622327EA0130701357
B1520464426538N00622326EA0130501354
B1520474426533N00622326EA0130401354
B1520484426527N00622326EA0130401354
B1520494426521N00622327EA0130401354
B1520504426516N00622329EA0130401354
B1520514426511N00622331EA0130401354
B1520524426505N00622333EA0130201352
B1520534426499N00622335EA0130001350
B1520544426493N00622337EA0130001350
B1520554426487N00622338EA0130101351
B1520564426480N00622339EA0130101351
B1520574426475N00622341EA0130101351
B1520584426470N00622344EA0130101351
B1520594426464N00622347EA0130001350
B1521004426459N00622349EA0129901349
B1521014426454N00622352EA0129901349
B1521014426454N00622352EA0130001350
B1521024426447N00622355EA0130001350
B1521034426441N00622359EA0130001350
B1521044426436N00622362EA0130001350
B1521054426431N00622365EA0130001350
B1521064426425N00622369EA0130001349
B1521074426420N00622373EA0129801348
B1521084426415N00622377EA0129701347
B1521094426409N00622380EA0129701347
B1521104426403N00622383EA0129701347
B1521114426397N00622385EA0129801348
B1521124426393N00622388EA0129801348
B1521134426387N00622390EA0129801348
B1521144426382N00622393EA0129901349
B1521154426377N00622398EA0129901349
B1521164426372N00622402EA0129901349
B1521174426366N00622406EA0130001350
B1521184426361N00622409EA0130001350
B1521194426356N00622412EA0130101351
B1521204426350N00622415EA0130101351
B1521214426345N00622418EA0130101351
B1521224426340N00622421EA0130201352
B1521234426335N00622424EA0130301353
B1521244426330N00622426EA0130401354
B1521244426330N00622426EA0130401354
B1521254426326N00622430EA0130401354
B1521264426321N00622433EA0130501355
B1521274426317N00622437EA0130601356
B1521284426313N00622441EA0130701357
B1521294426309N00622444EA0130801358
B1521304426305N00622447EA0130801358
B1521314426302N00622451EA0130801358
B1521324426298N00622454EA0130801358
B1521334426293N00622456EA0130701357
B1521344426290N00622456EA0130701357
B1521354426286N00622456EA0130601356
B1521364426282N00622454EA0130601356
B1521374426282N00622449EA0130401354
B1521384426282N00622444EA0130401354
B1521394426286N00622440EA0130401354
B1521404426289N00622436EA0130501355
B1521414426294N00622435EA0130401354
B1521424426300N00622435EA0130401354
B1521434426305N00622436EA0130501355
B1521444426311N00622437EA0130501355
B1521454426317N00622439EA0130701357
B1521464426324N00622440EA0130801358
B1521474426329N00622442EA0130901359
B1521484426333N00622444EA0130901359
B1521494426337N00622446EA0130901359
B1521504426342N00622448EA0130801358
B1521514426347N00622449EA0130801358
B1521524426353N00622451EA0130901359
B1521534426358N00622452EA0131101361
B1521544426362N00622453EA0131101361
B1521544426362N00622453EA0131001360
B1521554426367N00622453EA0131001360
B1521564426370N00622451EA0130901359
B1521574426373N00622448EA0131001360
B1521584426375N00622443EA0131001360
B1521594426377N00622439EA0130901359
B1521594426377N00622439EA0131001360
B1522004426374N00622435EA0131001360
B1522014426371N00622432EA0131001360
B1522024426367N00622430EA0131001360
B1522034426362N00622430EA0131001360
B1522044426357N00622432EA0131001360
B1522054426352N00622435EA0131101361
B1522064426347N00622440EA0131101361
B1522074426343N00622444EA0131101361
B1522084426338N00622449EA0131101361
B1522094426334N00622453EA0131001360
B1522104426329N00622457EA0131001360
B1522114426323N00622460EA0131001360
B1522124426317N00622463EA0131101361
B1522134426312N00622465EA0131401364
B1522144426306N00622467EA0131601366
B1522154426302N00622468EA0131801368
B1522154426302N00622468EA0131801368
B1522164426299N00622467EA0131801368
B1522174426297N00622464EA0131801368
B1522184426296N00622460EA0131801368
B1522194426297N00622455EA0131901369
B1522204426300N00622450EA0131901369
B1522214426304N00622448EA0132001370
B1522224426308N00622449EA0132101371
B1522234426313N00622451EA0132101371
B1522244426318N00622453EA0132101371
B1522254426322N00622456EA0132101371
B1522264426327N00622457EA0132001370
B1522274426333N00622459EA0132001370
B1522284426338N00622460EA0132001370
B1522294426343N00622462EA0132101371
B1522304426348N00622463EA0132101371
B1522314426353N00622464EA0132001370
B1522324426357N00622465EA0132001370
B1522334426361N00622464EA0132001370
B1522344426364N00622462EA0131901369
B1522354426365N00622457EA0131901369
B1522364426365N00622453EA0131901369
B1522374426362N00622449EA0131801368
B1522384426358N00622447EA0131801368
B1522394426355N00622446EA0131901369
B1522404426350N00622446EA0131901369
B1522414426346N00622447EA0131801368
B1522424426341N00622449EA0131701367
B1522434426335N00622451EA0131701367
B1522444426330N00622454EA0131701367
B1522454426325N00622456EA0131801368
B1522464426319N00622458EA0131801368
B1522474426315N00622461EA0131901369
B1522484426310N00622463EA0131901369
B1522494426305N00622465EA0132001370
B1522504426300N00622467EA0132101371
B1522514426294N00622468EA0132301373
B1522524426290N00622469EA0132501375
B1522534426285N00622470EA0132301373
B1522544426280N00622473EA0132301373
B1522554426276N00622477EA0132401374
B1522564426272N00622480EA0132401374
B1522574426267N00622483EA0132401374
B1522584426264N00622485EA0132401374
B1522594426260N00622486EA0132301373
B1523004426257N00622487EA0132001370
B1523014426255N00622484EA0131801368
B1523024426256N00622480EA0131601366
B1523034426258N00622474EA0131501365
B1523044426263N00622471EA0131501365
B1523054426268N00622470EA0131601366
B1523064426272N00622469EA0131501365
B1523074426277N00622469EA0131401364
B1523084426282N00622467EA0131401364
B1523094426287N00622465EA0131401364
B1523094426287N00622465EA0131601366
B1523104426292N00622464EA0131601366
B1523114426297N00622463EA0131901369
B1523124426303N00622463EA0132201372
B1523134426307N00622463EA0132301373
B1523144426311N00622465EA0132201372
B1523154426313N00622466EA0132001370
B1523164426316N00622463EA0131801368
B1523174426319N00622459EA0131701367
B1523184426322N00622454EA0131801368
B1523194426323N00622449EA0131801368
B1523204426320N00622446EA0131701367
B1523214426316N00622443EA0131701367
B1523224426312N00622441EA0131601366
B1523234426307N00622442EA0131601366
B1523244426301N00622445EA0131601366
B1523254426296N00622449EA0131601366
B1523264426291N00622453EA0131701367
B1523274426286N00622457EA0131801368
B1523284426280N00622458EA0131901369
B1523294426275N00622458EA0132101371
B1523304426273N00622452EA0132101371
B1523314426273N00622447EA0132301373
B1523324426275N00622442EA0132401374
B1523334426279N00622439EA0132401374
B1523344426283N00622437EA0132501375
B1523354426288N00622437EA0132401374
B1523364426293N00622439EA0132301373
B1523374426297N00622442EA0132201372
B1523384426303N00622445EA0132201372
B1523394426308N00622449EA0132201372
B1523404426313N00622452EA0132201372
B1523414426318N00622455EA0132201372
B1523424426322N00622456EA0132101371
B1523434426327N00622458EA0132001370
B1523444426331N00622459EA0132001370
B1523454426337N00622459EA0131901369
B1523464426342N00622461EA0131901369
B1523474426347N00622462EA0132001370
B1523484426352N00622464EA0132001369
B1523494426356N00622465EA0131801368
B1523504426361N00622466EA0131801368
B1523514426365N00622466EA0131701367
B1523524426370N00622465EA0131701367
B1523534426374N00622462EA0131601366
B1523544426377N00622459EA0131501365
B1523554426378N00622455EA0131301363
B1523564426379N00622450EA0131301363
B1523574426379N00622445EA0131301363
B1523584426377N00622440EA0131201362
B1523594426374N00622438EA0131201362
B1523594426374N00622438EA0131301363
B1524004426366N00622440EA0131301363
B1524014426360N00622441EA0131301363
B1524024426355N00622444EA0131301363
B1524034426350N00622447EA0131301363
B1524044426344N00622451EA0131401363
B1524054426339N00622454EA0131401364
B1524064426334N00622456EA0131401364
B1524074426329N00622459EA0131501365
B1524084426324N00622461EA0131501364
B1524094426319N00622463EA0131401364
B1524104426314N00622466EA0131401364
B1524114426309N00622468EA0131401364
B1524124426304N00622470EA0131401364
B1524124426304N00622470EA0131401364
B1524134426299N00622471EA0131401364
B1524144426294N00622470EA0131401364
B1524154426291N00622466EA0131401364
B1524164426290N00622462EA0131401364
B1524174426289N00622457EA0131301363
B1524184426291N00622453EA0131301363
B1524194426293N00622450EA0131301363
B1524204426298N00622448EA0131301363
B1524214426302N00622448EA0131401364
B1524224426307N00622447EA0131401364
B1524234426312N00622447EA0131401364
B1524244426316N00622448EA0131401364
B1524254426321N00622448EA0131401364
B1524264426325N00622449EA0131201362
B1524274426330N00622449EA0131201361
B1524284426335N00622449EA0131101361
B1524294426340N00622448EA0131201362
B1524304426345N00622449EA0131301363
B1524314426350N00622451EA0131301363
B1524324426353N00622452EA0131201362
B1524334426358N00622453EA0131101361
B1524344426362N00622452EA0131001360
B1524354426365N00622450EA0131001360
B1524364426368N00622446EA0130901359
B1524374426371N00622442EA0130801358
B1524384426371N00622437EA0130701357
B1524394426370N00622432EA0130601356
B1524404426367N00622428EA0130601356
B1524414426364N00622425EA0130501355
B1524424426360N00622424EA0130501355
B1524434426356N00622424EA0130401354
B1524444426352N00622425EA0130301353
B1524454426347N00622428EA0130301353
B1524464426341N00622432EA0130301353
B1524474426336N00622436EA0130301353
B1524484426331N00622440EA0130301353
B1524494426326N00622444EA0130301353
B1524504426321N00622447EA0130201352
B1524514426315N00622448EA0130201352
B1524524426310N00622448EA0130201352
B1524534426305N00622448EA0130201352
B1524544426301N00622445EA0130101351
B1524554426299N00622441EA0129901349
B1524564426299N00622435EA0129801348
B1524574426302N00622430EA0129601346
B1524584426307N00622426EA0129701347
B1524594426311N00622424EA0129701347
B1525004426315N00622422EA0129701347
B1525014426318N00622420EA0129601346
B1525024426323N00622418EA0129501345
B1525034426328N00622416EA0129401344
B1525044426333N00622415EA0129501345
B1525054426338N00622414EA0129401344
B1525064426344N00622413EA0129501345
B1525074426349N00622412EA0129401344
B1525084426353N00622412EA0129401344
B1525094426359N00622411EA0129401344
B1525104426364N00622410EA0129301343
B1525114426369N00622408EA0129301343
B1525124426372N00622405EA0129301343
B1525134426375N00622402EA0129301343
B1525144426378N00622398EA0129301343
B1525144426378N00622398EA0129301343
B1525154426380N00622394EA0129301343
B1525164426383N00622389EA0129201342
B1525174426385N00622384EA0129301343
B1525184426388N00622381EA0129301343
B1525194426391N00622378EA0129301343
B1525204426394N00622376EA0129201342
B1525214426396N00622373EA0129001340
B1525224426399N00622370EA0128901339
B1525234426401N00622366EA0128801338
B1525244426403N00622361EA0128801338
B1525254426404N00622357EA0128701337
B1525264426405N00622353EA0128601336
B1525274426405N00622349EA0128501335
B1525284426406N00622344EA0128501335
B1525294426406N00622339EA0128401334
B1525294426406N00622339EA0128501335
B1525304426407N00622334EA0128501335
B1525314426408N00622329EA0128501335
B1525324426409N00622324EA0128501335
B1525334426409N00622319EA0128401333
B1525344426409N00622313EA0128301333
B1525354426409N00622308EA0128301333
B1525364426410N00622303EA0128401334
B1525374426411N00622298EA0128501335
B1525384426411N00622293EA0128501335
B1525394426412N00622289EA0128501335
B1525404426412N00622285EA0128501335
B1525414426413N00622281EA0128501335
B1525424426414N00622277EA0128401334
B1525434426415N00622273EA0128401334
B1525444426415N00622269EA0128401334
B1525454426415N00622264EA0128301333
B1525464426415N00622260EA0128401334
B1525474426416N00622256EA0128501334
B1525484426417N00622252EA0128501335
B1525494426418N00622248EA0128501335
B1525504426418N00622245EA0128401334
B1525514426421N00622242EA0128401333
B1525524426423N00622240EA0128201332
B1525534426428N00622240EA0128001330
B1525544426434N00622243EA0128001330
B1525554426438N00622250EA0128101331
B1525564426440N00622258EA0128101331
B1525574426441N00622266EA0128101331
B1525584426442N00622274EA0128101331
B1525594426443N00622282EA0128101331
B1526004426444N00622290EA0127901329
B1526014426445N00622298EA0127801328
B1526024426447N00622306EA0127701327
B1526034426448N00622314EA0127601326
B1526044426451N00622322EA0127501325
B1526054426454N00622329EA0127401324
B1526064426456N00622335EA0127201322
B1526074426459N00622341EA0127101321
B1526084426463N00622346EA0126901319
B1526094426467N00622351EA0126801318
B1526094426467N00622351EA0126701317
B1526104426471N00622355EA0126701317
B1526114426475N00622359EA0126701317
B1526124426480N00622362EA0126501315
B1526134426483N00622362EA0126401314
B1526144426488N00622362EA0126401314
B1526154426491N00622361EA0126401314
B1526164426494N00622360EA0126301313
B1526174426497N00622358EA0126201312
B1526184426499N00622355EA0126101311
B1526194426499N00622352EA0126101311
B1526204426499N00622348EA0126001310
B1526214426500N00622345EA0126001310
B1526224426500N00622342EA0125801308
B1526234426501N00622339EA0125701306
B1526244426501N00622335EA0125501305
B1526254426501N00622331EA0125301303
B1526264426502N00622328EA0125201302
B1526274426504N00622326EA0125001300
B1526284426508N00622324EA0124801298
B1526294426513N00622324EA0124901299
B1526304426517N00622324EA0124901299
B1526314426521N00622323EA0124901299
B1526324426524N00622323EA0124901299
B1526334426527N00622322EA0124801298
B1526344426530N00622321EA0124701297
B1526354426533N00622319EA0124701297
B1526354426533N00622319EA0124701297
B1526364426536N00622318EA0124701297
B1526374426538N00622318EA0124701297
B1526384426541N00622318EA0124701297
B1526394426543N00622318EA0124601296
B1526404426545N00622317EA0124401294
B1526414426547N00622313EA0124301293
B1526424426549N00622310EA0124401294
B1526434426551N00622308EA0124501295
B1526444426554N00622308EA0124301293
B1526454426557N00622308EA0124301293
B1526464426559N00622307EA0124101291
B1526464426559N00622307EA0124101291
B1526474426561N00622306EA0124101291
B1526484426564N00622305EA0124001290
B1526494426567N00622304EA0123901289
B1526504426569N00622303EA0123801288
B1526514426572N00622302EA0123901289
B1526524426574N00622301EA0124001290
B1526534426576N00622300EA0123901289
B1526544426577N00622299EA0123901289
B1526554426578N00622297EA0123901289
B1526564426578N00622297EA0123901289
B1526564426578N00622297EA0123901289
B1526574426579N00622297EA0123901289
B1526584426579N00622297EA0123901289
B1526594426579N00622297EA0123901289
B1527004426579N00622297EA0123901289
B1527014426579N00622297EA0123901289
B1527024426579N00622297EA0123901289
B1527034426579N00622297EA0123901289
B1527044426579N00622297EA0123901289
B1527054426579N00622297EA0123901289
B1527064426579N00622297EA0123901289
B1527074426579N00622297EA0123901289
B1527084426579N00622297EA0123901289
B1527094426579N00622297EA0123901289
B1527104426579N00622297EA0123901289
B1527114426579N00622297EA0123901289
B1527124426579N00622297EA0123901289
B1527134426579N00622297EA0123901289
B1527144426579N00622297EA0123901289
B1527154426579N00622297EA0124001290
B1527164426579N00622297EA0124001290
B1527174426579N00622297EA0124001290
B1527184426579N00622297EA0124001290
B1527194426579N00622297EA0124001290
B1527204426579N00622297EA0124001290
B1527214426579N00622297EA0124001290
B1527224426579N00622297EA0124001290
B1527234426579N00622297EA0124001290
B1527244426579N00622297EA0124001290
B1527254426579N00622297EA0124001290
B1527264426579N00622297EA0124001290
B1527274426579N00622297EA0124001290
B1527284426579N00622297EA0124001290
B1527294426579N00622297EA0124001290
B1527304426579N00622297EA0124001290
B1527314426579N00622297EA0124001290
B1527324426579N00622297EA0124001290
B1527334426579N00622297EA0124001290
B1527344426579N00622297EA0124001290
B1527354426579N00622298EA0124101291
B1527364426579N00622298EA0124101291
B1527374426579N00622298EA0124101291
B1527384426580N00622298EA0124101291
B1527394426580N00622298EA0124101291
B1527404426580N00622298EA0124101291
B1527414426580N00622298EA0124101291
B1527424426580N00622298EA0124101291
B1527434426580N00622298EA0124101291
B1527444426580N00622298EA0124101291
B1527454426580N00622298EA0124101291
B1527464426580N00622298EA0124101291
B1527474426580N00622298EA0124101291
B1527484426580N00622298EA0124101291
B1527494426580N00622298EA0124101291
B1527504426580N00622298EA0124201292
B1527514426580N00622298EA0124201292
B1527524426580N00622298EA0124201292
B1527534426580N00622298EA0124201292
B1527544426580N00622298EA0124201292
B1527554426580N00622298EA0124101291
B1527564426580N00622298EA0124101291
B1527574426580N00622298EA0124101291
B1527584426580N00622298EA0124101291
B1527594426580N00622298EA0124101291
B1528004426580N00622298EA0124101291
B1528004426580N00622298EA0124101291
B1528014426580N00622298EA0124101291
B1528024426580N00622298EA0124201291
B1528034426580N00622298EA0124201291
B1528044426580N00622298EA0124201292
B1528054426580N00622298EA0124201292
B1528064426580N00622298EA0124201292
B1528074426580N00622298EA0124101291
B1528084426580N00622298EA0124101291
LXSX;GF:1.3
GAA67A9DB4853F71A1DFFE6D38EDC7220
