AXSX003 SKYTRAXX V3.0.5 SN:00000380
HOPLTPILOT:Sepp Bucher
HOGTYGLIDERTYPE:Sigma9
HOCIDCOMPETITIONID:0000
HODTM100GPSDATUM:WGS-84
HOCCLCOMPETITION CLASS:Paraglider (Standard)
HPSITSITE:Fiesch Heimat
HFDTE101216
B1030354624943N00806446EA0200802175
B1030364624942N00806446EA0200802174
B1030374624942N00806446EA0200702174
B1030384624942N00806446EA0200602173
B1030394624941N00806447EA0200402172
B1030404624941N00806447EA0200302171
B1030414624941N00806447EA0200002170
B1030424624940N00806447EA0199802168
B1030434624926N00806464EA0199402166
B1030444624906N00806472EA0199102181
B1030454624889N00806482EA0199402203
B1030464624877N00806486EA0199302202
B1030474624868N00806491EA0199002199
B1030484624858N00806495EA0198902198
B1030494624851N00806497EA0198702196
B1030504624843N00806500EA0198402194
B1030514624836N00806502EA0198202191
B1030524624828N00806505EA0198102190
B1030534624821N00806508EA0198202191
B1030544624814N00806511EA0198502194
B1030554624808N00806515EA0198502194
B1030564624804N00806519EA0198702196
B1030574624800N00806523EA0198902198
B1030584624797N00806525EA0198702196
B1030594624792N00806526EA0198602195
B1031004624788N00806527EA0198702196
B1031014624782N00806526EA0199002199
B1031024624777N00806525EA0199102200
B1031024624777N00806525EA0199002199
B1031034624773N00806522EA0199002199
B1031044624774N00806510EA0199002200
B1031054624777N00806503EA0199302202
B1031054624777N00806503EA0199502204
B1031064624781N00806497EA0199502204
B1031074624786N00806494EA0199402203
B1031084624792N00806494EA0199302202
B1031094624798N00806495EA0199102201
B1031104624802N00806499EA0199102200
B1031114624807N00806504EA0199102200
B1031124624811N00806510EA0199002200
B1031134624811N00806517EA0198902198
B1031144624810N00806526EA0198802197
B1031154624808N00806535EA0198802197
B1031164624804N00806544EA0198902198
B1031174624801N00806551EA0198902198
B1031184624797N00806557EA0198902198
B1031194624795N00806562EA0198702196
B1031204624793N00806568EA0198602195
B1031214624792N00806573EA0198302193
B1031224624789N00806579EA0198202191
B1031234624786N00806585EA0198102190
B1031244624782N00806590EA0198102190
B1031254624776N00806594EA0198202191
B1031264624770N00806595EA0198402193
B1031274624765N00806596EA0198602195
B1031284624761N00806594EA0198602195
B1031294624757N00806591EA0198502194
B1031304624754N00806588EA0198202191
B1031314624751N00806584EA0198002189
B1031324624746N00806580EA0197902188
B1031334624741N00806577EA0197702186
B1031344624736N00806576EA0197502184
B1031354624731N00806577EA0197402183
B1031364624726N00806579EA0197402183
B1031374624722N00806582EA0197402183
B1031384624718N00806586EA0197302182
B1031394624715N00806590EA0197102180
B1031404624712N00806595EA0197002179
B1031414624711N00806601EA0196902178
B1031424624710N00806609EA0197002179
B1031434624709N00806618EA0197102180
B1031444624708N00806626EA0197302182
B1031454624708N00806633EA0197302182
B1031464624709N00806638EA0197202181
B1031474624710N00806643EA0197002179
B1031484624711N00806649EA0196702176
B1031484624711N00806649EA0196702176
B1031494624712N00806656EA0196702176
B1031504624712N00806664EA0196802177
B1031514624712N00806673EA0197002179
B1031524624712N00806681EA0197102180
B1031534624711N00806688EA0197102180
B1031544624709N00806693EA0197002179
B1031554624706N00806698EA0196902178
B1031564624702N00806702EA0197002179
B1031574624698N00806705EA0196902178
B1031584624692N00806704EA0196702176
B1031594624687N00806701EA0196602175
B1032004624683N00806697EA0196702176
B1032014624679N00806692EA0196702176
B1032024624676N00806685EA0196702176
B1032034624675N00806677EA0196702176
B1032044624675N00806666EA0196602175
B1032054624677N00806657EA0196502174
B1032064624678N00806650EA0196302172
B1032074624681N00806643EA0196102170
B1032084624685N00806638EA0196102170
B1032094624690N00806634EA0196102170
B1032104624696N00806634EA0196102170
B1032114624701N00806633EA0196202171
B1032124624707N00806635EA0196102171
B1032134624711N00806637EA0196002169
B1032144624715N00806640EA0195902168
B1032154624719N00806644EA0195802167
B1032164624724N00806647EA0195802167
B1032174624730N00806651EA0195802167
B1032184624735N00806656EA0195902169
B1032194624737N00806663EA0196102170
B1032204624738N00806671EA0196102170
B1032214624737N00806678EA0196202171
B1032224624736N00806685EA0196102170
B1032234624733N00806691EA0196102170
B1032244624729N00806696EA0196102170
B1032254624724N00806699EA0196002169
B1032264624719N00806701EA0195802167
B1032274624714N00806701EA0195702166
B1032284624709N00806700EA0195702166
B1032294624705N00806696EA0195702166
B1032304624701N00806692EA0195602165
B1032314624700N00806685EA0195602165
B1032324624699N00806677EA0195502164
B1032334624701N00806666EA0195502164
B1032344624703N00806658EA0195402163
B1032354624706N00806651EA0195302162
B1032364624709N00806645EA0195402163
B1032374624714N00806641EA0195402163
B1032384624719N00806641EA0195502164
B1032394624724N00806643EA0195402163
B1032404624728N00806646EA0195402163
B1032414624732N00806651EA0195302162
B1032424624734N00806658EA0195302162
B1032434624737N00806664EA0195202161
B1032444624739N00806670EA0195002159
B1032454624742N00806678EA0194802157
B1032464624745N00806684EA0194702156
B1032474624747N00806691EA0194502154
B1032484624749N00806699EA0194502155
B1032494624750N00806708EA0194702156
B1032504624750N00806716EA0194802157
B1032514624750N00806723EA0194802157
B1032524624750N00806730EA0194702156
B1032534624751N00806738EA0194502154
B1032544624752N00806746EA0194502154
B1032554624752N00806754EA0194602155
B1032564624752N00806762EA0194702156
B1032574624752N00806770EA0194802157
B1032574624752N00806770EA0195002159
B1032584624752N00806779EA0195002159
B1032594624753N00806786EA0195202161
B1033004624753N00806793EA0195302162
B1033014624752N00806798EA0195102161
B1033024624751N00806803EA0195002159
B1033034624749N00806807EA0194802157
B1033034624749N00806807EA0194602155
B1033044624745N00806812EA0194602155
B1033054624741N00806816EA0194402153
B1033064624737N00806820EA0194302152
B1033074624733N00806820EA0194202151
B1033084624727N00806819EA0194002149
B1033094624722N00806816EA0193902148
B1033104624717N00806812EA0193802147
B1033114624713N00806806EA0193702146
B1033124624710N00806799EA0193602145
B1033134624708N00806790EA0193502144
B1033144624708N00806780EA0193502144
B1033154624711N00806769EA0193602145
B1033164624713N00806761EA0193702146
B1033174624716N00806753EA0193802147
B1033184624721N00806747EA0194002149
B1033194624726N00806743EA0194102150
B1033204624731N00806740EA0194302152
B1033214624738N00806741EA0194502154
B1033224624743N00806742EA0194502154
B1033234624746N00806747EA0194402153
B1033244624750N00806753EA0194402153
B1033254624752N00806761EA0194502154
B1033264624753N00806769EA0194802157
B1033274624753N00806777EA0194802157
B1033284624752N00806783EA0194602155
B1033294624748N00806787EA0194502154
B1033304624744N00806790EA0194502154
B1033314624739N00806791EA0194402153
B1033324624734N00806791EA0194202151
B1033334624729N00806789EA0194202151
B1033344624724N00806784EA0194202151
B1033354624720N00806778EA0194202152
B1033364624716N00806771EA0194302152
B1033374624716N00806761EA0194502154
B1033384624716N00806752EA0194602155
B1033394624716N00806744EA0194702156
B1033404624718N00806736EA0195002159
B1033414624721N00806731EA0195202161
B1033424624725N00806727EA0195202161
B1033434624730N00806726EA0195302162
B1033444624735N00806726EA0195302163
B1033454624739N00806728EA0195502164
B1033464624743N00806732EA0195402163
B1033474624746N00806737EA0195302162
B1033484624748N00806744EA0195202161
B1033494624746N00806751EA0195302162
B1033504624744N00806758EA0195302162
B1033514624740N00806763EA0195302162
B1033524624735N00806765EA0195202162
B1033534624730N00806765EA0195202161
B1033544624725N00806764EA0195202161
B1033554624720N00806762EA0195302162
B1033564624716N00806758EA0195302162
B1033574624712N00806753EA0195202161
B1033584624708N00806747EA0195302162
B1033594624706N00806738EA0195302162
B1034004624706N00806728EA0195402163
B1034014624706N00806718EA0195502164
B1034024624707N00806710EA0195602165
B1034034624708N00806702EA0195802167
B1034044624711N00806697EA0195902168
B1034054624714N00806692EA0195902168
B1034064624719N00806690EA0195902168
B1034074624724N00806690EA0195802167
B1034084624729N00806692EA0195702166
B1034094624733N00806696EA0195602165
B1034104624737N00806702EA0195702166
B1034114624740N00806708EA0195802167
B1034124624743N00806714EA0195902168
B1034134624746N00806719EA0195902168
B1034144624748N00806723EA0195802167
B1034154624751N00806728EA0195702166
B1034164624752N00806733EA0195502164
B1034174624753N00806739EA0195302162
B1034184624753N00806746EA0195202161
B1034194624752N00806752EA0195202161
B1034204624749N00806758EA0195102160
B1034214624745N00806762EA0195102160
B1034224624739N00806764EA0195102160
B1034234624733N00806764EA0195202161
B1034244624727N00806763EA0195202161
B1034254624722N00806761EA0195302162
B1034264624716N00806758EA0195402163
B1034274624711N00806751EA0195602165
B1034284624708N00806744EA0195602165
B1034294624704N00806737EA0195602165
B1034304624702N00806731EA0195502164
B1034314624702N00806723EA0195302162
B1034324624702N00806716EA0195102160
B1034334624703N00806707EA0195102160
B1034344624705N00806699EA0194902158
B1034354624709N00806693EA0194902158
B1034364624715N00806689EA0195102160
B1034374624721N00806689EA0195202161
B1034384624727N00806690EA0195402163
B1034394624730N00806696EA0195402163
B1034404624733N00806702EA0195302162
B1034414624735N00806708EA0195202161
B1034424624738N00806716EA0195102160
B1034434624740N00806724EA0195202161
B1034444624741N00806732EA0195302162
B1034454624739N00806740EA0195602165
B1034464624737N00806747EA0195802167
B1034474624734N00806753EA0196002169
B1034484624731N00806758EA0196002170
B1034494624726N00806759EA0196102171
B1034504624721N00806758EA0196302173
B1034514624716N00806756EA0196602175
B1034524624713N00806750EA0196802177
B1034534624711N00806743EA0197002179
B1034544624709N00806736EA0197102180
B1034554624708N00806729EA0197102180
B1034564624708N00806723EA0196902178
B1034574624709N00806716EA0196802177
B1034584624712N00806709EA0196802177
B1034594624718N00806705EA0196802177
B1035004624725N00806705EA0196702176
B1035014624730N00806708EA0196802177
B1035024624733N00806715EA0197102180
B1035034624734N00806722EA0197202182
B1035044624736N00806728EA0197502184
B1035054624737N00806733EA0197802187
B1035064624739N00806739EA0198102190
B1035074624741N00806744EA0198302192
B1035084624741N00806751EA0198402193
B1035094624740N00806757EA0198502194
B1035104624737N00806762EA0198702196
B1035104624737N00806762EA0198802197
B1035114624733N00806768EA0198802197
B1035124624730N00806772EA0199102200
B1035134624725N00806772EA0199102200
B1035144624721N00806770EA0199102200
B1035154624717N00806767EA0199202201
B1035164624714N00806762EA0199202202
B1035174624712N00806754EA0199202201
B1035184624711N00806745EA0199202201
B1035194624713N00806737EA0199402203
B1035204624715N00806730EA0199602205
B1035214624718N00806724EA0199902208
B1035224624724N00806724EA0200202211
B1035234624730N00806727EA0200602215
B1035244624735N00806730EA0200902218
B1035254624738N00806735EA0201202221
B1035264624740N00806742EA0201302222
B1035274624739N00806749EA0201402223
B1035284624737N00806756EA0201502224
B1035294624733N00806761EA0201702226
B1035294624733N00806761EA0201902228
B1035304624729N00806763EA0201902228
B1035314624724N00806765EA0202002229
B1035324624718N00806764EA0202002229
B1035334624714N00806763EA0201902228
B1035344624712N00806756EA0201902228
B1035354624711N00806748EA0202102230
B1035364624711N00806738EA0202202231
B1035374624714N00806729EA0202302232
B1035384624717N00806723EA0202502234
B1035394624722N00806719EA0202602235
B1035404624727N00806718EA0202802237
B1035414624733N00806718EA0203002239
B1035424624737N00806722EA0203002239
B1035434624742N00806727EA0203202241
B1035444624745N00806733EA0203402243
B1035454624745N00806740EA0203802247
B1035464624742N00806750EA0204002249
B1035464624742N00806750EA0204202251
B1035474624738N00806759EA0204202251
B1035484624733N00806761EA0204102250
B1035494624729N00806761EA0204102250
B1035504624725N00806757EA0204102250
B1035514624722N00806750EA0204002249
B1035524624720N00806742EA0204102250
B1035534624720N00806733EA0204302252
B1035544624720N00806724EA0204502254
B1035554624722N00806717EA0204702256
B1035554624722N00806717EA0204702256
B1035564624725N00806711EA0204702256
B1035574624731N00806709EA0204802257
B1035584624736N00806709EA0204902259
B1035594624742N00806711EA0205102260
B1036004624748N00806713EA0205402263
B1036014624753N00806717EA0205602265
B1036024624756N00806724EA0205902268
B1036034624756N00806733EA0206002269
B1036044624756N00806739EA0206202271
B1036054624754N00806746EA0206402273
B1036064624749N00806750EA0206602275
B1036074624745N00806751EA0206702276
B1036084624740N00806750EA0206702276
B1036094624736N00806747EA0206602275
B1036104624734N00806739EA0206702276
B1036114624733N00806731EA0206802277
B1036124624733N00806723EA0206802277
B1036134624734N00806714EA0207002279
B1036144624736N00806707EA0207202281
B1036154624741N00806703EA0207202281
B1036164624745N00806700EA0207102280
B1036174624752N00806701EA0207202281
B1036184624758N00806704EA0207302282
B1036194624764N00806709EA0207502284
B1036204624768N00806714EA0207702286
B1036204624768N00806714EA0207702287
B1036214624771N00806720EA0207802287
B1036224624771N00806727EA0207902288
B1036234624771N00806734EA0208002289
B1036244624770N00806741EA0208002289
B1036254624768N00806747EA0208102290
B1036264624765N00806753EA0208002289
B1036264624765N00806753EA0208002289
B1036274624760N00806757EA0208002289
B1036284624754N00806758EA0208202291
B1036294624748N00806757EA0208502294
B1036304624743N00806752EA0208802297
B1036314624740N00806746EA0208902298
B1036324624737N00806740EA0208902298
B1036334624736N00806733EA0208902298
B1036344624737N00806725EA0208802297
B1036354624738N00806718EA0208802297
B1036364624741N00806710EA0208802297
B1036374624745N00806703EA0208802297
B1036384624751N00806700EA0208702297
B1036394624757N00806700EA0208802297
B1036404624762N00806703EA0208902298
B1036414624768N00806706EA0209102300
B1036424624771N00806713EA0209202301
B1036434624771N00806720EA0209302302
B1036444624771N00806727EA0209402303
B1036454624770N00806734EA0209502304
B1036464624768N00806742EA0209502304
B1036474624765N00806749EA0209502304
B1036484624762N00806755EA0209502304
B1036494624758N00806761EA0209602305
B1036504624753N00806765EA0209802307
B1036514624747N00806768EA0210102310
B1036524624741N00806771EA0210302313
B1036534624736N00806773EA0210502314
B1036544624732N00806774EA0210602315
B1036554624728N00806775EA0210502314
B1036564624725N00806774EA0210302313
B1036574624721N00806769EA0210102311
B1036584624718N00806762EA0210002309
B1036594624716N00806754EA0209902308
B1037004624715N00806746EA0209902308
B1037014624715N00806737EA0209902308
B1037024624716N00806730EA0209802307
B1037034624716N00806723EA0209602305
B1037044624716N00806716EA0209402303
B1037044624716N00806716EA0209302302
B1037054624716N00806709EA0209302302
B1037064624717N00806701EA0209202301
B1037074624718N00806692EA0209302302
B1037084624720N00806684EA0209202301
B1037094624721N00806677EA0209102300
B1037104624722N00806670EA0209002299
B1037114624723N00806663EA0208802297
B1037124624724N00806655EA0208702296
B1037134624725N00806647EA0208602295
B1037144624726N00806639EA0208602295
B1037154624727N00806631EA0208702296
B1037164624729N00806624EA0208602295
B1037174624730N00806617EA0208402293
B1037184624731N00806611EA0208202291
B1037194624733N00806603EA0208002289
B1037204624735N00806595EA0208102290
B1037214624738N00806586EA0208202291
B1037224624740N00806577EA0208302292
B1037234624742N00806570EA0208202291
B1037244624744N00806564EA0208102290
B1037254624745N00806557EA0208002289
B1037264624746N00806550EA0207902288
B1037274624749N00806542EA0207902288
B1037284624751N00806534EA0207902288
B1037294624752N00806527EA0208002289
B1037304624754N00806520EA0208102290
B1037314624756N00806514EA0208002289
B1037314624756N00806514EA0208002289
B1037324624757N00806507EA0208002289
B1037334624759N00806500EA0207902288
B1037344624760N00806493EA0207802287
B1037354624762N00806485EA0207702286
B1037364624765N00806479EA0207602285
B1037374624768N00806475EA0207402283
B1037384624773N00806472EA0207202281
B1037394624778N00806471EA0207002279
B1037404624784N00806474EA0206802278
B1037414624790N00806477EA0206702276
B1037424624794N00806483EA0206602275
B1037434624797N00806492EA0206502274
B1037434624797N00806492EA0206402273
B1037444624798N00806501EA0206402273
B1037454624798N00806511EA0206302272
B1037464624797N00806520EA0206402273
B1037474624795N00806529EA0206502275
B1037484624792N00806538EA0207002279
B1037494624791N00806547EA0207202281
B1037504624790N00806555EA0207502284
B1037514624790N00806562EA0207702286
B1037524624790N00806568EA0207702286
B1037534624791N00806574EA0207602285
B1037544624791N00806581EA0207602285
B1037554624790N00806589EA0207602285
B1037564624787N00806596EA0207502284
B1037574624783N00806600EA0207402283
B1037584624778N00806602EA0207402283
B1037594624774N00806601EA0207302282
B1038004624771N00806598EA0207202281
B1038014624768N00806593EA0207102280
B1038024624767N00806587EA0207002280
B1038034624767N00806580EA0207102280
B1038044624767N00806572EA0207102280
B1038054624770N00806564EA0207202281
B1038064624772N00806558EA0207402283
B1038074624774N00806552EA0207402283
B1038084624777N00806548EA0207402283
B1038094624780N00806545EA0207302282
B1038104624784N00806542EA0207102280
B1038114624790N00806541EA0207002279
B1038124624795N00806541EA0207102280
B1038134624802N00806544EA0207202281
B1038144624809N00806550EA0207302282
B1038154624814N00806556EA0207402283
B1038154624814N00806556EA0207602285
B1038164624818N00806563EA0207602285
B1038174624822N00806569EA0207602285
B1038184624822N00806576EA0207502284
B1038194624823N00806583EA0207402283
B1038204624822N00806591EA0207402283
B1038214624820N00806598EA0207402283
B1038224624818N00806604EA0207402283
B1038234624815N00806608EA0207302282
B1038244624811N00806612EA0207202281
B1038254624807N00806616EA0207202281
B1038264624803N00806620EA0207202281
B1038274624800N00806625EA0207102280
B1038284624797N00806630EA0207102280
B1038294624794N00806636EA0207002279
B1038304624790N00806641EA0206902278
B1038314624786N00806645EA0207002279
B1038324624781N00806648EA0207102280
B1038334624777N00806651EA0207002279
B1038344624773N00806653EA0206802277
B1038354624770N00806656EA0206502274
B1038364624765N00806659EA0206402273
B1038374624760N00806661EA0206302272
B1038384624755N00806664EA0206402273
B1038394624750N00806666EA0206302272
B1038404624746N00806669EA0206202271
B1038414624743N00806673EA0205902268
B1038424624740N00806678EA0205702266
B1038434624736N00806684EA0205702266
B1038444624733N00806691EA0205802267
B1038454624730N00806698EA0205802267
B1038464624729N00806704EA0205802267
B1038474624727N00806710EA0205802267
B1038484624727N00806716EA0205702266
B1038494624726N00806723EA0205702266
B1038504624726N00806730EA0205702266
B1038504624726N00806730EA0205502264
B1038514624727N00806737EA0205502264
B1038524624730N00806744EA0205402264
B1038534624733N00806750EA0205602265
B1038544624736N00806756EA0205802267
B1038554624738N00806763EA0205902269
B1038564624739N00806770EA0206002269
B1038574624740N00806776EA0206002269
B1038584624739N00806781EA0205902269
B1038594624737N00806786EA0205802267
B1039004624734N00806791EA0205702266
B1039014624730N00806794EA0205602265
B1039024624724N00806795EA0205602265
B1039034624718N00806793EA0205702266
B1039044624714N00806790EA0205602265
B1039054624710N00806785EA0205602265
B1039064624707N00806780EA0205602265
B1039074624705N00806773EA0205602265
B1039084624702N00806766EA0205502264
B1039094624701N00806756EA0205502265
B1039104624701N00806748EA0205502264
B1039114624703N00806742EA0205402263
B1039124624708N00806739EA0205202261
B1039134624714N00806738EA0205202261
B1039144624720N00806740EA0205302262
B1039154624725N00806745EA0205502264
B1039164624730N00806751EA0205902268
B1039174624733N00806756EA0206302272
B1039184624735N00806761EA0206402273
B1039194624738N00806766EA0206502274
B1039204624739N00806771EA0206402273
B1039214624741N00806776EA0206302272
B1039224624741N00806782EA0206102270
B1039234624738N00806790EA0206102270
B1039244624734N00806796EA0206102270
B1039254624728N00806799EA0206302272
B1039264624722N00806798EA0206402273
B1039274624718N00806795EA0206402273
B1039284624715N00806791EA0206302272
B1039294624712N00806786EA0206202271
B1039304624709N00806779EA0206102270
B1039314624708N00806772EA0206002269
B1039324624709N00806764EA0205802267
B1039334624712N00806756EA0205802267
B1039344624716N00806751EA0205802268
B1039354624721N00806749EA0206002269
B1039364624726N00806749EA0206202271
B1039374624730N00806751EA0206402273
B1039384624733N00806755EA0206502274
B1039394624735N00806760EA0206602275
B1039404624736N00806767EA0206702276
B1039414624737N00806775EA0207002279
B1039424624736N00806783EA0207202281
B1039434624733N00806791EA0207302282
B1039434624733N00806791EA0207402283
B1039444624730N00806797EA0207402283
B1039454624726N00806799EA0207302282
B1039464624721N00806799EA0207202281
B1039474624716N00806797EA0207202281
B1039484624712N00806793EA0207202281
B1039494624708N00806788EA0207302282
B1039504624706N00806780EA0207502284
B1039514624705N00806771EA0207602285
B1039524624705N00806764EA0207602285
B1039534624707N00806757EA0207602285
B1039544624710N00806752EA0207702286
B1039554624714N00806749EA0207902288
B1039564624718N00806746EA0208002290
B1039574624723N00806745EA0208202291
B1039584624727N00806747EA0208302292
B1039594624732N00806749EA0208402293
B1040004624736N00806754EA0208502294
B1040014624737N00806761EA0208602295
B1040024624737N00806770EA0208602295
B1040034624735N00806779EA0208702296
B1040044624731N00806786EA0209002299
B1040054624727N00806791EA0209102300
B1040064624722N00806792EA0209102300
B1040074624717N00806791EA0209002299
B1040084624713N00806786EA0208902298
B1040094624709N00806779EA0209002300
B1040104624706N00806772EA0209202301
B1040114624706N00806762EA0209302302
B1040124624707N00806754EA0209302302
B1040134624710N00806748EA0209402303
B1040144624715N00806746EA0209402303
B1040154624721N00806746EA0209602305
B1040164624727N00806749EA0209702306
B1040174624731N00806754EA0209802308
B1040184624733N00806761EA0210002309
B1040194624734N00806767EA0210102310
B1040204624733N00806773EA0210102310
B1040214624731N00806779EA0210002309
B1040224624729N00806785EA0210102310
B1040234624725N00806789EA0210102310
B1040244624720N00806792EA0210002309
B1040254624714N00806791EA0210002309
B1040264624708N00806788EA0210002309
B1040274624704N00806783EA0210102310
B1040284624701N00806775EA0210202311
B1040294624700N00806767EA0210202311
B1040304624699N00806759EA0210102310
B1040314624699N00806751EA0210102310
B1040324624700N00806744EA0210102310
B1040334624703N00806738EA0210002309
B1040344624708N00806735EA0209902308
B1040354624714N00806733EA0209702306
B1040364624720N00806736EA0209802307
B1040374624724N00806742EA0210102310
B1040384624727N00806750EA0210302312
B1040394624727N00806759EA0210502314
B1040404624727N00806766EA0210602315
B1040414624727N00806773EA0210602315
B1040424624725N00806780EA0210602315
B1040434624722N00806786EA0210402313
B1040444624718N00806790EA0210402313
B1040454624713N00806793EA0210402313
B1040454624713N00806793EA0210302312
B1040464624708N00806793EA0210302312
B1040474624703N00806792EA0210302312
B1040484624697N00806787EA0210402313
B1040494624693N00806782EA0210502314
B1040504624692N00806773EA0210502314
B1040514624691N00806765EA0210402313
B1040524624693N00806758EA0210202311
B1040534624695N00806751EA0210002309
B1040544624698N00806745EA0210002309
B1040554624701N00806739EA0209802307
B1040564624708N00806740EA0209702307
B1040574624713N00806741EA0209802307
B1040584624718N00806742EA0209802307
B1040594624723N00806747EA0209902308
B1041004624727N00806751EA0210002309
B1041014624731N00806756EA0210102310
B1041024624734N00806762EA0210302312
B1041034624736N00806770EA0210302312
B1041044624737N00806778EA0210302312
B1041054624736N00806785EA0210202311
B1041064624733N00806792EA0210102310
B1041074624730N00806797EA0210002309
B1041084624724N00806799EA0210002309
B1041094624719N00806800EA0209802307
B1041104624713N00806799EA0209802307
B1041114624708N00806797EA0209802307
B1041124624704N00806793EA0209702306
B1041134624701N00806788EA0209802307
B1041134624701N00806788EA0209802308
B1041144624699N00806781EA0209802308
B1041154624700N00806773EA0209902308
B1041164624700N00806767EA0209802307
B1041174624702N00806761EA0209602305
B1041184624707N00806758EA0209502304
B1041194624711N00806756EA0209502304
B1041204624717N00806756EA0209502304
B1041214624722N00806759EA0209602305
B1041224624727N00806765EA0209802307
B1041234624731N00806771EA0209902308
B1041244624735N00806775EA0209902308
B1041254624738N00806778EA0209702306
B1041264624742N00806782EA0209402303
B1041274624746N00806787EA0209102300
B1041284624751N00806793EA0209002299
B1041294624756N00806800EA0208902299
B1041304624760N00806806EA0208802297
B1041314624765N00806811EA0208602295
B1041324624770N00806816EA0208402293
B1041334624773N00806822EA0208202291
B1041344624777N00806828EA0208102290
B1041354624782N00806834EA0207902288
B1041364624786N00806840EA0207702286
B1041374624790N00806845EA0207702286
B1041384624793N00806851EA0207502284
B1041394624797N00806857EA0207302282
B1041404624802N00806864EA0207102280
B1041414624806N00806869EA0207002279
B1041424624811N00806875EA0206902278
B1041434624816N00806881EA0206902278
B1041444624820N00806886EA0206702276
B1041454624825N00806890EA0206502274
B1041464624830N00806895EA0206102270
B1041474624834N00806899EA0205702266
B1041484624838N00806905EA0205302262
B1041494624843N00806912EA0205102260
B1041504624849N00806919EA0205102260
B1041514624855N00806924EA0205002259
B1041524624860N00806928EA0204902258
B1041534624865N00806932EA0204602256
B1041544624870N00806937EA0204302252
B1041554624874N00806942EA0204202251
B1041564624880N00806947EA0204002250
B1041574624886N00806951EA0204002250
B1041584624891N00806955EA0204002249
B1041594624896N00806959EA0203902248
B1042004624900N00806963EA0203602245
B1042014624905N00806967EA0203202241
B1042024624911N00806971EA0203002239
B1042034624917N00806974EA0203002239
B1042044624924N00806978EA0203102240
B1042044624924N00806978EA0203002239
B1042054624929N00806983EA0203002239
B1042064624934N00806987EA0202802237
B1042074624939N00806992EA0202502234
B1042084624945N00806995EA0202302232
B1042094624951N00806999EA0202302232
B1042104624958N00807003EA0202302232
B1042114624963N00807006EA0202402233
B1042124624968N00807009EA0202302232
B1042134624974N00807012EA0202102230
B1042144624979N00807015EA0201802227
B1042154624984N00807018EA0201702226
B1042164624990N00807021EA0201602225
B1042174624996N00807024EA0201602225
B1042184625001N00807028EA0201502224
B1042194625006N00807030EA0201302222
B1042204625011N00807033EA0201102220
B1042204625011N00807033EA0200902218
B1042214625017N00807036EA0200902218
B1042224625022N00807040EA0200802217
B1042234625027N00807044EA0200702216
B1042244625033N00807047EA0200702216
B1042254625039N00807050EA0200602215
B1042264625044N00807053EA0200502214
B1042274625049N00807056EA0200302212
B1042284625054N00807059EA0200102210
B1042294625060N00807062EA0199802208
B1042304625066N00807064EA0199702206
B1042314625071N00807068EA0199702206
B1042324625077N00807070EA0199502204
B1042334625082N00807073EA0199302202
B1042344625088N00807076EA0199202201
B1042354625093N00807079EA0199002199
B1042364625099N00807083EA0198902198
B1042374625104N00807086EA0198802197
B1042384625109N00807090EA0198602195
B1042394625114N00807093EA0198502194
B1042404625120N00807096EA0198402193
B1042414625125N00807100EA0198302192
B1042424625130N00807103EA0198202191
B1042434625136N00807106EA0198002189
B1042444625142N00807109EA0197902188
B1042454625147N00807112EA0197802187
B1042464625153N00807115EA0197702186
B1042474625159N00807118EA0197502184
B1042484625165N00807121EA0197502184
B1042494625171N00807124EA0197402183
B1042504625176N00807126EA0197202182
B1042514625182N00807129EA0197102180
B1042524625188N00807132EA0197002179
B1042534625193N00807136EA0196902178
B1042544625199N00807139EA0196802177
B1042554625204N00807143EA0196802177
B1042564625209N00807146EA0196702176
B1042574625214N00807149EA0196502174
B1042584625220N00807151EA0196202171
B1042594625226N00807154EA0196102170
B1043004625231N00807157EA0196002169
B1043014625237N00807160EA0195902168
B1043024625243N00807163EA0195802167
B1043034625248N00807165EA0195602165
B1043044625253N00807167EA0195502164
B1043054625259N00807170EA0195402163
B1043064625264N00807172EA0195202161
B1043074625270N00807174EA0195102160
B1043084625275N00807176EA0195102160
B1043084625275N00807176EA0195002159
B1043094625281N00807177EA0195002159
B1043104625287N00807179EA0195002159
B1043114625293N00807180EA0194902158
B1043124625298N00807180EA0194902158
B1043134625304N00807181EA0194802157
B1043144625309N00807181EA0194702156
B1043154625313N00807182EA0194602155
B1043164625319N00807183EA0194402153
B1043174625324N00807183EA0194402153
B1043184625330N00807182EA0194402153
B1043194625336N00807181EA0194302152
B1043204625342N00807180EA0194302152
B1043214625348N00807179EA0194302152
B1043224625353N00807177EA0194302152
B1043234625359N00807176EA0194302152
B1043244625364N00807176EA0194102150
B1043244625364N00807176EA0193902148
B1043254625369N00807175EA0193902148
B1043264625374N00807174EA0193702146
B1043274625380N00807173EA0193502144
B1043284625385N00807172EA0193302142
B1043294625392N00807171EA0193202141
B1043304625398N00807170EA0193202141
B1043314625404N00807168EA0193302142
B1043324625411N00807166EA0193302142
B1043334625417N00807165EA0193402143
B1043344625423N00807164EA0193402143
B1043354625430N00807162EA0193402144
B1043364625436N00807162EA0193602145
B1043374625441N00807161EA0193702146
B1043384625447N00807159EA0193902148
B1043394625453N00807158EA0194002149
B1043404625459N00807157EA0194102150
B1043414625463N00807155EA0194102150
B1043424625467N00807151EA0193902148
B1043434625472N00807148EA0193802147
B1043444625477N00807145EA0193902148
B1043454625482N00807143EA0194102150
B1043464625487N00807144EA0194102150
B1043474625490N00807151EA0194102150
B1043484625490N00807160EA0194102150
B1043494625490N00807168EA0194002149
B1043504625487N00807175EA0193902148
B1043514625483N00807182EA0193702146
B1043524625478N00807185EA0193602145
B1043534625472N00807185EA0193602145
B1043544625467N00807183EA0193602145
B1043554625462N00807180EA0193602145
B1043564625459N00807174EA0193602145
B1043574625458N00807164EA0193602145
B1043584625457N00807156EA0193602145
B1043594625457N00807146EA0193602145
B1044004625458N00807138EA0193702146
B1044014625459N00807130EA0193702146
B1044024625459N00807122EA0193702146
B1044034625459N00807115EA0193602145
B1044044625458N00807108EA0193702146
B1044054625458N00807100EA0193702146
B1044064625458N00807091EA0193802147
B1044074625459N00807083EA0193802147
B1044084625459N00807076EA0193702146
B1044094625458N00807069EA0193502144
B1044104625456N00807062EA0193402143
B1044114625455N00807056EA0193302142
B1044124625453N00807049EA0193202141
B1044134625451N00807041EA0193302142
B1044144625448N00807034EA0193402143
B1044154625444N00807027EA0193602145
B1044164625441N00807022EA0193702146
B1044174625439N00807018EA0193702146
B1044184625437N00807014EA0193602145
B1044194625434N00807011EA0193302142
B1044204625430N00807010EA0193002139
B1044214625425N00807011EA0192802137
B1044224625420N00807015EA0192602135
B1044234625417N00807021EA0192502134
B1044244625415N00807029EA0192502134
B1044254625414N00807037EA0192602135
B1044264625415N00807045EA0192802137
B1044274625415N00807053EA0192902138
B1044274625415N00807053EA0192902138
B1044284625416N00807060EA0192902138
B1044294625417N00807066EA0193002139
B1044304625419N00807073EA0193002139
B1044314625421N00807078EA0192902138
B1044324625424N00807084EA0192802137
B1044334625426N00807089EA0192702136
B1044344625428N00807094EA0192402133
B1044354625428N00807102EA0192302132
B1044364625429N00807109EA0192102130
B1044374625430N00807117EA0192002129
B1044384625433N00807125EA0192102130
B1044394625434N00807131EA0192102130
B1044404625437N00807138EA0192102130
B1044414625438N00807145EA0192102130
B1044424625441N00807152EA0192202131
B1044434625445N00807159EA0192402133
B1044444625448N00807164EA0192602135
B1044454625451N00807169EA0192602135
B1044464625453N00807172EA0192502134
B1044474625456N00807176EA0192302132
B1044484625459N00807181EA0192202131
B1044494625462N00807185EA0192102130
B1044504625466N00807190EA0192102130
B1044514625470N00807194EA0192002129
B1044524625474N00807199EA0191802127
B1044534625477N00807204EA0191602125
B1044544625481N00807210EA0191602125
B1044554625485N00807216EA0191602125
B1044564625489N00807222EA0191602126
B1044574625493N00807227EA0191502124
B1044584625497N00807232EA0191202121
B1044594625500N00807236EA0191102120
B1045004625504N00807241EA0190902118
B1045014625509N00807246EA0190702116
B1045014625509N00807246EA0190502114
B1045024625513N00807251EA0190502114
B1045034625518N00807257EA0190502114
B1045044625522N00807262EA0190502114
B1045054625526N00807268EA0190402113
B1045064625529N00807273EA0190302112
B1045074625533N00807278EA0190102110
B1045084625537N00807283EA0189902108
B1045094625541N00807289EA0189702106
B1045104625546N00807295EA0189702106
B1045114625550N00807301EA0189802107
B1045124625555N00807307EA0189802107
B1045134625559N00807313EA0189902108
B1045144625564N00807318EA0189902108
B1045144625564N00807318EA0190002109
B1045154625568N00807322EA0190002109
B1045164625574N00807325EA0189902108
B1045174625579N00807329EA0189802107
B1045184625584N00807332EA0189802107
B1045194625590N00807334EA0189802107
B1045204625595N00807336EA0189602105
B1045214625600N00807337EA0189502104
B1045224625606N00807338EA0189302102
B1045234625611N00807340EA0189202101
B1045244625616N00807343EA0189202101
B1045254625620N00807347EA0189102100
B1045264625625N00807350EA0188802097
B1045274625630N00807353EA0188602095
B1045284625635N00807356EA0188602095
B1045294625640N00807359EA0188602095
B1045304625645N00807362EA0188502094
B1045304625645N00807362EA0188302092
B1045314625649N00807365EA0188302092
B1045324625653N00807367EA0188102090
B1045334625658N00807371EA0188002089
B1045344625663N00807375EA0187902088
B1045354625669N00807378EA0187802087
B1045364625674N00807380EA0187702086
B1045374625680N00807383EA0187702086
B1045384625685N00807385EA0187602085
B1045394625689N00807387EA0187402083
B1045404625695N00807390EA0187202081
B1045414625700N00807393EA0187102080
B1045424625705N00807397EA0187102080
B1045434625711N00807401EA0187102080
B1045444625716N00807405EA0187002080
B1045454625721N00807409EA0186902078
B1045464625725N00807412EA0186802077
B1045474625730N00807415EA0186702076
B1045484625734N00807419EA0186602075
B1045494625739N00807422EA0186602075
B1045504625745N00807425EA0186702076
B1045514625749N00807428EA0186802077
B1045524625754N00807430EA0186702077
B1045534625758N00807432EA0186702076
B1045544625762N00807436EA0186602075
B1045554625765N00807442EA0186502074
B1045564625766N00807450EA0186502074
B1045574625765N00807458EA0186702076
B1045584625763N00807465EA0186802077
B1045594625761N00807469EA0186802077
B1046004625759N00807473EA0186602076
B1046014625756N00807478EA0186402073
B1046024625753N00807482EA0186202071
B1046034625748N00807487EA0186102070
B1046044625742N00807490EA0186202071
B1046054625735N00807492EA0186302072
B1046064625730N00807494EA0186302072
B1046074625725N00807495EA0186202071
B1046084625721N00807497EA0186102070
B1046094625716N00807499EA0185902068
B1046104625711N00807501EA0185702066
B1046114625705N00807502EA0185702066
B1046124625700N00807502EA0185602065
B1046134625694N00807502EA0185602065
B1046144625690N00807503EA0185502065
B1046154625686N00807502EA0185402063
B1046164625682N00807502EA0185302062
B1046174625677N00807502EA0185102060
B1046184625672N00807503EA0185002059
B1046194625667N00807504EA0184902058
B1046204625662N00807504EA0184902058
B1046214625658N00807504EA0184702057
B1046224625653N00807503EA0184502054
B1046234625649N00807502EA0184302052
B1046244625645N00807501EA0184102050
B1046254625640N00807501EA0183902048
B1046264625635N00807501EA0183902048
B1046264625635N00807501EA0183802047
B1046274625630N00807501EA0183802047
B1046284625625N00807500EA0183802047
B1046294625621N00807500EA0183602045
B1046294625621N00807500EA0183402043
B1046304625617N00807500EA0183402043
B1046314625612N00807501EA0183202041
B1046324625608N00807501EA0183102040
B1046334625602N00807501EA0182902038
B1046344625597N00807501EA0182702037
B1046354625592N00807502EA0182702036
B1046364625587N00807504EA0182602035
B1046374625583N00807506EA0182502034
B1046384625580N00807509EA0182202031
B1046394625577N00807514EA0182002029
B1046404625573N00807520EA0181902028
B1046414625571N00807526EA0181902028
B1046424625568N00807532EA0181902029
B1046434625566N00807538EA0182002029
B1046444625565N00807543EA0181902028
B1046454625564N00807549EA0181802027
B1046464625562N00807554EA0181602025
B1046474625560N00807561EA0181502024
B1046484625558N00807568EA0181402023
B1046494625555N00807575EA0181302023
B1046504625552N00807580EA0181302022
B1046514625550N00807586EA0181102020
B1046514625550N00807586EA0180702016
B1046524625548N00807591EA0180702016
B1046534625546N00807598EA0180302012
B1046544625543N00807605EA0180102010
B1046554625542N00807613EA0179802007
B1046564625540N00807621EA0179602005
B1046574625537N00807629EA0179502004
B1046574625537N00807629EA0179302002
B1046584625535N00807636EA0179302002
B1046594625532N00807643EA0179202001
B1047004625529N00807650EA0178901998
B1047014625527N00807657EA0178601995
B1047024625525N00807666EA0178401993
B1047034625523N00807674EA0178401993
B1047044625521N00807682EA0178301992
B1047054625518N00807689EA0178201991
B1047064625516N00807696EA0178001989
B1047074625514N00807704EA0177901988
B1047084625512N00807711EA0177801987
B1047094625509N00807719EA0177701986
B1047104625506N00807726EA0177501984
B1047114625503N00807734EA0177401983
B1047124625501N00807741EA0177301982
B1047134625500N00807749EA0177201981
B1047144625499N00807756EA0177101980
B1047154625496N00807764EA0177001979
B1047164625493N00807771EA0176901978
B1047174625491N00807778EA0176701976
B1047184625488N00807785EA0176501974
B1047194625486N00807793EA0176401973
B1047204625483N00807801EA0176301972
B1047214625481N00807808EA0176201971
B1047224625477N00807815EA0176101970
B1047234625474N00807822EA0175901968
B1047244625470N00807828EA0175801967
B1047244625470N00807828EA0175701966
B1047254625467N00807835EA0175701966
B1047264625463N00807842EA0175601965
B1047274625460N00807850EA0175501964
B1047284625456N00807857EA0175301962
B1047294625454N00807864EA0175201961
B1047304625452N00807872EA0175001959
B1047314625449N00807880EA0174901958
B1047324625447N00807888EA0174801957
B1047334625444N00807896EA0174701956
B1047344625440N00807903EA0174601955
B1047354625437N00807910EA0174501954
B1047364625434N00807916EA0174401953
B1047374625431N00807923EA0174201951
B1047384625428N00807930EA0174101950
B1047394625424N00807937EA0174001949
B1047404625419N00807943EA0173801947
B1047414625415N00807949EA0173701946
B1047424625411N00807955EA0173601945
B1047434625407N00807961EA0173501944
B1047444625403N00807966EA0173501944
B1047454625399N00807972EA0173401943
B1047464625396N00807978EA0173301942
B1047474625393N00807985EA0173201941
B1047484625391N00807992EA0173001939
B1047494625389N00808000EA0172901938
B1047504625387N00808007EA0172801937
B1047514625384N00808015EA0172801937
B1047524625381N00808022EA0172701936
B1047534625379N00808029EA0172601935
B1047544625378N00808037EA0172501934
B1047554625375N00808044EA0172401933
B1047564625374N00808051EA0172201931
B1047574625372N00808059EA0172101930
B1047584625370N00808067EA0172001929
B1047594625368N00808074EA0171901928
B1048004625366N00808081EA0171801927
B1048014625364N00808088EA0171701926
B1048014625364N00808088EA0171501925
B1048024625362N00808096EA0171501924
B1048034625359N00808103EA0171401923
B1048044625357N00808110EA0171301922
B1048044625357N00808110EA0171201921
B1048054625355N00808118EA0171201921
B1048064625353N00808125EA0171101920
B1048074625351N00808132EA0171001919
B1048074625351N00808132EA0170801917
B1048084625350N00808139EA0170801917
B1048094625348N00808146EA0170701916
B1048104625346N00808153EA0170601915
B1048114625343N00808161EA0170501914
B1048124625341N00808168EA0170401913
B1048134625339N00808175EA0170201911
B1048144625338N00808182EA0170101910
B1048154625336N00808190EA0170001909
B1048164625334N00808197EA0169801907
B1048174625332N00808205EA0169801907
B1048184625331N00808212EA0169701906
B1048194625329N00808219EA0169501904
B1048204625327N00808226EA0169401903
B1048214625325N00808234EA0169301902
B1048224625324N00808241EA0169101900
B1048234625322N00808249EA0169001899
B1048244625320N00808256EA0168901898
B1048254625318N00808263EA0168801897
B1048264625316N00808270EA0168701896
B1048274625314N00808277EA0168501894
B1048284625312N00808285EA0168401893
B1048294625310N00808292EA0168301892
B1048304625309N00808299EA0168201891
B1048314625307N00808307EA0168001890
B1048324625305N00808314EA0167901888
B1048334625303N00808321EA0167801887
B1048344625301N00808329EA0167701886
B1048354625299N00808336EA0167601885
B1048364625297N00808343EA0167401883
B1048374625295N00808351EA0167301882
B1048384625293N00808358EA0167201881
B1048394625291N00808365EA0167001879
B1048404625288N00808373EA0166901878
B1048414625287N00808380EA0166801877
B1048424625285N00808388EA0166601875
B1048434625283N00808395EA0166501874
B1048444625281N00808403EA0166401873
B1048454625279N00808411EA0166301872
B1048464625277N00808418EA0166201871
B1048474625276N00808426EA0166101870
B1048484625274N00808433EA0166001869
B1048494625272N00808441EA0165801867
B1048504625270N00808447EA0165701866
B1048514625268N00808454EA0165601865
B1048524625266N00808461EA0165501864
B1048534625264N00808468EA0165301862
B1048544625262N00808476EA0165101860
B1048554625261N00808483EA0165001859
B1048564625259N00808491EA0164901858
B1048574625257N00808498EA0164801857
B1048584625255N00808506EA0164701856
B1048594625254N00808513EA0164601855
B1049004625253N00808521EA0164401853
B1049014625251N00808528EA0164301852
B1049024625250N00808536EA0164201851
B1049034625249N00808543EA0164101850
B1049044625247N00808551EA0163901848
B1049054625246N00808558EA0163801847
B1049064625244N00808566EA0163701846
B1049074625242N00808573EA0163601845
B1049084625241N00808581EA0163501844
B1049094625239N00808588EA0163301843
B1049104625237N00808596EA0163201841
B1049114625236N00808603EA0163101840
B1049124625234N00808610EA0163001839
B1049134625232N00808618EA0162901838
B1049144625231N00808625EA0162801837
B1049144625231N00808625EA0162701836
B1049154625229N00808633EA0162701836
B1049164625228N00808641EA0162601835
B1049174625226N00808648EA0162501834
B1049184625224N00808655EA0162401833
B1049194625222N00808662EA0162201831
B1049204625220N00808669EA0162101830
B1049204625220N00808669EA0162001829
B1049214625219N00808677EA0162001829
B1049224625217N00808684EA0161801828
B1049234625215N00808691EA0161701826
B1049244625213N00808698EA0161601825
B1049254625212N00808705EA0161501824
B1049264625210N00808713EA0161301822
B1049274625210N00808720EA0161201821
B1049284625208N00808727EA0161101820
B1049294625207N00808735EA0161001819
B1049304625205N00808742EA0160901818
B1049314625204N00808750EA0160701816
B1049324625203N00808757EA0160601815
B1049334625201N00808765EA0160501814
B1049344625200N00808772EA0160401813
B1049354625198N00808780EA0160301812
B1049364625197N00808787EA0160101810
B1049374625195N00808795EA0160001809
B1049384625194N00808802EA0159901808
B1049394625192N00808810EA0159801807
B1049404625191N00808818EA0159701806
B1049414625190N00808825EA0159601805
B1049424625188N00808832EA0159501804
B1049434625188N00808840EA0159401803
B1049444625186N00808848EA0159301802
B1049454625185N00808855EA0159201801
B1049464625183N00808863EA0159101800
B1049474625181N00808870EA0159001799
B1049484625179N00808877EA0158801797
B1049494625177N00808885EA0158801797
B1049504625175N00808892EA0158701796
B1049514625173N00808899EA0158401793
B1049524625172N00808906EA0158301792
B1049534625170N00808914EA0158201791
B1049544625169N00808922EA0158101790
B1049554625166N00808930EA0158001790
B1049564625165N00808937EA0158001789
B1049574625163N00808945EA0157901788
B1049584625162N00808953EA0157801788
B1049594625161N00808960EA0157801787
B1050004625160N00808968EA0157701786
B1050014625159N00808975EA0157601785
B1050024625158N00808982EA0157501784
B1050034625158N00808990EA0157401783
B1050044625157N00808998EA0157301782
B1050054625157N00809005EA0157101780
B1050064625157N00809013EA0157101780
B1050074625156N00809021EA0157001779
B1050084625156N00809028EA0156901778
B1050094625157N00809036EA0156801777
B1050104625157N00809044EA0156601775
B1050114625157N00809051EA0156501774
B1050124625157N00809059EA0156501774
B1050134625158N00809067EA0156401773
B1050144625158N00809075EA0156301772
B1050154625159N00809082EA0156201771
B1050164625159N00809090EA0156101770
B1050174625159N00809098EA0156001769
B1050184625159N00809106EA0155801767
B1050194625159N00809113EA0155801767
B1050204625159N00809121EA0155701766
B1050204625159N00809121EA0155601765
B1050214625159N00809129EA0155601765
B1050224625159N00809136EA0155601765
B1050234625160N00809144EA0155501764
B1050244625160N00809151EA0155401763
B1050254625160N00809159EA0155201761
B1050264625160N00809167EA0155101760
B1050274625161N00809175EA0155001759
B1050284625161N00809183EA0154901758
B1050294625161N00809190EA0154901758
B1050304625161N00809198EA0154701756
B1050314625162N00809206EA0154601755
B1050324625162N00809213EA0154501754
B1050334625163N00809221EA0154301752
B1050344625163N00809228EA0154201751
B1050354625163N00809236EA0154001749
B1050364625163N00809244EA0153901748
B1050374625163N00809251EA0153801747
B1050384625163N00809259EA0153601745
B1050394625163N00809266EA0153401743
B1050404625163N00809274EA0153201741
B1050414625164N00809281EA0153101740
B1050424625165N00809289EA0153001739
B1050434625165N00809297EA0152801737
B1050444625166N00809304EA0152601735
B1050454625166N00809312EA0152501734
B1050464625167N00809319EA0152301732
B1050474625168N00809327EA0152201731
B1050484625169N00809335EA0151901728
B1050494625169N00809342EA0151801727
B1050494625169N00809342EA0151701726
B1050504625169N00809350EA0151701726
B1050514625169N00809357EA0151501724
B1050524625169N00809365EA0151301722
B1050534625169N00809372EA0151201721
B1050544625169N00809379EA0151101720
B1050554625169N00809386EA0150901718
B1050564625169N00809394EA0150701716
B1050574625170N00809402EA0150601715
B1050584625171N00809411EA0150401713
B1050594625173N00809420EA0150401713
B1051004625174N00809429EA0150401713
B1051014625175N00809437EA0150401713
B1051024625177N00809445EA0150301712
B1051034625178N00809452EA0150201711
B1051044625180N00809460EA0150001709
B1051054625183N00809468EA0149901708
B1051064625185N00809477EA0149901708
B1051074625188N00809485EA0150201711
B1051084625191N00809494EA0150401713
B1051094625194N00809501EA0150401713
B1051104625197N00809506EA0150401713
B1051114625200N00809510EA0150301712
B1051124625203N00809515EA0150201711
B1051134625207N00809521EA0150101710
B1051144625210N00809526EA0150001709
B1051154625214N00809531EA0149901708
B1051164625218N00809534EA0149801707
B1051174625222N00809538EA0149701706
B1051184625226N00809543EA0149601705
B1051194625231N00809548EA0149501704
B1051204625234N00809555EA0149501704
B1051214625237N00809561EA0149501704
B1051224625238N00809567EA0149301702
B1051234625239N00809574EA0149201701
B1051244625238N00809582EA0149001699
B1051244625238N00809582EA0148901698
B1051254625236N00809589EA0148901698
B1051264625233N00809596EA0148801697
B1051274625229N00809602EA0148701696
B1051284625225N00809606EA0148601695
B1051294625219N00809608EA0148401693
B1051304625214N00809609EA0148201691
B1051314625209N00809609EA0148001689
B1051324625203N00809607EA0147901688
B1051334625198N00809604EA0147801687
B1051344625193N00809600EA0147701686
B1051354625190N00809594EA0147501684
B1051364625187N00809587EA0147401683
B1051374625185N00809580EA0147201681
B1051384625184N00809572EA0147001679
B1051394625184N00809564EA0146901678
B1051404625184N00809557EA0146701676
B1051414625185N00809550EA0146601675
B1051424625185N00809542EA0146501674
B1051434625187N00809535EA0146401673
B1051444625188N00809528EA0146301672
B1051454625188N00809520EA0146301672
B1051464625189N00809512EA0146301672
B1051474625190N00809504EA0146301672
B1051484625191N00809497EA0146201671
B1051494625191N00809490EA0146201671
B1051504625193N00809484EA0146001669
B1051514625194N00809478EA0145901668
B1051524625196N00809471EA0145701666
B1051534625197N00809464EA0145501664
B1051544625198N00809457EA0145301662
B1051554625199N00809449EA0145101660
B1051564625199N00809441EA0145001659
B1051574625199N00809434EA0144901658
B1051584625198N00809427EA0144801657
B1051594625197N00809420EA0144701656
B1052004625195N00809413EA0144601655
B1052014625193N00809406EA0144701656
B1052024625191N00809399EA0144901658
B1052024625191N00809399EA0145001659
B1052034625190N00809391EA0145001659
B1052044625189N00809385EA0144901658
B1052044625189N00809385EA0144701657
B1052054625188N00809380EA0144701656
B1052064625188N00809374EA0144501654
B1052074625187N00809368EA0144401653
B1052084625186N00809360EA0144301652
B1052094625184N00809353EA0144301652
B1052104625181N00809346EA0144301652
B1052114625177N00809340EA0144201651
B1052124625173N00809336EA0144101650
B1052134625169N00809333EA0144001649
B1052144625164N00809331EA0143801647
B1052154625158N00809333EA0143801647
B1052164625152N00809337EA0143801647
B1052174625147N00809343EA0143801647
B1052184625144N00809349EA0143801647
B1052194625141N00809357EA0143901648
B1052204625140N00809364EA0144001649
B1052214625139N00809371EA0144101650
B1052224625138N00809378EA0144101650
B1052234625140N00809385EA0144001649
B1052244625141N00809391EA0143801647
B1052254625144N00809398EA0143701646
B1052264625147N00809404EA0143701646
B1052274625150N00809411EA0143801647
B1052284625155N00809416EA0144001649
B1052294625160N00809420EA0144001649
B1052304625165N00809421EA0144001649
B1052314625170N00809422EA0144001649
B1052324625175N00809424EA0144001649
B1052334625181N00809424EA0144101650
B1052344625186N00809422EA0144201651
B1052354625191N00809420EA0144201651
B1052364625196N00809417EA0144101650
B1052374625199N00809412EA0144001649
B1052384625202N00809407EA0143801647
B1052394625204N00809401EA0143601645
B1052404625206N00809395EA0143301642
B1052414625206N00809386EA0143101640
B1052424625205N00809378EA0143001639
B1052434625202N00809370EA0142901638
B1052444625197N00809365EA0142901638
B1052454625191N00809360EA0142901638
B1052464625187N00809359EA0142901638
B1052474625182N00809360EA0142801637
B1052484625177N00809363EA0142601635
B1052494625174N00809368EA0142501634
B1052504625170N00809373EA0142401633
B1052514625167N00809380EA0142301632
B1052524625166N00809388EA0142301632
B1052534625166N00809397EA0142301632
B1052544625167N00809404EA0142301632
B1052554625169N00809411EA0142201631
B1052564625171N00809416EA0142001629
B1052574625177N00809419EA0142001629
B1052574625177N00809419EA0142101630
B1052584625184N00809419EA0142101630
B1052594625190N00809419EA0142101630
B1053004625194N00809417EA0142001629
B1053014625198N00809411EA0141801627
B1053024625202N00809405EA0141801627
B1053034625206N00809400EA0141701626
B1053044625210N00809395EA0141601625
B1053054625214N00809390EA0141401623
B1053064625218N00809385EA0141401623
B1053074625221N00809379EA0141301622
B1053084625224N00809372EA0141001619
B1053094625225N00809364EA0140801617
B1053104625225N00809356EA0140701616
B1053114625224N00809348EA0140501614
B1053124625221N00809341EA0140401613
B1053134625218N00809335EA0140301612
B1053144625214N00809330EA0140101610
B1053154625210N00809326EA0140001609
B1053164625205N00809323EA0139901608
B1053174625200N00809319EA0139701606
B1053184625194N00809317EA0139601605
B1053194625189N00809315EA0139601605
B1053204625184N00809315EA0139501604
B1053214625179N00809314EA0139301602
B1053224625173N00809314EA0139201601
B1053234625168N00809314EA0139101600
B1053244625163N00809315EA0139101600
B1053254625157N00809315EA0139101600
B1053264625151N00809315EA0139301602
B1053274625147N00809316EA0139401603
B1053284625143N00809317EA0139501604
B1053294625139N00809319EA0139301602
B1053304625135N00809321EA0139101600
B1053304625135N00809321EA0138901598
B1053314625130N00809322EA0138901598
B1053324625125N00809322EA0138701596
B1053334625120N00809321EA0138601595
B1053334625120N00809321EA0138601595
B1053344625114N00809320EA0138601595
B1053354625108N00809318EA0138501594
B1053364625103N00809316EA0138501594
B1053374625098N00809313EA0138501594
B1053384625093N00809310EA0138401593
B1053394625089N00809306EA0138401593
B1053404625083N00809302EA0138501594
B1053414625078N00809299EA0138601595
B1053424625073N00809297EA0138701596
B1053434625068N00809295EA0138701596
B1053444625064N00809293EA0138701596
B1053454625060N00809292EA0138501595
B1053464625055N00809290EA0138301592
B1053474625050N00809288EA0138201591
B1053484625045N00809286EA0138301592
B1053494625040N00809283EA0138401593
B1053504625036N00809279EA0138601595
B1053514625032N00809277EA0138701596
B1053524625028N00809274EA0138701597
B1053534625025N00809270EA0138701596
B1053544625023N00809265EA0138601595
B1053554625021N00809258EA0138501594
B1053564625020N00809250EA0138501594
B1053574625021N00809242EA0138501594
B1053584625023N00809235EA0138501594
B1053594625026N00809229EA0138401593
B1054004625030N00809225EA0138401593
B1054014625035N00809224EA0138301592
B1054024625039N00809223EA0138201591
B1054034625044N00809224EA0138001589
B1054044625049N00809225EA0138001589
B1054054625055N00809227EA0137901588
B1054064625060N00809231EA0137801587
B1054074625064N00809236EA0137801587
B1054084625066N00809244EA0137701586
B1054094625066N00809252EA0137701586
B1054104625066N00809259EA0137801587
B1054114625064N00809266EA0137801587
B1054124625062N00809271EA0137701586
B1054134625059N00809276EA0137501585
B1054144625056N00809279EA0137501584
B1054154625051N00809283EA0137501584
B1054164625046N00809286EA0137601585
B1054174625042N00809288EA0137701586
B1054184625037N00809289EA0137901588
B1054194625032N00809289EA0137901588
B1054204625029N00809290EA0137801587
B1054214625024N00809292EA0137801587
B1054224625020N00809294EA0137801588
B1054234625014N00809294EA0138001589
B1054244625009N00809294EA0138001589
B1054254625004N00809291EA0138101590
B1054264624998N00809288EA0138101590
B1054274624995N00809283EA0138101590
B1054284624991N00809277EA0138101590
B1054294624989N00809270EA0138001590
B1054304624988N00809261EA0138101590
B1054314624988N00809253EA0138101590
B1054324624991N00809246EA0138201591
B1054334624995N00809241EA0138201591
B1054344624998N00809238EA0138301592
B1054354625003N00809237EA0138301592
B1054364625007N00809237EA0138301592
B1054374625011N00809239EA0138201591
B1054384625016N00809241EA0138201591
B1054394625020N00809244EA0138101590
B1054404625024N00809249EA0138101590
B1054414625028N00809255EA0138101590
B1054414625028N00809255EA0138201591
B1054424625031N00809262EA0138201591
B1054434625032N00809270EA0138301592
B1054444625032N00809278EA0138501594
B1054454625032N00809286EA0138601595
B1054464625030N00809292EA0138601595
B1054474625028N00809298EA0138701596
B1054484625025N00809304EA0138601595
B1054494625022N00809308EA0138501594
B1054504625017N00809309EA0138501594
B1054514625011N00809308EA0138601595
B1054524625006N00809305EA0138601595
B1054534625002N00809302EA0138601595
B1054544625000N00809296EA0138601595
B1054554624997N00809290EA0138501594
B1054564624995N00809283EA0138401593
B1054574624994N00809275EA0138401593
B1054584624994N00809267EA0138501594
B1054594624995N00809258EA0138601595
B1055004624997N00809252EA0138601595
B1055014625000N00809246EA0138701596
B1055014625000N00809246EA0138701596
B1055024625004N00809242EA0138701596
B1055034625008N00809241EA0138701596
B1055044625013N00809243EA0138701596
B1055054625017N00809248EA0138801597
B1055064625022N00809253EA0138901598
B1055074625023N00809260EA0138801597
B1055084625024N00809268EA0138801597
B1055094625024N00809274EA0138801597
B1055104625023N00809281EA0138801597
B1055114625020N00809288EA0138901598
B1055124625016N00809294EA0138801597
B1055134625010N00809298EA0138801597
B1055144625005N00809298EA0138801597
B1055154625000N00809297EA0138701596
B1055164624995N00809295EA0138601595
B1055174624990N00809291EA0138601595
B1055184624986N00809286EA0138401593
B1055184624986N00809286EA0138201591
B1055194624983N00809280EA0138201591
B1055204624981N00809272EA0138101590
B1055214624980N00809263EA0138001589
B1055224624980N00809255EA0137901588
B1055234624982N00809246EA0137901588
B1055244624985N00809239EA0138001589
B1055254624989N00809233EA0137901588
B1055264624993N00809229EA0138001589
B1055274624998N00809229EA0138001589
B1055284625002N00809230EA0137901588
B1055294625007N00809233EA0137901589
B1055304625011N00809236EA0137901588
B1055314625016N00809240EA0137901588
B1055324625020N00809246EA0137901588
B1055334625024N00809251EA0137801587
B1055344625028N00809256EA0137701586
B1055354625032N00809261EA0137701586
B1055364625035N00809265EA0137801587
B1055374625039N00809271EA0137901588
B1055384625042N00809278EA0138001589
B1055394625044N00809284EA0138201591
B1055404625046N00809291EA0138301592
B1055414625047N00809298EA0138301592
B1055424625046N00809305EA0138301592
B1055434625044N00809311EA0138001589
B1055444625042N00809316EA0137901588
B1055454625037N00809320EA0137701587
B1055464625032N00809324EA0137701586
B1055474625026N00809324EA0137601585
B1055484625020N00809322EA0137501584
B1055494625016N00809318EA0137401583
B1055504625012N00809313EA0137301582
B1055514625009N00809305EA0137201581
B1055524625007N00809298EA0137201581
B1055534625006N00809289EA0137101580
B1055544625007N00809282EA0137101580
B1055554625010N00809275EA0137101580
B1055564625014N00809269EA0137101580
B1055574625018N00809265EA0137101580
B1055584625023N00809262EA0137101580
B1055594625028N00809262EA0137101580
B1056004625033N00809265EA0137101580
B1056014625039N00809266EA0137201581
B1056024625044N00809268EA0137301582
B1056034625048N00809270EA0137301582
B1056044625052N00809273EA0137301582
B1056054625055N00809278EA0137301582
B1056064625059N00809284EA0137201581
B1056074625060N00809291EA0137301582
B1056084625060N00809298EA0137201581
B1056094625059N00809305EA0137101580
B1056104625057N00809312EA0137001579
B1056114625054N00809317EA0136801577
B1056124625049N00809322EA0136601575
B1056134625044N00809326EA0136601575
B1056134625044N00809326EA0136501574
B1056144625039N00809328EA0136501574
B1056154625034N00809327EA0136401573
B1056164625028N00809326EA0136301572
B1056174625023N00809324EA0136201571
B1056184625019N00809319EA0136101570
B1056194625015N00809313EA0136001569
B1056204625012N00809307EA0135901568
B1056214625010N00809300EA0135801567
B1056224625008N00809293EA0135801567
B1056234625007N00809285EA0135901568
B1056244625008N00809276EA0136001569
B1056254625009N00809268EA0136101570
B1056264625011N00809261EA0136001569
B1056274625012N00809254EA0135801568
B1056284625015N00809247EA0135801567
B1056294625017N00809239EA0135801567
B1056304625019N00809231EA0135801567
B1056304625019N00809231EA0135701566
B1056314625020N00809223EA0135701566
B1056324625020N00809216EA0135601565
B1056334625020N00809209EA0135501564
B1056344625020N00809202EA0135401563
B1056354625020N00809195EA0135401563
B1056364625020N00809187EA0135401563
B1056374625020N00809180EA0135401563
B1056384625020N00809173EA0135501564
B1056394625020N00809166EA0135701566
B1056404625020N00809159EA0135801567
B1056414625020N00809153EA0135901568
B1056424625020N00809147EA0135901568
B1056434625018N00809141EA0135901568
B1056444625016N00809135EA0135901568
B1056454625012N00809129EA0136001569
B1056464625008N00809123EA0136101570
B1056474625004N00809119EA0136101570
B1056484625001N00809116EA0136001569
B1056494624996N00809115EA0135701566
B1056504624992N00809117EA0135601565
B1056514624988N00809120EA0135601565
B1056524624984N00809123EA0135601566
B1056534624982N00809128EA0135601565
B1056534624982N00809128EA0135501564
B1056544624982N00809134EA0135501564
B1056554624982N00809140EA0135401563
B1056564624984N00809146EA0135401563
B1056574624987N00809150EA0135401563
B1056584624990N00809154EA0135401563
B1056594624995N00809159EA0135301562
B1057004624998N00809163EA0135201561
B1057014625003N00809167EA0135301562
B1057024625008N00809171EA0135501564
B1057034625013N00809173EA0135601565
B1057044625018N00809175EA0135701566
B1057054625023N00809174EA0135701566
B1057064625027N00809173EA0135501564
B1057074625032N00809171EA0135401563
B1057084625037N00809169EA0135301562
B1057094625042N00809167EA0135301562
B1057104625046N00809163EA0135301562
B1057114625050N00809158EA0135201561
B1057124625053N00809154EA0135001559
B1057134625057N00809149EA0134801557
B1057144625060N00809144EA0134701556
B1057154625063N00809138EA0134501554
B1057164625066N00809131EA0134401553
B1057174625067N00809123EA0134301552
B1057184625067N00809116EA0134201551
B1057184625067N00809116EA0134201551
B1057194625067N00809109EA0134201551
B1057204625066N00809102EA0134201551
B1057214625063N00809095EA0134201552
B1057224625061N00809089EA0134401553
B1057234625058N00809083EA0134401553
B1057244625054N00809079EA0134401553
B1057244625054N00809079EA0134401553
B1057254625050N00809076EA0134401553
B1057264625046N00809074EA0134401553
B1057274625042N00809072EA0134401553
B1057284625037N00809072EA0134401553
B1057294625032N00809073EA0134301552
B1057304625029N00809077EA0134301552
B1057304625029N00809077EA0134301552
B1057314625026N00809083EA0134301552
B1057324625025N00809089EA0134301552
B1057334625024N00809094EA0134301552
B1057344625024N00809099EA0134201551
B1057354625023N00809105EA0134201551
B1057364625024N00809111EA0134201551
B1057374625024N00809118EA0134301552
B1057384625026N00809125EA0134401553
B1057394625028N00809131EA0134501554
B1057404625030N00809136EA0134501554
B1057414625034N00809140EA0134401553
B1057424625038N00809144EA0134401554
B1057434625043N00809147EA0134401553
B1057434625043N00809147EA0134401553
B1057444625048N00809148EA0134401553
B1057454625053N00809148EA0134301552
B1057464625057N00809146EA0134301552
B1057474625061N00809143EA0134201551
B1057484625066N00809140EA0134101550
B1057494625069N00809135EA0133901548
B1057504625072N00809129EA0133701546
B1057514625074N00809122EA0133701546
B1057524625075N00809114EA0133601545
B1057534625075N00809106EA0133401543
B1057544625072N00809099EA0133401543
B1057554625070N00809093EA0133401543
B1057564625066N00809087EA0133401543
B1057574625061N00809082EA0133501544
B1057584625057N00809078EA0133501544
B1057594625053N00809075EA0133301542
B1058004625048N00809073EA0133201541
B1058014625043N00809072EA0133201541
B1058024625038N00809070EA0133201541
B1058034625033N00809069EA0133201541
B1058044625028N00809068EA0133201541
B1058054625024N00809068EA0133201541
B1058064625020N00809068EA0133101540
B1058074625016N00809068EA0132901538
B1058084625011N00809068EA0132801537
B1058094625006N00809067EA0132801537
B1058104625001N00809066EA0132701536
B1058114624997N00809065EA0132501534
B1058124624992N00809064EA0132401533
B1058134624987N00809062EA0132301532
B1058144624982N00809060EA0132201531
B1058144624982N00809060EA0132101530
B1058154624977N00809058EA0132101530
B1058164624972N00809056EA0131901529
B1058174624967N00809053EA0131801527
B1058184624962N00809050EA0131601525
B1058194624958N00809046EA0131501525
B1058204624952N00809043EA0131501524
B1058214624947N00809039EA0131401523
B1058224624943N00809035EA0131401524
B1058234624939N00809031EA0131401523
B1058244624934N00809027EA0131101520
B1058254624929N00809023EA0131001519
B1058264624924N00809019EA0130901518
B1058274624919N00809016EA0130801517
B1058284624914N00809012EA0130701516
B1058294624910N00809008EA0130601515
B1058304624905N00809004EA0130501514
B1058314624901N00809000EA0130401513
B1058324624896N00808998EA0130201511
B1058334624891N00808997EA0130201511
B1058344624886N00808996EA0130201511
B1058354624881N00808996EA0130101510
B1058364624877N00808997EA0129901508
B1058374624872N00809000EA0129801507
B1058384624867N00809002EA0129701506
B1058394624862N00809003EA0129701506
B1058404624857N00809003EA0129601505
B1058414624852N00809001EA0129501504
B1058424624847N00808999EA0129401503
B1058434624842N00808998EA0129201502
B1058444624838N00808996EA0129101500
B1058454624833N00808994EA0129001499
B1058464624829N00808990EA0128901498
B1058474624825N00808985EA0128801497
B1058484624821N00808979EA0128701496
B1058494624817N00808973EA0128601495
B1058504624814N00808967EA0128501494
B1058514624811N00808961EA0128301492
B1058524624807N00808955EA0128201491
B1058534624804N00808948EA0128101490
B1058544624800N00808942EA0127901488
B1058554624797N00808935EA0127801487
B1058564624794N00808928EA0127701486
B1058574624791N00808921EA0127601485
B1058584624788N00808914EA0127501484
B1058594624785N00808907EA0127301482
B1059004624782N00808900EA0127201481
B1059014624779N00808893EA0127101481
B1059024624776N00808886EA0127001480
B1059034624773N00808879EA0127001479
B1059044624771N00808872EA0126801477
B1059054624768N00808865EA0126701476
B1059064624765N00808858EA0126601475
B1059074624762N00808850EA0126501474
B1059084624759N00808843EA0126401473
B1059094624756N00808836EA0126301472
B1059104624754N00808828EA0126101470
B1059104624754N00808828EA0126001469
B1059114624752N00808821EA0126001469
B1059124624749N00808813EA0125801467
B1059134624746N00808806EA0125701466
B1059144624744N00808798EA0125501465
B1059154624741N00808791EA0125301462
B1059164624739N00808783EA0125101460
B1059174624736N00808775EA0124801457
B1059184624733N00808767EA0124601456
B1059194624730N00808759EA0124501454
B1059204624727N00808751EA0124401453
B1059214624723N00808744EA0124201451
B1059224624720N00808736EA0124001449
B1059234624717N00808728EA0123801447
B1059244624714N00808719EA0123601445
B1059254624711N00808710EA0123501444
B1059264624709N00808701EA0123501444
B1059274624707N00808692EA0123601445
B1059284624705N00808685EA0123601445
B1059294624703N00808678EA0123401443
B1059304624702N00808671EA0123201441
B1059314624701N00808664EA0122901438
B1059324624699N00808656EA0122801437
B1059334624696N00808648EA0122801437
B1059344624693N00808640EA0122801437
B1059354624691N00808633EA0122601435
B1059364624688N00808626EA0122401433
B1059374624686N00808620EA0122301432
B1059384624683N00808612EA0122201431
B1059394624681N00808605EA0122101430
B1059404624678N00808597EA0122101430
B1059414624675N00808590EA0121901428
B1059424624672N00808583EA0121801428
B1059434624669N00808576EA0121601425
B1059444624667N00808570EA0121501424
B1059454624665N00808562EA0121301422
B1059464624663N00808555EA0121201421
B1059474624660N00808548EA0121101420
B1059484624658N00808541EA0121001419
B1059494624657N00808533EA0120901418
B1059504624655N00808526EA0120801417
B1059514624654N00808518EA0120601416
B1059524624653N00808511EA0120501414
B1059534624651N00808503EA0120401413
B1059544624650N00808495EA0120301412
B1059554624649N00808487EA0120201411
B1059564624649N00808480EA0120101410
B1059574624649N00808472EA0120001409
B1059584624649N00808465EA0119801407
B1059594624649N00808457EA0119701406
B1100004624650N00808448EA0119601405
B1100014624650N00808440EA0119501404
B1100024624649N00808432EA0119401403
B1100034624649N00808424EA0119201401
B1100044624649N00808416EA0119101400
B1100054624647N00808407EA0118901398
B1100064624647N00808399EA0118801397
B1100074624646N00808390EA0118701396
B1100084624646N00808382EA0118701396
B1100094624644N00808373EA0118601395
B1100104624643N00808365EA0118401393
B1100114624641N00808357EA0118401393
B1100124624639N00808349EA0118201391
B1100134624637N00808341EA0118101390
B1100144624635N00808332EA0118101390
B1100154624632N00808324EA0118001389
B1100164624630N00808317EA0117801387
B1100174624627N00808308EA0117801387
B1100184624624N00808301EA0117701386
B1100194624622N00808293EA0117601385
B1100194624622N00808293EA0117501384
B1100204624619N00808286EA0117501384
B1100214624615N00808279EA0117401383
B1100224624612N00808272EA0117201381
B1100234624609N00808265EA0117101380
B1100244624606N00808258EA0117101380
B1100254624603N00808251EA0117001379
B1100264624599N00808245EA0116801378
B1100274624596N00808239EA0116701376
B1100284624592N00808232EA0116501374
B1100294624589N00808225EA0116301372
B1100304624586N00808218EA0116201371
B1100304624586N00808218EA0116101370
B1100314624583N00808210EA0116101370
B1100324624579N00808204EA0116001369
B1100334624575N00808197EA0115901368
B1100344624571N00808191EA0115701366
B1100354624567N00808184EA0115501364
B1100364624563N00808177EA0115401363
B1100374624559N00808170EA0115301362
B1100384624555N00808164EA0115201361
B1100394624551N00808158EA0115201361
B1100404624546N00808153EA0115101360
B1100414624542N00808147EA0114901358
B1100424624537N00808142EA0114801357
B1100434624533N00808137EA0114601355
B1100444624527N00808132EA0114501354
B1100454624522N00808127EA0114401353
B1100464624517N00808123EA0114301352
B1100474624512N00808119EA0114201351
B1100484624507N00808115EA0114101350
B1100494624502N00808111EA0114001349
B1100504624497N00808107EA0113901348
B1100514624492N00808104EA0113801347
B1100524624487N00808101EA0113701346
B1100534624482N00808099EA0113601346
B1100544624476N00808097EA0113601345
B1100554624471N00808095EA0113601345
B1100564624466N00808094EA0113501344
B1100574624461N00808093EA0113401343
B1100584624456N00808093EA0113301342
B1100594624451N00808093EA0113101340
B1101004624446N00808095EA0113001339
B1101014624441N00808099EA0112901338
B1101024624437N00808102EA0112801337
B1101034624433N00808107EA0112701336
B1101044624429N00808112EA0112601335
B1101054624426N00808117EA0112401333
B1101064624423N00808123EA0112301332
B1101074624420N00808130EA0112201331
B1101084624418N00808137EA0112101330
B1101094624417N00808144EA0112001330
B1101104624416N00808151EA0112001329
B1101114624416N00808158EA0111801328
B1101124624416N00808165EA0111701326
B1101134624417N00808171EA0111501324
B1101144624418N00808178EA0111401323
B1101154624418N00808185EA0111401323
B1101164624419N00808192EA0111401323
B1101174624420N00808199EA0111301322
B1101184624421N00808206EA0111201321
B1101194624424N00808212EA0111101320
B1101204624427N00808217EA0110901318
B1101214624430N00808222EA0110801317
B1101224624434N00808227EA0110601315
B1101234624438N00808231EA0110401313
B1101244624443N00808235EA0110401313
B1101254624449N00808237EA0110301312
B1101264624454N00808237EA0110201311
B1101264624454N00808237EA0110001309
B1101274624459N00808237EA0110001309
B1101284624465N00808236EA0109801307
B1101294624470N00808235EA0109601305
B1101304624475N00808234EA0109501304
B1101314624481N00808231EA0109301302
B1101324624486N00808227EA0109001299
B1101334624491N00808221EA0108901298
B1101344624495N00808214EA0108801297
B1101354624498N00808206EA0108701296
B1101364624500N00808199EA0108601295
B1101374624500N00808191EA0108301292
B1101384624500N00808184EA0108101290
B1101394624499N00808177EA0107901288
B1101404624495N00808170EA0107701286
B1101414624490N00808165EA0107601285
B1101424624484N00808162EA0107501284
B1101434624479N00808160EA0107401283
B1101444624474N00808159EA0107301282
B1101454624469N00808158EA0107201281
B1101464624463N00808159EA0106901278
B1101474624458N00808160EA0106701276
B1101484624453N00808164EA0106601275
B1101494624449N00808169EA0106501274
B1101504624446N00808175EA0106501274
B1101514624444N00808181EA0106401273
B1101524624443N00808186EA0106201271
B1101534624441N00808190EA0106001269
B1101544624440N00808196EA0105601265
B1101554624438N00808202EA0105401263
B1101564624437N00808209EA0105301262
B1101574624438N00808217EA0105201261
B1101584624438N00808224EA0105201261
B1101594624439N00808231EA0105001259
B1102004624439N00808236EA0104901258
B1102014624438N00808242EA0104601255
B1102024624438N00808248EA0104501254
B1102034624438N00808255EA0104401253
B1102044624438N00808261EA0104501254
B1102054624437N00808267EA0104301253
B1102064624437N00808272EA0104201251
B1102074624438N00808278EA0104001249
B1102084624440N00808283EA0103801247
B1102094624441N00808289EA0103701246
B1102104624444N00808295EA0103601246
B1102114624446N00808301EA0103601245
B1102124624449N00808307EA0103501244
B1102134624451N00808311EA0103401243
B1102144624454N00808316EA0103201241
B1102154624456N00808321EA0103001239
B1102164624459N00808327EA0102801237
B1102174624463N00808333EA0102801237
B1102184624466N00808339EA0102701236
B1102194624468N00808344EA0102601235
B1102204624471N00808349EA0102401233
B1102214624473N00808354EA0102201231
B1102224624475N00808360EA0102001229
B1102234624479N00808365EA0101901228
B1102244624482N00808371EA0101901228
B1102254624486N00808377EA0101901228
B1102264624489N00808381EA0101701226
B1102274624493N00808384EA0101601225
B1102284624497N00808387EA0101401223
B1102294624502N00808390EA0101301222
B1102304624507N00808392EA0101201221
B1102314624511N00808395EA0101101220
B1102324624516N00808398EA0100901218
B1102334624520N00808402EA0100801217
B1102344624524N00808406EA0100701216
B1102354624529N00808409EA0100601216
B1102364624534N00808411EA0100501214
B1102364624534N00808411EA0100401213
B1102374624538N00808413EA0100401213
B1102384624543N00808414EA0100401213
B1102394624547N00808415EA0100301212
B1102404624552N00808416EA0100101210
B1102414624557N00808418EA0100001209
B1102424624561N00808421EA0099901208
B1102434624564N00808425EA0099701206
B1102444624567N00808430EA0099601205
B1102454624571N00808436EA0099501204
B1102464624574N00808441EA0099401203
B1102474624577N00808446EA0099301202
B1102484624580N00808451EA0099101200
B1102494624584N00808455EA0099001199
B1102504624588N00808459EA0098901198
B1102514624593N00808462EA0098801197
B1102514624593N00808462EA0098801197
B1102524624597N00808464EA0098701197
B1102534624602N00808466EA0098701196
B1102544624606N00808466EA0098601195
B1102554624610N00808466EA0098501194
B1102564624615N00808465EA0098401193
B1102564624615N00808465EA0098301192
B1102574624619N00808464EA0098301192
B1102584624624N00808462EA0098201191
B1102594624628N00808460EA0098101190
B1103004624632N00808458EA0098001189
B1103014624636N00808456EA0097901188
B1103024624640N00808454EA0097801187
B1103034624645N00808452EA0097701186
B1103044624649N00808449EA0097501184
B1103054624653N00808447EA0097401183
B1103064624657N00808444EA0097301182
B1103064624657N00808444EA0097201181
B1103074624661N00808441EA0097201181
B1103084624665N00808438EA0097101180
B1103094624668N00808434EA0097001179
B1103104624671N00808428EA0096901178
B1103114624674N00808423EA0096701176
B1103124624676N00808417EA0096601175
B1103134624677N00808410EA0096501174
B1103144624677N00808403EA0096401173
B1103154624676N00808397EA0096201171
B1103164624674N00808391EA0096101170
B1103174624671N00808384EA0096001169
B1103184624669N00808378EA0095901168
B1103194624665N00808372EA0095901168
B1103204624663N00808366EA0095801167
B1103214624660N00808362EA0095601165
B1103224624657N00808358EA0095501164
B1103234624653N00808353EA0095301162
B1103244624650N00808349EA0095101160
B1103254624646N00808343EA0095101160
B1103264624643N00808338EA0095001159
B1103274624641N00808333EA0094901158
B1103284624638N00808328EA0094801157
B1103294624635N00808323EA0094601155
B1103304624632N00808319EA0094501154
B1103314624628N00808314EA0094301152
B1103324624625N00808309EA0094201151
B1103334624621N00808305EA0094201151
B1103344624618N00808300EA0094101150
B1103354624614N00808296EA0093901148
B1103364624611N00808292EA0093801147
B1103374624607N00808288EA0093601145
B1103384624604N00808283EA0093401143
B1103394624601N00808279EA0093301142
B1103404624597N00808274EA0093201141
B1103414624593N00808271EA0093101140
B1103424624589N00808267EA0092901139
B1103434624585N00808263EA0092801138
B1103444624581N00808260EA0092701136
B1103454624578N00808257EA0092601135
B1103464624574N00808254EA0092401133
B1103464624574N00808254EA0092301132
B1103474624571N00808252EA0092301132
B1103484624567N00808249EA0092301132
B1103494624565N00808246EA0092301132
B1103504624562N00808244EA0092301132
B1103514624561N00808242EA0092301133
B1103524624559N00808240EA0092401133
B1103534624558N00808238EA0092301132
B1103544624558N00808237EA0092301132
B1103554624557N00808235EA0092301132
B1103564624557N00808234EA0092301132
B1103574624557N00808233EA0092301132
B1103584624557N00808232EA0092301132
B1103594624557N00808233EA0092301132
B1104004624557N00808233EA0092301132
B1104014624557N00808232EA0092301132
B1104024624557N00808232EA0092301132
B1104034624557N00808232EA0092301132
B1104044624557N00808232EA0092301132
B1104054624557N00808232EA0092301132
B1104064624557N00808232EA0092301132
B1104074624557N00808232EA0092301132
B1104084624557N00808232EA0092301132
B1104094624557N00808232EA0092301132
B1104104624557N00808232EA0092301132
B1104114624557N00808232EA0092301132
B1104124624557N00808232EA0092301132
B1104134624557N00808232EA0092301132
B1104144624557N00808232EA0092301132
B1104154624557N00808232EA0092301132
B1104164624557N00808232EA0092301132
B1104174624557N00808232EA0092301132
B1104184624557N00808232EA0092301132
B1104194624557N00808232EA0092301132
B1104204624557N00808232EA0092301132
B1104214624557N00808232EA0092301132
B1104224624558N00808231EA0092301132
B1104234624558N00808231EA0092401133
B1104244624557N00808232EA0092301132
B1104254624557N00808232EA0092401133
B1104264624557N00808232EA0092301132
B1104274624556N00808232EA0092301132
B1104284624556N00808232EA0092301132
B1104294624556N00808232EA0092301133
B1104304624556N00808232EA0092401133
B1104314624556N00808232EA0092301133
B1104324624556N00808232EA0092301132
B1104334624556N00808232EA0092301132
B1104344624556N00808231EA0092301132
B1104354624556N00808231EA0092301132
B1104364624557N00808231EA0092401133
B1104374624557N00808231EA0092301132
B1104384624557N00808230EA0092301132
B1104394624557N00808230EA0092301132
B1104404624557N00808229EA0092301132
B1104414624556N00808229EA0092301132
B1104424624557N00808229EA0092301132
B1104434624557N00808229EA0092301132
B1104444624557N00808228EA0092301132
B1104454624558N00808228EA0092301132
B1104464624557N00808227EA0092301132
B1104474624557N00808226EA0092301132
B1104484624558N00808225EA0092301132
B1104494624558N00808224EA0092301132
B1104504624558N00808224EA0092301132
B1104514624558N00808224EA0092301132
B1104514624558N00808224EA0092301132
B1104524624558N00808223EA0092301132
B1104534624558N00808222EA0092301132
B1104544624558N00808222EA0092301132
B1104554624559N00808222EA0092301132
B1104564624559N00808221EA0092301132
B1104574624558N00808221EA0092301132
B1104584624559N00808220EA0092301132
B1104594624559N00808220EA0092301132
LXSX;GF:1.3
G73757C04BEBB83FCBC7A1AA33929EC9E
