AXSX003 SKYTRAXX V3.0.5 SN:00000380
HOPLTPILOT:Sepp Bucher
HOGTYGLIDERTYPE:Sigma9
HOCIDCOMPETITIONID:0000
HODTM100GPSDATUM:WGS-84
HOCCLCOMPETITION CLASS:Paraglider (Standard)
HPSITSITE:Fiesch Heimat
HFDTE041216
B1017124624863N00806458EA0207702140
B1017134624863N00806458EA0207602140
B1017144624863N00806458EA0207502138
B1017154624863N00806458EA0207502138
B1017164624863N00806459EA0207402138
B1017174624862N00806461EA0207302137
B1017184624862N00806462EA0207202136
B1017194624861N00806463EA0207002135
B1017204624859N00806466EA0206702133
B1017214624858N00806467EA0206402132
B1017224624856N00806469EA0206102133
B1017234624855N00806470EA0205902131
B1017244624853N00806472EA0205602127
B1017254624828N00806480EA0205502126
B1017264624801N00806491EA0205502126
B1017264624801N00806491EA0205302125
B1017264624801N00806491EA0204902121
B1017294624737N00806620EA0204702118
B1017304624754N00806616EA0204402116
B1017314624764N00806607EA0204402116
B1017324624770N00806596EA0204502116
B1017334624773N00806596EA0204502116
B1017344624775N00806597EA0204402116
B1017354624780N00806596EA0204202114
B1017364624781N00806601EA0204002111
B1017374624789N00806595EA0203802109
B1017384624790N00806598EA0203802109
B1017394624792N00806606EA0203802109
B1017404624793N00806612EA0203802109
B1017414624794N00806619EA0203602107
B1017424624795N00806627EA0203202104
B1017434624796N00806634EA0203102102
B1017444624798N00806641EA0202902100
B1017454624799N00806649EA0202802099
B1017464624802N00806656EA0202802099
B1017474624804N00806663EA0202702099
B1017484624807N00806669EA0202602098
B1017494624809N00806674EA0202502096
B1017504624812N00806680EA0202302095
B1017514624815N00806686EA0202102093
B1017524624818N00806692EA0202102092
B1017534624821N00806697EA0202102092
B1017544624824N00806703EA0201902090
B1017554624827N00806707EA0201802089
B1017564624830N00806712EA0201602087
B1017574624832N00806717EA0201402085
B1017584624834N00806722EA0201302084
B1017594624837N00806728EA0201102082
B1018004624841N00806733EA0201002081
B1018014624848N00806734EA0200902080
B1018024624852N00806737EA0200702078
B1018034624856N00806742EA0200602077
B1018044624860N00806746EA0200502076
B1018054624863N00806751EA0200402075
B1018064624866N00806755EA0200302074
B1018074624868N00806761EA0200202073
B1018084624872N00806766EA0200102073
B1018094624876N00806771EA0200002072
B1018104624880N00806776EA0200002071
B1018114624883N00806780EA0200002071
B1018114624883N00806780EA0199902071
B1018124624886N00806784EA0199902071
B1018134624890N00806788EA0199802069
B1018144624894N00806793EA0199602067
B1018154624898N00806797EA0199402065
B1018164624901N00806802EA0199202063
B1018174624905N00806808EA0199002061
B1018184624908N00806814EA0198802059
B1018194624910N00806821EA0198502057
B1018204624912N00806828EA0198202054
B1018214624913N00806836EA0198102052
B1018224624914N00806843EA0198002051
B1018234624916N00806851EA0197902050
B1018244624917N00806857EA0197802049
B1018254624919N00806864EA0197602047
B1018264624920N00806871EA0197502046
B1018274624922N00806878EA0197302044
B1018284624924N00806885EA0197202043
B1018294624926N00806892EA0197102043
B1018304624928N00806900EA0197102043
B1018314624929N00806907EA0197102043
B1018324624931N00806914EA0197102042
B1018324624931N00806914EA0196902040
B1018334624934N00806920EA0196902040
B1018344624936N00806927EA0196702038
B1018354624939N00806932EA0196602037
B1018364624942N00806939EA0196502036
B1018374624944N00806947EA0196202034
B1018384624946N00806954EA0196002031
B1018394624947N00806961EA0195802029
B1018404624948N00806969EA0195702028
B1018414624947N00806976EA0195602027
B1018424624947N00806984EA0195402025
B1018434624945N00806991EA0195202024
B1018444624944N00806998EA0195102022
B1018454624941N00807005EA0195102022
B1018464624938N00807011EA0195102022
B1018474624933N00807015EA0195302024
B1018484624928N00807018EA0195502026
B1018484624928N00807018EA0195402026
B1018494624924N00807020EA0195402026
B1018504624921N00807023EA0195502026
B1018514624917N00807026EA0195502027
B1018524624914N00807030EA0195602027
B1018534624911N00807033EA0195802029
B1018544624908N00807035EA0195902031
B1018554624904N00807037EA0196002032
B1018564624901N00807038EA0196002032
B1018574624898N00807038EA0196002031
B1018584624894N00807038EA0195902030
B1018594624889N00807036EA0195902030
B1019004624885N00807032EA0195902030
B1019014624881N00807027EA0196002031
B1019014624881N00807027EA0196102032
B1019024624879N00807020EA0196102032
B1019034624877N00807012EA0196102033
B1019044624876N00807005EA0196102033
B1019054624875N00806997EA0196202033
B1019064624875N00806990EA0196202033
B1019074624876N00806982EA0196202033
B1019084624879N00806976EA0196102033
B1019094624882N00806970EA0196202033
B1019104624888N00806969EA0196202033
B1019114624893N00806970EA0196202033
B1019124624896N00806972EA0196202033
B1019134624900N00806975EA0196102032
B1019144624904N00806979EA0196002031
B1019154624907N00806984EA0196002032
B1019164624910N00806989EA0196002031
B1019174624912N00806995EA0196002032
B1019184624913N00807001EA0196002032
B1019194624914N00807008EA0196102032
B1019204624914N00807013EA0196002031
B1019214624913N00807019EA0195902031
B1019224624912N00807025EA0195902030
B1019234624909N00807030EA0195802030
B1019244624906N00807035EA0195902030
B1019254624903N00807040EA0195902030
B1019264624899N00807045EA0196002031
B1019264624899N00807045EA0196102033
B1019274624895N00807048EA0196102033
B1019284624890N00807051EA0196302034
B1019294624885N00807054EA0196402035
B1019304624881N00807057EA0196402035
B1019314624877N00807059EA0196402035
B1019324624873N00807060EA0196402036
B1019334624867N00807059EA0196502036
B1019344624863N00807055EA0196502036
B1019354624859N00807050EA0196502036
B1019364624855N00807044EA0196402036
B1019374624854N00807037EA0196402035
B1019384624852N00807030EA0196202033
B1019394624852N00807022EA0195902031
B1019404624854N00807014EA0195702029
B1019414624856N00807005EA0195802030
B1019424624860N00806999EA0196002031
B1019434624864N00806996EA0195902031
B1019444624868N00806994EA0195802030
B1019454624873N00806994EA0195702028
B1019464624878N00806995EA0195602027
B1019474624883N00806996EA0195502027
B1019484624888N00807000EA0195602027
B1019494624893N00807004EA0195702029
B1019504624897N00807008EA0196002031
B1019514624900N00807013EA0196102032
B1019524624903N00807017EA0196102032
B1019534624906N00807020EA0196102032
B1019544624909N00807025EA0196102032
B1019554624913N00807029EA0196102032
B1019564624916N00807032EA0196102033
B1019574624919N00807036EA0196102033
B1019584624922N00807041EA0196202033
B1019594624925N00807046EA0196202033
B1020004624927N00807051EA0196302034
B1020014624929N00807057EA0196302035
B1020024624930N00807063EA0196402035
B1020034624930N00807069EA0196502036
B1020044624928N00807076EA0196502036
B1020054624925N00807081EA0196402036
B1020064624921N00807085EA0196302035
B1020074624917N00807089EA0196202033
B1020084624914N00807094EA0196202033
B1020094624909N00807098EA0196302034
B1020104624904N00807102EA0196602037
B1020114624899N00807103EA0196802039
B1020124624895N00807100EA0196702038
B1020134624892N00807093EA0196702039
B1020144624889N00807087EA0196702039
B1020154624888N00807080EA0196702038
B1020164624888N00807072EA0196702038
B1020174624890N00807063EA0196702038
B1020184624893N00807055EA0196902040
B1020194624898N00807049EA0197102042
B1020204624903N00807045EA0197202043
B1020214624907N00807045EA0197402045
B1020224624911N00807047EA0197302044
B1020234624914N00807052EA0197302045
B1020244624917N00807057EA0197402045
B1020254624920N00807063EA0197402045
B1020264624920N00807070EA0197402045
B1020274624920N00807077EA0197302044
B1020284624920N00807085EA0197202044
B1020294624917N00807093EA0197402045
B1020294624917N00807093EA0197502046
B1020304624913N00807099EA0197502046
B1020314624909N00807103EA0197702048
B1020314624909N00807103EA0197802049
B1020324624904N00807107EA0197802049
B1020334624900N00807109EA0197802050
B1020344624896N00807110EA0197802049
B1020354624892N00807110EA0197602047
B1020364624887N00807107EA0197502046
B1020374624881N00807102EA0197402045
B1020384624877N00807095EA0197502047
B1020394624874N00807088EA0197602048
B1020404624872N00807082EA0197602047
B1020414624871N00807075EA0197402045
B1020424624871N00807067EA0197202043
B1020434624871N00807057EA0197002041
B1020444624873N00807048EA0196802040
B1020454624876N00807039EA0196802040
B1020464624879N00807032EA0196902040
B1020464624879N00807032EA0197002041
B1020474624884N00807027EA0197002041
B1020484624889N00807024EA0197002042
B1020484624889N00807024EA0197102042
B1020494624894N00807022EA0197102042
B1020504624898N00807022EA0197102043
B1020514624903N00807023EA0197202044
B1020524624907N00807026EA0197302045
B1020534624911N00807030EA0197402045
B1020544624914N00807035EA0197502046
B1020554624915N00807040EA0197602047
B1020564624915N00807046EA0197702048
B1020574624914N00807052EA0197802050
B1020584624913N00807057EA0198002052
B1020594624911N00807062EA0198202053
B1021004624908N00807065EA0198402055
B1021014624904N00807067EA0198502056
B1021024624900N00807068EA0198602057
B1021034624896N00807069EA0198702058
B1021044624892N00807068EA0198702058
B1021054624888N00807065EA0198802059
B1021064624884N00807060EA0198702058
B1021074624881N00807054EA0198802059
B1021084624879N00807046EA0198902060
B1021094624878N00807038EA0198802059
B1021104624879N00807030EA0198702058
B1021114624880N00807021EA0198602057
B1021124624883N00807013EA0198402056
B1021134624887N00807006EA0198402055
B1021144624892N00807000EA0198402055
B1021154624896N00806998EA0198502056
B1021164624902N00806997EA0198602058
B1021174624908N00806999EA0198802060
B1021184624912N00807002EA0199102062
B1021194624915N00807006EA0199302064
B1021204624918N00807011EA0199502066
B1021214624919N00807016EA0199602068
B1021224624920N00807021EA0199702069
B1021234624920N00807027EA0199902070
B1021244624917N00807032EA0199902071
B1021254624912N00807034EA0200102073
B1021264624907N00807034EA0200302074
B1021274624902N00807030EA0200502076
B1021284624898N00807024EA0200802079
B1021294624895N00807018EA0200902080
B1021304624892N00807010EA0201002081
B1021314624892N00807001EA0201002081
B1021324624893N00806992EA0200902080
B1021334624896N00806985EA0200902080
B1021344624900N00806980EA0201002081
B1021354624906N00806977EA0201002081
B1021364624913N00806977EA0201202084
B1021374624918N00806979EA0201402085
B1021384624922N00806981EA0201502086
B1021394624926N00806985EA0201402086
B1021404624930N00806989EA0201602088
B1021414624934N00806995EA0201802089
B1021424624936N00807000EA0202002091
B1021434624939N00807006EA0202202093
B1021444624939N00807011EA0202202094
B1021454624939N00807015EA0202302094
B1021464624939N00807020EA0202402096
B1021474624938N00807025EA0202502097
B1021484624934N00807029EA0202802099
B1021494624931N00807031EA0202902101
B1021504624926N00807030EA0203002102
B1021514624921N00807028EA0203202103
B1021524624917N00807024EA0203502106
B1021534624914N00807018EA0203702109
B1021544624912N00807011EA0203802109
B1021554624913N00807002EA0203902110
B1021564624916N00806993EA0204002111
B1021574624920N00806986EA0204302114
B1021584624925N00806981EA0204402115
B1021594624930N00806977EA0204402116
B1022004624936N00806978EA0204502117
B1022014624940N00806979EA0204702118
B1022024624945N00806982EA0204802119
B1022034624949N00806985EA0204902120
B1022044624951N00806991EA0205002121
B1022054624952N00806998EA0205102122
B1022064624952N00807004EA0205202123
B1022074624951N00807010EA0205302124
B1022084624949N00807015EA0205302125
B1022094624947N00807020EA0205502126
B1022104624944N00807024EA0205602127
B1022114624941N00807027EA0205602128
B1022124624938N00807028EA0205702128
B1022134624933N00807028EA0205702128
B1022144624929N00807025EA0205602128
B1022154624925N00807019EA0205502126
B1022164624921N00807013EA0205702128
B1022174624920N00807003EA0205802129
B1022184624921N00806992EA0205902130
B1022194624923N00806983EA0206002132
B1022204624926N00806976EA0206202133
B1022214624930N00806969EA0206202133
B1022224624936N00806966EA0206102133
B1022234624941N00806964EA0206202133
B1022234624941N00806964EA0206202134
B1022244624946N00806964EA0206202134
B1022254624952N00806967EA0206302134
B1022254624952N00806967EA0206302134
B1022264624956N00806970EA0206302135
B1022274624958N00806978EA0206302135
B1022284624959N00806985EA0206402135
B1022294624959N00806992EA0206402135
B1022304624958N00806998EA0206402135
B1022314624958N00807004EA0206402135
B1022324624956N00807010EA0206302135
B1022334624954N00807015EA0206402135
B1022344624951N00807020EA0206502136
B1022354624947N00807024EA0206702138
B1022364624944N00807027EA0206802139
B1022374624940N00807028EA0206902140
B1022384624938N00807029EA0206802140
B1022394624933N00807030EA0206802139
B1022404624929N00807030EA0206702139
B1022414624924N00807028EA0206802139
B1022424624920N00807024EA0206702139
B1022434624916N00807019EA0206702139
B1022444624913N00807013EA0206702139
B1022454624911N00807006EA0206702138
B1022464624909N00806999EA0206502137
B1022474624908N00806992EA0206402136
B1022484624909N00806982EA0206402135
B1022494624913N00806973EA0206602137
B1022504624917N00806965EA0206702138
B1022514624921N00806959EA0206702139
B1022524624926N00806956EA0206802140
B1022534624932N00806955EA0206802139
B1022544624937N00806959EA0206802139
B1022554624941N00806963EA0206702139
B1022564624945N00806968EA0206902140
B1022574624945N00806976EA0207102142
B1022584624945N00806983EA0207202144
B1022594624944N00806988EA0207302144
B1022594624944N00806988EA0207302145
B1023004624941N00806993EA0207302145
B1023014624938N00806996EA0207402145
B1023024624934N00806999EA0207402145
B1023034624929N00807000EA0207602147
B1023044624923N00807000EA0207502147
B1023054624918N00806997EA0207602147
B1023064624914N00806993EA0207402146
B1023074624911N00806988EA0207302145
B1023084624908N00806982EA0207302144
B1023094624905N00806974EA0207102143
B1023104624903N00806966EA0207002142
B1023114624903N00806957EA0207002141
B1023124624904N00806948EA0206902140
B1023134624906N00806940EA0206902140
B1023144624911N00806933EA0206902141
B1023154624915N00806926EA0207002142
B1023164624920N00806921EA0207102142
B1023174624926N00806920EA0207102143
B1023184624932N00806920EA0207102142
B1023194624938N00806920EA0207002141
B1023204624941N00806927EA0206902140
B1023214624945N00806932EA0206702139
B1023224624947N00806939EA0206702138
B1023224624947N00806939EA0206702138
B1023234624948N00806947EA0206702138
B1023244624948N00806955EA0206802139
B1023254624948N00806961EA0206802139
B1023264624946N00806968EA0206702139
B1023274624943N00806974EA0206702139
B1023284624939N00806979EA0206802140
B1023294624935N00806983EA0206902140
B1023304624930N00806986EA0206902141
B1023314624926N00806987EA0206902140
B1023324624922N00806989EA0206802139
B1023334624918N00806991EA0206702138
B1023344624915N00806994EA0206602137
B1023354624910N00806995EA0206502136
B1023364624905N00806996EA0206502136
B1023374624899N00806995EA0206402136
B1023384624894N00806993EA0206402135
B1023394624890N00806989EA0206302134
B1023404624887N00806984EA0206002132
B1023414624883N00806977EA0205802130
B1023424624880N00806970EA0205802129
B1023434624878N00806962EA0205702128
B1023444624878N00806953EA0205502127
B1023454624879N00806944EA0205402125
B1023464624881N00806936EA0205302124
B1023474624885N00806929EA0205202123
B1023484624888N00806923EA0205002122
B1023494624892N00806919EA0204902120
B1023504624895N00806915EA0204702118
B1023514624900N00806914EA0204502116
B1023524624906N00806915EA0204202114
B1023534624912N00806919EA0204302114
B1023544624917N00806923EA0204302114
B1023554624919N00806929EA0204302114
B1023564624920N00806935EA0204302114
B1023574624918N00806941EA0204202113
B1023584624918N00806948EA0204102112
B1023594624917N00806955EA0204002112
B1024004624916N00806963EA0204102112
B1024014624914N00806971EA0204202113
B1024024624914N00806977EA0204202114
B1024034624914N00806984EA0204402115
B1024044624914N00806990EA0204402116
B1024054624914N00806997EA0204402115
B1024064624916N00807003EA0204502116
B1024074624917N00807009EA0204602117
B1024084624917N00807015EA0204502116
B1024094624918N00807021EA0204502116
B1024104624918N00807028EA0204502117
B1024114624918N00807034EA0204702118
B1024124624917N00807040EA0204802119
B1024134624917N00807045EA0204902120
B1024144624914N00807050EA0205002121
B1024154624911N00807053EA0204902121
B1024164624907N00807055EA0205002121
B1024174624902N00807056EA0205002121
B1024184624897N00807056EA0205102122
B1024194624893N00807054EA0205002121
B1024204624890N00807051EA0204902120
B1024214624886N00807047EA0204802119
B1024224624883N00807041EA0204802119
B1024234624881N00807033EA0204902120
B1024244624881N00807024EA0204802119
B1024254624883N00807016EA0204702119
B1024264624886N00807009EA0204702118
B1024274624889N00807002EA0204702118
B1024284624893N00806997EA0204702118
B1024294624896N00806993EA0204602117
B1024304624901N00806990EA0204402115
B1024314624907N00806989EA0204302115
B1024324624913N00806989EA0204402115
B1024334624917N00806992EA0204502117
B1024344624921N00806995EA0204602117
B1024354624925N00806999EA0204602118
B1024364624927N00807006EA0204602118
B1024374624929N00807014EA0204602118
B1024384624928N00807021EA0204802119
B1024394624925N00807028EA0204902121
B1024404624921N00807031EA0205102122
B1024414624916N00807034EA0205302124
B1024424624911N00807035EA0205302125
B1024434624908N00807036EA0205302124
B1024444624904N00807037EA0205102122
B1024454624900N00807038EA0204902121
B1024464624895N00807039EA0204802120
B1024474624891N00807038EA0204702118
B1024484624885N00807035EA0204602118
B1024494624881N00807030EA0204602117
B1024504624876N00807025EA0204502116
B1024514624872N00807021EA0204502116
B1024524624867N00807016EA0204502116
B1024534624862N00807012EA0204402116
B1024544624857N00807007EA0204502116
B1024554624852N00807003EA0204502116
B1024564624848N00806998EA0204402116
B1024574624842N00806995EA0204302114
B1024584624837N00806991EA0204302115
B1024594624832N00806986EA0204202113
B1025004624827N00806982EA0204002111
B1025014624822N00806976EA0203902110
B1025024624818N00806971EA0203702108
B1025034624814N00806965EA0203502106
B1025044624811N00806958EA0203302104
B1025054624808N00806951EA0203102102
B1025064624805N00806943EA0203002101
B1025074624802N00806935EA0203002101
B1025084624799N00806927EA0203102102
B1025094624796N00806919EA0203102103
B1025104624793N00806910EA0203102102
B1025114624790N00806903EA0203002101
B1025124624788N00806895EA0202802100
B1025124624788N00806895EA0202702098
B1025134624786N00806887EA0202602098
B1025144624784N00806879EA0202402095
B1025154624781N00806870EA0202202093
B1025164624779N00806861EA0202002092
B1025164624779N00806861EA0202002091
B1025174624777N00806852EA0202002091
B1025184624774N00806845EA0201802090
B1025194624772N00806838EA0201702088
B1025204624770N00806831EA0201502086
B1025214624767N00806823EA0201202084
B1025224624765N00806815EA0201102082
B1025234624763N00806807EA0201002081
B1025244624761N00806798EA0201002081
B1025254624758N00806790EA0201002081
B1025264624756N00806783EA0200902081
B1025274624754N00806775EA0200802080
B1025284624752N00806767EA0200802080
B1025294624750N00806760EA0200802080
B1025304624748N00806753EA0200802079
B1025314624745N00806747EA0200702079
B1025324624741N00806740EA0200702078
B1025334624737N00806734EA0200702079
B1025344624733N00806727EA0200902080
B1025354624729N00806720EA0201202084
B1025354624729N00806720EA0201602087
B1025364624726N00806713EA0201602087
B1025374624723N00806706EA0201902090
B1025384624721N00806700EA0202102092
B1025394624720N00806694EA0202202094
B1025404624720N00806690EA0202202093
B1025414624719N00806684EA0202102093
B1025424624718N00806677EA0202202093
B1025434624715N00806670EA0202202093
B1025444624712N00806665EA0202202093
B1025454624708N00806662EA0202202094
B1025464624705N00806661EA0202202093
B1025474624700N00806661EA0202102092
B1025484624697N00806665EA0202002091
B1025494624695N00806671EA0201802089
B1025504624693N00806679EA0201902090
B1025514624693N00806688EA0202002091
B1025524624695N00806695EA0202102093
B1025534624698N00806700EA0202302095
B1025544624703N00806702EA0202602097
B1025554624707N00806702EA0202802099
B1025564624712N00806701EA0203002101
B1025574624717N00806697EA0203102102
B1025584624722N00806693EA0203202103
B1025594624727N00806688EA0203402105
B1026004624729N00806681EA0203402105
B1026014624730N00806675EA0203302104
B1026024624730N00806669EA0203202104
B1026034624730N00806662EA0203102103
B1026044624730N00806654EA0203102102
B1026054624727N00806647EA0203202104
B1026064624724N00806641EA0203502106
B1026074624720N00806638EA0203602108
B1026084624716N00806636EA0203602108
B1026094624712N00806636EA0203702108
B1026104624709N00806636EA0203602108
B1026114624705N00806636EA0203602107
B1026124624702N00806638EA0203502106
B1026134624699N00806642EA0203402105
B1026144624697N00806647EA0203502106
B1026154624696N00806653EA0203502106
B1026154624696N00806653EA0203402105
B1026164624697N00806659EA0203402105
B1026174624697N00806665EA0203202104
B1026184624699N00806672EA0203202103
B1026194624701N00806679EA0203202103
B1026194624701N00806679EA0203102102
B1026204624703N00806684EA0203102102
B1026214624707N00806689EA0202902101
B1026224624712N00806691EA0202802100
B1026234624718N00806692EA0202802100
B1026244624724N00806690EA0202802099
B1026254624730N00806686EA0202802099
B1026264624734N00806681EA0202802099
B1026274624737N00806675EA0202802099
B1026284624739N00806668EA0202902101
B1026284624739N00806668EA0203102102
B1026294624737N00806660EA0203102102
B1026304624734N00806653EA0203202103
B1026314624731N00806646EA0203202103
B1026324624727N00806642EA0203202103
B1026324624727N00806642EA0203202103
B1026334624724N00806638EA0203202103
B1026344624719N00806636EA0203102102
B1026354624714N00806634EA0203002102
B1026354624714N00806634EA0203002101
B1026364624709N00806633EA0203002101
B1026374624704N00806633EA0203002102
B1026384624700N00806635EA0203102103
B1026394624696N00806639EA0203102103
B1026404624693N00806643EA0203202103
B1026414624690N00806648EA0203202103
B1026424624689N00806652EA0203102103
B1026434624687N00806658EA0203002102
B1026444624685N00806664EA0203002101
B1026454624684N00806671EA0203002102
B1026464624684N00806678EA0203202103
B1026474624684N00806685EA0203402105
B1026484624685N00806691EA0203402105
B1026494624686N00806696EA0203402105
B1026504624687N00806701EA0203302105
B1026514624687N00806707EA0203102103
B1026524624688N00806714EA0203102102
B1026534624687N00806721EA0203102102
B1026544624685N00806725EA0203002101
B1026554624680N00806727EA0203002102
B1026564624676N00806727EA0203102102
B1026574624672N00806726EA0203102103
B1026584624669N00806723EA0203202104
B1026594624667N00806718EA0203202104
B1027004624665N00806713EA0203202104
B1027014624663N00806705EA0203202103
B1027024624664N00806697EA0203202103
B1027034624665N00806688EA0203202104
B1027044624667N00806679EA0203302105
B1027054624671N00806672EA0203402106
B1027064624676N00806667EA0203502106
B1027074624681N00806663EA0203602108
B1027084624686N00806662EA0203602107
B1027094624692N00806664EA0203602107
B1027104624697N00806667EA0203702109
B1027114624701N00806672EA0203802109
B1027124624705N00806678EA0203802109
B1027134624706N00806684EA0203702108
B1027144624707N00806691EA0203602107
B1027154624706N00806698EA0203502107
B1027164624704N00806705EA0203602107
B1027174624699N00806709EA0203702108
B1027184624695N00806711EA0203702108
B1027194624690N00806710EA0203702108
B1027204624687N00806709EA0203702108
B1027214624683N00806707EA0203902110
B1027224624680N00806704EA0203902111
B1027234624677N00806700EA0204002111
B1027244624675N00806693EA0204102113
B1027254624675N00806685EA0204302114
B1027264624676N00806676EA0204402116
B1027274624679N00806669EA0204502117
B1027284624683N00806663EA0204602118
B1027294624688N00806660EA0204602117
B1027304624694N00806659EA0204602118
B1027314624700N00806660EA0204802119
B1027324624705N00806663EA0204702119
B1027334624708N00806669EA0204802119
B1027344624711N00806675EA0204702118
B1027354624711N00806682EA0204702118
B1027364624709N00806689EA0204702118
B1027374624707N00806695EA0204802119
B1027384624704N00806699EA0204902120
B1027394624701N00806701EA0204902120
B1027404624697N00806702EA0204802120
B1027414624692N00806701EA0204902121
B1027414624692N00806701EA0205102122
B1027424624689N00806696EA0205102122
B1027434624686N00806691EA0205202123
B1027444624684N00806684EA0205302124
B1027454624682N00806678EA0205302125
B1027464624681N00806671EA0205402126
B1027474624682N00806664EA0205502127
B1027474624682N00806664EA0205702129
B1027484624684N00806655EA0205702129
B1027494624686N00806645EA0205902131
B1027504624690N00806639EA0206002132
B1027514624696N00806636EA0206102132
B1027524624702N00806634EA0206102133
B1027534624708N00806636EA0206202133
B1027544624713N00806639EA0206102133
B1027554624718N00806643EA0206202133
B1027564624722N00806649EA0206102132
B1027574624721N00806657EA0206102132
B1027584624720N00806663EA0205902131
B1027594624716N00806669EA0206102132
B1028004624712N00806672EA0206302134
B1028014624708N00806674EA0206402136
B1028024624704N00806673EA0206602137
B1028034624701N00806670EA0206602138
B1028044624698N00806667EA0206602138
B1028054624695N00806663EA0206702138
B1028064624691N00806658EA0206802140
B1028074624689N00806652EA0206902141
B1028084624689N00806644EA0207202143
B1028094624689N00806635EA0207302145
B1028104624690N00806627EA0207402146
B1028114624692N00806620EA0207602147
B1028124624697N00806615EA0207602147
B1028134624702N00806613EA0207502146
B1028144624708N00806612EA0207402146
B1028154624714N00806613EA0207502146
B1028164624720N00806616EA0207602147
B1028174624724N00806621EA0207602147
B1028184624726N00806627EA0207602148
B1028194624727N00806634EA0207602147
B1028204624727N00806642EA0207502146
B1028214624726N00806649EA0207602147
B1028224624722N00806654EA0207602148
B1028234624718N00806658EA0207802150
B1028244624715N00806661EA0208102152
B1028254624711N00806663EA0208102153
B1028264624708N00806663EA0208202154
B1028274624704N00806661EA0208302154
B1028284624700N00806656EA0208502156
B1028294624697N00806649EA0208602157
B1028304624696N00806641EA0208802160
B1028314624697N00806632EA0209002162
B1028324624699N00806623EA0209102163
B1028334624704N00806618EA0209202163
B1028344624708N00806614EA0209202163
B1028354624714N00806615EA0209102163
B1028364624719N00806617EA0209202163
B1028374624723N00806621EA0209202164
B1028384624726N00806627EA0209102162
B1028394624727N00806635EA0208902161
B1028404624727N00806643EA0209002161
B1028414624725N00806650EA0209202163
B1028424624721N00806656EA0209402165
B1028434624716N00806661EA0209702168
B1028444624711N00806663EA0209902171
B1028454624708N00806665EA0210102172
B1028464624704N00806665EA0210102173
B1028474624700N00806663EA0210202173
B1028484624697N00806661EA0210202173
B1028494624693N00806656EA0210202173
B1028504624690N00806650EA0210402175
B1028514624689N00806643EA0210402176
B1028524624689N00806636EA0210402176
B1028534624689N00806629EA0210402176
B1028544624691N00806622EA0210402176
B1028554624693N00806614EA0210402176
B1028564624697N00806607EA0210702178
B1028574624702N00806602EA0210802179
B1028584624708N00806602EA0210902181
B1028594624712N00806604EA0211002182
B1029004624715N00806608EA0211002182
B1029014624718N00806614EA0211102182
B1029024624721N00806620EA0211202183
B1029034624722N00806627EA0211202184
B1029044624723N00806635EA0211502186
B1029054624720N00806641EA0211602187
B1029064624717N00806647EA0211602188
B1029074624713N00806650EA0211702188
B1029084624708N00806651EA0211702189
B1029094624704N00806651EA0211702189
B1029104624700N00806650EA0211702188
B1029114624695N00806646EA0211602187
B1029124624692N00806640EA0211702189
B1029134624689N00806632EA0211802190
B1029144624690N00806623EA0211902191
B1029154624692N00806614EA0212002191
B1029154624692N00806614EA0212102193
B1029164624695N00806605EA0212102193
B1029174624697N00806597EA0212402196
B1029174624697N00806597EA0212602197
B1029184624699N00806589EA0212602197
B1029194624701N00806582EA0212702199
B1029204624704N00806575EA0212802200
B1029214624708N00806569EA0212902200
B1029224624711N00806564EA0212902201
B1029234624716N00806559EA0212902201
B1029244624721N00806555EA0213002201
B1029254624726N00806553EA0213002202
B1029264624731N00806554EA0213002202
B1029274624736N00806557EA0213002201
B1029284624740N00806562EA0213002201
B1029294624743N00806568EA0213202203
B1029304624744N00806574EA0213302204
B1029314624745N00806579EA0213302204
B1029324624743N00806583EA0213302205
B1029334624740N00806586EA0213502206
B1029344624736N00806589EA0213702208
B1029354624732N00806590EA0213802209
B1029364624728N00806589EA0213802209
B1029374624725N00806585EA0213802209
B1029384624721N00806581EA0213802209
B1029394624717N00806575EA0213802210
B1029404624715N00806568EA0214002211
B1029414624714N00806560EA0214002212
B1029414624714N00806560EA0214002211
B1029424624715N00806552EA0214002211
B1029434624717N00806545EA0214002211
B1029444624720N00806539EA0213902210
B1029454624723N00806533EA0213802209
B1029464624727N00806528EA0213602207
B1029474624731N00806525EA0213502206
B1029484624737N00806523EA0213402205
B1029494624743N00806524EA0213402206
B1029504624749N00806527EA0213602208
B1029514624754N00806530EA0213802210
B1029524624758N00806536EA0213902211
B1029534624762N00806540EA0214002212
B1029544624766N00806544EA0214102212
B1029554624770N00806548EA0214002212
B1029564624773N00806554EA0213902210
B1029574624775N00806560EA0213902210
B1029584624777N00806568EA0214202213
B1029594624778N00806576EA0214502217
B1030004624779N00806584EA0214802219
B1030014624778N00806589EA0214902221
B1030024624775N00806593EA0215102222
B1030034624771N00806595EA0215202223
B1030044624766N00806595EA0215302224
B1030054624761N00806594EA0215402225
B1030064624757N00806592EA0215602227
B1030074624754N00806586EA0215602228
B1030084624752N00806579EA0215702229
B1030094624751N00806571EA0215802229
B1030104624752N00806563EA0215802229
B1030114624755N00806555EA0215902231
B1030124624761N00806549EA0216102233
B1030134624767N00806546EA0216202233
B1030144624773N00806545EA0216402235
B1030154624778N00806547EA0216502236
B1030164624783N00806550EA0216602237
B1030174624787N00806556EA0216602237
B1030184624790N00806563EA0216702239
B1030194624793N00806570EA0216902240
B1030204624794N00806578EA0217202243
B1030214624795N00806587EA0217502246
B1030224624795N00806594EA0217602248
B1030234624793N00806599EA0217602248
B1030244624790N00806602EA0217702248
B1030254624787N00806605EA0217702248
B1030264624783N00806605EA0217602247
B1030274624779N00806603EA0217602248
B1030284624774N00806599EA0217702249
B1030294624771N00806593EA0218002251
B1030304624770N00806586EA0218002251
B1030314624771N00806579EA0218102252
B1030324624773N00806571EA0218102252
B1030324624773N00806571EA0218302255
B1030334624777N00806563EA0218302255
B1030334624777N00806563EA0218602258
B1030344624782N00806557EA0218602258
B1030354624787N00806553EA0218802260
B1030364624792N00806551EA0218902261
B1030374624798N00806552EA0219002262
B1030384624803N00806555EA0219202263
B1030394624808N00806560EA0219202264
B1030404624811N00806566EA0219402266
B1030414624814N00806573EA0219802269
B1030424624814N00806580EA0220102272
B1030434624813N00806585EA0220302274
B1030444624811N00806589EA0220402276
B1030454624808N00806592EA0220502276
B1030464624804N00806592EA0220502277
B1030474624800N00806591EA0220502276
B1030484624796N00806588EA0220502277
B1030494624793N00806582EA0220702278
B1030504624792N00806575EA0220702279
B1030514624790N00806567EA0220902280
B1030524624790N00806559EA0221002282
B1030534624793N00806551EA0221302284
B1030544624795N00806543EA0221502286
B1030554624800N00806537EA0221702289
B1030564624805N00806535EA0221802289
B1030574624811N00806535EA0222002291
B1030584624816N00806537EA0222102293
B1030594624821N00806540EA0222302294
B1031004624826N00806545EA0222402295
B1031004624826N00806545EA0222602298
B1031014624828N00806553EA0222602298
B1031024624828N00806562EA0222902300
B1031034624826N00806568EA0223102303
B1031044624823N00806572EA0223402306
B1031054624820N00806574EA0223602307
B1031064624818N00806575EA0223602308
B1031074624815N00806574EA0223502306
B1031084624811N00806573EA0223402306
B1031094624807N00806569EA0223502306
B1031104624804N00806563EA0223702309
B1031114624802N00806555EA0224002311
B1031124624802N00806547EA0224202313
B1031134624803N00806540EA0224302315
B1031144624806N00806532EA0224402315
B1031154624809N00806525EA0224402315
B1031164624814N00806520EA0224602317
B1031174624819N00806518EA0224702318
B1031184624825N00806519EA0224902320
B1031194624830N00806522EA0225002321
B1031204624835N00806529EA0225002322
B1031214624838N00806536EA0225302324
B1031214624838N00806536EA0225502326
B1031224624839N00806544EA0225502326
B1031234624838N00806552EA0225802329
B1031244624837N00806557EA0226002331
B1031254624834N00806560EA0226102332
B1031264624831N00806562EA0226102333
B1031274624828N00806562EA0226202333
B1031284624824N00806560EA0226302335
B1031294624820N00806557EA0226502337
B1031304624817N00806553EA0226602337
B1031314624814N00806547EA0226702339
B1031324624813N00806540EA0226802339
B1031334624814N00806533EA0226802339
B1031344624817N00806526EA0226702339
B1031354624821N00806520EA0226902341
B1031364624827N00806517EA0227202344
B1031374624833N00806518EA0227402345
B1031374624833N00806518EA0227502346
B1031384624838N00806521EA0227502346
B1031394624842N00806527EA0227702348
B1031404624846N00806533EA0227902350
B1031414624849N00806539EA0228002352
B1031424624851N00806546EA0228202353
B1031434624852N00806552EA0228302354
B1031444624853N00806558EA0228402355
B1031454624852N00806563EA0228502356
B1031464624848N00806568EA0228502356
B1031474624844N00806572EA0228602357
B1031484624839N00806574EA0228802360
B1031494624835N00806575EA0229002362
B1031504624831N00806574EA0229202363
B1031514624827N00806571EA0229102363
B1031524624824N00806566EA0229302364
B1031534624821N00806559EA0229402366
B1031544624820N00806550EA0229602367
B1031554624821N00806541EA0229602368
B1031564624824N00806535EA0229702368
B1031574624829N00806531EA0229802369
B1031584624835N00806529EA0230102372
B1031594624842N00806528EA0230402376
B1032004624848N00806530EA0230702378
B1032014624853N00806533EA0230802379
B1032024624857N00806537EA0230702379
B1032034624857N00806545EA0230802379
B1032044624857N00806551EA0231002381
B1032054624855N00806558EA0231202383
B1032064624853N00806563EA0231302384
B1032074624850N00806567EA0231402385
B1032084624847N00806569EA0231602387
B1032094624842N00806569EA0231502386
B1032104624837N00806569EA0231602387
B1032114624833N00806567EA0231702388
B1032124624830N00806564EA0231602387
B1032124624830N00806564EA0231602387
B1032134624827N00806559EA0231602387
B1032144624825N00806550EA0231402386
B1032154624825N00806539EA0231402385
B1032164624827N00806529EA0231402385
B1032174624832N00806523EA0231602387
B1032184624840N00806527EA0231902390
B1032194624845N00806531EA0232202393
B1032204624849N00806536EA0232402395
B1032214624852N00806540EA0232502397
B1032224624854N00806547EA0232502397
B1032234624855N00806555EA0232602397
B1032244624855N00806562EA0232602397
B1032254624854N00806569EA0232602397
B1032264624852N00806574EA0232602397
B1032274624850N00806579EA0232602397
B1032284624846N00806582EA0232502397
B1032294624841N00806583EA0232702398
B1032304624836N00806583EA0232702398
B1032314624832N00806581EA0232702399
B1032324624827N00806580EA0232702398
B1032334624823N00806577EA0232602397
B1032344624820N00806573EA0232602397
B1032354624817N00806568EA0232502396
B1032364624814N00806561EA0232402395
B1032374624813N00806553EA0232302395
B1032384624813N00806544EA0232302394
B1032384624813N00806544EA0232302394
B1032394624814N00806536EA0232302394
B1032404624817N00806528EA0232402395
B1032414624820N00806522EA0232402395
B1032414624820N00806522EA0232302394
B1032424624825N00806519EA0232302394
B1032434624830N00806517EA0232202394
B1032444624836N00806516EA0232202393
B1032454624841N00806517EA0232102393
B1032464624846N00806524EA0232102393
B1032474624850N00806531EA0232202393
B1032484624854N00806540EA0232402396
B1032494624856N00806549EA0232702398
B1032504624857N00806557EA0232802400
B1032514624858N00806565EA0232902401
B1032524624858N00806573EA0233002402
B1032534624859N00806579EA0233102402
B1032544624859N00806585EA0233102402
B1032554624859N00806590EA0233102402
B1032554624859N00806590EA0232902401
B1032564624857N00806596EA0232902401
B1032574624854N00806599EA0232902400
B1032584624849N00806602EA0232802400
B1032594624843N00806603EA0232802400
B1033004624838N00806602EA0232902400
B1033014624834N00806598EA0232802399
B1033024624830N00806594EA0232602397
B1033034624827N00806588EA0232302395
B1033044624824N00806582EA0232202393
B1033054624820N00806575EA0232102393
B1033064624818N00806566EA0232102392
B1033074624817N00806557EA0232102393
B1033084624818N00806548EA0232102392
B1033094624819N00806539EA0232302395
B1033104624821N00806532EA0232602397
B1033114624824N00806525EA0232602398
B1033124624826N00806519EA0232702399
B1033134624829N00806513EA0232802400
B1033144624832N00806507EA0233002401
B1033154624836N00806502EA0233002401
B1033164624841N00806500EA0233002402
B1033174624846N00806499EA0233102402
B1033184624851N00806502EA0233002402
B1033194624855N00806506EA0233002401
B1033204624858N00806512EA0232902400
B1033214624859N00806518EA0232702399
B1033224624860N00806526EA0232702398
B1033234624859N00806532EA0232702398
B1033234624859N00806532EA0232602398
B1033244624858N00806539EA0232602398
B1033254624854N00806542EA0232702398
B1033264624851N00806545EA0232602398
B1033274624846N00806546EA0232702398
B1033284624842N00806546EA0232702398
B1033294624838N00806546EA0232702398
B1033304624833N00806545EA0232702399
B1033314624829N00806543EA0232802399
B1033324624825N00806540EA0232902400
B1033334624820N00806536EA0233102402
B1033344624817N00806531EA0233402405
B1033354624813N00806526EA0233602408
B1033364624810N00806521EA0233802409
B1033374624808N00806515EA0233902410
B1033384624806N00806509EA0233902411
B1033394624807N00806502EA0233902411
B1033404624809N00806496EA0234002411
B1033414624813N00806490EA0234102413
B1033414624813N00806490EA0234402415
B1033424624817N00806485EA0234402415
B1033434624822N00806482EA0234602418
B1033444624826N00806482EA0234802419
B1033454624830N00806484EA0234702418
B1033464624835N00806487EA0234702418
B1033474624838N00806494EA0234902421
B1033484624838N00806502EA0235002421
B1033494624837N00806508EA0235002422
B1033504624834N00806515EA0235202423
B1033514624832N00806522EA0235602427
B1033524624828N00806529EA0235502426
B1033534624825N00806535EA0235202424
B1033544624818N00806531EA0235002422
B1033554624812N00806526EA0235302425
B1033564624809N00806519EA0235902430
B1033574624806N00806514EA0236302434
B1033584624804N00806511EA0236402435
B1033594624802N00806509EA0236402435
B1034004624801N00806506EA0236302434
B1034014624799N00806500EA0236102433
B1034024624799N00806494EA0236202434
B1034034624801N00806486EA0236402435
B1034034624801N00806486EA0236502436
B1034044624803N00806479EA0236502436
B1034054624807N00806475EA0236602437
B1034064624811N00806474EA0236602437
B1034074624817N00806477EA0236502437
B1034084624820N00806483EA0236502436
B1034094624823N00806490EA0236702438
B1034104624825N00806498EA0236802439
B1034114624825N00806505EA0237002441
B1034124624824N00806512EA0237002442
B1034134624822N00806518EA0237102442
B1034144624818N00806523EA0237102442
B1034154624813N00806524EA0237002442
B1034164624807N00806522EA0236902441
B1034174624802N00806517EA0236702439
B1034184624798N00806511EA0236702438
B1034194624796N00806502EA0236902440
B1034204624795N00806493EA0237002442
B1034214624795N00806486EA0237202443
B1034224624797N00806480EA0237102443
B1034234624800N00806475EA0237102442
B1034244624803N00806472EA0237002442
B1034254624808N00806469EA0237002441
B1034264624813N00806468EA0236902441
B1034274624819N00806469EA0237002441
B1034284624824N00806473EA0237002441
B1034294624828N00806479EA0237002441
B1034304624831N00806486EA0237202443
B1034314624833N00806493EA0237302444
B1034324624834N00806501EA0237402445
B1034334624835N00806508EA0237602447
B1034344624834N00806514EA0237702448
B1034354624832N00806519EA0237802449
B1034364624828N00806522EA0237702449
B1034374624825N00806526EA0237602448
B1034384624821N00806529EA0237502446
B1034394624816N00806530EA0237402445
B1034404624811N00806530EA0237202443
B1034414624804N00806530EA0237202443
B1034424624798N00806529EA0237302444
B1034434624793N00806527EA0237302444
B1034444624789N00806523EA0237102442
B1034454624785N00806519EA0236802440
B1034464624781N00806513EA0236602438
B1034474624778N00806506EA0236602437
B1034484624776N00806497EA0236502437
B1034494624775N00806489EA0236502437
B1034494624775N00806489EA0236502436
B1034504624774N00806480EA0236502436
B1034514624774N00806472EA0236402435
B1034524624775N00806463EA0236302435
B1034534624777N00806455EA0236302434
B1034544624780N00806448EA0236302435
B1034554624784N00806442EA0236202434
B1034564624788N00806438EA0236102433
B1034574624792N00806437EA0236002431
B1034584624797N00806436EA0235802430
B1034594624802N00806437EA0235702428
B1035004624808N00806439EA0235602427
B1035014624814N00806441EA0235402425
B1035014624814N00806441EA0235502426
B1035024624820N00806444EA0235502426
B1035034624826N00806448EA0235602427
B1035044624832N00806453EA0235702428
B1035054624836N00806457EA0235602428
B1035064624841N00806461EA0235502427
B1035074624846N00806465EA0235502426
B1035084624851N00806468EA0235402426
B1035094624856N00806473EA0235502426
B1035104624862N00806477EA0235502426
B1035114624868N00806481EA0235602427
B1035124624873N00806485EA0235602428
B1035134624879N00806489EA0235802429
B1035144624885N00806492EA0235902431
B1035154624891N00806496EA0236202433
B1035164624897N00806499EA0236502436
B1035174624902N00806501EA0236702439
B1035184624907N00806503EA0237002442
B1035194624912N00806507EA0237202443
B1035204624916N00806511EA0237302444
B1035204624916N00806511EA0237302444
B1035214624918N00806517EA0237302444
B1035224624918N00806523EA0237402445
B1035234624917N00806530EA0237502446
B1035244624914N00806536EA0237702448
B1035254624910N00806540EA0237802449
B1035264624906N00806540EA0237702449
B1035274624901N00806537EA0237602448
B1035284624898N00806531EA0237702449
B1035294624896N00806524EA0238002451
B1035304624896N00806517EA0238102452
B1035314624896N00806509EA0238302454
B1035324624898N00806502EA0238402456
B1035334624901N00806495EA0238502457
B1035344624905N00806488EA0238502457
B1035354624910N00806484EA0238702459
B1035364624916N00806482EA0238902460
B1035374624922N00806484EA0239002461
B1035384624927N00806489EA0239102462
B1035394624930N00806496EA0239002462
B1035404624932N00806505EA0239102462
B1035414624930N00806513EA0239302464
B1035424624927N00806519EA0239602468
B1035434624924N00806524EA0240002472
B1035444624922N00806527EA0240302474
B1035454624919N00806528EA0240202473
B1035464624916N00806526EA0240002472
B1035474624913N00806523EA0240002472
B1035484624909N00806519EA0240102472
B1035494624905N00806514EA0240302474
B1035504624904N00806507EA0240502476
B1035514624904N00806500EA0240502477
B1035524624906N00806493EA0240602477
B1035534624911N00806487EA0240702478
B1035544624916N00806484EA0240802479
B1035554624922N00806484EA0241002481
B1035564624928N00806485EA0241102482
B1035574624931N00806490EA0241302485
B1035584624934N00806495EA0241402485
B1035594624935N00806500EA0241402486
B1036004624935N00806507EA0241602488
B1036014624935N00806513EA0241702489
B1036024624933N00806519EA0241802489
B1036034624930N00806523EA0241902490
B1036044624926N00806525EA0241802489
B1036054624921N00806525EA0241802489
B1036064624916N00806524EA0242002491
B1036064624916N00806524EA0242102492
B1036074624912N00806521EA0242102492
B1036084624910N00806516EA0242102492
B1036094624909N00806509EA0242102492
B1036104624909N00806502EA0242102493
B1036114624910N00806494EA0242202494
B1036124624912N00806487EA0242402495
B1036134624916N00806481EA0242502496
B1036144624920N00806477EA0242302495
B1036154624926N00806474EA0242402495
B1036164624932N00806475EA0242502497
B1036174624937N00806477EA0242702498
B1036184624941N00806481EA0242802500
B1036194624944N00806487EA0242902500
B1036204624945N00806494EA0242902500
B1036214624945N00806500EA0243002501
B1036224624944N00806506EA0243102502
B1036234624941N00806510EA0243102502
B1036244624938N00806513EA0243002501
B1036254624933N00806515EA0243202503
B1036264624929N00806514EA0243302504
B1036274624925N00806511EA0243302504
B1036284624922N00806506EA0243302504
B1036294624921N00806500EA0243302505
B1036304624920N00806493EA0243402505
B1036314624920N00806486EA0243502506
B1036324624922N00806479EA0243402506
B1036334624926N00806472EA0243502506
B1036344624930N00806467EA0243602508
B1036354624935N00806463EA0243702508
B1036354624935N00806463EA0243802509
B1036364624940N00806462EA0243802509
B1036374624945N00806462EA0243902510
B1036384624950N00806464EA0244002511
B1036394624955N00806467EA0244102512
B1036404624958N00806471EA0244102512
B1036414624961N00806476EA0244002511
B1036424624961N00806482EA0243902510
B1036434624961N00806489EA0243902510
B1036444624959N00806496EA0244102512
B1036454624955N00806501EA0244302515
B1036464624952N00806503EA0244502516
B1036474624948N00806502EA0244402516
B1036484624945N00806499EA0244302514
B1036494624942N00806494EA0244302514
B1036504624940N00806488EA0244302514
B1036514624938N00806481EA0244302515
B1036524624939N00806473EA0244302514
B1036534624941N00806465EA0244202513
B1036544624944N00806457EA0244202513
B1036554624948N00806450EA0244402515
B1036564624953N00806445EA0244402515
B1036574624958N00806442EA0244302514
B1036584624963N00806441EA0244202514
B1036594624969N00806442EA0244202513
B1037004624973N00806447EA0244002512
B1037014624977N00806452EA0243902511
B1037024624979N00806458EA0243902511
B1037034624980N00806464EA0243902510
B1037044624981N00806471EA0243802509
B1037054624980N00806477EA0243702509
B1037064624978N00806483EA0243702508
B1037074624974N00806488EA0243702508
B1037084624969N00806491EA0243702508
B1037094624964N00806492EA0243702508
B1037104624960N00806491EA0243802509
B1037114624955N00806488EA0243802509
B1037124624952N00806483EA0243802509
B1037134624949N00806477EA0243702509
B1037144624946N00806471EA0243702508
B1037154624944N00806464EA0243602508
B1037164624943N00806457EA0243602507
B1037174624943N00806449EA0243602507
B1037184624944N00806440EA0243502507
B1037194624946N00806432EA0243502506
B1037204624947N00806424EA0243502506
B1037214624949N00806416EA0243402505
B1037224624951N00806408EA0243302504
B1037234624955N00806401EA0243102502
B1037244624958N00806394EA0242802499
B1037254624962N00806387EA0242502496
B1037264624966N00806381EA0242202494
B1037274624971N00806375EA0242002492
B1037284624976N00806370EA0241902490
B1037294624980N00806365EA0241702488
B1037304624985N00806361EA0241502487
B1037314624990N00806357EA0241302484
B1037324624995N00806352EA0241202483
B1037334625001N00806347EA0241102482
B1037344625007N00806342EA0241002481
B1037354625012N00806338EA0240902481
B1037364625017N00806334EA0240802480
B1037374625023N00806331EA0240602478
B1037384625028N00806328EA0240502476
B1037394625034N00806326EA0240302475
B1037404625041N00806327EA0240302475
B1037414625046N00806330EA0240202474
B1037424625052N00806332EA0240202473
B1037434625057N00806335EA0240102473
B1037444625061N00806338EA0239902471
B1037454625066N00806342EA0239702468
B1037464625071N00806348EA0239502466
B1037474625076N00806354EA0239402466
B1037484625081N00806359EA0239402465
B1037494625085N00806364EA0239302464
B1037504625090N00806370EA0239102462
B1037514625093N00806375EA0238802460
B1037524625097N00806380EA0238702458
B1037534625102N00806386EA0238502457
B1037544625107N00806392EA0238502456
B1037554625112N00806397EA0238502456
B1037564625116N00806403EA0238502456
B1037574625121N00806408EA0238402455
B1037584625125N00806413EA0238202453
B1037594625130N00806419EA0238002451
B1038004625135N00806425EA0237902450
B1038014625140N00806431EA0237802449
B1038024625145N00806437EA0237802449
B1038034625150N00806443EA0237802449
B1038044625155N00806448EA0237702448
B1038054625160N00806453EA0237602447
B1038064625164N00806459EA0237502446
B1038074625169N00806466EA0237302445
B1038084625173N00806471EA0237302444
B1038094625179N00806476EA0237202444
B1038104625183N00806481EA0237102442
B1038114625188N00806487EA0237002442
B1038124625193N00806493EA0236902440
B1038134625198N00806498EA0236702439
B1038134625198N00806498EA0236702438
B1038144625203N00806504EA0236702438
B1038154625208N00806509EA0236602437
B1038164625213N00806515EA0236502436
B1038174625218N00806520EA0236402435
B1038184625223N00806526EA0236302434
B1038194625228N00806531EA0236202433
B1038204625233N00806536EA0236102433
B1038214625239N00806542EA0236102432
B1038224625243N00806547EA0236002431
B1038234625248N00806553EA0235902430
B1038244625253N00806558EA0235802429
B1038254625257N00806564EA0235602428
B1038264625262N00806570EA0235502426
B1038274625266N00806576EA0235402426
B1038284625272N00806581EA0235402425
B1038294625277N00806587EA0235302424
B1038304625282N00806592EA0235202423
B1038314625287N00806597EA0235102422
B1038324625292N00806602EA0235002421
B1038334625297N00806607EA0234902420
B1038344625302N00806613EA0234702419
B1038354625307N00806619EA0234602417
B1038364625313N00806624EA0234502417
B1038374625318N00806630EA0234502416
B1038384625324N00806636EA0234602418
B1038394625329N00806641EA0234802420
B1038404625334N00806645EA0235002421
B1038414625339N00806649EA0235102422
B1038424625344N00806652EA0235102422
B1038434625350N00806656EA0235002422
B1038444625355N00806659EA0235202423
B1038454625359N00806663EA0235202424
B1038454625359N00806663EA0235302424
B1038464625364N00806668EA0235302424
B1038474625367N00806672EA0235302424
B1038484625372N00806677EA0235202423
B1038494625376N00806680EA0235002422
B1038504625381N00806682EA0235002421
B1038514625386N00806685EA0234902421
B1038524625391N00806689EA0234702418
B1038534625395N00806693EA0234502417
B1038544625399N00806698EA0234402415
B1038554625403N00806702EA0234102412
B1038564625408N00806706EA0233902410
B1038574625413N00806710EA0233802409
B1038584625418N00806715EA0233702408
B1038594625422N00806720EA0233702408
B1039004625428N00806726EA0233602407
B1039014625433N00806731EA0233402406
B1039024625438N00806735EA0233202404
B1039034625443N00806740EA0233002402
B1039044625448N00806745EA0232902401
B1039054625453N00806749EA0232902400
B1039064625458N00806755EA0232902400
B1039074625463N00806760EA0232802399
B1039084625467N00806765EA0232702398
B1039094625472N00806770EA0232502396
B1039104625477N00806775EA0232302394
B1039114625482N00806780EA0232202393
B1039124625488N00806785EA0232102392
B1039134625493N00806790EA0231902391
B1039144625498N00806795EA0231902390
B1039154625503N00806800EA0231702388
B1039164625508N00806805EA0231602388
B1039174625512N00806810EA0231502386
B1039184625517N00806815EA0231402385
B1039194625521N00806821EA0231402386
B1039204625526N00806826EA0231602387
B1039214625531N00806831EA0231602387
B1039224625536N00806836EA0231602388
B1039234625540N00806840EA0231702389
B1039244625545N00806843EA0231902391
B1039254625549N00806846EA0232102392
B1039264625554N00806847EA0232102393
B1039274625559N00806847EA0232302394
B1039284625564N00806848EA0232502396
B1039294625569N00806850EA0232602398
B1039304625574N00806852EA0232802399
B1039314625579N00806856EA0232902401
B1039324625582N00806862EA0233002401
B1039334625583N00806868EA0232902400
B1039344625582N00806874EA0232802400
B1039354625580N00806880EA0232902400
B1039364625576N00806884EA0233002401
B1039374625571N00806885EA0233002402
B1039384625566N00806885EA0233102402
B1039394625562N00806882EA0233202403
B1039404625559N00806877EA0233402406
B1039414625558N00806871EA0233502406
B1039424625557N00806864EA0233502407
B1039434625558N00806856EA0233602408
B1039444625561N00806848EA0233902410
B1039454625565N00806842EA0234102412
B1039464625570N00806839EA0234202414
B1039474625574N00806837EA0234302415
B1039484625579N00806836EA0234402415
B1039494625584N00806836EA0234502416
B1039504625588N00806836EA0234502416
B1039514625593N00806839EA0234402416
B1039524625597N00806843EA0234302415
B1039534625600N00806849EA0234302414
B1039544625601N00806856EA0234202413
B1039554625600N00806862EA0234202414
B1039564625599N00806867EA0234202414
B1039574625598N00806872EA0234202413
B1039584625595N00806877EA0234102413
B1039594625592N00806881EA0234102413
B1040004625587N00806885EA0234002412
B1040014625583N00806887EA0234002411
B1040024625579N00806888EA0233902410
B1040034625574N00806888EA0233702408
B1040044625569N00806886EA0233602407
B1040054625564N00806882EA0233702408
B1040064625559N00806875EA0234002411
B1040074625556N00806868EA0234202413
B1040084625554N00806860EA0234302414
B1040094625554N00806853EA0234502416
B1040104625554N00806847EA0234502417
B1040114625556N00806840EA0234602417
B1040124625559N00806834EA0234602417
B1040134625564N00806829EA0234702418
B1040144625570N00806827EA0234802419
B1040144625570N00806827EA0234902420
B1040154625575N00806828EA0234902420
B1040164625579N00806831EA0235002421
B1040174625581N00806835EA0234902421
B1040184625583N00806841EA0234902420
B1040194625583N00806846EA0234802420
B1040194625583N00806846EA0234702418
B1040204625581N00806851EA0234702418
B1040214625578N00806856EA0234502417
B1040224625574N00806861EA0234702418
B1040234625569N00806864EA0234602417
B1040244625564N00806864EA0234702418
B1040254625559N00806863EA0234802419
B1040264625555N00806862EA0234802420
B1040274625551N00806861EA0234902420
B1040284625548N00806859EA0234802420
B1040294625544N00806856EA0234702419
B1040294625544N00806856EA0234702419
B1040304625541N00806850EA0234702419
B1040314625540N00806843EA0234702418
B1040324625541N00806834EA0234802419
B1040334625543N00806827EA0234902421
B1040344625546N00806820EA0235002422
B1040354625549N00806815EA0235102422
B1040364625553N00806812EA0235202423
B1040374625557N00806811EA0235202423
B1040384625563N00806812EA0235202423
B1040394625568N00806815EA0235202424
B1040404625574N00806819EA0235402426
B1040414625576N00806823EA0235602427
B1040424625578N00806828EA0235602428
B1040434625577N00806834EA0235502427
B1040444625575N00806840EA0235502426
B1040454625574N00806846EA0235402425
B1040464625571N00806852EA0235302424
B1040474625568N00806856EA0235402425
B1040484625564N00806858EA0235302424
B1040494625558N00806858EA0235302424
B1040504625553N00806856EA0235402425
B1040514625549N00806851EA0235602427
B1040524625546N00806846EA0235702428
B1040534625543N00806839EA0235802429
B1040544625542N00806833EA0235902431
B1040554625542N00806826EA0235902431
B1040564625544N00806820EA0235902430
B1040574625548N00806815EA0235802429
B1040584625553N00806812EA0235702429
B1040594625559N00806812EA0235702428
B1041004625565N00806813EA0235802429
B1041014625570N00806816EA0235802429
B1041024625575N00806819EA0235902430
B1041034625579N00806823EA0235902430
B1041044625582N00806827EA0235802430
B1041054625586N00806833EA0235802429
B1041064625588N00806840EA0235702428
B1041074625589N00806848EA0235602428
B1041084625589N00806856EA0235502426
B1041094625586N00806863EA0235502426
B1041104625581N00806867EA0235502426
B1041114625577N00806872EA0235502426
B1041124625573N00806875EA0235402425
B1041134625569N00806877EA0235202424
B1041144625564N00806876EA0235002421
B1041154625559N00806874EA0234802419
B1041164625554N00806869EA0235002422
B1041174625549N00806863EA0235102423
B1041184625547N00806856EA0235202424
B1041194625546N00806850EA0235202423
B1041204625546N00806843EA0235202423
B1041214625547N00806836EA0235102423
B1041224625549N00806829EA0235102422
B1041224625549N00806829EA0235102423
B1041234625553N00806822EA0235102423
B1041244625558N00806818EA0235202423
B1041254625564N00806816EA0235202423
B1041264625569N00806815EA0235202423
B1041274625574N00806817EA0235102422
B1041274625574N00806817EA0235002421
B1041284625579N00806820EA0235002421
B1041294625583N00806824EA0235002421
B1041304625588N00806829EA0235002421
B1041314625592N00806835EA0235102422
B1041324625596N00806840EA0235202424
B1041334625600N00806845EA0235402425
B1041344625602N00806850EA0235502426
B1041354625606N00806856EA0235802429
B1041364625609N00806862EA0236202433
B1041374625612N00806868EA0236302434
B1041384625612N00806873EA0236402435
B1041394625611N00806878EA0236302434
B1041404625609N00806884EA0236302435
B1041414625607N00806890EA0236302435
B1041424625605N00806894EA0236402436
B1041434625600N00806892EA0236202433
B1041444625595N00806886EA0236102432
B1041454625592N00806878EA0236202433
B1041454625592N00806878EA0236402435
B1041464625590N00806868EA0236402435
B1041474625590N00806860EA0236502437
B1041484625592N00806853EA0236402436
B1041494625596N00806847EA0236402435
B1041504625600N00806843EA0236502436
B1041514625605N00806839EA0236702438
B1041524625610N00806837EA0236702439
B1041534625616N00806836EA0236702438
B1041544625621N00806837EA0236702439
B1041554625626N00806842EA0236902440
B1041564625630N00806848EA0237102442
B1041574625633N00806855EA0237402445
B1041584625634N00806862EA0237402445
B1041594625635N00806869EA0237402446
B1042004625635N00806875EA0237502446
B1042014625635N00806881EA0237502447
B1042024625633N00806887EA0237602448
B1042034625630N00806891EA0237602447
B1042044625626N00806893EA0237602448
B1042054625621N00806893EA0237802449
B1042064625617N00806890EA0237802449
B1042074625614N00806884EA0237802450
B1042084625612N00806877EA0237902450
B1042094625613N00806867EA0237902450
B1042094625613N00806867EA0237802450
B1042104625615N00806859EA0237802450
B1042114625619N00806852EA0237802449
B1042124625624N00806848EA0237902450
B1042134625631N00806845EA0238102453
B1042144625637N00806845EA0238202453
B1042154625642N00806846EA0238302454
B1042164625646N00806848EA0238202453
B1042174625649N00806853EA0238002451
B1042184625653N00806859EA0238102452
B1042194625656N00806865EA0238202454
B1042204625658N00806870EA0238302455
B1042214625660N00806875EA0238402455
B1042224625662N00806880EA0238202453
B1042234625664N00806885EA0238002452
B1042244625667N00806891EA0237902450
B1042254625670N00806898EA0237802449
B1042264625673N00806905EA0237802449
B1042274625675N00806912EA0237802449
B1042284625678N00806918EA0237802449
B1042294625680N00806924EA0237702448
B1042304625682N00806930EA0237502447
B1042314625684N00806936EA0237302444
B1042324625685N00806943EA0237102442
B1042334625687N00806951EA0237002441
B1042344625689N00806958EA0236902440
B1042354625692N00806965EA0236802439
B1042364625694N00806972EA0236802439
B1042374625697N00806978EA0236902440
B1042384625700N00806985EA0236902440
B1042394625703N00806991EA0237002441
B1042404625705N00806997EA0236802439
B1042414625708N00807002EA0236502437
B1042424625712N00807007EA0236302434
B1042434625716N00807012EA0236102432
B1042444625720N00807018EA0235902430
B1042454625723N00807025EA0235802429
B1042454625723N00807025EA0235702429
B1042464625726N00807032EA0235702429
B1042474625729N00807039EA0235602427
B1042484625730N00807045EA0235302425
B1042494625732N00807051EA0235102422
B1042504625734N00807058EA0234702418
B1042514625735N00807065EA0234402415
B1042524625736N00807073EA0234102413
B1042534625738N00807082EA0233802409
B1042544625742N00807090EA0233602407
B1042554625746N00807098EA0233602407
B1042564625749N00807106EA0233402405
B1042574625753N00807113EA0233102403
B1042584625755N00807122EA0232902400
B1042594625757N00807131EA0232902400
B1043004625758N00807139EA0232902401
B1043014625757N00807148EA0233102402
B1043024625757N00807155EA0233102402
B1043034625757N00807162EA0232902401
B1043034625757N00807162EA0232902400
B1043044625757N00807169EA0232902400
B1043054625758N00807177EA0233002401
B1043064625760N00807186EA0233002402
B1043074625762N00807194EA0233202403
B1043084625764N00807202EA0233202403
B1043094625766N00807209EA0233102402
B1043104625769N00807216EA0232902401
B1043114625773N00807223EA0232902401
B1043124625778N00807229EA0233102402
B1043134625782N00807236EA0233102402
B1043144625785N00807243EA0233002401
B1043154625788N00807250EA0232902400
B1043164625789N00807258EA0232702398
B1043174625792N00807267EA0232502397
B1043184625793N00807274EA0232402396
B1043194625795N00807282EA0232202393
B1043204625796N00807290EA0231902391
B1043214625796N00807298EA0231802389
B1043224625796N00807307EA0231602388
B1043234625796N00807316EA0231502386
B1043244625797N00807324EA0231202383
B1043254625798N00807332EA0231102382
B1043264625799N00807341EA0230802380
B1043274625800N00807349EA0230502377
B1043284625801N00807358EA0230302374
B1043294625802N00807368EA0230102373
B1043304625804N00807377EA0230102372
B1043314625806N00807386EA0229902370
B1043324625808N00807394EA0229702368
B1043334625811N00807401EA0229402365
B1043344625814N00807409EA0229102363
B1043354625816N00807417EA0228902361
B1043364625820N00807425EA0228702359
B1043374625823N00807433EA0228602358
B1043384625827N00807441EA0228502356
B1043394625830N00807448EA0228302355
B1043404625835N00807455EA0228102353
B1043414625838N00807462EA0227902351
B1043424625842N00807470EA0227702348
B1043434625845N00807479EA0227502347
B1043444625849N00807487EA0227502346
B1043454625851N00807496EA0227302345
B1043454625851N00807496EA0227102342
B1043464625854N00807505EA0227102342
B1043474625857N00807514EA0226902340
B1043484625858N00807523EA0226702338
B1043494625860N00807532EA0226602337
B1043504625862N00807541EA0226502337
B1043514625864N00807550EA0226402335
B1043524625866N00807559EA0226202334
B1043534625868N00807567EA0226102332
B1043544625869N00807575EA0225802329
B1043554625871N00807583EA0225502326
B1043564625872N00807593EA0225302324
B1043574625873N00807602EA0225002322
B1043584625874N00807611EA0224902320
B1043594625874N00807620EA0224702318
B1044004625875N00807629EA0224302315
B1044014625876N00807638EA0224002312
B1044024625879N00807648EA0223802310
B1044034625880N00807658EA0223702308
B1044044625881N00807668EA0223702308
B1044054625882N00807678EA0223602307
B1044064625883N00807687EA0223402305
B1044074625884N00807696EA0223202303
B1044084625886N00807705EA0223002301
B1044094625886N00807714EA0222802299
B1044104625887N00807724EA0222602297
B1044114625888N00807733EA0222402295
B1044124625889N00807742EA0222202293
B1044134625891N00807751EA0221902291
B1044144625892N00807761EA0221702288
B1044154625893N00807771EA0221502287
B1044164625894N00807781EA0221502286
B1044174625895N00807791EA0221402285
B1044184625897N00807800EA0221302284
B1044194625898N00807809EA0221102282
B1044204625900N00807818EA0220802280
B1044214625901N00807828EA0220702278
B1044224625902N00807837EA0220602277
B1044234625903N00807847EA0220502276
B1044244625905N00807856EA0220302275
B1044254625906N00807865EA0220102273
B1044264625907N00807875EA0220002271
B1044274625908N00807884EA0219802269
B1044284625908N00807893EA0219702268
B1044294625910N00807903EA0219602267
B1044304625911N00807912EA0219502267
B1044314625912N00807921EA0219402266
B1044324625914N00807930EA0219302264
B1044334625914N00807940EA0219202264
B1044344625916N00807949EA0219102263
B1044354625917N00807958EA0219102262
B1044364625918N00807967EA0219102262
B1044374625919N00807976EA0219002261
B1044384625920N00807984EA0218802260
B1044394625920N00807993EA0218702258
B1044404625921N00808002EA0218502256
B1044414625922N00808011EA0218402255
B1044424625923N00808021EA0218202254
B1044434625924N00808030EA0218102253
B1044444625925N00808039EA0218102252
B1044454625926N00808047EA0218002251
B1044464625927N00808055EA0217802250
B1044474625928N00808063EA0217602248
B1044474625928N00808063EA0217402245
B1044484625929N00808071EA0217302245
B1044494625931N00808080EA0217202244
B1044504625932N00808089EA0217202243
B1044514625933N00808097EA0217102243
B1044524625934N00808105EA0217102242
B1044534625934N00808112EA0217002241
B1044534625934N00808112EA0216702238
B1044544625935N00808120EA0216702238
B1044554625936N00808127EA0216502236
B1044564625938N00808136EA0216302235
B1044574625939N00808144EA0216202234
B1044584625940N00808153EA0216202233
B1044594625940N00808161EA0216102232
B1045004625941N00808169EA0216002231
B1045014625942N00808177EA0215802230
B1045024625942N00808185EA0215702228
B1045034625943N00808194EA0215502227
B1045044625943N00808202EA0215502226
B1045054625944N00808210EA0215502226
B1045064625945N00808219EA0215402225
B1045074625945N00808226EA0215302224
B1045084625946N00808233EA0215102223
B1045094625946N00808241EA0215002221
B1045104625947N00808249EA0214902220
B1045114625948N00808256EA0214802219
B1045124625949N00808264EA0214702218
B1045124625949N00808264EA0214502216
B1045134625950N00808272EA0214502216
B1045144625951N00808280EA0214302215
B1045154625952N00808288EA0214302214
B1045164625953N00808296EA0214202213
B1045174625954N00808304EA0214102212
B1045184625956N00808312EA0214102212
B1045194625957N00808320EA0214002212
B1045204625957N00808328EA0214002211
B1045214625958N00808336EA0214002211
B1045224625958N00808343EA0213902211
B1045234625959N00808351EA0213802210
B1045244625960N00808359EA0213702209
B1045254625960N00808366EA0213502207
B1045264625961N00808375EA0213402205
B1045274625961N00808382EA0213202203
B1045284625961N00808390EA0213102202
B1045294625962N00808398EA0213002201
B1045304625962N00808406EA0212902200
B1045314625962N00808414EA0212802199
B1045324625962N00808422EA0212602198
B1045334625962N00808429EA0212502196
B1045344625962N00808438EA0212302194
B1045354625962N00808446EA0212202193
B1045364625963N00808454EA0212102192
B1045374625963N00808463EA0211902191
B1045384625963N00808471EA0211802189
B1045394625963N00808479EA0211602188
B1045404625964N00808487EA0211502186
B1045414625964N00808496EA0211302185
B1045424625965N00808504EA0211202183
B1045434625965N00808512EA0211002182
B1045444625966N00808521EA0210902180
B1045454625967N00808529EA0210702178
B1045464625967N00808537EA0210602177
B1045474625968N00808546EA0210402176
B1045484625969N00808554EA0210202174
B1045494625970N00808562EA0210102173
B1045504625971N00808570EA0210002171
B1045514625972N00808579EA0209902170
B1045524625973N00808587EA0209802169
B1045534625974N00808595EA0209602167
B1045544625975N00808603EA0209402166
B1045554625976N00808612EA0209302164
B1045564625977N00808620EA0209202163
B1045574625978N00808629EA0209102163
B1045584625979N00808637EA0209002161
B1045594625980N00808645EA0208902160
B1046004625982N00808653EA0208802159
B1046014625982N00808661EA0208702158
B1046024625983N00808669EA0208602157
B1046034625984N00808677EA0208502156
B1046044625986N00808685EA0208302155
B1046054625987N00808693EA0208202154
B1046064625988N00808701EA0208102152
B1046074625989N00808709EA0208002151
B1046084625990N00808717EA0207802150
B1046094625992N00808725EA0207702148
B1046104625993N00808734EA0207602147
B1046114625994N00808742EA0207502146
B1046124625996N00808750EA0207402145
B1046134625997N00808759EA0207302144
B1046144625998N00808767EA0207202143
B1046154625999N00808776EA0207102142
B1046164626000N00808784EA0207002141
B1046174626001N00808792EA0206802140
B1046184626001N00808800EA0206702139
B1046194626002N00808808EA0206602137
B1046204626003N00808816EA0206402136
B1046214626004N00808824EA0206202134
B1046224626005N00808832EA0206002132
B1046234626006N00808840EA0205902130
B1046244626008N00808849EA0205802129
B1046254626009N00808857EA0205702128
B1046264626010N00808866EA0205602127
B1046274626011N00808874EA0205502126
B1046284626012N00808882EA0205302124
B1046294626012N00808891EA0205102122
B1046304626013N00808899EA0204902121
B1046314626014N00808907EA0204802119
B1046324626015N00808916EA0204602117
B1046334626017N00808925EA0204402116
B1046344626018N00808933EA0204302114
B1046354626019N00808941EA0204202113
B1046364626020N00808950EA0204002111
B1046374626022N00808958EA0203902110
B1046384626022N00808966EA0203702109
B1046394626023N00808975EA0203602107
B1046404626025N00808983EA0203502106
B1046414626026N00808991EA0203302105
B1046424626027N00809000EA0203202104
B1046434626028N00809008EA0203102103
B1046444626028N00809016EA0203102102
B1046454626029N00809024EA0203002101
B1046464626029N00809032EA0202902100
B1046474626030N00809040EA0202802099
B1046484626031N00809047EA0202702099
B1046494626032N00809055EA0202702098
B1046504626033N00809063EA0202702098
B1046514626034N00809070EA0202702098
B1046524626035N00809077EA0202702099
B1046534626035N00809084EA0202702098
B1046544626036N00809091EA0202602097
B1046554626037N00809099EA0202402096
B1046564626037N00809107EA0202202094
B1046574626039N00809115EA0202102093
B1046584626040N00809124EA0202202093
B1046594626041N00809132EA0202202093
B1047004626041N00809141EA0202102093
B1047014626041N00809148EA0202102092
B1047024626042N00809156EA0202002091
B1047034626044N00809165EA0201902090
B1047044626044N00809173EA0201702089
B1047054626045N00809181EA0201702088
B1047064626046N00809189EA0201702088
B1047074626047N00809197EA0201502087
B1047084626049N00809205EA0201502086
B1047094626051N00809212EA0201502087
B1047104626053N00809220EA0201402086
B1047114626055N00809228EA0201402086
B1047124626057N00809236EA0201402086
B1047134626059N00809243EA0201402085
B1047134626059N00809243EA0201402085
B1047144626061N00809251EA0201402085
B1047154626063N00809260EA0201502087
B1047164626065N00809269EA0201702089
B1047174626068N00809277EA0201902090
B1047184626070N00809284EA0202002091
B1047194626073N00809290EA0202002091
B1047204626075N00809298EA0201902091
B1047214626077N00809306EA0201902090
B1047224626079N00809314EA0201902090
B1047234626082N00809323EA0201802090
B1047244626084N00809331EA0201802089
B1047254626086N00809339EA0201702089
B1047264626087N00809347EA0201702088
B1047274626089N00809355EA0201502087
B1047284626091N00809364EA0201502086
B1047294626093N00809372EA0201402086
B1047304626095N00809381EA0201502086
B1047314626096N00809389EA0201402085
B1047324626097N00809397EA0201402085
B1047334626099N00809406EA0201302084
B1047344626100N00809415EA0201202084
B1047354626102N00809423EA0201302084
B1047364626104N00809431EA0201302085
B1047374626106N00809438EA0201302085
B1047384626107N00809446EA0201302084
B1047394626109N00809453EA0201202083
B1047404626110N00809460EA0201102083
B1047414626111N00809468EA0201002082
B1047424626112N00809476EA0201102082
B1047434626112N00809484EA0201102083
B1047444626113N00809491EA0201102082
B1047454626114N00809498EA0201002082
B1047464626115N00809504EA0200902080
B1047474626115N00809510EA0200602077
B1047484626115N00809517EA0200402076
B1047494626115N00809525EA0200302075
B1047504626117N00809533EA0200302075
B1047514626118N00809540EA0200302075
B1047524626119N00809547EA0200302074
B1047534626120N00809555EA0200202074
B1047544626121N00809562EA0200202073
B1047554626122N00809569EA0200102072
B1047564626123N00809576EA0200002072
B1047574626124N00809583EA0200002071
B1047584626125N00809589EA0199802070
B1047594626125N00809596EA0199902070
B1048004626126N00809603EA0200002072
B1048014626128N00809610EA0200202074
B1048024626129N00809615EA0200502076
B1048034626130N00809618EA0200602077
B1048044626132N00809620EA0200502076
B1048054626134N00809623EA0200202074
B1048064626135N00809628EA0200002071
B1048074626136N00809633EA0200002072
B1048084626138N00809639EA0200202074
B1048094626140N00809644EA0200202074
B1048104626142N00809649EA0200102073
B1048114626143N00809652EA0199902070
B1048124626144N00809657EA0199502067
B1048134626144N00809663EA0199302064
B1048144626144N00809670EA0199202063
B1048154626145N00809677EA0199202063
B1048164626146N00809683EA0199202063
B1048174626147N00809688EA0199002061
B1048184626148N00809693EA0198702059
B1048194626149N00809699EA0198402056
B1048204626149N00809706EA0198202053
B1048214626150N00809713EA0198002051
B1048224626150N00809721EA0197802050
B1048234626150N00809728EA0197702049
B1048244626151N00809735EA0197602047
B1048254626152N00809742EA0197502047
B1048264626153N00809750EA0197502046
B1048274626153N00809757EA0197402045
B1048284626154N00809764EA0197302044
B1048294626154N00809771EA0197202044
B1048304626154N00809778EA0197102042
B1048314626154N00809785EA0197002041
B1048324626153N00809791EA0196902040
B1048334626152N00809797EA0196702038
B1048344626152N00809802EA0196502037
B1048354626153N00809808EA0196402036
B1048364626155N00809814EA0196502036
B1048374626158N00809819EA0196702038
B1048384626161N00809824EA0196902040
B1048384626161N00809824EA0197002042
B1048394626163N00809827EA0197002042
B1048404626166N00809832EA0197102042
B1048414626168N00809836EA0197102042
B1048424626169N00809840EA0197102042
B1048434626168N00809845EA0197002041
B1048444626167N00809850EA0197002041
B1048454626166N00809856EA0196902041
B1048464626163N00809862EA0197102042
B1048474626160N00809867EA0197402045
B1048484626157N00809870EA0197502046
B1048494626152N00809870EA0197502047
B1048504626147N00809869EA0197402046
B1048514626143N00809866EA0197502046
B1048524626139N00809863EA0197402046
B1048534626135N00809858EA0197302045
B1048544626133N00809851EA0197202043
B1048554626131N00809842EA0197102042
B1048564626132N00809832EA0197302045
B1048574626133N00809823EA0197602048
B1048584626136N00809816EA0197802049
B1048594626139N00809810EA0197902050
B1049004626143N00809805EA0197802049
B1049014626147N00809801EA0197802049
B1049024626151N00809796EA0197702049
B1049034626157N00809792EA0197802049
B1049044626163N00809793EA0197902051
B1049054626167N00809794EA0198202053
B1049064626172N00809797EA0198402056
B1049074626174N00809802EA0198502056
B1049084626173N00809806EA0198502056
B1049094626170N00809811EA0198302055
B1049104626167N00809816EA0198202054
B1049114626163N00809820EA0198502056
B1049114626163N00809820EA0198502057
B1049124626158N00809821EA0198502057
B1049134626152N00809820EA0198502056
B1049144626147N00809816EA0198502056
B1049154626144N00809812EA0198602057
B1049164626140N00809807EA0198702059
B1049174626137N00809802EA0198902061
B1049184626136N00809796EA0199002062
B1049194626135N00809789EA0199102063
B1049204626136N00809782EA0199202063
B1049214626139N00809775EA0199202063
B1049224626142N00809770EA0199002061
B1049234626145N00809766EA0198802059
B1049244626150N00809763EA0198602058
B1049254626155N00809760EA0198402056
B1049264626161N00809758EA0198402055
B1049274626167N00809760EA0198402056
B1049284626173N00809762EA0198702058
B1049294626177N00809766EA0198902061
B1049304626180N00809771EA0199002062
B1049314626182N00809776EA0199102063
B1049324626183N00809781EA0199202063
B1049334626184N00809788EA0199202064
B1049344626183N00809794EA0199302064
B1049354626181N00809799EA0199202063
B1049364626178N00809804EA0199002061
B1049374626175N00809809EA0198802060
B1049384626171N00809812EA0198702059
B1049394626167N00809813EA0198602058
B1049404626163N00809813EA0198402055
B1049414626159N00809813EA0198002052
B1049424626155N00809813EA0197802049
B1049434626150N00809814EA0197502046
B1049444626145N00809816EA0197302044
B1049454626142N00809819EA0197102043
B1049464626139N00809823EA0197002041
B1049474626138N00809827EA0196902041
B1049484626137N00809832EA0196802040
B1049494626136N00809837EA0196802039
B1049504626135N00809841EA0196702038
B1049514626134N00809846EA0196502036
B1049524626133N00809851EA0196402035
B1049534626130N00809854EA0196202033
B1049544626126N00809856EA0195902030
B1049554626122N00809855EA0195602027
B1049564626117N00809853EA0195502026
B1049574626113N00809847EA0195302024
B1049584626110N00809841EA0195302025
B1049594626108N00809834EA0195302025
B1050004626107N00809826EA0195402025
B1050014626106N00809819EA0195302024
B1050024626106N00809811EA0195002021
B1050034626105N00809803EA0194602018
B1050044626105N00809794EA0194402015
B1050054626106N00809786EA0194202014
B1050064626106N00809775EA0194102012
B1050074626109N00809767EA0193902010
B1050084626112N00809760EA0193702009
B1050094626117N00809755EA0193602008
B1050104626121N00809750EA0193402006
B1050114626126N00809747EA0193302004
B1050124626131N00809744EA0193302004
B1050134626137N00809741EA0193302004
B1050144626143N00809738EA0193402005
B1050154626147N00809735EA0193402006
B1050164626152N00809734EA0193202004
B1050174626154N00809735EA0193002001
B1050184626158N00809736EA0192801999
B1050194626161N00809739EA0192501996
B1050204626165N00809742EA0192401996
B1050214626167N00809747EA0192301994
B1050224626160N00809750EA0192201993
B1050234626155N00809752EA0192001992
B1050244626150N00809753EA0192101992
B1050254626145N00809752EA0192101992
B1050264626142N00809750EA0192001991
B1050264626142N00809750EA0191801989
B1050274626138N00809749EA0191801989
B1050284626134N00809747EA0191501986
B1050294626130N00809743EA0191201984
B1050304626126N00809739EA0191001982
B1050314626121N00809734EA0191001981
B1050324626116N00809729EA0190801980
B1050334626111N00809723EA0190701978
B1050344626106N00809716EA0190701978
B1050354626102N00809709EA0190601977
B1050364626098N00809703EA0190601977
B1050374626095N00809696EA0190501976
B1050384626092N00809689EA0190301975
B1050394626089N00809682EA0190101973
B1050404626086N00809675EA0189801970
B1050404626086N00809675EA0189501966
B1050414626082N00809669EA0189501966
B1050424626078N00809663EA0189201963
B1050434626073N00809659EA0189001961
B1050444626068N00809654EA0188701959
B1050454626063N00809649EA0188701958
B1050464626058N00809644EA0188701958
B1050474626053N00809638EA0188701958
B1050484626049N00809631EA0188601957
B1050494626045N00809626EA0188501956
B1050504626041N00809620EA0188501956
B1050514626037N00809614EA0188501957
B1050524626033N00809608EA0188501956
B1050534626029N00809602EA0188401955
B1050544626026N00809595EA0188301954
B1050554626022N00809590EA0188201953
B1050564626018N00809584EA0188101952
B1050574626014N00809579EA0188001951
B1050584626010N00809573EA0187801949
B1050594626005N00809567EA0187501946
B1051004626001N00809560EA0187301944
B1051014625998N00809552EA0187301945
B1051024625994N00809546EA0187201944
B1051034625990N00809541EA0187101942
B1051044625987N00809536EA0186901940
B1051054625983N00809531EA0186601937
B1051064625980N00809526EA0186301934
B1051074625977N00809520EA0186101932
B1051084625974N00809514EA0186001932
B1051094625971N00809508EA0185901930
B1051104625968N00809501EA0185601927
B1051114625965N00809494EA0185301924
B1051124625961N00809487EA0185001921
B1051134625957N00809480EA0185001921
B1051144625953N00809473EA0185001922
B1051154625948N00809468EA0185301924
B1051164625944N00809464EA0185501926
B1051174625941N00809460EA0185501926
B1051184625938N00809456EA0185401925
B1051194625933N00809451EA0185201924
B1051204625928N00809445EA0185101923
B1051214625924N00809440EA0185201924
B1051224625920N00809434EA0185401925
B1051234625917N00809428EA0185401925
B1051244625915N00809422EA0185301924
B1051254625914N00809415EA0185001922
B1051264625912N00809408EA0184701919
B1051274625908N00809401EA0184501917
B1051284625903N00809395EA0184401916
B1051294625898N00809390EA0184401915
B1051304625892N00809385EA0184301915
B1051314625888N00809381EA0184201914
B1051324625884N00809376EA0184001912
B1051334625879N00809371EA0183701909
B1051344625876N00809365EA0183501906
B1051354625871N00809358EA0183301904
B1051364625867N00809351EA0183101902
B1051364625867N00809351EA0183101902
B1051374625863N00809343EA0183101902
B1051384625860N00809337EA0183001901
B1051394625855N00809331EA0182801900
B1051404625851N00809326EA0182801899
B1051414625846N00809321EA0182801899
B1051424625842N00809316EA0182801899
B1051434625838N00809311EA0182601898
B1051444625835N00809305EA0182401895
B1051454625833N00809299EA0182201894
B1051464625830N00809292EA0182101892
B1051474625827N00809285EA0182001891
B1051484625825N00809277EA0181801889
B1051494625822N00809269EA0181701888
B1051504625819N00809261EA0181501887
B1051514625816N00809254EA0181301885
B1051524625814N00809246EA0181201883
B1051534625811N00809239EA0181101882
B1051544625807N00809232EA0181001881
B1051554625802N00809226EA0180901880
B1051564625798N00809221EA0180801880
B1051574625793N00809216EA0180701878
B1051584625789N00809209EA0180601877
B1051594625785N00809201EA0180401876
B1052004625780N00809195EA0180401876
B1052014625776N00809188EA0180401876
B1052024625773N00809181EA0180501876
B1052034625769N00809175EA0180401876
B1052044625765N00809168EA0180401875
B1052054625761N00809162EA0180301875
B1052064625757N00809156EA0180201874
B1052074625753N00809151EA0180201873
B1052084625749N00809145EA0180201873
B1052094625745N00809139EA0180101872
B1052104625741N00809133EA0179901870
B1052114625737N00809127EA0179901870
B1052124625732N00809121EA0179801869
B1052134625729N00809115EA0179701868
B1052144625724N00809108EA0179601868
B1052154625720N00809101EA0179601867
B1052164625715N00809095EA0179601867
B1052174625711N00809089EA0179501867
B1052184625706N00809083EA0179401865
B1052194625701N00809077EA0179301865
B1052204625697N00809071EA0179301864
B1052214625692N00809065EA0179301864
B1052224625687N00809059EA0179301865
B1052234625683N00809053EA0179401865
B1052244625678N00809046EA0179401865
B1052254625674N00809040EA0179301864
B1052264625670N00809033EA0179301864
B1052274625666N00809027EA0179301864
B1052284625662N00809021EA0179201863
B1052294625658N00809015EA0179101863
B1052304625653N00809010EA0179101862
B1052314625648N00809005EA0179001862
B1052324625643N00808999EA0179001861
B1052334625639N00808994EA0178901861
B1052344625634N00808988EA0178901860
B1052354625630N00808982EA0178601858
B1052364625625N00808976EA0178401855
B1052374625620N00808969EA0178201853
B1052384625614N00808962EA0178001851
B1052394625608N00808954EA0177901851
B1052404625603N00808948EA0177901850
B1052414625598N00808941EA0177801849
B1052424625593N00808935EA0177501846
B1052434625588N00808929EA0177301845
B1052444625584N00808923EA0177101842
B1052454625579N00808916EA0177001841
B1052464625574N00808910EA0176901841
B1052474625570N00808904EA0176901840
B1052484625565N00808900EA0176701838
B1052494625561N00808895EA0176501836
B1052504625556N00808890EA0176301835
B1052514625551N00808884EA0176301834
B1052524625546N00808880EA0176301835
B1052534625542N00808875EA0176401835
B1052544625537N00808872EA0176401835
B1052554625532N00808869EA0176201834
B1052564625528N00808865EA0176101832
B1052574625524N00808862EA0175801830
B1052584625518N00808859EA0175801829
B1052594625513N00808856EA0175801829
B1053004625508N00808854EA0175901830
B1053014625503N00808851EA0175801830
B1053024625499N00808849EA0175701829
B1053034625493N00808846EA0175601827
B1053044625488N00808843EA0175401826
B1053054625482N00808840EA0175301825
B1053064625477N00808837EA0175401825
B1053074625472N00808835EA0175401825
B1053084625467N00808832EA0175301824
B1053094625462N00808830EA0175201823
B1053104625458N00808827EA0175101822
B1053114625453N00808824EA0175001821
B1053124625448N00808821EA0174901821
B1053134625443N00808818EA0174901820
B1053144625438N00808814EA0174801819
B1053154625434N00808811EA0174701818
B1053164625429N00808807EA0174601818
B1053174625424N00808804EA0174601817
B1053184625420N00808801EA0174501817
B1053194625415N00808797EA0174501817
B1053204625412N00808792EA0174501816
B1053214625409N00808785EA0174201814
B1053224625409N00808777EA0174101812
B1053234625411N00808768EA0173901811
B1053244625414N00808759EA0173901811
B1053254625418N00808754EA0173901811
B1053264625422N00808751EA0173901810
B1053274625428N00808750EA0173801809
B1053284625433N00808750EA0173701808
B1053294625437N00808751EA0173501806
B1053304625442N00808756EA0173201804
B1053314625446N00808762EA0172901801
B1053324625450N00808769EA0172701798
B1053334625450N00808777EA0172601797
B1053344625448N00808785EA0172401795
B1053354625443N00808789EA0172201793
B1053364625437N00808788EA0171901791
B1053374625434N00808779EA0171701788
B1053384625436N00808769EA0171401785
B1053394625442N00808763EA0171001781
B1053404625448N00808765EA0170401775
B1053414625449N00808774EA0169501766
B1053424625444N00808781EA0168701758
B1053424625444N00808781EA0168201753
B1053434625440N00808778EA0168201753
B1053444625441N00808763EA0167801749
B1053454625449N00808754EA0167301745
B1053464625457N00808760EA0165901730
B1053464625457N00808760EA0165001721
B1053474625452N00808773EA0164901721
B1053484625444N00808775EA0163801710
B1053494625442N00808763EA0163701708
B1053504625451N00808756EA0163501706
B1053514625456N00808765EA0162601697
B1053524625450N00808778EA0161201683
B1053534625440N00808778EA0160501676
B1053544625437N00808768EA0160301674
B1053554625446N00808761EA0160301674
B1053564625455N00808766EA0159701669
B1053574625457N00808776EA0158601657
B1053584625452N00808783EA0157401645
B1053594625445N00808773EA0156901640
B1054004625445N00808766EA0156801639
B1054014625453N00808766EA0156501636
B1054024625459N00808768EA0155301624
B1054034625456N00808779EA0153601608
B1054044625451N00808772EA0152801599
B1054054625453N00808762EA0152701598
B1054064625466N00808762EA0152401595
B1054074625474N00808769EA0150501576
B1054084625467N00808773EA0149401566
B1054094625462N00808761EA0148501556
B1054104625466N00808751EA0148201553
B1054114625477N00808759EA0147901550
B1054124625477N00808769EA0146501537
B1054134625470N00808769EA0144901521
B1054144625463N00808756EA0144201514
B1054154625462N00808748EA0144201514
B1054164625466N00808745EA0143801509
B1054174625464N00808749EA0142301495
B1054184625462N00808745EA0140901480
B1054194625457N00808735EA0140401475
B1054204625462N00808729EA0140501476
B1054214625468N00808731EA0140001471
B1054224625470N00808744EA0138501457
B1054234625463N00808739EA0137001441
B1054234625463N00808739EA0136501437
B1054244625464N00808728EA0136501437
B1054254625475N00808724EA0136601437
B1054264625488N00808726EA0135801429
B1054274625488N00808732EA0134001411
B1054284625487N00808737EA0132301394
B1054294625492N00808726EA0132101392
B1054304625504N00808740EA0132201393
B1054314625502N00808748EA0131201383
B1054324625495N00808752EA0130101372
B1054334625491N00808732EA0129601368
B1054344625496N00808719EA0130201373
B1054354625502N00808715EA0131101382
B1054364625501N00808715EA0131101383
B1054374625499N00808715EA0130801379
B1054384625499N00808716EA0130501376
B1054394625500N00808715EA0130101373
B1054404625503N00808715EA0129601368
B1054414625509N00808718EA0129301365
B1054424625512N00808723EA0129201363
B1054434625516N00808729EA0129001362
B1054444625514N00808732EA0128901360
B1054454625505N00808733EA0128701358
B1054464625498N00808730EA0128601358
B1054474625492N00808724EA0128501357
B1054484625488N00808720EA0128301354
B1054494625484N00808715EA0127801349
B1054504625479N00808713EA0127501346
B1054514625472N00808711EA0127401345
B1054524625466N00808709EA0127401345
B1054534625460N00808706EA0127401346
B1054544625455N00808704EA0127401345
B1054554625451N00808701EA0127201343
B1054564625446N00808698EA0126901340
B1054574625440N00808696EA0126701338
B1054584625434N00808694EA0126601338
B1054594625428N00808691EA0126601337
B1055004625423N00808690EA0126501337
B1055014625418N00808689EA0126401336
B1055024625412N00808688EA0126201334
B1055034625406N00808686EA0126101332
B1055044625400N00808684EA0125901330
B1055054625395N00808682EA0125901330
B1055064625389N00808679EA0125801329
B1055074625384N00808677EA0125601328
B1055084625379N00808676EA0125501326
B1055094625374N00808675EA0125301324
B1055104625368N00808674EA0125001321
B1055114625363N00808675EA0124901320
B1055124625357N00808676EA0124701319
B1055134625352N00808677EA0124601318
B1055144625347N00808678EA0124501316
B1055154625342N00808679EA0124401315
B1055164625337N00808681EA0124301314
B1055174625332N00808683EA0124201314
B1055184625327N00808684EA0124201313
B1055194625322N00808685EA0124001312
B1055204625317N00808684EA0123801310
B1055214625313N00808682EA0123601307
B1055224625308N00808677EA0123501306
B1055234625301N00808675EA0123401306
B1055244625295N00808669EA0123501306
B1055254625293N00808661EA0123601308
B1055264625293N00808652EA0123601308
B1055274625296N00808646EA0123401305
B1055284625300N00808642EA0123101303
B1055294625305N00808641EA0123001301
B1055304625311N00808641EA0123001301
B1055314625316N00808643EA0122901300
B1055324625319N00808647EA0122701299
B1055334625321N00808653EA0122601297
B1055344625321N00808659EA0122501296
B1055354625319N00808664EA0122301294
B1055364625315N00808666EA0122201293
B1055374625310N00808667EA0122001291
B1055384625306N00808665EA0121801290
B1055394625302N00808659EA0121701288
B1055404625299N00808651EA0121601287
B1055414625297N00808642EA0121501286
B1055424625298N00808633EA0121501286
B1055434625301N00808626EA0121401286
B1055444625305N00808621EA0121301284
B1055454625310N00808618EA0121201283
B1055464625315N00808619EA0121101282
B1055474625320N00808621EA0120901281
B1055484625325N00808625EA0120901280
B1055494625329N00808630EA0120801279
B1055504625330N00808636EA0120601277
B1055514625329N00808642EA0120401275
B1055524625327N00808648EA0120301274
B1055534625322N00808652EA0120201273
B1055544625317N00808653EA0120101272
B1055554625313N00808652EA0120001271
B1055564625308N00808649EA0119801269
B1055574625304N00808645EA0119601267
B1055584625300N00808638EA0119401265
B1055594625297N00808631EA0119301264
B1056004625295N00808624EA0119301264
B1056014625295N00808615EA0119201263
B1056024625296N00808607EA0119101262
B1056034625299N00808601EA0118901260
B1056044625305N00808597EA0118701259
B1056054625310N00808596EA0118701259
B1056064625315N00808599EA0118601258
B1056074625318N00808604EA0118501257
B1056084625320N00808610EA0118501256
B1056094625320N00808618EA0118401255
B1056104625318N00808624EA0118301255
B1056114625316N00808629EA0118201254
B1056124625313N00808632EA0118101252
B1056134625309N00808634EA0117901250
B1056144625305N00808635EA0117701249
B1056154625300N00808633EA0117501247
B1056164625295N00808630EA0117301245
B1056174625292N00808625EA0117101242
B1056184625291N00808616EA0117001241
B1056194625291N00808607EA0117001241
B1056204625294N00808600EA0116901240
B1056214625298N00808595EA0116801239
B1056224625304N00808592EA0116701238
B1056234625309N00808591EA0116601237
B1056244625315N00808592EA0116401236
B1056254625320N00808594EA0116301235
B1056264625325N00808598EA0116201233
B1056274625326N00808607EA0115901231
B1056284625326N00808615EA0115801229
B1056294625325N00808623EA0115801229
B1056304625323N00808630EA0115701228
B1056314625320N00808636EA0115601227
B1056324625317N00808641EA0115401226
B1056334625315N00808646EA0115201223
B1056344625312N00808650EA0115101222
B1056354625308N00808654EA0115001221
B1056364625303N00808656EA0115001221
B1056374625299N00808659EA0114901221
B1056384625295N00808661EA0114701218
B1056394625291N00808663EA0114501217
B1056404625288N00808666EA0114301215
B1056414625283N00808669EA0114201213
B1056424625278N00808672EA0114101212
B1056434625272N00808675EA0114101212
B1056444625268N00808678EA0113901211
B1056454625263N00808681EA0113801209
B1056464625259N00808684EA0113701208
B1056474625254N00808685EA0113601207
B1056484625249N00808684EA0113401205
B1056494625245N00808681EA0113201203
B1056504625241N00808677EA0113101202
B1056514625239N00808670EA0113001201
B1056524625238N00808663EA0112801199
B1056534625239N00808656EA0112601197
B1056544625242N00808650EA0112501196
B1056554625245N00808644EA0112401195
B1056564625250N00808642EA0112201194
B1056574625255N00808640EA0112201193
B1056584625260N00808638EA0112001191
B1056594625264N00808635EA0111701188
B1057004625268N00808631EA0111501187
B1057014625271N00808626EA0111401186
B1057024625274N00808620EA0111401185
B1057034625276N00808615EA0111301184
B1057044625278N00808610EA0111101182
B1057054625279N00808604EA0110801180
B1057064625279N00808598EA0110701178
B1057074625279N00808591EA0110601178
B1057084625279N00808585EA0110601177
B1057094625280N00808579EA0110501176
B1057104625280N00808573EA0110301175
B1057114625279N00808568EA0110201173
B1057124625280N00808562EA0110101172
B1057134625281N00808556EA0110001171
B1057144625284N00808550EA0109801169
B1057154625288N00808546EA0109701168
B1057164625293N00808543EA0109601167
B1057174625298N00808541EA0109401166
B1057184625305N00808541EA0109301165
B1057194625310N00808543EA0109301164
B1057204625316N00808548EA0109001161
B1057214625321N00808553EA0108901160
B1057224625326N00808559EA0108801160
B1057234625331N00808565EA0108801160
B1057244625335N00808571EA0108801160
B1057254625339N00808576EA0108801159
B1057264625343N00808580EA0108701159
B1057274625348N00808584EA0108701158
B1057284625352N00808588EA0108601158
B1057294625356N00808592EA0108601157
B1057304625359N00808596EA0108501156
B1057314625363N00808601EA0108401155
B1057324625366N00808606EA0108301154
B1057334625370N00808611EA0108201153
B1057344625372N00808617EA0108101153
B1057354625376N00808622EA0108101152
B1057364625378N00808628EA0107901151
B1057374625381N00808634EA0107901150
B1057384625383N00808640EA0107701148
B1057394625386N00808647EA0107501146
B1057404625388N00808653EA0107301144
B1057414625391N00808660EA0107101142
B1057424625393N00808667EA0107001141
B1057434625396N00808673EA0106801140
B1057444625398N00808680EA0106701138
B1057454625401N00808687EA0106601137
B1057464625403N00808693EA0106501136
B1057474625406N00808699EA0106301135
B1057484625409N00808705EA0106201133
B1057494625413N00808711EA0106101132
B1057504625416N00808717EA0106001132
B1057514625418N00808723EA0105901130
B1057524625416N00808729EA0105701128
B1057534625414N00808735EA0105501126
B1057544625411N00808740EA0105401125
B1057554625407N00808744EA0105401126
B1057564625403N00808748EA0105401125
B1057574625400N00808751EA0105301124
B1057584625397N00808753EA0105001122
B1057594625393N00808754EA0104801120
B1058004625388N00808754EA0104701118
B1058014625384N00808751EA0104601117
B1058024625380N00808747EA0104501117
B1058034625378N00808742EA0104501116
B1058044625375N00808738EA0104501116
B1058054625372N00808735EA0104401115
B1058064625371N00808731EA0104201114
B1058074625368N00808728EA0104001112
B1058084625365N00808723EA0103801110
B1058094625361N00808719EA0103701108
B1058104625359N00808715EA0103601108
B1058114625356N00808711EA0103501107
B1058124625353N00808708EA0103401105
B1058134625349N00808705EA0103201104
B1058144625345N00808704EA0103001102
B1058154625341N00808705EA0102901100
B1058164625337N00808707EA0102701099
B1058174625334N00808711EA0102701098
B1058184625331N00808715EA0102601097
B1058194625328N00808718EA0102501096
B1058204625325N00808721EA0102401095
B1058214625321N00808723EA0102201093
B1058224625316N00808721EA0101901090
B1058234625312N00808717EA0101701088
B1058244625309N00808712EA0101801089
B1058254625307N00808707EA0101801089
B1058264625304N00808703EA0101701088
B1058274625300N00808701EA0101401086
B1058284625295N00808700EA0101101083
B1058294625291N00808700EA0101101082
B1058304625287N00808701EA0101001082
B1058314625283N00808704EA0101001082
B1058324625281N00808707EA0100901080
B1058334625278N00808709EA0100701079
B1058344625275N00808710EA0100401076
B1058354625271N00808712EA0100201073
B1058364625266N00808713EA0100001071
B1058374625263N00808714EA0100101072
B1058384625260N00808714EA0100001071
B1058394625257N00808713EA0100001071
B1058404625255N00808713EA0100001071
B1058414625254N00808713EA0100001071
B1058424625253N00808713EA0100001071
B1058434625251N00808713EA0100001071
B1058444625250N00808713EA0100001072
B1058454625249N00808713EA0100001072
B1058464625249N00808713EA0100001072
B1058474625248N00808714EA0100001072
B1058484625248N00808714EA0100001072
B1058494625247N00808714EA0100001072
B1058504625248N00808714EA0100001072
B1058514625247N00808715EA0100001072
B1058524625247N00808715EA0100001071
B1058534625247N00808716EA0100001071
B1058544625247N00808716EA0100001071
B1058554625247N00808716EA0100001072
B1058564625247N00808716EA0100001072
B1058574625247N00808716EA0100001071
B1058584625247N00808716EA0100001071
B1058594625247N00808716EA0100001072
B1059004625247N00808716EA0100001071
B1059014625247N00808716EA0100001072
B1059024625247N00808716EA0100001072
B1059034625247N00808716EA0100001072
B1059044625247N00808716EA0100001072
B1059054625247N00808716EA0100001072
B1059064625247N00808716EA0100001072
B1059074625247N00808716EA0100001072
B1059084625247N00808716EA0100001072
B1059094625247N00808716EA0100001072
B1059104625247N00808716EA0100001072
B1059114625247N00808716EA0100001072
B1059124625247N00808716EA0100001072
B1059134625247N00808716EA0100001072
B1059144625247N00808716EA0100001072
B1059154625247N00808716EA0100001072
B1059164625247N00808716EA0100001072
B1059174625247N00808716EA0100001072
B1059184625247N00808716EA0100001072
B1059194625247N00808716EA0100001072
B1059204625247N00808716EA0100001071
B1059214625247N00808716EA0100001072
B1059224625247N00808716EA0100001071
B1059234625247N00808716EA0100001072
B1059244625247N00808716EA0100101072
B1059254625247N00808716EA0100001072
B1059264625247N00808716EA0100101072
B1059274625248N00808716EA0100101072
B1059284625248N00808716EA0100101072
B1059294625248N00808716EA0100101072
B1059304625248N00808716EA0100101072
B1059314625248N00808716EA0100101072
B1059314625248N00808716EA0100101073
B1059324625248N00808716EA0100101073
B1059334625248N00808716EA0100101072
B1059344625248N00808716EA0100101073
B1059354625248N00808716EA0100101073
B1059364625248N00808716EA0100101073
B1059374625248N00808716EA0100101073
B1059384625248N00808716EA0100101072
B1059394625249N00808716EA0100101072
B1059404625249N00808716EA0100101073
B1059414625249N00808716EA0100101072
B1059424625249N00808716EA0100101072
B1059434625249N00808716EA0100101072
B1059444625249N00808716EA0100101072
B1059454625249N00808716EA0100101072
B1059464625249N00808716EA0100101072
B1059474625249N00808716EA0100101072
B1059484625249N00808716EA0100101072
B1059494625249N00808716EA0100101073
B1059504625249N00808716EA0100101072
B1059514625249N00808716EA0100101072
B1059524625249N00808716EA0100101072
B1059534625249N00808716EA0100101072
B1059544625249N00808716EA0100101072
B1059554625249N00808716EA0100101072
B1059564625249N00808716EA0100101072
B1059574625249N00808716EA0100101072
B1059584625249N00808716EA0100101072
B1059594625249N00808716EA0100101072
B1100004625249N00808716EA0100101072
B1100014625249N00808716EA0100101072
B1100014625249N00808716EA0100101072
LXSX;GF:3.2
G1843B9F426D6056F8634ED65A20E5F79
