AXSX003 SKYTRAXX V3.0.6 SN:00000380
HOPLTPILOT:Sepp Bucher
HOGTYGLIDERTYPE:Sigma9
HOCIDCOMPETITIONID:0000
HODTM100GPSDATUM:WGS-84
HOCCLCOMPETITION CLASS:Paraglider (Standard)
HPSITSITE:Bellwald - Ried
HFDTE190217
B1101184626879N00809825EA0234102393
B1101194626879N00809825EA0234102393
B1101204626879N00809825EA0234102393
B1101214626879N00809824EA0234002391
B1101224626878N00809824EA0233902390
B1101234626876N00809823EA0233802390
B1101244626876N00809822EA0233702389
B1101254626875N00809821EA0233602390
B1101264626873N00809820EA0233602390
B1101274626872N00809820EA0233602391
B1101284626871N00809820EA0233602392
B1101294626870N00809821EA0233602391
B1101304626870N00809820EA0233602391
B1101314626870N00809820EA0233602391
B1101324626870N00809820EA0233602391
B1101334626870N00809820EA0233602391
B1101344626870N00809820EA0233602391
B1101354626870N00809820EA0233602391
B1101364626870N00809820EA0233602391
B1101374626870N00809820EA0233602391
B1101384626870N00809820EA0233602391
B1101394626870N00809820EA0233602391
B1101404626870N00809820EA0233602391
B1101414626870N00809820EA0233602391
B1101424626870N00809820EA0233602391
B1101434626870N00809820EA0233602391
B1101444626870N00809820EA0233502391
B1101454626870N00809820EA0233602391
B1101464626870N00809820EA0233602391
B1101474626870N00809820EA0233602392
B1101484626870N00809820EA0233602392
B1101494626871N00809820EA0233602392
B1101504626871N00809820EA0233602392
B1101514626871N00809820EA0233602392
B1101524626871N00809820EA0233602392
B1101534626872N00809820EA0233602392
B1101544626872N00809820EA0233602392
B1101554626872N00809820EA0233602392
B1101564626872N00809820EA0233602392
B1101574626872N00809821EA0233602392
B1101584626872N00809821EA0233602392
B1101594626872N00809821EA0233602392
B1102004626872N00809821EA0233602392
B1102014626872N00809821EA0233602392
B1102024626872N00809821EA0233602392
B1102034626872N00809821EA0233602392
B1102044626872N00809821EA0233602392
B1102054626872N00809821EA0233602392
B1102064626872N00809821EA0233602392
B1102074626872N00809821EA0233602392
B1102084626873N00809821EA0233602392
B1102094626873N00809821EA0233602392
B1102104626873N00809821EA0233702392
B1102114626874N00809821EA0233702392
B1102124626875N00809821EA0233702393
B1102134626875N00809821EA0233702393
B1102144626876N00809821EA0233802394
B1102154626876N00809821EA0233802394
B1102164626876N00809821EA0233902394
B1102174626877N00809821EA0233902395
B1102184626877N00809821EA0233902395
B1102194626878N00809821EA0233902395
B1102204626879N00809821EA0234002395
B1102214626879N00809821EA0234002396
B1102224626879N00809821EA0234002396
B1102234626880N00809821EA0234002396
B1102244626880N00809821EA0234102396
B1102254626881N00809822EA0234102397
B1102264626881N00809821EA0234102397
B1102274626881N00809821EA0234102397
B1102284626882N00809821EA0234102397
B1102294626882N00809821EA0234202397
B1102304626882N00809822EA0234202398
B1102314626882N00809822EA0234202398
B1102324626883N00809822EA0234202398
B1102334626883N00809822EA0234302398
B1102344626883N00809823EA0234302398
B1102354626883N00809823EA0234202398
B1102364626884N00809823EA0234202398
B1102374626883N00809823EA0234202398
B1102384626883N00809824EA0234202398
B1102394626883N00809824EA0234302398
B1102404626883N00809825EA0234302398
B1102414626883N00809825EA0234202398
B1102424626883N00809824EA0234202398
B1102434626883N00809825EA0234202398
B1102444626882N00809825EA0234202398
B1102454626882N00809825EA0234202398
B1102464626882N00809825EA0234202398
B1102474626882N00809825EA0234202398
B1102484626882N00809825EA0234202398
B1102494626882N00809825EA0234202398
B1102504626882N00809825EA0234202398
B1102514626882N00809825EA0234202398
B1102524626882N00809825EA0234202398
B1102534626882N00809825EA0234202398
B1102544626882N00809825EA0234202398
B1102554626882N00809825EA0234202398
B1102564626882N00809826EA0234202398
B1102574626882N00809826EA0234202398
B1102584626882N00809826EA0234202398
B1102594626882N00809826EA0234202398
B1103004626882N00809827EA0234202398
B1103014626882N00809827EA0234202398
B1103024626882N00809827EA0234202398
B1103034626882N00809827EA0234202398
B1103044626882N00809827EA0234202398
B1103054626882N00809827EA0234202398
B1103064626882N00809827EA0234202398
B1103074626882N00809827EA0234202398
B1103084626882N00809827EA0234202398
B1103094626882N00809827EA0234202398
B1103104626882N00809828EA0234202398
B1103114626882N00809828EA0234202398
B1103124626881N00809829EA0234202398
B1103134626881N00809830EA0234202398
B1103144626881N00809830EA0234202398
B1103154626880N00809830EA0234202398
B1103164626880N00809830EA0234202398
B1103174626880N00809830EA0234202398
B1103184626880N00809830EA0234202398
B1103194626880N00809830EA0234202398
B1103204626880N00809831EA0234202398
B1103214626879N00809831EA0234202398
B1103224626879N00809831EA0234202398
B1103234626879N00809831EA0234202398
B1103244626879N00809831EA0234202398
B1103254626879N00809831EA0234202398
B1103264626879N00809831EA0234202398
B1103274626879N00809831EA0234202398
B1103284626879N00809831EA0234202398
B1103294626879N00809831EA0234202398
B1103304626879N00809831EA0234202397
B1103314626879N00809831EA0234202397
B1103324626879N00809831EA0234202397
B1103334626879N00809831EA0234202397
B1103344626879N00809831EA0234202397
B1103354626879N00809831EA0234202398
B1103364626879N00809831EA0234202397
B1103374626879N00809831EA0234202397
B1103384626878N00809831EA0234202397
B1103394626878N00809831EA0234202397
B1103404626878N00809831EA0234202397
B1103414626878N00809831EA0234202397
B1103424626878N00809831EA0234202397
B1103434626877N00809831EA0234202397
B1103444626877N00809831EA0234202397
B1103454626877N00809831EA0234202397
B1103464626877N00809831EA0234202397
B1103474626877N00809831EA0234102397
B1103484626877N00809831EA0234202397
B1103494626877N00809830EA0234202397
B1103504626877N00809830EA0234202398
B1103514626877N00809830EA0234202398
B1103524626878N00809830EA0234202398
B1103534626878N00809829EA0234202398
B1103544626879N00809829EA0234202398
B1103554626879N00809829EA0234202398
B1103564626879N00809829EA0234102397
B1103574626878N00809829EA0234102397
B1103584626877N00809829EA0234102396
B1103594626876N00809829EA0234002396
B1104004626876N00809829EA0234102397
B1104014626877N00809829EA0234102397
B1104024626877N00809829EA0234102397
B1104034626877N00809828EA0234102397
B1104044626877N00809828EA0234102397
B1104054626878N00809828EA0234102397
B1104064626878N00809828EA0234102397
B1104074626878N00809828EA0234102397
B1104084626878N00809828EA0234102397
B1104094626878N00809828EA0234102397
B1104104626878N00809828EA0234102397
B1104114626878N00809828EA0234102397
B1104124626878N00809828EA0234102397
B1104134626879N00809828EA0234102397
B1104144626879N00809828EA0234102397
B1104154626879N00809827EA0234102397
B1104164626879N00809826EA0234102397
B1104174626879N00809826EA0234102397
B1104184626879N00809826EA0234102397
B1104194626879N00809825EA0234102397
B1104204626879N00809825EA0234102397
B1104214626879N00809825EA0234102397
B1104224626879N00809825EA0234102397
B1104234626879N00809825EA0234102397
B1104244626879N00809825EA0234102397
LXSX;GF:1.0
GCD944DE3805BFDD81E9732E02906BE83
