AXSX003 SKYTRAXX V3.0.8 SN:00000380
HOPLTPILOT:Sepp Bucher
HOGTYGLIDERTYPE:Sigma10
HOCIDCOMPETITIONID:0000
HODTM100GPSDATUM:WGS-84
HOCCLCOMPETITION CLASS:Paraglider (Standard)
HPSITSITE:Sant Alis - Ager
HFDTE020917
B1538504202760N00044773EA0146501545
B1538514202760N00044771EA0146501545
B1538524202759N00044769EA0146601546
B1538534202759N00044769EA0146701547
B1538544202758N00044767EA0146801548
B1538554202757N00044766EA0146801548
B1538564202755N00044764EA0147001550
B1538574202753N00044763EA0147101550
B1538584202751N00044762EA0147101549
B1538594202749N00044762EA0147101551
B1539004202746N00044762EA0146901550
B1539014202742N00044761EA0146701549
B1539024202739N00044760EA0146801549
B1539034202735N00044758EA0146701548
B1539044202732N00044756EA0146701548
B1539054202731N00044753EA0146801549
B1539064202730N00044750EA0146801549
B1539074202729N00044747EA0146801549
B1539084202728N00044745EA0146701548
B1539094202726N00044742EA0146701548
B1539104202725N00044740EA0146701549
B1539114202723N00044737EA0146801549
B1539124202722N00044734EA0147001551
B1539134202720N00044731EA0147101552
B1539144202719N00044729EA0147001551
B1539154202718N00044727EA0146801549
B1539164202717N00044725EA0146801549
B1539174202716N00044723EA0146801549
B1539184202714N00044720EA0146701548
B1539194202712N00044718EA0146901550
B1539204202710N00044715EA0146901550
B1539214202709N00044714EA0146601548
B1539224202707N00044711EA0146401545
B1539234202705N00044709EA0146201543
B1539244202703N00044706EA0146301544
B1539254202701N00044703EA0146401545
B1539264202699N00044700EA0146301545
B1539274202697N00044697EA0146201543
B1539284202695N00044695EA0146101543
B1539294202692N00044693EA0146101542
B1539304202689N00044689EA0146101542
B1539314202687N00044686EA0146301545
B1539324202685N00044683EA0146601547
B1539334202683N00044681EA0146601547
B1539344202681N00044679EA0146601547
B1539354202678N00044678EA0146501546
B1539364202675N00044677EA0146401545
B1539374202673N00044675EA0146501546
B1539384202670N00044673EA0146401545
B1539394202669N00044671EA0146501546
B1539404202666N00044669EA0146701548
B1539414202665N00044667EA0146801550
B1539424202662N00044667EA0146801549
B1539434202659N00044667EA0146901550
B1539444202657N00044667EA0146701548
B1539454202654N00044668EA0146601547
B1539464202651N00044667EA0146501546
B1539474202648N00044666EA0146701548
B1539484202647N00044665EA0147101552
B1539494202645N00044664EA0147401556
B1539504202644N00044662EA0147501556
B1539514202643N00044661EA0147401555
B1539524202642N00044660EA0147301554
B1539534202641N00044659EA0147301554
B1539544202640N00044658EA0147301554
B1539554202638N00044656EA0147301554
B1539564202637N00044655EA0147301554
B1539574202634N00044653EA0147401555
B1539584202633N00044652EA0147701558
B1539594202630N00044651EA0147801560
B1540004202627N00044651EA0147901561
B1540014202623N00044652EA0148101562
B1540024202620N00044652EA0148201564
B1540034202616N00044653EA0148501566
B1540044202613N00044653EA0148801569
B1540054202610N00044652EA0149001571
B1540064202607N00044651EA0149101573
B1540074202604N00044651EA0149101573
B1540084202601N00044650EA0149201573
B1540094202598N00044649EA0149401575
B1540104202594N00044647EA0149501576
B1540114202591N00044646EA0149501577
B1540124202588N00044645EA0149601577
B1540134202585N00044644EA0149601577
B1540144202583N00044643EA0149601577
B1540154202581N00044642EA0149401575
B1540164202579N00044640EA0149401575
B1540174202577N00044638EA0149401575
B1540184202575N00044636EA0149501576
B1540194202573N00044634EA0149501576
B1540204202571N00044633EA0149401575
B1540214202569N00044631EA0149301574
B1540224202567N00044629EA0149201573
B1540234202565N00044626EA0149101572
B1540244202563N00044623EA0149301574
B1540254202561N00044620EA0149501577
B1540264202559N00044618EA0149701578
B1540274202556N00044617EA0149801579
B1540284202554N00044616EA0149601577
B1540294202551N00044615EA0149401575
B1540304202549N00044613EA0149201574
B1540314202546N00044610EA0149301574
B1540324202543N00044608EA0149601577
B1540334202541N00044606EA0149801579
B1540344202538N00044604EA0149801579
B1540354202536N00044603EA0149701579
B1540364202534N00044602EA0149601578
B1540374202532N00044600EA0149701578
B1540384202530N00044597EA0149901581
B1540394202528N00044596EA0150201583
B1540404202526N00044595EA0150301584
B1540414202524N00044594EA0150201583
B1540424202523N00044595EA0149901580
B1540434202522N00044594EA0149701578
B1540444202520N00044593EA0149601577
B1540454202517N00044590EA0149501576
B1540464202516N00044588EA0149601577
B1540474202514N00044585EA0149701579
B1540484202513N00044582EA0149801580
B1540494202511N00044581EA0150001581
B1540504202509N00044579EA0150101582
B1540514202508N00044579EA0150101582
B1540524202506N00044578EA0150201583
B1540534202505N00044576EA0150101582
B1540544202504N00044574EA0150101582
B1540554202502N00044572EA0150201583
B1540564202501N00044571EA0150301584
B1540574202498N00044569EA0150401586
B1540584202496N00044568EA0150601587
B1540594202494N00044567EA0150601588
B1541004202494N00044565EA0150601587
B1541014202493N00044563EA0150601587
B1541024202492N00044560EA0150701588
B1541034202491N00044558EA0150901590
B1541044202489N00044556EA0151101592
B1541054202487N00044555EA0151201593
B1541064202485N00044554EA0151201593
B1541074202483N00044553EA0151101592
B1541084202482N00044551EA0151101592
B1541094202479N00044549EA0151101592
B1541104202478N00044547EA0151201593
B1541114202476N00044545EA0151201593
B1541124202475N00044543EA0151501596
B1541134202474N00044540EA0151601597
B1541144202473N00044538EA0151601598
B1541154202472N00044536EA0151501597
B1541164202471N00044534EA0151401595
B1541174202470N00044532EA0151301594
B1541184202468N00044529EA0151101592
B1541194202466N00044528EA0151001591
B1541204202463N00044526EA0150901590
B1541214202460N00044524EA0150701588
B1541224202458N00044522EA0150401585
B1541234202455N00044519EA0150201583
B1541244202452N00044517EA0150001581
B1541254202448N00044514EA0149801579
B1541264202444N00044511EA0149501576
B1541274202440N00044507EA0149201573
B1541284202436N00044504EA0148801569
B1541294202431N00044500EA0148701568
B1541304202425N00044496EA0148701568
B1541314202420N00044493EA0148501567
B1541324202414N00044490EA0148401565
B1541334202409N00044488EA0148201563
B1541344202404N00044486EA0148101562
B1541354202398N00044483EA0148001561
B1541364202394N00044480EA0148101562
B1541374202389N00044477EA0148201563
B1541384202383N00044476EA0148301564
B1541394202379N00044475EA0148201563
B1541404202376N00044476EA0147801559
B1541414202373N00044476EA0147401555
B1541424202369N00044475EA0147101552
B1541434202364N00044473EA0146901550
B1541444202361N00044470EA0146901550
B1541454202358N00044468EA0146801549
B1541464202355N00044466EA0146801549
B1541474202351N00044464EA0146401546
B1541484202347N00044463EA0146301544
B1541494202344N00044461EA0145901540
B1541504202341N00044459EA0145701538
B1541514202338N00044457EA0145401535
B1541524202336N00044455EA0145101532
B1541534202332N00044453EA0144701528
B1541544202327N00044451EA0144501526
B1541554202323N00044449EA0144201523
B1541564202318N00044447EA0144001521
B1541574202314N00044445EA0143701518
B1541584202310N00044443EA0143401515
B1541594202306N00044441EA0143201513
B1542004202303N00044438EA0142901511
B1542014202300N00044435EA0142601507
B1542024202296N00044432EA0142301504
B1542034202292N00044429EA0142001501
B1542044202289N00044426EA0141801499
B1542054202286N00044423EA0141501497
B1542064202282N00044420EA0141301494
B1542074202279N00044417EA0141301494
B1542084202275N00044415EA0141101493
B1542094202271N00044413EA0140901491
B1542104202268N00044411EA0140701489
B1542114202265N00044409EA0140501487
B1542124202261N00044407EA0140401485
B1542134202257N00044405EA0140201483
B1542144202252N00044404EA0140101482
B1542154202248N00044401EA0140001481
B1542164202244N00044400EA0139801479
B1542174202240N00044398EA0139501477
B1542184202235N00044397EA0139301474
B1542194202231N00044395EA0139101472
B1542204202227N00044392EA0138901470
B1542214202222N00044390EA0138801469
B1542224202218N00044389EA0138601467
B1542234202214N00044388EA0138501466
B1542244202211N00044387EA0138201464
B1542254202207N00044386EA0138101462
B1542264202203N00044385EA0137801460
B1542274202199N00044385EA0137701458
B1542284202194N00044384EA0137401456
B1542294202190N00044383EA0137201453
B1542304202187N00044381EA0137001451
B1542314202183N00044380EA0136801449
B1542324202180N00044378EA0136501446
B1542334202176N00044376EA0136301445
B1542344202173N00044373EA0136101443
B1542354202170N00044371EA0136001442
B1542364202165N00044368EA0135901440
B1542374202162N00044367EA0136001441
B1542384202158N00044365EA0135801440
B1542394202155N00044364EA0135801439
B1542404202151N00044362EA0135601438
B1542414202149N00044361EA0135601437
B1542424202145N00044359EA0135401435
B1542434202142N00044357EA0135401435
B1542444202139N00044356EA0135301434
B1542454202136N00044354EA0135201433
B1542464202133N00044351EA0135001431
B1542474202131N00044348EA0134801429
B1542484202129N00044344EA0134501427
B1542494202126N00044340EA0134401425
B1542504202123N00044337EA0134201423
B1542514202118N00044333EA0134301424
B1542524202115N00044331EA0134301425
B1542534202111N00044329EA0134401425
B1542544202108N00044327EA0134401425
B1542554202105N00044326EA0134401426
B1542564202102N00044324EA0134601427
B1542574202100N00044322EA0134701428
B1542584202098N00044320EA0135001431
B1542594202096N00044317EA0135301434
B1543004202093N00044316EA0135501436
B1543014202090N00044315EA0135501436
B1543024202087N00044315EA0135401436
B1543034202084N00044315EA0135101432
B1543044202081N00044314EA0134901430
B1543054202077N00044311EA0134801429
B1543064202075N00044308EA0134901430
B1543074202072N00044304EA0134801429
B1543084202068N00044301EA0134801429
B1543094202065N00044299EA0134501426
B1543104202061N00044297EA0134201423
B1543114202056N00044294EA0134101422
B1543124202052N00044291EA0134001421
B1543134202048N00044288EA0134001421
B1543144202044N00044285EA0134001421
B1543154202041N00044282EA0133801419
B1543164202039N00044280EA0133601417
B1543174202036N00044277EA0133401415
B1543184202033N00044275EA0133401416
B1543194202030N00044272EA0133401416
B1543204202027N00044269EA0133301414
B1543214202024N00044268EA0133101412
B1543224202021N00044266EA0132801409
B1543234202017N00044263EA0132301404
B1543244202014N00044260EA0132001401
B1543254202009N00044258EA0131801399
B1543264202005N00044256EA0131601397
B1543274202001N00044255EA0131401395
B1543284201997N00044254EA0131101392
B1543294201994N00044252EA0130801389
B1543304201990N00044250EA0130601387
B1543314201987N00044248EA0130701388
B1543324201984N00044247EA0130701389
B1543334201981N00044245EA0130701388
B1543344201978N00044244EA0130601387
B1543354201975N00044243EA0130501386
B1543364201973N00044241EA0130501387
B1543374201971N00044239EA0130601387
B1543384201969N00044238EA0130501386
B1543394201967N00044238EA0130401385
B1543404201964N00044238EA0130301384
B1543414201961N00044237EA0130301384
B1543424201958N00044237EA0130501386
B1543434201955N00044237EA0130601387
B1543444201953N00044238EA0130601387
B1543454201950N00044238EA0130301385
B1543464201947N00044239EA0130101382
B1543474201944N00044238EA0129901381
B1543484201940N00044236EA0129901380
B1543494201937N00044234EA0130001381
B1543504201934N00044231EA0130101383
B1543514201931N00044230EA0130201383
B1543524201928N00044228EA0130201383
B1543534201924N00044226EA0130401385
B1543544201921N00044224EA0130701388
B1543554201917N00044223EA0130801389
B1543564201913N00044223EA0130801389
B1543574201909N00044222EA0130701388
B1543584201905N00044221EA0130601387
B1543594201901N00044219EA0130501387
B1544004201897N00044217EA0130701388
B1544014201893N00044214EA0130801390
B1544024201890N00044211EA0131001391
B1544034201888N00044208EA0131101392
B1544044201885N00044205EA0131001392
B1544054201883N00044201EA0130901390
B1544064201882N00044198EA0130701388
B1544074201880N00044194EA0130601387
B1544084201878N00044190EA0130501386
B1544094201878N00044185EA0130401385
B1544104201876N00044181EA0130201383
B1544114201875N00044176EA0130201383
B1544124201875N00044173EA0130101382
B1544134201874N00044171EA0130001381
B1544144201874N00044169EA0129901380
B1544154201872N00044167EA0129701378
B1544164201872N00044166EA0129701378
B1544174201871N00044164EA0129701378
B1544184201870N00044161EA0129901380
B1544194201870N00044158EA0130001382
B1544204201869N00044157EA0130101382
B1544214201867N00044157EA0130201383
B1544224201866N00044158EA0130201383
B1544234201864N00044157EA0130401385
B1544244201862N00044156EA0130401386
B1544254201859N00044155EA0130501387
B1544264201856N00044154EA0130601387
B1544274201853N00044153EA0130601387
B1544284201851N00044153EA0130401385
B1544294201849N00044153EA0130101382
B1544304201847N00044151EA0130001381
B1544314201844N00044149EA0130101382
B1544324201842N00044146EA0130201384
B1544334201839N00044143EA0130301385
B1544344201836N00044142EA0130401385
B1544354201832N00044140EA0130501386
B1544364201829N00044138EA0130601387
B1544374201826N00044136EA0130801390
B1544384201822N00044135EA0131201393
B1544394201817N00044134EA0131601397
B1544404201813N00044134EA0131801399
B1544414201809N00044135EA0131801400
B1544424201804N00044136EA0131801400
B1544434201798N00044138EA0131901401
B1544444201791N00044141EA0132101402
B1544454201785N00044144EA0132201403
B1544464201778N00044150EA0132401405
B1544474201772N00044157EA0132501406
B1544484201767N00044164EA0132601407
B1544494201761N00044171EA0132501406
B1544504201754N00044177EA0132401405
B1544514201748N00044182EA0132401405
B1544524201743N00044183EA0132301404
B1544534201738N00044182EA0132301404
B1544544201734N00044181EA0132201403
B1544554201731N00044179EA0132101402
B1544564201729N00044177EA0132001401
B1544574201731N00044173EA0131801399
B1544584201732N00044171EA0131601398
B1544594201734N00044169EA0131501396
B1545004201737N00044168EA0131301395
B1545014201741N00044167EA0131101392
B1545024201746N00044167EA0131001391
B1545034201751N00044168EA0131201393
B1545044201757N00044170EA0131101392
B1545054201763N00044174EA0131001391
B1545064201769N00044179EA0131201393
B1545074201775N00044185EA0131501396
B1545084201781N00044192EA0131501396
B1545094201786N00044200EA0131801399
B1545104201789N00044209EA0132001402
B1545114201788N00044218EA0132101403
B1545124201787N00044227EA0132201404
B1545134201786N00044237EA0132201403
B1545144201784N00044247EA0132201403
B1545154201781N00044259EA0132201403
B1545164201778N00044271EA0132301404
B1545174201772N00044282EA0132401405
B1545184201767N00044293EA0132501407
B1545194201761N00044302EA0132601408
B1545204201755N00044307EA0132701408
B1545214201750N00044309EA0132901410
B1545224201745N00044310EA0132901411
B1545234201741N00044311EA0133001411
B1545244201737N00044311EA0132901410
B1545254201733N00044309EA0132901410
B1545264201731N00044306EA0132901410
B1545274201728N00044303EA0132901410
B1545284201726N00044300EA0132901410
B1545294201725N00044297EA0132801409
B1545304201724N00044294EA0132601408
B1545314201724N00044291EA0132601407
B1545324201724N00044286EA0132601407
B1545334201725N00044282EA0132701408
B1545344201726N00044278EA0132901410
B1545354201728N00044275EA0133001411
B1545364201729N00044273EA0133001411
B1545374201730N00044272EA0132701408
B1545384201731N00044269EA0132401405
B1545394201732N00044266EA0132201403
B1545404201733N00044262EA0132001401
B1545414201734N00044258EA0132101403
B1545424201736N00044254EA0132201403
B1545434201737N00044251EA0132101402
B1545444201738N00044250EA0131801399
B1545454201738N00044249EA0131501396
B1545464201739N00044249EA0131301394
B1545474201741N00044247EA0131001392
B1545484201743N00044246EA0131001391
B1545494201745N00044247EA0131101392
B1545504201747N00044248EA0131001391
B1545514201748N00044250EA0130701388
B1545524201751N00044251EA0130401385
B1545534201753N00044251EA0130101382
B1545544201754N00044250EA0130201384
B1545554201753N00044248EA0130401385
B1545564201751N00044247EA0130401385
B1545574201746N00044248EA0130001381
B1545584201740N00044249EA0129301375
B1545594201734N00044248EA0128801369
B1546004201730N00044247EA0128401365
B1546014201725N00044245EA0128101362
B1546024201719N00044244EA0127801359
B1546034201714N00044243EA0127501356
B1546044201710N00044243EA0127101352
B1546054201704N00044242EA0126801349
B1546064201699N00044241EA0126501346
B1546074201692N00044239EA0126401345
B1546084201687N00044238EA0126401345
B1546094201681N00044238EA0126601347
B1546104201675N00044238EA0126801349
B1546114201670N00044239EA0126801349
B1546124201666N00044240EA0126801349
B1546134201662N00044243EA0126501346
B1546144201658N00044243EA0126201343
B1546154201654N00044243EA0126001342
B1546164201651N00044243EA0125901340
B1546174201647N00044242EA0125801339
B1546184201644N00044241EA0125601337
B1546194201640N00044241EA0125401335
B1546204201636N00044241EA0125301334
B1546214201633N00044240EA0125101332
B1546224201629N00044239EA0125201333
B1546234201626N00044238EA0125301334
B1546244201623N00044237EA0125301334
B1546254201620N00044237EA0125201333
B1546264201617N00044236EA0125001331
B1546274201614N00044235EA0125001331
B1546284201612N00044234EA0125201333
B1546294201610N00044231EA0125501336
B1546304201607N00044229EA0125801339
B1546314201605N00044229EA0126001342
B1546324201604N00044228EA0126201343
B1546334201602N00044228EA0126401345
B1546344201600N00044227EA0126601347
B1546354201597N00044227EA0126801349
B1546364201595N00044226EA0127001351
B1546374201593N00044226EA0127301354
B1546384201591N00044226EA0127501357
B1546394201588N00044225EA0127701359
B1546404201588N00044224EA0128001361
B1546414201588N00044222EA0128201363
B1546424201589N00044221EA0128401365
B1546434201593N00044222EA0128501366
B1546444201597N00044225EA0128601368
B1546454201602N00044229EA0128701368
B1546464201607N00044235EA0128701368
B1546474201613N00044242EA0128701368
B1546484201616N00044254EA0128801369
B1546494201619N00044265EA0128701368
B1546504201620N00044276EA0128501366
B1546514201617N00044285EA0128201364
B1546524201612N00044294EA0128001361
B1546534201607N00044302EA0127801359
B1546544201600N00044308EA0127901360
B1546554201594N00044313EA0128001361
B1546564201588N00044315EA0128301364
B1546574201584N00044315EA0128801369
B1546584201580N00044316EA0129201373
B1546594201577N00044317EA0129501376
B1547004201573N00044319EA0129601378
B1547014201568N00044320EA0129801379
B1547024201564N00044321EA0130101382
B1547034201560N00044322EA0130501386
B1547044201557N00044324EA0130801389
B1547054201554N00044326EA0131001391
B1547064201551N00044329EA0131201393
B1547074201548N00044332EA0131401395
B1547084201544N00044336EA0131701398
B1547094201539N00044339EA0132001401
B1547104201535N00044343EA0132301404
B1547114201532N00044347EA0132501406
B1547124201529N00044350EA0132701409
B1547134201525N00044352EA0132901410
B1547144201522N00044353EA0132901411
B1547154201519N00044354EA0133101412
B1547164201517N00044355EA0133201413
B1547174201516N00044354EA0133401415
B1547184201516N00044354EA0133501416
B1547194201516N00044354EA0133501417
B1547204201517N00044355EA0133601417
B1547214201517N00044355EA0133601418
B1547224201519N00044355EA0133801419
B1547234201520N00044355EA0133901420
B1547244201523N00044356EA0134001421
B1547254201527N00044359EA0134001422
B1547264201531N00044361EA0134101422
B1547274201535N00044364EA0134301424
B1547284201539N00044366EA0134301424
B1547294201542N00044367EA0134301424
B1547304201545N00044367EA0134301424
B1547314201547N00044367EA0134401425
B1547324201547N00044367EA0134401425
B1547334201544N00044367EA0134401425
B1547344201542N00044368EA0134401425
B1547354201538N00044369EA0134401425
B1547364201534N00044370EA0134401425
B1547374201531N00044371EA0134401425
B1547384201528N00044373EA0134401425
B1547394201524N00044374EA0134401425
B1547404201521N00044375EA0134201424
B1547414201517N00044376EA0134301425
B1547424201515N00044376EA0134501426
B1547434201512N00044376EA0134501426
B1547444201509N00044377EA0134501426
B1547454201505N00044378EA0134401425
B1547464201502N00044379EA0134401425
B1547474201498N00044381EA0134301424
B1547484201494N00044383EA0134201423
B1547494201491N00044385EA0134001422
B1547504201488N00044385EA0133801420
B1547514201486N00044385EA0133601417
B1547524201487N00044384EA0133301414
B1547534201488N00044382EA0133201413
B1547544201490N00044380EA0133201413
B1547554201493N00044379EA0133401415
B1547564201496N00044378EA0133701418
B1547574201499N00044379EA0134001421
B1547584201502N00044381EA0134201423
B1547594201504N00044382EA0134201423
B1548004201508N00044383EA0134201423
B1548014201511N00044384EA0134401426
B1548024201515N00044386EA0134701428
B1548034201519N00044388EA0134901430
B1548044201523N00044391EA0135201433
B1548054201527N00044395EA0135401435
B1548064201532N00044399EA0135601437
B1548074201537N00044403EA0135901440
B1548084201542N00044408EA0136201443
B1548094201548N00044413EA0136301444
B1548104201553N00044417EA0136201443
B1548114201557N00044420EA0136301444
B1548124201561N00044421EA0136301444
B1548134201564N00044422EA0136401445
B1548144201567N00044423EA0136501446
B1548154201568N00044424EA0136401445
B1548164201566N00044423EA0136301445
B1548174201564N00044423EA0136301444
B1548184201561N00044423EA0136101442
B1548194201557N00044424EA0135901440
B1548204201551N00044425EA0135801439
B1548214201545N00044429EA0135701438
B1548224201539N00044434EA0135901440
B1548234201534N00044440EA0135901440
B1548244201529N00044448EA0136001441
B1548254201525N00044457EA0136101442
B1548264201523N00044469EA0136201443
B1548274201521N00044481EA0136301444
B1548284201522N00044493EA0136501446
B1548294201524N00044505EA0136801449
B1548304201527N00044514EA0137001451
B1548314201531N00044523EA0137201454
B1548324201536N00044529EA0137401455
B1548334201541N00044535EA0137501456
B1548344201547N00044539EA0137601457
B1548354201553N00044541EA0137701458
B1548364201558N00044543EA0137701458
B1548374201563N00044543EA0137801459
B1548384201566N00044543EA0137801460
B1548394201569N00044544EA0137801459
B1548404201571N00044545EA0137801459
B1548414201572N00044545EA0137701458
B1548424201574N00044544EA0137601457
B1548434201575N00044542EA0137501456
B1548444201576N00044540EA0137401455
B1548454201577N00044538EA0137301454
B1548464201577N00044537EA0137201454
B1548474201576N00044535EA0137201453
B1548484201575N00044533EA0137101452
B1548494201574N00044532EA0136901450
B1548504201574N00044531EA0137001451
B1548514201573N00044529EA0136901451
B1548524201573N00044528EA0136901450
B1548534201573N00044527EA0136801449
B1548544201573N00044526EA0136701448
B1548554201573N00044524EA0136601447
B1548564201573N00044522EA0136501447
B1548574201573N00044520EA0136401445
B1548584201572N00044517EA0136301444
B1548594201572N00044514EA0136101442
B1549004201572N00044510EA0135901440
B1549014201571N00044506EA0135801439
B1549024201570N00044503EA0135701438
B1549034201569N00044499EA0135501436
B1549044201567N00044496EA0135401435
B1549054201565N00044492EA0135401435
B1549064201563N00044490EA0135401435
B1549074201560N00044487EA0135301434
B1549084201557N00044486EA0135101432
B1549094201554N00044485EA0134901430
B1549104201550N00044484EA0134501427
B1549114201548N00044482EA0134201424
B1549124201546N00044479EA0133901420
B1549134201545N00044476EA0133601417
B1549144201544N00044473EA0133401415
B1549154201542N00044470EA0133201414
B1549164201541N00044467EA0133001411
B1549174201539N00044464EA0132801409
B1549184201538N00044462EA0132701409
B1549194201537N00044459EA0133001411
B1549204201537N00044455EA0133001412
B1549214201536N00044455EA0133201413
B1549224201536N00044454EA0133301414
B1549234201536N00044455EA0133301414
B1549244201535N00044455EA0133201414
B1549254201534N00044454EA0133201413
B1549264201533N00044452EA0133401415
B1549274201532N00044450EA0133701418
B1549284201532N00044447EA0134001421
B1549294201532N00044445EA0134101422
B1549304201533N00044445EA0134201423
B1549314201534N00044444EA0134201423
B1549324201535N00044443EA0134201423
B1549334201536N00044442EA0134401425
B1549344201538N00044441EA0134501426
B1549354201539N00044439EA0134701428
B1549364201540N00044438EA0134801429
B1549374201542N00044436EA0134901430
B1549384201543N00044434EA0134901431
B1549394201544N00044432EA0135001432
B1549404201545N00044430EA0135201433
B1549414201546N00044427EA0135301434
B1549424201547N00044426EA0135301434
B1549434201548N00044424EA0135301434
B1549444201549N00044421EA0135301434
B1549454201550N00044418EA0135301434
B1549464201552N00044415EA0135301435
B1549474201553N00044412EA0135401435
B1549484201553N00044408EA0135501437
B1549494201554N00044406EA0135501437
B1549504201554N00044404EA0135501436
B1549514201554N00044402EA0135301434
B1549524201554N00044401EA0135101432
B1549534201554N00044400EA0135001431
B1549544201555N00044398EA0134901430
B1549554201555N00044396EA0134801430
B1549564201555N00044395EA0134801429
B1549574201555N00044394EA0134801429
B1549584201555N00044393EA0134701429
B1549594201554N00044392EA0134701428
B1550004201553N00044391EA0134601427
B1550014201552N00044390EA0134501426
B1550024201551N00044389EA0134401425
B1550034201550N00044387EA0134301424
B1550044201550N00044385EA0134301424
B1550054201548N00044383EA0134301424
B1550064201547N00044382EA0134201423
B1550074201546N00044380EA0134001421
B1550084201545N00044379EA0133901420
B1550094201544N00044378EA0133701418
B1550104201542N00044376EA0133501416
B1550114201541N00044374EA0133301415
B1550124201539N00044372EA0133201413
B1550134201538N00044370EA0133001411
B1550144201535N00044368EA0132801409
B1550154201533N00044366EA0132701408
B1550164201532N00044363EA0132501406
B1550174201531N00044360EA0132301404
B1550184201530N00044357EA0132001401
B1550194201529N00044354EA0131801399
B1550204201528N00044350EA0131601397
B1550214201527N00044347EA0131501397
B1550224201527N00044344EA0131401395
B1550234201526N00044341EA0131301394
B1550244201525N00044339EA0131101392
B1550254201523N00044337EA0131001391
B1550264201523N00044334EA0130801389
B1550274201521N00044331EA0130601387
B1550284201520N00044328EA0130501386
B1550294201520N00044324EA0130101382
B1550304201519N00044321EA0129601377
B1550314201519N00044317EA0129301374
B1550324201518N00044313EA0129101372
B1550334201518N00044308EA0128901370
B1550344201517N00044305EA0128701368
B1550354201516N00044301EA0128501366
B1550364201515N00044299EA0128201363
B1550374201513N00044296EA0127901360
B1550384201510N00044293EA0127701358
B1550394201507N00044291EA0127501356
B1550404201503N00044289EA0127401355
B1550414201499N00044287EA0127101353
B1550424201495N00044287EA0126801349
B1550434201491N00044285EA0126501346
B1550444201486N00044283EA0126101342
B1550454201480N00044280EA0125801339
B1550464201475N00044277EA0125601337
B1550474201471N00044275EA0125601338
B1550484201466N00044274EA0125701338
B1550494201462N00044274EA0125801339
B1550504201458N00044275EA0125701339
B1550514201454N00044276EA0125701338
B1550524201450N00044277EA0125601337
B1550534201446N00044278EA0125501337
B1550544201442N00044278EA0125401336
B1550554201439N00044279EA0125301335
B1550564201434N00044279EA0125201334
B1550574201431N00044279EA0125101333
B1550584201427N00044279EA0125101332
B1550594201423N00044279EA0125001331
B1551004201420N00044279EA0124901330
B1551014201416N00044280EA0124601327
B1551024201412N00044280EA0124401325
B1551034201407N00044281EA0124301324
B1551044201402N00044283EA0124301324
B1551054201398N00044283EA0124201323
B1551064201395N00044284EA0124001321
B1551074201391N00044284EA0123801319
B1551084201387N00044283EA0123501316
B1551094201384N00044282EA0123401315
B1551104201381N00044281EA0123301314
B1551114201377N00044280EA0123101312
B1551124201374N00044280EA0122901311
B1551134201372N00044279EA0122701308
B1551144201369N00044279EA0122501306
B1551154201366N00044278EA0122301304
B1551164201363N00044277EA0122101302
B1551174201360N00044275EA0121901300
B1551184201357N00044274EA0121701298
B1551194201354N00044273EA0121601297
B1551204201351N00044271EA0121501296
B1551214201347N00044271EA0121501296
B1551224201345N00044270EA0121401295
B1551234201343N00044269EA0121401295
B1551244201341N00044269EA0121101293
B1551254201338N00044268EA0121001291
B1551264201336N00044267EA0120801290
B1551274201333N00044266EA0120801289
B1551284201332N00044264EA0120801290
B1551294201330N00044263EA0120801289
B1551304201328N00044262EA0120701288
B1551314201326N00044261EA0120601287
B1551324201324N00044260EA0120501286
B1551334201322N00044259EA0120501286
B1551344201319N00044258EA0120501287
B1551354201317N00044257EA0120501287
B1551364201314N00044257EA0120501286
B1551374201311N00044258EA0120601287
B1551384201309N00044258EA0120501286
B1551394201307N00044257EA0120401286
B1551404201305N00044256EA0120401285
B1551414201303N00044256EA0120401285
B1551424201301N00044256EA0120201283
B1551434201298N00044257EA0120001281
B1551444201295N00044257EA0119701278
B1551454201292N00044257EA0119401275
B1551464201289N00044256EA0119201273
B1551474201285N00044255EA0119101273
B1551484201280N00044253EA0119101273
B1551494201277N00044252EA0119201273
B1551504201273N00044251EA0119201273
B1551514201271N00044250EA0119101272
B1551524201268N00044249EA0119001271
B1551534201265N00044248EA0118801270
B1551544201262N00044247EA0118701268
B1551554201259N00044245EA0118501267
B1551564201256N00044243EA0118401265
B1551574201252N00044242EA0118201264
B1551584201249N00044241EA0118101262
B1551594201246N00044239EA0117901261
B1552004201242N00044238EA0117701258
B1552014201239N00044237EA0117601258
B1552024201235N00044236EA0117501256
B1552034201232N00044234EA0117201253
B1552044201228N00044233EA0117001251
B1552054201225N00044232EA0116801249
B1552064201222N00044231EA0116601247
B1552074201219N00044229EA0116401245
B1552084201217N00044227EA0116201243
B1552094201215N00044225EA0116001241
B1552104201212N00044223EA0115701239
B1552114201208N00044221EA0115501236
B1552124201206N00044219EA0115401235
B1552134201204N00044217EA0115301234
B1552144201202N00044214EA0115201233
B1552154201201N00044213EA0115001231
B1552164201199N00044212EA0114801229
B1552174201197N00044211EA0114501226
B1552184201194N00044208EA0114201223
B1552194201191N00044206EA0114001221
B1552204201189N00044204EA0113701219
B1552214201187N00044202EA0113501216
B1552224201184N00044200EA0113301214
B1552234201183N00044198EA0113001211
B1552244201180N00044195EA0112801210
B1552254201179N00044193EA0112801209
B1552264201177N00044191EA0112801209
B1552274201175N00044190EA0112801209
B1552284201173N00044190EA0112701208
B1552294201172N00044189EA0112601207
B1552304201171N00044189EA0112401205
B1552314201168N00044188EA0112201204
B1552324201167N00044187EA0112001201
B1552334201165N00044187EA0111801199
B1552344201162N00044186EA0111701198
B1552354201161N00044184EA0111401195
B1552364201160N00044183EA0111201193
B1552374201159N00044181EA0110901191
B1552384201157N00044179EA0110701188
B1552394201155N00044178EA0110401185
B1552404201154N00044174EA0110201183
B1552414201153N00044171EA0110001181
B1552424201152N00044169EA0109801179
B1552434201152N00044166EA0109501176
B1552444201151N00044164EA0109301174
B1552454201151N00044161EA0109001171
B1552464201151N00044158EA0108801170
B1552474201149N00044156EA0108701168
B1552484201148N00044153EA0108501167
B1552494201147N00044151EA0108401166
B1552504201146N00044150EA0108201163
B1552514201145N00044148EA0107901160
B1552524201142N00044145EA0107501156
B1552534201140N00044143EA0107101152
B1552544201138N00044140EA0106801149
B1552554201136N00044138EA0106701148
B1552564201134N00044136EA0106801150
B1552574201133N00044134EA0106901150
B1552584201131N00044132EA0106801150
B1552594201130N00044131EA0106701148
B1553004201128N00044131EA0106501146
B1553014201126N00044129EA0106201143
B1553024201124N00044127EA0106201143
B1553034201122N00044125EA0106101142
B1553044201121N00044123EA0106001142
B1553054201119N00044121EA0106101142
B1553064201117N00044119EA0106001141
B1553074201115N00044118EA0105801139
B1553084201113N00044117EA0105701138
B1553094201111N00044116EA0105701138
B1553104201109N00044115EA0105601138
B1553114201108N00044114EA0105501137
B1553124201106N00044113EA0105401135
B1553134201105N00044112EA0105301134
B1553144201103N00044110EA0105401135
B1553154201103N00044108EA0105401136
B1553164201102N00044106EA0105501136
B1553174201100N00044105EA0105601137
B1553184201099N00044104EA0105701138
B1553194201098N00044103EA0105801139
B1553204201097N00044101EA0105901140
B1553214201097N00044100EA0105901140
B1553224201096N00044099EA0106101143
B1553234201095N00044098EA0106301144
B1553244201094N00044097EA0106401145
B1553254201093N00044096EA0106401145
B1553264201092N00044095EA0106301144
B1553274201091N00044094EA0106101142
B1553284201090N00044092EA0106101143
B1553294201089N00044090EA0106201143
B1553304201088N00044088EA0106201143
B1553314201087N00044086EA0106201143
B1553324201086N00044085EA0106101143
B1553334201084N00044083EA0106001141
B1553344201084N00044081EA0105901140
B1553354201082N00044079EA0105901140
B1553364201081N00044076EA0105901140
B1553374201080N00044074EA0105901140
B1553384201079N00044071EA0105901141
B1553394201077N00044069EA0105901140
B1553404201076N00044068EA0105901140
B1553414201075N00044065EA0105801139
B1553424201075N00044062EA0105801139
B1553434201074N00044059EA0106001141
B1553444201073N00044057EA0106001142
B1553454201072N00044055EA0106001141
B1553464201071N00044053EA0106001141
B1553474201069N00044051EA0106001141
B1553484201068N00044050EA0106001141
B1553494201067N00044049EA0106001141
B1553504201066N00044048EA0105901140
B1553514201067N00044047EA0105701138
B1553524201069N00044047EA0105501136
B1553534201071N00044047EA0105501136
B1553544201075N00044047EA0105301135
B1553554201079N00044049EA0105301134
B1553564201084N00044052EA0105201133
B1553574201088N00044058EA0105101133
B1553584201093N00044064EA0105001131
B1553594201097N00044071EA0104901130
B1554004201100N00044081EA0104901130
B1554014201102N00044091EA0104901130
B1554024201103N00044101EA0104901130
B1554034201102N00044113EA0104801129
B1554044201099N00044124EA0104701128
B1554054201095N00044135EA0104701128
B1554064201089N00044143EA0104701129
B1554074201084N00044150EA0104701129
B1554084201078N00044154EA0104701128
B1554094201073N00044158EA0104701128
B1554104201068N00044161EA0104601128
B1554114201062N00044163EA0104601127
B1554124201058N00044164EA0104601127
B1554134201053N00044164EA0104501126
B1554144201049N00044163EA0104501126
B1554154201046N00044161EA0104401126
B1554164201043N00044158EA0104401125
B1554174201041N00044155EA0104501126
B1554184201040N00044152EA0104501126
B1554194201038N00044149EA0104301124
B1554204201036N00044145EA0104101122
B1554214201034N00044142EA0103901121
B1554224201033N00044139EA0103801119
B1554234201031N00044136EA0103701118
B1554244201030N00044133EA0103601117
B1554254201030N00044130EA0103401115
B1554264201030N00044126EA0103101112
B1554274201030N00044122EA0102801109
B1554284201030N00044117EA0102601107
B1554294201031N00044113EA0102501106
B1554304201032N00044109EA0102401105
B1554314201032N00044106EA0102401105
B1554324201033N00044104EA0102301104
B1554334201034N00044102EA0102101102
B1554344201037N00044101EA0101901100
B1554354201039N00044099EA0101801099
B1554364201042N00044098EA0101901100
B1554374201044N00044095EA0101901100
B1554384201046N00044093EA0101901100
B1554394201048N00044092EA0101801100
B1554404201050N00044090EA0101801099
B1554414201052N00044088EA0101701099
B1554424201054N00044086EA0101801099
B1554434201056N00044084EA0101901100
B1554444201059N00044083EA0102001101
B1554454201061N00044081EA0102001101
B1554464201063N00044078EA0102001101
B1554474201065N00044076EA0102101102
B1554484201068N00044073EA0102301104
B1554494201070N00044071EA0102601107
B1554504201072N00044069EA0102801109
B1554514201074N00044068EA0103001111
B1554524201075N00044067EA0103101113
B1554534201076N00044067EA0103201114
B1554544201078N00044067EA0103301115
B1554554201079N00044066EA0103401115
B1554564201080N00044065EA0103401116
B1554574201082N00044064EA0103401116
B1554584201084N00044063EA0103601117
B1554594201085N00044062EA0103701118
B1555004201087N00044061EA0103801119
B1555014201087N00044060EA0103901120
B1555024201089N00044060EA0103901120
B1555034201090N00044060EA0103801120
B1555044201092N00044059EA0103801119
B1555054201094N00044058EA0103801119
B1555064201096N00044057EA0103701118
B1555074201097N00044056EA0103601117
B1555084201099N00044054EA0103501117
B1555094201101N00044052EA0103601117
B1555104201103N00044050EA0103501116
B1555114201106N00044049EA0103501117
B1555124201108N00044047EA0103601117
B1555134201110N00044045EA0103601118
B1555144201112N00044044EA0103701119
B1555154201114N00044042EA0103801119
B1555164201117N00044041EA0103801119
B1555174201119N00044039EA0103801119
B1555184201122N00044037EA0103901120
B1555194201125N00044035EA0104001122
B1555204201128N00044033EA0104201123
B1555214201131N00044031EA0104301125
B1555224201134N00044029EA0104501126
B1555234201137N00044028EA0104601127
B1555244201139N00044027EA0104701128
B1555254201141N00044026EA0104701128
B1555264201143N00044025EA0104601128
B1555274201145N00044024EA0104701129
B1555284201146N00044022EA0104801129
B1555294201149N00044020EA0104901130
B1555304201151N00044018EA0105001131
B1555314201153N00044017EA0105101132
B1555324201154N00044016EA0105001131
B1555334201155N00044014EA0104901130
B1555344201157N00044013EA0104901130
B1555354201159N00044011EA0104901131
B1555364201160N00044008EA0105101132
B1555374201162N00044005EA0105401135
B1555384201164N00044003EA0105601137
B1555394201167N00044002EA0105701139
B1555404201168N00044000EA0105901141
B1555414201171N00043998EA0106101142
B1555424201173N00043996EA0106401145
B1555434201175N00043994EA0106601147
B1555444201177N00043992EA0106801149
B1555454201179N00043990EA0107001151
B1555464201181N00043988EA0107101152
B1555474201183N00043986EA0107201153
B1555484201185N00043984EA0107201153
B1555494201187N00043982EA0107201153
B1555504201189N00043980EA0107201153
B1555514201191N00043979EA0107001152
B1555524201193N00043978EA0106801150
B1555534201195N00043977EA0106701148
B1555544201199N00043976EA0106601147
B1555554201203N00043975EA0106501146
B1555564201207N00043976EA0106401145
B1555574201212N00043978EA0106201143
B1555584201218N00043981EA0106001141
B1555594201224N00043986EA0105801139
B1556004201230N00043993EA0105601137
B1556014201235N00044004EA0105301134
B1556024201239N00044015EA0105201133
B1556034201242N00044027EA0105001132
B1556044201245N00044039EA0104901130
B1556054201245N00044052EA0104801130
B1556064201244N00044065EA0104801129
B1556074201242N00044076EA0104801129
B1556084201238N00044084EA0104801129
B1556094201231N00044089EA0104901130
B1556104201226N00044092EA0104901131
B1556114201222N00044095EA0105001132
B1556124201219N00044098EA0105201133
B1556134201215N00044100EA0105201133
B1556144201212N00044102EA0105101132
B1556154201210N00044103EA0105001131
B1556164201207N00044103EA0104801129
B1556174201205N00044103EA0104701128
B1556184201203N00044101EA0104601127
B1556194201202N00044099EA0104701128
B1556204201201N00044096EA0104801129
B1556214201201N00044095EA0104801129
B1556224201201N00044094EA0104701128
B1556234201200N00044092EA0104601127
B1556244201198N00044091EA0104401126
B1556254201197N00044089EA0104301124
B1556264201196N00044086EA0104301124
B1556274201194N00044084EA0104201123
B1556284201193N00044083EA0104001121
B1556294201192N00044083EA0103701118
B1556304201190N00044082EA0103401115
B1556314201189N00044081EA0103101112
B1556324201189N00044079EA0102901110
B1556334201189N00044076EA0102801109
B1556344201189N00044074EA0102801109
B1556354201189N00044071EA0102801109
B1556364201190N00044069EA0102801109
B1556374201191N00044067EA0102601107
B1556384201191N00044064EA0102401105
B1556394201191N00044062EA0102301104
B1556404201193N00044059EA0102101102
B1556414201194N00044057EA0101901101
B1556424201195N00044054EA0101801099
B1556434201195N00044051EA0101801099
B1556444201196N00044048EA0101701099
B1556454201196N00044045EA0101801099
B1556464201196N00044042EA0101801099
B1556474201196N00044041EA0101601097
B1556484201195N00044040EA0101301095
B1556494201194N00044038EA0100901090
B1556504201193N00044035EA0100601087
B1556514201192N00044033EA0100501086
B1556524201192N00044030EA0100301084
B1556534201192N00044028EA0100101082
B1556544201192N00044026EA0099801079
B1556554201190N00044025EA0099401075
B1556564201188N00044024EA0099101072
B1556574201184N00044021EA0098701068
B1556584201180N00044021EA0098401065
B1556594201176N00044021EA0098101062
B1557004201171N00044023EA0098001061
B1557014201167N00044026EA0097601057
B1557024201162N00044030EA0097301054
B1557034201158N00044035EA0097101052
B1557044201153N00044041EA0096901050
B1557054201149N00044048EA0096701048
B1557064201145N00044056EA0096501046
B1557074201142N00044064EA0096301044
B1557084201139N00044072EA0096101042
B1557094201136N00044080EA0095701038
B1557104201131N00044087EA0095401035
B1557114201127N00044095EA0095001031
B1557124201122N00044100EA0094801029
B1557134201116N00044104EA0094601027
B1557144201110N00044107EA0094401025
B1557154201105N00044110EA0094301024
B1557164201100N00044113EA0094101023
B1557174201095N00044116EA0094001021
B1557184201090N00044119EA0093701019
B1557194201085N00044121EA0093401016
B1557204201081N00044123EA0093301014
B1557214201076N00044125EA0093101013
B1557224201071N00044128EA0093001011
B1557234201066N00044133EA0092801009
B1557244201061N00044138EA0092701008
B1557254201056N00044143EA0092701008
B1557264201050N00044148EA0092701009
B1557274201045N00044153EA0092701008
B1557284201040N00044158EA0092601007
B1557294201036N00044162EA0092401005
B1557304201031N00044165EA0092201003
B1557314201026N00044168EA0091901001
B1557324201021N00044170EA0091700998
B1557334201016N00044171EA0091600997
B1557344201012N00044172EA0091300994
B1557354201008N00044170EA0091000991
B1557364201006N00044167EA0090900990
B1557374201004N00044163EA0090700988
B1557384201005N00044159EA0090500987
B1557394201007N00044157EA0090400985
B1557404201009N00044155EA0090300984
B1557414201011N00044153EA0090300984
B1557424201013N00044152EA0090200983
B1557434201015N00044152EA0090000982
B1557444201017N00044152EA0089800979
B1557454201019N00044152EA0089800979
B1557464201021N00044152EA0089800979
B1557474201026N00044153EA0089800979
B1557484201030N00044155EA0089800979
B1557494201034N00044157EA0089700978
B1557504201038N00044159EA0089600977
B1557514201042N00044161EA0089500976
B1557524201046N00044163EA0089300974
B1557534201051N00044164EA0089400975
B1557544201057N00044165EA0089600977
B1557554201061N00044166EA0089700979
B1557564201065N00044167EA0089800979
B1557574201069N00044168EA0089800979
B1557584201073N00044168EA0089900980
B1557594201076N00044168EA0089900980
B1558004201081N00044166EA0090000981
B1558014201084N00044165EA0090100982
B1558024201089N00044165EA0090200984
B1558034201093N00044166EA0090300984
B1558044201097N00044166EA0090300984
B1558054201101N00044165EA0090300985
B1558064201105N00044164EA0090500986
B1558074201110N00044163EA0090600987
B1558084201115N00044162EA0090800989
B1558094201119N00044160EA0090900990
B1558104201123N00044159EA0091100992
B1558114201127N00044158EA0091300994
B1558124201130N00044156EA0091400995
B1558134201134N00044155EA0091500996
B1558144201137N00044154EA0091600997
B1558154201140N00044153EA0091500996
B1558164201142N00044152EA0091500996
B1558174201143N00044152EA0091500996
B1558184201146N00044153EA0091500996
B1558194201148N00044153EA0091400996
B1558204201151N00044153EA0091400995
B1558214201154N00044154EA0091400995
B1558224201158N00044155EA0091400995
B1558234201162N00044157EA0091400995
B1558244201166N00044158EA0091400995
B1558254201170N00044160EA0091500996
B1558264201174N00044163EA0091500997
B1558274201178N00044167EA0091500997
B1558284201182N00044172EA0091500996
B1558294201186N00044179EA0091400995
B1558304201189N00044187EA0091400996
B1558314201192N00044196EA0091400996
B1558324201194N00044206EA0091400995
B1558334201194N00044217EA0091400995
B1558344201194N00044227EA0091300994
B1558354201192N00044237EA0091100992
B1558364201189N00044247EA0090900990
B1558374201186N00044256EA0090800989
B1558384201182N00044265EA0090700988
B1558394201177N00044274EA0090700988
B1558404201172N00044282EA0090800989
B1558414201168N00044289EA0090900990
B1558424201164N00044296EA0090900990
B1558434201161N00044302EA0090800990
B1558444201158N00044307EA0090800989
B1558454201154N00044313EA0090800989
B1558464201149N00044316EA0090900991
B1558474201145N00044319EA0091200993
B1558484201141N00044321EA0091400996
B1558494201139N00044322EA0091500996
B1558504201137N00044324EA0091500996
B1558514201135N00044322EA0091500996
B1558524201134N00044319EA0091400995
B1558534201133N00044316EA0091600997
B1558544201134N00044311EA0091800999
B1558554201135N00044307EA0092001001
B1558564201138N00044305EA0092101002
B1558574201142N00044304EA0092101002
B1558584201146N00044304EA0092201003
B1558594201151N00044306EA0092301005
B1559004201157N00044308EA0092501006
B1559014201162N00044313EA0092601008
B1559024201167N00044321EA0092801009
B1559034201171N00044328EA0092801009
B1559044201173N00044337EA0092701008
B1559054201172N00044349EA0092701008
B1559064201170N00044359EA0092801009
B1559074201167N00044368EA0092901011
B1559084201162N00044374EA0093201013
B1559094201159N00044378EA0093301015
B1559104201156N00044381EA0093501017
B1559114201153N00044382EA0093701019
B1559124201150N00044383EA0093901020
B1559134201148N00044383EA0094001021
B1559144201146N00044381EA0094101022
B1559154201143N00044379EA0094301024
B1559164201142N00044377EA0094401026
B1559174201141N00044375EA0094501026
B1559184201139N00044373EA0094401025
B1559194201138N00044370EA0094401025
B1559204201138N00044366EA0094401025
B1559214201138N00044362EA0094401026
B1559224201139N00044359EA0094501026
B1559234201141N00044357EA0094701028
B1559244201142N00044355EA0094801029
B1559254201143N00044353EA0094701028
B1559264201143N00044350EA0094601027
B1559274201143N00044348EA0094501026
B1559284201143N00044345EA0094501027
B1559294201143N00044342EA0094701028
B1559304201143N00044340EA0094901030
B1559314201143N00044338EA0094901031
B1559324201144N00044337EA0094901030
B1559334201145N00044336EA0094901030
B1559344201146N00044334EA0094801029
B1559354201146N00044331EA0094801030
B1559364201149N00044329EA0095001031
B1559374201150N00044327EA0095001032
B1559384201152N00044325EA0095001031
B1559394201153N00044323EA0094901030
B1559404201153N00044322EA0094801029
B1559414201153N00044319EA0094701028
B1559424201154N00044315EA0094601027
B1559434201155N00044313EA0094601028
B1559444201157N00044310EA0094701028
B1559454201160N00044307EA0094701028
B1559464201164N00044306EA0094701028
B1559474201168N00044307EA0094701028
B1559484201172N00044308EA0094701029
B1559494201178N00044312EA0094801029
B1559504201184N00044317EA0094801030
B1559514201190N00044324EA0094901030
B1559524201194N00044333EA0095001032
B1559534201197N00044342EA0095101032
B1559544201199N00044351EA0095101032
B1559554201198N00044361EA0095101032
B1559564201195N00044369EA0095101032
B1559574201192N00044377EA0095101032
B1559584201189N00044383EA0095001031
B1559594201184N00044385EA0094901030
B1600004201181N00044387EA0094801030
B1600014201178N00044388EA0094801029
B1600024201176N00044388EA0094701028
B1600034201174N00044387EA0094501026
B1600044201172N00044386EA0094301025
B1600054201170N00044383EA0094101023
B1600064201168N00044380EA0093901021
B1600074201168N00044377EA0093801019
B1600084201167N00044374EA0093701018
B1600094201167N00044371EA0093501017
B1600104201167N00044368EA0093401015
B1600114201167N00044365EA0093301015
B1600124201166N00044362EA0093301014
B1600134201166N00044360EA0093201013
B1600144201166N00044357EA0093001011
B1600154201166N00044355EA0092801009
B1600164201167N00044352EA0092701008
B1600174201167N00044349EA0092701008
B1600184201166N00044347EA0092701008
B1600194201165N00044345EA0092701008
B1600204201165N00044343EA0092701008
B1600214201167N00044343EA0092501006
B1600224201167N00044343EA0092301005
B1600234201168N00044343EA0092101002
B1600244201168N00044342EA0091800999
B1600254201167N00044341EA0091600997
B1600264201167N00044339EA0091400995
B1600274201165N00044337EA0091300994
B1600284201165N00044336EA0091200994
B1600294201166N00044335EA0091100992
B1600304201168N00044334EA0091000991
B1600314201171N00044334EA0090700989
B1600324201174N00044334EA0090500986
B1600334201180N00044336EA0090400985
B1600344201184N00044336EA0090100983
B1600354201190N00044337EA0090100982
B1600364201195N00044338EA0090100982
B1600374201200N00044341EA0090000981
B1600384201205N00044346EA0089900981
B1600394201210N00044350EA0089800979
B1600404201215N00044357EA0089700978
B1600414201220N00044364EA0089700978
B1600424201225N00044373EA0089700978
B1600434201228N00044383EA0089700978
B1600444201230N00044393EA0089600977
B1600454201232N00044403EA0089500976
B1600464201232N00044413EA0089400975
B1600474201231N00044422EA0089200974
B1600484201229N00044430EA0089000972
B1600494201226N00044438EA0088900970
B1600504201222N00044445EA0088800969
B1600514201219N00044451EA0088600967
B1600524201215N00044455EA0088300965
B1600534201211N00044458EA0088100962
B1600544201207N00044460EA0087900960
B1600554201203N00044462EA0087700958
B1600564201199N00044463EA0087600957
B1600574201195N00044464EA0087600957
B1600584201192N00044466EA0087500956
B1600594201190N00044468EA0087200953
B1601004201187N00044470EA0086800949
B1601014201185N00044471EA0086400945
B1601024201182N00044472EA0086200944
B1601034201178N00044472EA0086000941
B1601044201174N00044471EA0085800939
B1601054201172N00044472EA0085700938
B1601064201169N00044473EA0085400935
B1601074201167N00044474EA0085200933
B1601084201165N00044476EA0085000931
B1601094201162N00044476EA0084800929
B1601104201159N00044477EA0084700928
B1601114201156N00044479EA0084600928
B1601124201153N00044480EA0084500926
B1601134201150N00044482EA0084300924
B1601144201147N00044483EA0084100922
B1601154201143N00044484EA0084000922
B1601164201141N00044485EA0084000921
B1601174201138N00044487EA0084000921
B1601184201136N00044488EA0084000921
B1601194201134N00044489EA0083900920
B1601204201132N00044489EA0083700919
B1601214201130N00044488EA0083800919
B1601224201129N00044488EA0084000922
B1601234201128N00044489EA0084100922
B1601244201128N00044489EA0084100922
B1601254201127N00044489EA0084200923
B1601264201127N00044489EA0084200924
B1601274201125N00044490EA0084200924
B1601284201124N00044490EA0084200923
B1601294201124N00044491EA0084100922
B1601304201124N00044490EA0083900921
B1601314201124N00044490EA0084000921
B1601324201123N00044489EA0084000922
B1601334201123N00044490EA0083900921
B1601344201123N00044489EA0083900920
B1601354201123N00044489EA0083700918
B1601364201123N00044488EA0083600917
B1601374201124N00044487EA0083500917
B1601384201124N00044486EA0083600917
B1601394201125N00044485EA0083700918
B1601404201127N00044484EA0083600917
B1601414201127N00044483EA0083400915
B1601424201127N00044483EA0083200913
B1601434201127N00044481EA0083100912
B1601444201126N00044480EA0083000911
B1601454201125N00044478EA0082900910
B1601464201124N00044477EA0082800909
B1601474201124N00044476EA0082500907
B1601484201123N00044475EA0082400905
B1601494201123N00044473EA0082300904
B1601504201122N00044472EA0082200904
B1601514201122N00044470EA0082100903
B1601524201122N00044468EA0082200903
B1601534201122N00044466EA0082200903
B1601544201122N00044464EA0082200903
B1601554201122N00044462EA0082300904
B1601564201123N00044460EA0082400905
B1601574201123N00044459EA0082500907
B1601584201124N00044457EA0082400905
B1601594201124N00044457EA0082200903
B1602004201123N00044456EA0082100902
B1602014201123N00044454EA0082100902
B1602024201124N00044452EA0082000901
B1602034201124N00044450EA0082000902
B1602044201124N00044449EA0082000902
B1602054201125N00044448EA0081900900
B1602064201125N00044447EA0081700898
B1602074201125N00044445EA0081500896
B1602084201126N00044444EA0081400895
B1602094201127N00044441EA0081300894
B1602104201127N00044440EA0081200893
B1602114201127N00044438EA0081000891
B1602124201128N00044437EA0080800889
B1602134201128N00044435EA0080700888
B1602144201127N00044433EA0080700888
B1602154201127N00044431EA0080600887
B1602164201127N00044428EA0080800889
B1602174201127N00044426EA0080800889
B1602184201128N00044425EA0080800889
B1602194201129N00044424EA0080700888
B1602204201130N00044423EA0080600887
B1602214201131N00044420EA0080700888
B1602224201133N00044418EA0080800889
B1602234201134N00044416EA0080900891
B1602244201136N00044414EA0081000891
B1602254201137N00044413EA0081000891
B1602264201138N00044411EA0081000891
B1602274201138N00044409EA0080800890
B1602284201138N00044407EA0080900890
B1602294201138N00044405EA0081000892
B1602304201139N00044403EA0081200893
B1602314201140N00044402EA0081300894
B1602324201140N00044402EA0081300894
B1602334201140N00044401EA0081200893
B1602344201140N00044401EA0081000891
B1602354201141N00044400EA0080700888
B1602364201141N00044398EA0080500886
B1602374201141N00044396EA0080400886
B1602384201141N00044394EA0080300884
B1602394201140N00044393EA0080100882
B1602404201138N00044392EA0080000881
B1602414201137N00044391EA0079700878
B1602424201135N00044390EA0079500876
B1602434201133N00044390EA0079300874
B1602444201130N00044391EA0079200873
B1602454201128N00044392EA0079100872
B1602464201125N00044394EA0079000871
B1602474201123N00044396EA0078900871
B1602484201120N00044399EA0078800870
B1602494201117N00044402EA0078700868
B1602504201114N00044405EA0078700868
B1602514201112N00044407EA0078600867
B1602524201109N00044410EA0078400865
B1602534201105N00044413EA0078500866
B1602544201103N00044416EA0078500866
B1602554201100N00044420EA0078600868
B1602564201097N00044423EA0078700868
B1602574201096N00044427EA0078600867
B1602584201093N00044430EA0078600867
B1602594201091N00044433EA0078500866
B1603004201088N00044437EA0078500866
B1603014201086N00044442EA0078700868
B1603024201084N00044448EA0078700869
B1603034201081N00044454EA0078600867
B1603044201080N00044461EA0078500866
B1603054201078N00044466EA0078400865
B1603064201075N00044472EA0078200863
B1603074201072N00044476EA0078300864
B1603084201068N00044480EA0078400865
B1603094201066N00044484EA0078600867
B1603104201065N00044487EA0078600868
B1603114201063N00044489EA0078500867
B1603124201062N00044492EA0078700868
B1603134201060N00044494EA0078600867
B1603144201058N00044495EA0078400865
B1603154201057N00044495EA0078300864
B1603164201056N00044495EA0078200863
B1603174201055N00044495EA0077900861
B1603184201054N00044493EA0077700858
B1603194201054N00044491EA0077600857
B1603204201055N00044489EA0077600857
B1603214201055N00044487EA0077400856
B1603224201055N00044485EA0077300854
B1603234201054N00044483EA0077300854
B1603244201051N00044483EA0077300854
B1603254201049N00044484EA0077400855
B1603264201046N00044487EA0077400855
B1603274201043N00044491EA0077300854
B1603284201040N00044494EA0077100852
B1603294201036N00044498EA0076900851
B1603304201032N00044503EA0076800849
B1603314201027N00044509EA0076700848
B1603324201023N00044516EA0076900850
B1603334201019N00044523EA0076900850
B1603344201017N00044529EA0076800849
B1603354201015N00044537EA0076600848
B1603364201013N00044544EA0076400845
B1603374201010N00044551EA0076200843
B1603384201007N00044555EA0076000841
B1603394201004N00044557EA0075800839
B1603404201001N00044558EA0075600837
B1603414201000N00044559EA0075500836
B1603424200999N00044560EA0075400835
B1603434200999N00044559EA0075200833
B1603444201000N00044558EA0075000831
B1603454201003N00044556EA0074900830
B1603464201005N00044553EA0074700829
B1603474201009N00044552EA0074600827
B1603484201012N00044551EA0074400825
B1603494201017N00044551EA0074300824
B1603504201021N00044552EA0074300824
B1603514201026N00044554EA0074100822
B1603524201030N00044556EA0073900820
B1603534201035N00044558EA0073800819
B1603544201039N00044560EA0073600817
B1603554201043N00044562EA0073400815
B1603564201048N00044564EA0073400815
B1603574201052N00044565EA0073400816
B1603584201057N00044567EA0073500816
B1603594201062N00044568EA0073400815
B1604004201067N00044569EA0073500816
B1604014201071N00044570EA0073500816
B1604024201075N00044571EA0073500816
B1604034201080N00044571EA0073400815
B1604044201084N00044572EA0073300814
B1604054201088N00044572EA0073400815
B1604064201093N00044573EA0073500816
B1604074201098N00044574EA0073500816
B1604084201103N00044576EA0073400816
B1604094201107N00044578EA0073200814
B1604104201112N00044580EA0073000812
B1604114201117N00044581EA0072800809
B1604124201122N00044582EA0072700809
B1604134201127N00044582EA0072800810
B1604144201131N00044582EA0072800809
B1604154201134N00044582EA0072600808
B1604164201138N00044583EA0072500806
B1604174201140N00044582EA0072300805
B1604184201143N00044580EA0072300805
B1604194201143N00044579EA0072300804
B1604204201143N00044577EA0072100802
B1604214201143N00044576EA0071900801
B1604224201142N00044575EA0071800799
B1604234201141N00044573EA0071800799
B1604244201140N00044572EA0071900800
B1604254201139N00044572EA0071900800
B1604264201138N00044572EA0071700798
B1604274201137N00044573EA0071600797
B1604284201136N00044572EA0071400795
B1604294201135N00044572EA0071300794
B1604304201134N00044570EA0071200793
B1604314201133N00044569EA0071100792
B1604324201133N00044568EA0070900790
B1604334201132N00044567EA0070600787
B1604344201130N00044566EA0070400786
B1604354201128N00044566EA0070400785
B1604364201126N00044565EA0070400785
B1604374201124N00044564EA0070500786
B1604384201123N00044565EA0070600787
B1604394201121N00044565EA0070600787
B1604404201119N00044566EA0070600787
B1604414201118N00044566EA0070500786
B1604424201116N00044567EA0070400785
B1604434201115N00044566EA0070200783
B1604444201113N00044567EA0069900780
B1604454201111N00044567EA0069700778
B1604464201109N00044568EA0069400775
B1604474201106N00044567EA0069400775
B1604484201103N00044568EA0069400775
B1604494201101N00044568EA0069400775
B1604504201100N00044568EA0069400775
B1604514201099N00044568EA0069300774
B1604524201097N00044568EA0069100772
B1604534201097N00044567EA0068800769
B1604544201095N00044566EA0068600767
B1604554201093N00044565EA0068500766
B1604564201091N00044565EA0068300764
B1604574201090N00044565EA0068300764
B1604584201088N00044565EA0068200763
B1604594201087N00044565EA0068100762
B1605004201086N00044565EA0067900760
B1605014201085N00044566EA0067700758
B1605024201083N00044565EA0067600757
B1605034201082N00044564EA0067400755
B1605044201081N00044563EA0067600757
B1605054201081N00044562EA0067600757
B1605064201081N00044563EA0067500756
B1605074201080N00044563EA0067400756
B1605084201080N00044564EA0067500756
B1605094201080N00044565EA0067500756
B1605104201080N00044566EA0067500756
B1605114201080N00044566EA0067500756
B1605124201080N00044567EA0067500756
B1605134201080N00044567EA0067500756
B1605144201081N00044567EA0067500756
B1605154201081N00044566EA0067500756
B1605164201080N00044567EA0067500756
B1605174201081N00044567EA0067500756
B1605184201080N00044567EA0067500756
B1605194201080N00044568EA0067500756
B1605204201079N00044568EA0067500756
B1605214201079N00044568EA0067500756
B1605224201079N00044567EA0067500756
B1605234201079N00044567EA0067500756
B1605244201078N00044567EA0067500756
B1605254201078N00044567EA0067500756
B1605264201077N00044568EA0067500756
B1605274201077N00044569EA0067500756
B1605284201077N00044569EA0067500756
B1605294201077N00044569EA0067500756
B1605304201077N00044569EA0067500756
B1605314201077N00044569EA0067500756
B1605324201077N00044569EA0067500756
B1605334201076N00044568EA0067500756
B1605344201076N00044568EA0067500756
B1605354201076N00044568EA0067500756
B1605364201076N00044567EA0067500756
B1605374201076N00044568EA0067500756
B1605384201076N00044568EA0067500756
B1605394201076N00044568EA0067600757
B1605404201076N00044569EA0067500757
B1605414201077N00044569EA0067500756
B1605424201077N00044570EA0067500756
B1605434201076N00044570EA0067500757
B1605444201077N00044570EA0067500756
B1605454201076N00044570EA0067500756
B1605464201077N00044571EA0067500756
B1605474201077N00044571EA0067500756
B1605484201080N00044573EA0067500756
B1605494201081N00044574EA0067500756
B1605504201082N00044575EA0067500756
B1605514201083N00044576EA0067400756
B1605524201084N00044577EA0067500756
B1605534201084N00044577EA0067400756
B1605544201085N00044577EA0067500756
B1605554201085N00044578EA0067500756
B1605564201085N00044579EA0067500756
B1605574201084N00044580EA0067500756
B1605584201084N00044580EA0067500756
B1605594201082N00044581EA0067500756
B1606004201081N00044581EA0067400756
B1606014201080N00044582EA0067500756
B1606024201080N00044582EA0067500756
B1606034201079N00044582EA0067400756
B1606044201078N00044582EA0067500756
B1606054201078N00044583EA0067400756
B1606064201077N00044583EA0067400756
B1606074201076N00044584EA0067400755
B1606084201075N00044584EA0067400755
B1606094201074N00044585EA0067400755
B1606104201072N00044585EA0067400755
B1606114201071N00044585EA0067400755
B1606124201070N00044586EA0067400755
B1606134201070N00044586EA0067400755
B1606144201069N00044587EA0067400755
B1606154201069N00044588EA0067400755
B1606164201068N00044588EA0067400755
B1606174201067N00044589EA0067400755
B1606184201067N00044589EA0067400755
B1606194201066N00044590EA0067400755
B1606204201067N00044589EA0067300755
B1606214201067N00044590EA0067300754
B1606224201067N00044590EA0067300754
B1606234201067N00044590EA0067500756
B1606244201067N00044591EA0067400755
B1606254201067N00044591EA0067300754
B1606264201067N00044591EA0067300755
B1606274201067N00044592EA0067300755
B1606284201066N00044592EA0067300755
B1606294201065N00044593EA0067300755
B1606304201065N00044593EA0067300754
B1606314201064N00044593EA0067300755
B1606324201063N00044593EA0067300754
B1606334201062N00044593EA0067300754
B1606344201061N00044594EA0067300754
B1606354201060N00044595EA0067300754
B1606364201059N00044595EA0067300754
B1606374201059N00044595EA0067300754
B1606384201058N00044596EA0067300754
B1606394201058N00044596EA0067200754
B1606404201056N00044597EA0067200754
B1606414201055N00044598EA0067200753
B1606424201055N00044598EA0067200753
B1606434201054N00044598EA0067200753
B1606444201053N00044599EA0067200753
B1606454201053N00044600EA0067200753
B1606464201052N00044600EA0067200753
B1606474201051N00044601EA0067200753
B1606484201051N00044602EA0067200753
B1606494201050N00044603EA0067200753
B1606504201050N00044603EA0067200753
B1606514201049N00044604EA0067200753
B1606524201049N00044605EA0067200753
B1606534201049N00044605EA0067200753
B1606544201048N00044606EA0067100752
B1606554201048N00044606EA0067100752
B1606564201047N00044606EA0067100753
B1606574201047N00044606EA0067100753
B1606584201046N00044607EA0067100753
B1606594201046N00044607EA0067100752
B1607004201045N00044608EA0067100752
B1607014201045N00044608EA0067100753
B1607024201044N00044609EA0067100752
B1607034201044N00044610EA0067100752
B1607044201043N00044611EA0067100752
B1607054201043N00044612EA0067100752
B1607064201043N00044613EA0067100752
B1607074201043N00044614EA0067100752
B1607084201043N00044615EA0067100752
B1607094201043N00044616EA0067100752
B1607104201043N00044616EA0067100752
B1607114201043N00044616EA0067100752
B1607124201043N00044617EA0067100752
B1607134201043N00044617EA0067100752
B1607144201043N00044618EA0067100752
B1607154201041N00044621EA0067100752
B1607164201040N00044623EA0067100752
B1607174201039N00044624EA0067100752
B1607184201039N00044625EA0067100752
B1607194201038N00044624EA0067100752
B1607204201037N00044624EA0067000751
B1607214201037N00044623EA0067000751
B1607224201037N00044623EA0067000751
B1607234201037N00044624EA0066900750
B1607244201037N00044624EA0066800749
B1607254201038N00044624EA0066800750
B1607264201038N00044624EA0066900750
B1607274201038N00044624EA0066900750
B1607284201038N00044624EA0066900750
B1607294201038N00044624EA0066800750
B1607304201037N00044624EA0066800750
B1607314201038N00044624EA0066900750
B1607324201038N00044624EA0066900750
B1607334201038N00044624EA0066900750
B1607344201038N00044624EA0066900750
B1607354201038N00044624EA0066800750
B1607364201038N00044624EA0066800749
B1607374201038N00044624EA0066900750
B1607384201038N00044624EA0066900750
B1607394201038N00044623EA0066900750
B1607404201038N00044623EA0066900750
B1607414201038N00044623EA0066800750
B1607424201038N00044623EA0066800750
B1607434201038N00044623EA0066900750
B1607444201038N00044623EA0066900750
B1607454201038N00044622EA0066900750
B1607464201038N00044622EA0066900750
B1607474201038N00044622EA0066800750
B1607484201038N00044622EA0066900750
B1607494201038N00044622EA0066900750
B1607504201038N00044622EA0066800750
B1607514201038N00044621EA0066800750
B1607524201038N00044621EA0066800750
B1607534201038N00044621EA0066800750
B1607544201038N00044621EA0066800750
B1607554201038N00044621EA0066800749
B1607564201038N00044621EA0066800749
B1607574201038N00044621EA0066800750
B1607584201038N00044621EA0066900750
B1607594201038N00044621EA0066900750
B1608004201038N00044621EA0066900750
B1608014201038N00044621EA0066800750
LXSX;GF:1.4
G97828308B5F328E38E28752BD7A20F8B
