AXSX003 SKYTRAXX V3.0.7 SN:00000380
HOPLTPILOT:Sepp Bucher
HOGTYGLIDERTYPE:Sigma10
HOCIDCOMPETITIONID:0000
HODTM100GPSDATUM:WGS-84
HOCCLCOMPETITION CLASS:Paraglider (Standard)
HPSITSITE:Azinha
HFDTE310517
B1056564025840N00727306WA0115501203
B1056574025839N00727306WA0115601204
B1056584025837N00727305WA0115501203
B1056594025833N00727306WA0115401202
B1057004025831N00727307WA0115501210
B1057014025829N00727309WA0115501217
B1057024025826N00727308WA0115601224
B1057034025824N00727306WA0115501231
B1057044025822N00727304WA0115501236
B1057054025821N00727301WA0115301241
B1057064025819N00727297WA0115201246
B1057074025818N00727293WA0115101245
B1057084025816N00727289WA0115101246
B1057094025814N00727286WA0115301247
B1057104025811N00727282WA0115501250
B1057114025808N00727280WA0115601251
B1057124025806N00727278WA0115801252
B1057134025805N00727275WA0115901253
B1057144025804N00727271WA0116101256
B1057154025804N00727267WA0116301258
B1057164025803N00727264WA0116501259
B1057174025803N00727261WA0116501260
B1057184025803N00727258WA0116501260
B1057194025803N00727254WA0116401259
B1057204025802N00727251WA0116501260
B1057214025801N00727247WA0116601260
B1057224025799N00727244WA0116801262
B1057234025796N00727242WA0117001264
B1057244025794N00727239WA0117001265
B1057254025793N00727237WA0117101265
B1057264025792N00727235WA0117201267
B1057274025791N00727232WA0117201267
B1057284025791N00727230WA0117301268
B1057294025790N00727227WA0117501270
B1057304025789N00727225WA0117801272
B1057314025789N00727223WA0118001274
B1057324025788N00727222WA0118101276
B1057334025787N00727220WA0118101275
B1057344025785N00727219WA0118101275
B1057354025784N00727218WA0118001274
B1057364025782N00727221WA0117901273
B1057374025780N00727226WA0117801273
B1057384025779N00727233WA0117901273
B1057394025780N00727241WA0117901273
B1057404025781N00727248WA0117801273
B1057414025784N00727256WA0117701272
B1057424025788N00727264WA0117701272
B1057434025792N00727271WA0117701272
B1057444025796N00727278WA0117801273
B1057454025801N00727285WA0117801273
B1057464025805N00727292WA0117701272
B1057474025809N00727300WA0117701271
B1057484025812N00727307WA0117701271
B1057494025815N00727315WA0117601271
B1057504025817N00727322WA0117601271
B1057514025818N00727330WA0117601271
B1057524025816N00727335WA0117601270
B1057534025814N00727340WA0117601271
B1057544025813N00727344WA0117601270
B1057554025810N00727346WA0117501270
B1057564025808N00727347WA0117401269
B1057574025806N00727347WA0117201267
B1057584025803N00727346WA0117101266
B1057594025800N00727344WA0117201267
B1058004025797N00727341WA0117201267
B1058014025795N00727337WA0117301267
B1058024025794N00727333WA0117201267
B1058034025793N00727329WA0117201267
B1058044025792N00727325WA0117201266
B1058054025791N00727321WA0117301267
B1058064025789N00727317WA0117401269
B1058074025788N00727313WA0117501270
B1058084025787N00727308WA0117501270
B1058094025786N00727305WA0117501270
B1058104025786N00727301WA0117501269
B1058114025785N00727298WA0117501269
B1058124025785N00727294WA0117401269
B1058134025785N00727289WA0117401269
B1058144025784N00727285WA0117401269
B1058154025784N00727281WA0117401269
B1058164025784N00727277WA0117401268
B1058174025784N00727273WA0117101266
B1058184025784N00727269WA0116901264
B1058194025784N00727264WA0116701262
B1058204025784N00727259WA0116601261
B1058214025785N00727253WA0116501260
B1058224025785N00727248WA0116301258
B1058234025786N00727242WA0116301258
B1058244025786N00727236WA0116401258
B1058254025788N00727230WA0116401259
B1058264025789N00727224WA0116601261
B1058274025791N00727218WA0117001264
B1058284025792N00727212WA0117401268
B1058294025795N00727208WA0117801272
B1058304025799N00727204WA0117901274
B1058314025802N00727201WA0118001274
B1058324025807N00727198WA0118001275
B1058334025811N00727193WA0118001275
B1058344025815N00727189WA0118101275
B1058354025818N00727185WA0118001275
B1058364025820N00727181WA0118001275
B1058374025819N00727178WA0118001275
B1058384025817N00727175WA0118201276
B1058394025816N00727173WA0118201277
B1058404025813N00727174WA0118301278
B1058414025812N00727175WA0118301277
B1058424025807N00727178WA0118201276
B1058434025803N00727180WA0118101276
B1058444025799N00727184WA0117901274
B1058454025795N00727187WA0117701272
B1058464025790N00727190WA0117701272
B1058474025786N00727192WA0117801272
B1058484025781N00727193WA0117901273
B1058494025777N00727193WA0117901273
B1058504025774N00727193WA0117701272
B1058514025770N00727193WA0117601270
B1058524025766N00727192WA0117401269
B1058534025762N00727191WA0117301268
B1058544025758N00727189WA0117201267
B1058554025755N00727187WA0117101266
B1058564025753N00727183WA0116901264
B1058574025754N00727178WA0116801262
B1058584025757N00727172WA0116701262
B1058594025760N00727167WA0116801262
B1059004025765N00727164WA0116701262
B1059014025770N00727162WA0116701262
B1059024025777N00727162WA0116701262
B1059034025783N00727162WA0116801263
B1059044025788N00727163WA0116901264
B1059054025794N00727163WA0116901264
B1059064025799N00727161WA0116801263
B1059074025803N00727157WA0116701261
B1059084025806N00727152WA0116501259
B1059094025808N00727145WA0116401258
B1059104025809N00727140WA0116301257
B1059114025802N00727138WA0116101256
B1059124025797N00727138WA0116101255
B1059134025792N00727139WA0116101256
B1059144025788N00727140WA0116101256
B1059154025785N00727139WA0116101255
B1059164025781N00727139WA0116001255
B1059174025778N00727138WA0116001255
B1059184025774N00727138WA0116001255
B1059194025770N00727139WA0116101255
B1059204025766N00727140WA0116201257
B1059214025761N00727140WA0116301258
B1059224025756N00727141WA0116401259
B1059234025752N00727142WA0116501259
B1059244025748N00727143WA0116401259
B1059254025745N00727145WA0116401258
B1059264025741N00727148WA0116301258
B1059274025737N00727151WA0116301258
B1059284025732N00727154WA0116201257
B1059294025729N00727156WA0116201256
B1059304025725N00727157WA0116101256
B1059314025721N00727157WA0116101255
B1059324025717N00727157WA0116001254
B1059334025714N00727156WA0115901254
B1059344025710N00727154WA0115801253
B1059354025706N00727152WA0115801253
B1059364025702N00727150WA0115901253
B1059374025699N00727148WA0115901253
B1059384025696N00727146WA0115801252
B1059394025692N00727145WA0115701251
B1059404025688N00727145WA0115601251
B1059414025684N00727145WA0115601250
B1059424025680N00727146WA0115501250
B1059434025676N00727148WA0115401249
B1059444025672N00727150WA0115401248
B1059454025668N00727152WA0115301247
B1059464025665N00727154WA0115201246
B1059474025661N00727154WA0115101245
B1059484025658N00727153WA0114901244
B1059494025656N00727149WA0114801242
B1059504025654N00727144WA0114701242
B1059514025654N00727139WA0114701242
B1059524025657N00727134WA0114601241
B1059534025661N00727129WA0114501240
B1059544025666N00727126WA0114501240
B1059554025672N00727125WA0114501240
B1059564025678N00727124WA0114501239
B1059574025683N00727125WA0114401239
B1059584025689N00727128WA0114401238
B1059594025695N00727131WA0114301238
B1100004025701N00727136WA0114301238
B1100014025707N00727142WA0114301237
B1100024025712N00727147WA0114201237
B1100034025718N00727153WA0114201237
B1100044025723N00727158WA0114301237
B1100054025729N00727163WA0114401238
B1100064025735N00727167WA0114601240
B1100074025741N00727172WA0114801243
B1100084025748N00727177WA0115001244
B1100094025753N00727181WA0115101246
B1100104025760N00727183WA0115201246
B1100114025765N00727184WA0115101246
B1100124025771N00727183WA0115101245
B1100134025776N00727181WA0115001244
B1100144025779N00727175WA0114901243
B1100154025779N00727170WA0114701242
B1100164025777N00727164WA0114701241
B1100174025774N00727161WA0114701241
B1100184025769N00727159WA0114701242
B1100194025765N00727161WA0114801242
B1100204025762N00727164WA0114701242
B1100214025759N00727169WA0114801243
B1100224025756N00727174WA0115101246
B1100234025753N00727181WA0115401249
B1100244025750N00727188WA0115701252
B1100254025749N00727196WA0115901254
B1100264025751N00727202WA0115901254
B1100274025753N00727208WA0115801253
B1100284025754N00727215WA0115601251
B1100294025755N00727222WA0115501250
B1100304025755N00727230WA0115501249
B1100314025755N00727237WA0115401249
B1100324025754N00727243WA0115301248
B1100334025749N00727244WA0115201246
B1100344025745N00727244WA0115101245
B1100354025742N00727242WA0115101246
B1100364025740N00727240WA0115001245
B1100374025738N00727236WA0114901243
B1100384025738N00727232WA0114701242
B1100394025739N00727226WA0114601241
B1100404025741N00727221WA0114501240
B1100414025745N00727216WA0114501239
B1100424025749N00727211WA0114501239
B1100434025754N00727208WA0114501239
B1100444025759N00727205WA0114801242
B1100454025764N00727202WA0115001245
B1100464025770N00727200WA0115301247
B1100474025775N00727199WA0115501250
B1100484025779N00727197WA0115601251
B1100494025782N00727195WA0115601251
B1100504025783N00727191WA0115601251
B1100514025784N00727186WA0115601251
B1100524025783N00727182WA0115701252
B1100534025781N00727180WA0115701251
B1100544025777N00727181WA0115601250
B1100554025773N00727184WA0115701252
B1100564025769N00727188WA0116001254
B1100574025766N00727193WA0116001254
B1100584025763N00727199WA0116001254
B1100594025766N00727209WA0115901254
B1101004025768N00727216WA0115801253
B1101014025770N00727223WA0115701251
B1101024025773N00727231WA0115601251
B1101034025775N00727240WA0115601251
B1101044025777N00727248WA0115601251
B1101054025779N00727256WA0115601251
B1101064025780N00727263WA0115401249
B1101074025781N00727269WA0115201247
B1101084025780N00727275WA0115001245
B1101094025777N00727282WA0115101245
B1101104025774N00727286WA0115001245
B1101114025770N00727289WA0114901243
B1101124025766N00727287WA0114701242
B1101134025763N00727285WA0114701242
B1101144025761N00727281WA0114701242
B1101154025760N00727277WA0114601241
B1101164025759N00727273WA0114501240
B1101174025760N00727268WA0114301238
B1101184025761N00727263WA0114101236
B1101194025763N00727257WA0114101235
B1101204025765N00727251WA0114001235
B1101214025767N00727244WA0114001234
B1101224025769N00727239WA0113801233
B1101234025771N00727234WA0113601231
B1101244025773N00727228WA0113401228
B1101254025775N00727222WA0113201227
B1101264025777N00727216WA0113201227
B1101274025780N00727209WA0113401228
B1101284025783N00727203WA0113701232
B1101294025786N00727198WA0114101236
B1101304025789N00727194WA0114601240
B1101314025793N00727191WA0115101245
B1101324025797N00727189WA0115401249
B1101334025800N00727187WA0115501250
B1101344025803N00727186WA0115601251
B1101354025805N00727182WA0116001254
B1101364025806N00727179WA0116201257
B1101374025807N00727176WA0116501259
B1101384025808N00727174WA0116601260
B1101394025809N00727174WA0116801263
B1101404025810N00727175WA0117101265
B1101414025811N00727177WA0117301267
B1101424025811N00727186WA0117701272
B1101434025821N00727196WA0118101275
B1101444025827N00727201WA0118301278
B1101454025834N00727205WA0118301278
B1101464025841N00727205WA0118401278
B1101474025843N00727203WA0118501280
B1101484025846N00727199WA0118701282
B1101494025847N00727195WA0118801283
B1101504025847N00727192WA0118801282
B1101514025847N00727189WA0118901283
B1101524025844N00727190WA0119201287
B1101534025840N00727194WA0119501289
B1101544025837N00727197WA0119701291
B1101554025835N00727198WA0119801293
B1101564025832N00727197WA0120001294
B1101574025830N00727195WA0120301297
B1101584025828N00727194WA0120501300
B1101594025827N00727192WA0120801303
B1102004025827N00727191WA0120901303
B1102014025826N00727191WA0120901303
B1102024025826N00727191WA0120701301
B1102034025825N00727190WA0120601301
B1102044025822N00727189WA0120701301
B1102054025820N00727187WA0120801302
B1102064025817N00727186WA0120801303
B1102074025814N00727187WA0120801303
B1102084025812N00727190WA0120701302
B1102094025809N00727193WA0120601300
B1102104025808N00727199WA0120401299
B1102114025807N00727206WA0120201297
B1102124025810N00727216WA0120201297
B1102134025812N00727225WA0120001295
B1102144025813N00727234WA0119901294
B1102154025813N00727241WA0119801293
B1102164025812N00727247WA0119901293
B1102174025810N00727252WA0119701292
B1102184025808N00727254WA0119601291
B1102194025806N00727254WA0119601291
B1102204025804N00727252WA0119501289
B1102214025802N00727248WA0119301288
B1102224025802N00727243WA0119301287
B1102234025803N00727237WA0119201286
B1102244025806N00727231WA0119201286
B1102254025809N00727224WA0119301288
B1102264025814N00727219WA0119601290
B1102274025819N00727214WA0119701292
B1102284025825N00727210WA0119701292
B1102294025830N00727207WA0119801293
B1102304025835N00727203WA0119801293
B1102314025839N00727198WA0119801293
B1102324025841N00727193WA0119801292
B1102334025843N00727187WA0119701292
B1102344025843N00727182WA0119701292
B1102354025843N00727179WA0119701291
B1102364025843N00727177WA0119501289
B1102374025838N00727182WA0119401288
B1102384025833N00727187WA0119301287
B1102394025832N00727194WA0119201286
B1102404025831N00727202WA0119401289
B1102414025830N00727210WA0119501290
B1102424025830N00727217WA0119601290
B1102434025830N00727224WA0119701292
B1102444025830N00727231WA0119801292
B1102454025830N00727238WA0119801293
B1102464025830N00727245WA0119901294
B1102474025829N00727251WA0120001294
B1102484025827N00727255WA0120001294
B1102494025824N00727258WA0119901294
B1102504025821N00727259WA0120001294
B1102514025818N00727258WA0120301297
B1102524025815N00727256WA0120301298
B1102534025815N00727253WA0120201297
B1102544025819N00727248WA0120101296
B1102554025824N00727242WA0120201297
B1102564025829N00727237WA0120301298
B1102574025833N00727233WA0120301297
B1102584025837N00727228WA0120001295
B1102594025840N00727224WA0119801293
B1103004025840N00727218WA0119601291
B1103014025840N00727213WA0119501290
B1103024025839N00727208WA0119501289
B1103034025838N00727207WA0119301288
B1103044025835N00727210WA0119301288
B1103054025831N00727214WA0119101286
B1103064025828N00727221WA0119101286
B1103074025825N00727228WA0119201286
B1103084025824N00727236WA0119001284
B1103094025824N00727244WA0118801283
B1103104025824N00727253WA0118601281
B1103114025824N00727261WA0118501279
B1103124025823N00727268WA0118301278
B1103134025821N00727275WA0118301278
B1103144025819N00727280WA0118501279
B1103154025815N00727284WA0118601280
B1103164025812N00727285WA0118601280
B1103174025809N00727285WA0118501280
B1103184025806N00727283WA0118501280
B1103194025804N00727279WA0118501280
B1103204025803N00727274WA0118501280
B1103214025802N00727269WA0118501280
B1103224025802N00727264WA0118501280
B1103234025803N00727258WA0118601280
B1103244025808N00727251WA0118701282
B1103254025812N00727244WA0119001285
B1103264025818N00727238WA0119301288
B1103274025823N00727233WA0119501290
B1103284025827N00727230WA0119501290
B1103294025831N00727227WA0119501290
B1103304025835N00727224WA0119501289
B1103314025839N00727219WA0119501289
B1103324025843N00727213WA0119601290
B1103334025846N00727206WA0119801292
B1103344025847N00727200WA0119801293
B1103354025846N00727197WA0119801293
B1103364025843N00727195WA0119801293
B1103374025839N00727197WA0120001294
B1103384025836N00727200WA0120201296
B1103394025833N00727204WA0120301298
B1103404025831N00727209WA0120501300
B1103414025829N00727216WA0120601301
B1103424025829N00727224WA0120701302
B1103434025832N00727233WA0120901304
B1103444025835N00727241WA0121101305
B1103454025838N00727249WA0121201307
B1103464025841N00727256WA0121401309
B1103474025843N00727264WA0121501310
B1103484025844N00727270WA0121601310
B1103494025843N00727275WA0121601310
B1103504025841N00727278WA0121601310
B1103514025838N00727279WA0121601310
B1103524025835N00727278WA0121701312
B1103534025834N00727274WA0121901314
B1103544025833N00727270WA0122101315
B1103554025833N00727266WA0122101316
B1103564025835N00727262WA0122101316
B1103574025836N00727257WA0122201317
B1103584025838N00727252WA0122401319
B1103594025839N00727246WA0122701322
B1104004025841N00727241WA0123201326
B1104014025842N00727236WA0123601331
B1104024025844N00727232WA0123801333
B1104034025844N00727228WA0124001334
B1104044025844N00727224WA0124201337
B1104054025843N00727222WA0124401338
B1104064025841N00727222WA0124501340
B1104074025838N00727223WA0124701342
B1104084025835N00727226WA0125001344
B1104094025833N00727229WA0125201347
B1104104025832N00727232WA0125101346
B1104114025831N00727235WA0125001344
B1104124025832N00727240WA0124801343
B1104134025833N00727247WA0124701341
B1104144025834N00727254WA0124601341
B1104154025836N00727262WA0124901344
B1104164025838N00727270WA0125101346
B1104174025841N00727277WA0125401348
B1104184025844N00727284WA0125601350
B1104194025845N00727291WA0125501350
B1104204025846N00727297WA0125601350
B1104214025844N00727302WA0125701352
B1104224025843N00727306WA0125901354
B1104234025841N00727308WA0126101355
B1104244025839N00727308WA0126201357
B1104254025838N00727307WA0126401358
B1104264025836N00727304WA0126601361
B1104274025835N00727300WA0126801363
B1104284025835N00727295WA0126901364
B1104294025835N00727291WA0127001364
B1104304025836N00727286WA0127001364
B1104314025837N00727280WA0126901364
B1104324025839N00727274WA0126801362
B1104334025841N00727268WA0126701361
B1104344025844N00727263WA0126601360
B1104354025846N00727256WA0126401359
B1104364025848N00727251WA0126301357
B1104374025851N00727245WA0126201356
B1104384025854N00727241WA0126001355
B1104394025857N00727235WA0125901354
B1104404025860N00727230WA0125901353
B1104414025862N00727226WA0125801353
B1104424025863N00727221WA0125601351
B1104434025863N00727217WA0125401348
B1104444025863N00727215WA0125101346
B1104454025862N00727216WA0124801343
B1104464025861N00727216WA0124601341
B1104474025858N00727224WA0124701342
B1104484025857N00727234WA0124701342
B1104494025857N00727243WA0124601340
B1104504025857N00727253WA0124401339
B1104514025857N00727261WA0124201337
B1104524025858N00727271WA0123901334
B1104534025859N00727281WA0123801332
B1104544025860N00727292WA0123701332
B1104554025862N00727302WA0123701331
B1104564025863N00727312WA0123601331
B1104574025865N00727320WA0123501329
B1104584025865N00727329WA0123201327
B1104594025866N00727339WA0123001325
B1105004025867N00727349WA0123101326
B1105014025868N00727359WA0123201327
B1105024025869N00727369WA0123301327
B1105034025870N00727378WA0123201327
B1105044025871N00727387WA0123201327
B1105054025871N00727395WA0123101326
B1105064025872N00727404WA0123101326
B1105074025873N00727413WA0123201326
B1105084025873N00727423WA0123401328
B1105094025874N00727433WA0123601331
B1105104025875N00727442WA0123801332
B1105114025876N00727450WA0123801333
B1105124025877N00727458WA0123701332
B1105134025879N00727465WA0123601331
B1105144025880N00727473WA0123601330
B1105154025881N00727482WA0123601330
B1105164025880N00727490WA0123501330
B1105174025879N00727497WA0123301328
B1105184025877N00727500WA0123101325
B1105194025874N00727502WA0122901324
B1105204025871N00727502WA0122801322
B1105214025869N00727499WA0122601321
B1105224025867N00727495WA0122501320
B1105234025865N00727490WA0122501320
B1105244025864N00727485WA0122501320
B1105254025863N00727481WA0122601321
B1105264025862N00727476WA0122501319
B1105274025862N00727472WA0122201316
B1105284025863N00727469WA0121901313
B1105294025863N00727465WA0121801313
B1105304025863N00727460WA0121901313
B1105314025862N00727457WA0121801313
B1105324025861N00727453WA0121801313
B1105334025861N00727449WA0121801312
B1105344025860N00727445WA0121701312
B1105354025860N00727442WA0121801313
B1105364025859N00727438WA0121901314
B1105374025858N00727434WA0122001315
B1105384025858N00727431WA0122001315
B1105394025857N00727428WA0122001314
B1105404025857N00727424WA0121901313
B1105414025856N00727420WA0121801313
B1105424025855N00727416WA0121801313
B1105434025855N00727411WA0121901313
B1105444025855N00727407WA0121801313
B1105454025856N00727403WA0121801312
B1105464025857N00727399WA0121501310
B1105474025857N00727395WA0121301308
B1105484025856N00727391WA0121201307
B1105494025855N00727387WA0121301307
B1105504025853N00727383WA0121301308
B1105514025852N00727380WA0121401308
B1105524025851N00727376WA0121401308
B1105534025849N00727372WA0121301308
B1105544025848N00727369WA0121301307
B1105554025846N00727365WA0121101306
B1105564025845N00727360WA0121101305
B1105574025844N00727356WA0121001305
B1105584025844N00727352WA0120901304
B1105594025843N00727347WA0120901303
B1106004025843N00727343WA0120801302
B1106014025842N00727339WA0120601301
B1106024025842N00727334WA0120501300
B1106034025841N00727330WA0120401299
B1106044025841N00727326WA0120501299
B1106054025840N00727321WA0120501300
B1106064025840N00727317WA0120501299
B1106074025840N00727313WA0120401299
B1106084025839N00727309WA0120301298
B1106094025839N00727304WA0120201297
B1106104025838N00727300WA0120201296
B1106114025837N00727296WA0120101296
B1106124025837N00727292WA0120101295
B1106134025837N00727288WA0119901293
B1106144025837N00727285WA0119701291
B1106154025837N00727281WA0119501290
B1106164025836N00727277WA0119401289
B1106174025836N00727273WA0119401288
B1106184025836N00727268WA0119201287
B1106194025837N00727264WA0119101285
B1106204025837N00727260WA0118901283
B1106214025836N00727256WA0118701282
B1106224025836N00727251WA0118601280
B1106234025835N00727246WA0118601280
B1106244025835N00727242WA0118601281
B1106254025834N00727238WA0118501280
B1106264025833N00727235WA0118401278
B1106274025833N00727231WA0118101276
B1106284025833N00727227WA0117901274
B1106294025833N00727222WA0117801272
B1106304025833N00727218WA0117701271
B1106314025833N00727213WA0117501269
B1106324025833N00727209WA0117201267
B1106334025834N00727205WA0117001265
B1106344025834N00727200WA0116801263
B1106354025833N00727197WA0116501259
B1106364025830N00727197WA0116201256
B1106374025826N00727199WA0116101256
B1106384025822N00727201WA0116101256
B1106394025819N00727204WA0116001254
B1106404025816N00727206WA0116001254
B1106414025813N00727208WA0115901254
B1106424025811N00727210WA0115801253
B1106434025808N00727212WA0115601251
B1106444025806N00727214WA0115501250
B1106454025803N00727215WA0115301248
B1106464025800N00727216WA0115301247
B1106474025797N00727217WA0115301248
B1106484025794N00727218WA0115401248
B1106494025790N00727219WA0115401249
B1106504025787N00727219WA0115401249
B1106514025784N00727220WA0115501250
B1106524025781N00727221WA0115701252
B1106534025777N00727221WA0115801253
B1106544025775N00727221WA0115901254
B1106554025772N00727221WA0115901253
B1106564025770N00727220WA0115701252
B1106574025767N00727219WA0115801252
B1106584025763N00727218WA0116001254
B1106594025760N00727217WA0116201257
B1107004025758N00727216WA0116301258
B1107014025756N00727215WA0116301258
B1107024025754N00727215WA0116201257
B1107034025753N00727213WA0116101256
B1107044025753N00727210WA0116001254
B1107054025752N00727206WA0115901254
B1107064025751N00727204WA0115801253
B1107074025749N00727202WA0115701252
B1107084025747N00727200WA0115701252
B1107094025744N00727199WA0115801253
B1107104025741N00727197WA0116001254
B1107114025737N00727194WA0116201257
B1107124025735N00727192WA0116401258
B1107134025733N00727190WA0116501259
B1107144025731N00727188WA0116401259
B1107154025730N00727185WA0116301258
B1107164025728N00727182WA0116201256
B1107174025725N00727180WA0116001255
B1107184025721N00727177WA0116101256
B1107194025717N00727175WA0116301257
B1107204025713N00727172WA0116401258
B1107214025711N00727169WA0116501260
B1107224025708N00727165WA0116801262
B1107234025707N00727162WA0116901264
B1107244025706N00727159WA0116901264
B1107254025704N00727156WA0116801263
B1107264025701N00727155WA0116701262
B1107274025697N00727155WA0116701262
B1107284025692N00727159WA0116701262
B1107294025688N00727162WA0116701261
B1107304025685N00727167WA0116401259
B1107314025683N00727174WA0116201256
B1107324025683N00727182WA0116201256
B1107334025686N00727191WA0116101255
B1107344025689N00727198WA0115901253
B1107354025696N00727204WA0115601251
B1107364025703N00727207WA0115401248
B1107374025709N00727206WA0115201247
B1107384025715N00727204WA0115301247
B1107394025718N00727198WA0115401249
B1107404025720N00727192WA0115501250
B1107414025721N00727187WA0115601251
B1107424025722N00727183WA0115601251
B1107434025724N00727179WA0115601250
B1107444025726N00727176WA0115501249
B1107454025726N00727172WA0115401248
B1107464025726N00727168WA0115301247
B1107474025725N00727164WA0115301248
B1107484025724N00727161WA0115501250
B1107494025722N00727157WA0115701252
B1107504025719N00727155WA0115901253
B1107514025718N00727152WA0116101255
B1107524025716N00727148WA0116101256
B1107534025716N00727145WA0116101255
B1107544025715N00727140WA0116101256
B1107554025716N00727135WA0116201257
B1107564025715N00727130WA0116301258
B1107574025713N00727126WA0116401258
B1107584025711N00727123WA0116401258
B1107594025708N00727122WA0116301258
B1108004025705N00727122WA0116301257
B1108014025702N00727125WA0116201257
B1108024025701N00727130WA0116101255
B1108034025700N00727136WA0116001255
B1108044025703N00727144WA0116001255
B1108054025706N00727151WA0116101255
B1108064025710N00727158WA0116101256
B1108074025716N00727163WA0116201257
B1108084025722N00727167WA0116201257
B1108094025730N00727169WA0116201257
B1108104025737N00727172WA0116301258
B1108114025745N00727175WA0116501259
B1108124025751N00727177WA0116601261
B1108134025759N00727179WA0116801262
B1108144025766N00727181WA0117001265
B1108154025773N00727183WA0117301267
B1108164025779N00727184WA0117601270
B1108174025787N00727184WA0117901273
B1108184025793N00727183WA0118201276
B1108194025800N00727181WA0118401278
B1108204025804N00727178WA0118601280
B1108214025808N00727174WA0118701282
B1108224025810N00727169WA0118801283
B1108234025811N00727164WA0119001285
B1108244025811N00727159WA0119201287
B1108254025811N00727156WA0119401288
B1108264025809N00727154WA0119601290
B1108274025808N00727155WA0119701292
B1108284025806N00727160WA0120001295
B1108294025805N00727166WA0120401299
B1108304025806N00727174WA0120801303
B1108314025806N00727181WA0121101305
B1108324025810N00727186WA0121301308
B1108334025815N00727192WA0121501310
B1108344025822N00727195WA0121601311
B1108354025829N00727197WA0121801312
B1108364025836N00727196WA0122001314
B1108374025843N00727193WA0122101316
B1108384025847N00727188WA0122301317
B1108394025848N00727184WA0122401319
B1108404025847N00727181WA0122601321
B1108414025845N00727179WA0122801323
B1108424025843N00727179WA0123101326
B1108434025841N00727180WA0123201327
B1108444025839N00727180WA0123401329
B1108454025837N00727179WA0123501330
B1108464025836N00727178WA0123601330
B1108474025834N00727179WA0123601331
B1108484025832N00727181WA0123601330
B1108494025831N00727186WA0123601330
B1108504025830N00727192WA0123501330
B1108514025832N00727200WA0123501330
B1108524025835N00727208WA0123701332
B1108534025840N00727216WA0124001335
B1108544025847N00727221WA0124201337
B1108554025855N00727225WA0124501339
B1108564025863N00727225WA0124801343
B1108574025870N00727223WA0125101346
B1108584025876N00727219WA0125301348
B1108594025879N00727214WA0125501350
B1109004025881N00727210WA0125701351
B1109014025882N00727205WA0125801353
B1109024025881N00727202WA0125901354
B1109034025880N00727200WA0125901354
B1109044025879N00727198WA0125901353
B1109054025877N00727198WA0125901353
B1109064025876N00727196WA0125801353
B1109074025873N00727195WA0125801352
B1109084025872N00727195WA0125701352
B1109094025870N00727194WA0125601351
B1109104025868N00727193WA0125601351
B1109114025864N00727192WA0125601351
B1109124025861N00727192WA0125601351
B1109134025858N00727193WA0125601350
B1109144025857N00727195WA0125601350
B1109154025854N00727198WA0125401349
B1109164025853N00727202WA0125201347
B1109174025851N00727207WA0125001345
B1109184025850N00727213WA0124901344
B1109194025851N00727220WA0124801342
B1109204025853N00727228WA0124701341
B1109214025856N00727236WA0124601340
B1109224025861N00727244WA0124401339
B1109234025866N00727250WA0124401338
B1109244025879N00727249WA0124401339
B1109254025887N00727247WA0124201337
B1109264025894N00727242WA0124101336
B1109274025899N00727236WA0124001335
B1109284025903N00727229WA0123801333
B1109294025905N00727222WA0123601331
B1109304025907N00727216WA0123501329
B1109314025908N00727210WA0123501330
B1109324025907N00727207WA0123501329
B1109334025903N00727206WA0123201327
B1109344025898N00727205WA0122901323
B1109354025896N00727205WA0122601321
B1109364025893N00727205WA0122301318
B1109374025890N00727205WA0122101315
B1109384025887N00727207WA0121901314
B1109394025884N00727209WA0121701312
B1109404025881N00727212WA0121501310
B1109414025878N00727216WA0121301308
B1109424025876N00727220WA0121001305
B1109434025873N00727224WA0120801302
B1109444025871N00727228WA0120601300
B1109454025868N00727233WA0120401298
B1109464025867N00727240WA0120101296
B1109474025866N00727248WA0119901294
B1109484025869N00727257WA0119801292
B1109494025872N00727266WA0119601291
B1109504025875N00727275WA0119501290
B1109514025878N00727284WA0119401289
B1109524025881N00727292WA0119401288
B1109534025884N00727300WA0119301287
B1109544025887N00727308WA0119201287
B1109554025889N00727316WA0119201286
B1109564025890N00727323WA0119201286
B1109574025891N00727330WA0119101285
B1109584025891N00727336WA0119201287
B1109594025890N00727339WA0119301287
B1110004025885N00727340WA0119501290
B1110014025882N00727341WA0119601290
B1110024025879N00727341WA0119601291
B1110034025877N00727342WA0119601291
B1110044025875N00727343WA0119501290
B1110054025872N00727344WA0119501289
B1110064025870N00727344WA0119401288
B1110074025868N00727343WA0119301288
B1110084025867N00727342WA0119301288
B1110094025865N00727340WA0119201287
B1110104025864N00727338WA0119101286
B1110114025862N00727336WA0119001284
B1110124025861N00727334WA0118901284
B1110134025858N00727332WA0118901283
B1110144025857N00727330WA0118801283
B1110154025855N00727328WA0118801283
B1110164025854N00727325WA0118701282
B1110174025853N00727322WA0118601281
B1110184025852N00727320WA0118601280
B1110194025851N00727318WA0118501280
B1110204025850N00727316WA0118401279
B1110214025848N00727314WA0118401279
B1110224025847N00727311WA0118401279
B1110234025847N00727308WA0118401279
B1110244025847N00727305WA0118301278
B1110254025848N00727301WA0118201276
B1110264025850N00727297WA0118101276
B1110274025852N00727293WA0118001275
B1110284025852N00727289WA0117901273
B1110294025853N00727286WA0117701271
B1110304025852N00727283WA0117501270
B1110314025852N00727281WA0117301268
B1110324025852N00727278WA0117101266
B1110334025852N00727275WA0117001265
B1110344025852N00727272WA0116901263
B1110354025852N00727270WA0116801263
B1110364025851N00727267WA0116801262
B1110374025851N00727264WA0116801262
B1110384025851N00727262WA0116701261
B1110394025851N00727260WA0116501260
B1110404025851N00727258WA0116501259
B1110414025850N00727256WA0116401259
B1110424025849N00727255WA0116401259
B1110434025848N00727254WA0116701262
B1110444025846N00727253WA0116701261
B1110454025846N00727253WA0116601260
B1110464025844N00727254WA0116601261
B1110474025843N00727255WA0116401259
B1110484025841N00727255WA0116501259
B1110494025839N00727255WA0116501260
B1110504025837N00727254WA0116601260
B1110514025836N00727252WA0116601260
B1110524025835N00727252WA0116501260
B1110534025833N00727251WA0116301258
B1110544025832N00727250WA0116201256
B1110554025830N00727249WA0116101256
B1110564025828N00727247WA0116201256
B1110574025826N00727245WA0116201257
B1110584025825N00727242WA0116201256
B1110594025824N00727240WA0116001254
B1111004025822N00727237WA0115901253
B1111014025821N00727234WA0115801252
B1111024025819N00727231WA0115801253
B1111034025818N00727227WA0116001254
B1111044025817N00727224WA0116001255
B1111054025817N00727220WA0116001255
B1111064025818N00727217WA0116001254
B1111074025819N00727213WA0115901254
B1111084025820N00727208WA0116001254
B1111094025821N00727203WA0116001254
B1111104025821N00727198WA0115901254
B1111114025821N00727194WA0116001254
B1111124025821N00727190WA0115901254
B1111134025820N00727185WA0115901253
B1111144025820N00727180WA0115901253
B1111154025819N00727176WA0115901254
B1111164025817N00727172WA0115801252
B1111174025815N00727169WA0115801252
B1111184025813N00727167WA0115801252
B1111194025809N00727167WA0115801252
B1111204025806N00727168WA0115801252
B1111214025803N00727169WA0115801253
B1111224025799N00727171WA0115801253
B1111234025796N00727174WA0115801252
B1111244025794N00727177WA0115601251
B1111254025791N00727182WA0115501250
B1111264025789N00727186WA0115601250
B1111274025786N00727191WA0115601250
B1111284025784N00727195WA0115701251
B1111294025781N00727197WA0115701251
B1111304025780N00727199WA0115601250
B1111314025779N00727200WA0115401249
B1111324025777N00727200WA0115201247
B1111334025775N00727199WA0115101246
B1111344025773N00727198WA0115201246
B1111354025770N00727194WA0115201247
B1111364025769N00727190WA0115301248
B1111374025769N00727184WA0115401249
B1111384025770N00727179WA0115601251
B1111394025773N00727174WA0115701251
B1111404025778N00727170WA0115701252
B1111414025784N00727167WA0115801253
B1111424025790N00727166WA0115801253
B1111434025796N00727165WA0115701251
B1111444025801N00727163WA0115601250
B1111454025807N00727160WA0115501249
B1111464025811N00727156WA0115501250
B1111474025816N00727150WA0115601251
B1111484025819N00727144WA0115701252
B1111494025820N00727139WA0115801253
B1111504025821N00727134WA0115801252
B1111514025816N00727133WA0115701251
B1111524025814N00727133WA0115601251
B1111534025811N00727134WA0115501250
B1111544025807N00727138WA0115601250
B1111554025805N00727143WA0115701252
B1111564025803N00727150WA0115901254
B1111574025803N00727156WA0116101255
B1111584025802N00727162WA0116001255
B1111594025801N00727167WA0115901253
B1112004025800N00727173WA0115801252
B1112014025800N00727179WA0115901253
B1112024025798N00727185WA0116101256
B1112034025797N00727192WA0116301257
B1112044025796N00727198WA0116401258
B1112054025796N00727204WA0116401259
B1112064025796N00727211WA0116501260
B1112074025796N00727216WA0116501260
B1112084025796N00727222WA0116301258
B1112094025793N00727223WA0116101256
B1112104025791N00727223WA0116001254
B1112114025789N00727222WA0116001254
B1112124025787N00727219WA0115901254
B1112134025785N00727215WA0115801252
B1112144025785N00727210WA0115701252
B1112154025786N00727205WA0115601250
B1112164025788N00727200WA0115501250
B1112174025792N00727194WA0115401249
B1112184025796N00727190WA0115301248
B1112194025801N00727186WA0115201247
B1112204025807N00727182WA0115201247
B1112214025814N00727179WA0115501249
B1112224025821N00727177WA0115701252
B1112234025828N00727174WA0115901254
B1112244025834N00727171WA0116001254
B1112254025839N00727168WA0115701252
B1112264025843N00727164WA0115401249
B1112274025846N00727159WA0115301247
B1112284025847N00727154WA0115201246
B1112294025848N00727149WA0115101246
B1112304025847N00727146WA0115101245
B1112314025846N00727143WA0115101245
B1112324025840N00727146WA0115101246
B1112334025836N00727148WA0115101246
B1112344025833N00727151WA0115101246
B1112354025830N00727153WA0115001245
B1112364025827N00727157WA0115001244
B1112374025825N00727161WA0115101245
B1112384025822N00727165WA0115201246
B1112394025819N00727170WA0115301248
B1112404025817N00727175WA0115401248
B1112414025816N00727180WA0115301248
B1112424025814N00727186WA0115201247
B1112434025812N00727192WA0115101246
B1112444025809N00727197WA0115201246
B1112454025806N00727202WA0115101246
B1112464025802N00727205WA0115201247
B1112474025797N00727208WA0115501250
B1112484025793N00727209WA0115701252
B1112494025789N00727209WA0116001255
B1112504025786N00727208WA0116201256
B1112514025783N00727207WA0116301258
B1112524025780N00727205WA0116601261
B1112534025777N00727204WA0116901264
B1112544025774N00727201WA0117201266
B1112554025772N00727198WA0117401268
B1112564025771N00727195WA0117401268
B1112574025771N00727192WA0117301268
B1112584025773N00727187WA0117201267
B1112594025774N00727183WA0117201267
B1113004025773N00727178WA0117201267
B1113014025771N00727174WA0117201267
B1113024025768N00727171WA0117201267
B1113034025765N00727172WA0117101266
B1113044025762N00727175WA0117001264
B1113054025760N00727181WA0116901264
B1113064025758N00727189WA0116901264
B1113074025758N00727198WA0117101265
B1113084025759N00727206WA0117101266
B1113094025761N00727215WA0117201267
B1113104025762N00727222WA0117201266
B1113114025762N00727229WA0117101265
B1113124025761N00727235WA0117001265
B1113134025760N00727242WA0116901263
B1113144025757N00727247WA0116801262
B1113154025754N00727251WA0116701262
B1113164025751N00727252WA0116601260
B1113174025748N00727251WA0116301258
B1113184025746N00727248WA0116201256
B1113194025745N00727244WA0116001255
B1113204025743N00727239WA0116101255
B1113214025742N00727234WA0116301257
B1113224025741N00727229WA0116301258
B1113234025743N00727224WA0116301258
B1113244025745N00727220WA0116301258
B1113254025748N00727215WA0116301257
B1113264025751N00727211WA0116201256
B1113274025755N00727206WA0116101255
B1113284025761N00727202WA0116101255
B1113294025768N00727199WA0116101256
B1113304025775N00727197WA0116401258
B1113314025782N00727197WA0116601261
B1113324025789N00727197WA0116901264
B1113334025795N00727198WA0117201266
B1113344025800N00727199WA0117401268
B1113354025806N00727200WA0117301268
B1113364025812N00727198WA0117201267
B1113374025817N00727194WA0117301267
B1113384025818N00727188WA0117401268
B1113394025818N00727182WA0117701271
B1113404025817N00727178WA0117801273
B1113414025815N00727175WA0117801272
B1113424025814N00727172WA0117601271
B1113434025812N00727170WA0117501269
B1113444025809N00727170WA0117701271
B1113454025805N00727175WA0118001274
B1113464025802N00727181WA0118201277
B1113474025802N00727188WA0118401279
B1113484025802N00727195WA0118601280
B1113494025803N00727203WA0118601281
B1113504025806N00727209WA0118501280
B1113514025811N00727214WA0118301278
B1113524025818N00727217WA0118301277
B1113534025826N00727214WA0118501280
B1113544025833N00727208WA0118801282
B1113554025836N00727202WA0119101286
B1113564025838N00727196WA0119201286
B1113574025839N00727192WA0119101285
B1113584025839N00727187WA0118901283
B1113594025838N00727183WA0118701282
B1114004025837N00727180WA0118501280
B1114014025834N00727177WA0118301277
B1114024025830N00727177WA0118301278
B1114034025826N00727178WA0118301277
B1114044025822N00727180WA0118301277
B1114054025819N00727184WA0118301278
B1114064025817N00727187WA0118301277
B1114074025814N00727192WA0118201277
B1114084025813N00727198WA0118301277
B1114094025812N00727206WA0118201277
B1114104025811N00727214WA0118201277
B1114114025810N00727221WA0118101276
B1114124025810N00727227WA0118001275
B1114134025808N00727231WA0117701272
B1114144025807N00727235WA0117501269
B1114154025804N00727239WA0117301267
B1114164025800N00727242WA0117401268
B1114174025797N00727242WA0117401268
B1114184025793N00727239WA0117301268
B1114194025791N00727234WA0117501270
B1114204025789N00727230WA0117701272
B1114214025789N00727227WA0117801273
B1114224025788N00727225WA0117801273
B1114234025786N00727223WA0117701271
B1114244025784N00727222WA0117501270
B1114254025781N00727220WA0117501270
B1114264025777N00727218WA0117501269
B1114274025773N00727217WA0117501270
B1114284025770N00727215WA0117501270
B1114294025767N00727213WA0117401268
B1114304025764N00727210WA0117201266
B1114314025762N00727208WA0116801263
B1114324025758N00727205WA0116701261
B1114334025754N00727201WA0116601260
B1114344025750N00727199WA0116501260
B1114354025746N00727195WA0116401259
B1114364025742N00727192WA0116301258
B1114374025739N00727189WA0116101255
B1114384025736N00727186WA0115901253
B1114394025732N00727183WA0115801253
B1114404025729N00727181WA0115701251
B1114414025725N00727178WA0115501250
B1114424025721N00727174WA0115301248
B1114434025718N00727171WA0115101246
B1114444025715N00727169WA0115001244
B1114454025711N00727167WA0114801243
B1114464025708N00727166WA0114701241
B1114474025704N00727167WA0114601241
B1114484025700N00727167WA0114701242
B1114494025695N00727167WA0114801242
B1114504025690N00727167WA0114901244
B1114514025686N00727166WA0115201247
B1114524025683N00727166WA0115401249
B1114534025679N00727166WA0115601250
B1114544025675N00727166WA0115701252
B1114554025671N00727166WA0115901254
B1114564025667N00727166WA0116201256
B1114574025663N00727166WA0116401258
B1114584025660N00727164WA0116501260
B1114594025657N00727162WA0116601261
B1115004025654N00727159WA0116701262
B1115014025651N00727154WA0116901263
B1115024025648N00727149WA0117001264
B1115034025647N00727143WA0117101265
B1115044025648N00727137WA0117001264
B1115054025650N00727131WA0116801263
B1115064025657N00727128WA0116801263
B1115074025664N00727128WA0117101265
B1115084025670N00727132WA0117301268
B1115094025676N00727137WA0117601271
B1115104025680N00727144WA0117801273
B1115114025683N00727150WA0118001275
B1115124025685N00727158WA0118301277
B1115134025685N00727165WA0118501280
B1115144025684N00727172WA0118801282
B1115154025682N00727179WA0119001285
B1115164025680N00727184WA0119201287
B1115174025677N00727189WA0119401289
B1115184025674N00727191WA0119401289
B1115194025671N00727191WA0119601290
B1115204025667N00727190WA0119601291
B1115214025663N00727191WA0119801292
B1115224025659N00727193WA0120101295
B1115234025656N00727194WA0120301298
B1115244025653N00727193WA0120301297
B1115254025650N00727192WA0120401298
B1115264025648N00727189WA0120501299
B1115274025646N00727185WA0120501300
B1115284025643N00727180WA0120601300
B1115294025643N00727173WA0120601300
B1115304025645N00727166WA0120801303
B1115314025649N00727159WA0121001304
B1115324025655N00727154WA0121101305
B1115334025662N00727153WA0121301308
B1115344025667N00727152WA0121301307
B1115354025673N00727152WA0121301308
B1115364025678N00727153WA0121301308
B1115374025683N00727156WA0121301307
B1115384025688N00727161WA0121301308
B1115394025692N00727168WA0121501309
B1115404025696N00727175WA0121701311
B1115414025693N00727182WA0122001314
B1115424025692N00727188WA0122201316
B1115434025688N00727191WA0122401319
B1115444025685N00727194WA0122601321
B1115454025682N00727196WA0122801322
B1115464025679N00727199WA0122901324
B1115474025675N00727201WA0123001325
B1115484025671N00727202WA0123201327
B1115494025667N00727203WA0123401329
B1115504025662N00727202WA0123701332
B1115514025657N00727201WA0123901334
B1115524025654N00727201WA0124101335
B1115534025650N00727202WA0124201336
B1115544025646N00727202WA0124201337
B1115554025643N00727201WA0124301337
B1115564025640N00727198WA0124401338
B1115574025638N00727194WA0124401338
B1115584025637N00727189WA0124501339
B1115594025638N00727183WA0124401338
B1116004025641N00727179WA0124301337
B1116014025646N00727174WA0124201337
B1116024025652N00727172WA0124101336
B1116034025659N00727170WA0124201336
B1116044025666N00727171WA0124201336
B1116054025672N00727174WA0124201336
B1116064025677N00727179WA0124101336
B1116074025682N00727186WA0124101336
B1116084025686N00727194WA0124101336
B1116094025689N00727202WA0124301337
B1116104025689N00727210WA0124301338
B1116114025689N00727218WA0124301338
B1116124025687N00727225WA0124501339
B1116134025686N00727231WA0124701341
B1116144025680N00727236WA0124801343
B1116154025677N00727240WA0125001344
B1116164025674N00727244WA0125101346
B1116174025671N00727247WA0125301348
B1116184025668N00727249WA0125301348
B1116194025665N00727251WA0125401348
B1116204025662N00727253WA0125501349
B1116214025658N00727253WA0125601350
B1116224025654N00727254WA0125601351
B1116234025652N00727253WA0125701351
B1116244025648N00727252WA0125801352
B1116254025645N00727250WA0125801352
B1116264025643N00727248WA0125801353
B1116274025641N00727245WA0125901353
B1116284025639N00727240WA0125901354
B1116294025638N00727236WA0125901354
B1116304025638N00727232WA0125901354
B1116314025637N00727229WA0125901354
B1116324025638N00727225WA0125801352
B1116334025640N00727222WA0125601351
B1116344025642N00727218WA0125501349
B1116354025646N00727214WA0125401348
B1116364025650N00727210WA0125301347
B1116374025655N00727208WA0125101346
B1116384025662N00727207WA0124901343
B1116394025669N00727209WA0124501340
B1116404025677N00727213WA0124401339
B1116414025684N00727220WA0124401338
B1116424025691N00727228WA0124401338
B1116434025694N00727238WA0124401339
B1116444025696N00727247WA0124401339
B1116454025697N00727256WA0124301338
B1116464025696N00727264WA0124301338
B1116474025692N00727269WA0124101336
B1116484025689N00727273WA0124001335
B1116494025686N00727277WA0123801332
B1116504025683N00727279WA0123601330
B1116514025679N00727278WA0123501329
B1116524025674N00727275WA0123501329
B1116534025670N00727272WA0123601330
B1116544025667N00727269WA0123701331
B1116554025665N00727267WA0123801332
B1116564025664N00727265WA0123801332
B1116574025662N00727263WA0123701332
B1116584025662N00727261WA0123501329
B1116594025661N00727259WA0123001325
B1117004025661N00727256WA0122601321
B1117014025660N00727253WA0122601321
B1117024025659N00727249WA0122501320
B1117034025658N00727246WA0122301317
B1117044025657N00727242WA0122101316
B1117054025655N00727239WA0122101315
B1117064025654N00727236WA0121901314
B1117074025652N00727233WA0121801313
B1117084025650N00727231WA0121701311
B1117094025648N00727229WA0121401309
B1117104025647N00727225WA0121101306
B1117114025646N00727221WA0120901304
B1117124025645N00727217WA0120901303
B1117134025643N00727213WA0120801302
B1117144025641N00727209WA0120601300
B1117154025640N00727206WA0120401298
B1117164025638N00727202WA0120101295
B1117174025637N00727197WA0119901294
B1117184025635N00727193WA0119701292
B1117194025634N00727188WA0119601291
B1117204025633N00727183WA0119501290
B1117214025632N00727178WA0119301288
B1117224025632N00727174WA0119201287
B1117234025631N00727170WA0119001284
B1117244025629N00727166WA0118801283
B1117254025628N00727161WA0118801282
B1117264025626N00727156WA0118701282
B1117274025624N00727151WA0118801282
B1117284025623N00727145WA0118701282
B1117294025623N00727140WA0118601281
B1117304025623N00727134WA0118401279
B1117314025623N00727128WA0118201277
B1117324025623N00727122WA0118101276
B1117334025623N00727116WA0117901273
B1117344025624N00727110WA0117701271
B1117354025625N00727104WA0117401268
B1117364025625N00727097WA0117101266
B1117374025624N00727091WA0116901264
B1117384025623N00727085WA0116701262
B1117394025621N00727080WA0116601260
B1117404025618N00727074WA0116401259
B1117414025616N00727069WA0116301257
B1117424025613N00727064WA0116101255
B1117434025610N00727060WA0115901254
B1117444025608N00727056WA0115801253
B1117454025605N00727051WA0115601251
B1117464025602N00727047WA0115301248
B1117474025599N00727042WA0115101245
B1117484025596N00727037WA0114901243
B1117494025592N00727033WA0114701242
B1117504025589N00727029WA0114701241
B1117514025585N00727025WA0114601241
B1117524025582N00727021WA0114601240
B1117534025579N00727017WA0114401239
B1117544025576N00727013WA0114201237
B1117554025573N00727010WA0114101236
B1117564025570N00727006WA0114001235
B1117574025566N00727003WA0113901234
B1117584025562N00727000WA0113801233
B1117594025558N00726997WA0113901234
B1118004025554N00726994WA0113801233
B1118014025551N00726990WA0113801232
B1118024025548N00726988WA0113701232
B1118034025544N00726985WA0113501229
B1118044025541N00726981WA0113301227
B1118054025538N00726977WA0113101225
B1118064025535N00726973WA0113001224
B1118074025531N00726969WA0112801223
B1118084025527N00726965WA0112601221
B1118094025524N00726961WA0112501220
B1118104025520N00726957WA0112401219
B1118114025516N00726952WA0112301218
B1118124025513N00726948WA0112101215
B1118134025510N00726943WA0111901214
B1118144025507N00726938WA0111801212
B1118154025503N00726934WA0111701212
B1118164025500N00726929WA0111601211
B1118174025496N00726925WA0111501210
B1118184025493N00726920WA0111401209
B1118194025489N00726916WA0111301207
B1118204025485N00726912WA0111301208
B1118214025481N00726907WA0111201207
B1118224025478N00726903WA0111201207
B1118234025475N00726898WA0111201207
B1118244025472N00726895WA0111201207
B1118254025468N00726894WA0111201207
B1118264025465N00726895WA0111101206
B1118274025462N00726897WA0111001205
B1118284025459N00726901WA0110901203
B1118294025456N00726904WA0110801202
B1118304025453N00726908WA0110601201
B1118314025450N00726913WA0110501199
B1118324025448N00726921WA0110401199
B1118334025448N00726928WA0110401198
B1118344025448N00726937WA0110201197
B1118354025450N00726945WA0110101195
B1118364025452N00726953WA0109901193
B1118374025456N00726962WA0109701191
B1118384025460N00726970WA0109501190
B1118394025464N00726978WA0109501189
B1118404025469N00726986WA0109401189
B1118414025473N00726992WA0109301187
B1118424025478N00726998WA0109201186
B1118434025483N00727003WA0109001185
B1118444025489N00727007WA0108901184
B1118454025494N00727011WA0108701182
B1118464025500N00727014WA0108601180
B1118474025506N00727016WA0108501179
B1118484025512N00727018WA0108301178
B1118494025518N00727021WA0108201177
B1118504025525N00727024WA0108101176
B1118514025531N00727027WA0108101175
B1118524025537N00727030WA0108101175
B1118534025543N00727033WA0108001174
B1118544025549N00727036WA0107801173
B1118554025555N00727039WA0107701171
B1118564025560N00727042WA0107601170
B1118574025566N00727047WA0107401169
B1118584025572N00727051WA0107301167
B1118594025577N00727055WA0107201166
B1119004025583N00727059WA0107101165
B1119014025589N00727063WA0107001165
B1119024025594N00727067WA0106901164
B1119034025600N00727071WA0106801163
B1119044025605N00727075WA0106701161
B1119054025611N00727080WA0106601161
B1119064025616N00727084WA0106501160
B1119074025621N00727089WA0106401158
B1119084025626N00727093WA0106201157
B1119094025632N00727096WA0106101156
B1119104025638N00727099WA0106001155
B1119114025644N00727101WA0105901153
B1119124025650N00727103WA0105801153
B1119134025657N00727103WA0105601151
B1119144025663N00727102WA0105401149
B1119154025669N00727098WA0105201147
B1119164025674N00727093WA0105001145
B1119174025678N00727086WA0104901143
B1119184025679N00727078WA0104701141
B1119194025679N00727071WA0104401139
B1119204025678N00727066WA0104301138
B1119214025675N00727063WA0104101136
B1119224025669N00727061WA0104101135
B1119234025664N00727061WA0104001135
B1119244025660N00727062WA0104001134
B1119254025657N00727063WA0103801132
B1119264025653N00727065WA0103601131
B1119274025649N00727067WA0103501129
B1119284025646N00727070WA0103401129
B1119294025642N00727073WA0103401128
B1119304025638N00727077WA0103401128
B1119314025635N00727080WA0103301128
B1119324025632N00727083WA0103301127
B1119334025630N00727085WA0103101126
B1119344025628N00727088WA0102801123
B1119354025626N00727091WA0102601120
B1119364025623N00727095WA0102401119
B1119374025621N00727099WA0102401118
B1119384025617N00727105WA0102401118
B1119394025615N00727110WA0102301118
B1119404025613N00727115WA0102201117
B1119414025611N00727121WA0102101115
B1119424025608N00727127WA0102001114
B1119434025605N00727133WA0102001114
B1119444025602N00727139WA0102101116
B1119454025600N00727145WA0102201117
B1119464025597N00727151WA0102401118
B1119474025596N00727157WA0102501119
B1119484025594N00727162WA0102401119
B1119494025593N00727167WA0102401119
B1119504025592N00727172WA0102501119
B1119514025590N00727177WA0102601120
B1119524025587N00727181WA0102701122
B1119534025584N00727185WA0103001124
B1119544025581N00727190WA0103201127
B1119554025578N00727194WA0103301128
B1119564025576N00727198WA0103201127
B1119574025574N00727200WA0103001125
B1119584025572N00727202WA0102701122
B1119594025569N00727203WA0102501120
B1120004025565N00727205WA0102501119
B1120014025562N00727207WA0102401119
B1120024025559N00727207WA0102301118
B1120034025556N00727207WA0102101116
B1120044025553N00727207WA0102101116
B1120054025549N00727205WA0102101116
B1120064025544N00727203WA0102201117
B1120074025541N00727199WA0102201116
B1120084025540N00727193WA0102201116
B1120094025539N00727187WA0102301117
B1120104025539N00727181WA0102301117
B1120114025540N00727176WA0102301117
B1120124025540N00727170WA0102201117
B1120134025542N00727164WA0102101115
B1120144025542N00727158WA0102001114
B1120154025543N00727152WA0101801113
B1120164025543N00727145WA0101601110
B1120174025545N00727139WA0101301108
B1120184025546N00727132WA0101101105
B1120194025548N00727126WA0101001104
B1120204025550N00727119WA0100901103
B1120214025552N00727112WA0100801103
B1120224025554N00727106WA0100701102
B1120234025557N00727099WA0100601101
B1120244025560N00727094WA0100501100
B1120254025563N00727088WA0100401098
B1120264025566N00727082WA0100401099
B1120274025569N00727075WA0100501100
B1120284025572N00727069WA0100601101
B1120294025576N00727064WA0100801103
B1120304025579N00727060WA0101101106
B1120314025583N00727056WA0101301108
B1120324025585N00727052WA0101301108
B1120334025587N00727046WA0101301108
B1120344025589N00727040WA0101201107
B1120354025588N00727034WA0101101105
B1120364025587N00727028WA0101001105
B1120374025585N00727023WA0101001105
B1120384025581N00727019WA0101201106
B1120394025577N00727015WA0101401108
B1120404025573N00727013WA0101501109
B1120414025569N00727012WA0101501110
B1120424025566N00727012WA0101401109
B1120434025564N00727014WA0101301108
B1120444025561N00727017WA0101201106
B1120454025558N00727022WA0101101105
B1120464025555N00727028WA0101101105
B1120474025552N00727033WA0100901104
B1120484025548N00727036WA0100701101
B1120494025545N00727036WA0100401099
B1120504025541N00727036WA0100401098
B1120514025537N00727033WA0100201096
B1120524025535N00727029WA0100101095
B1120534025533N00727024WA0099901094
B1120544025533N00727018WA0099901094
B1120554025534N00727012WA0099901094
B1120564025536N00727007WA0099901094
B1120574025538N00727002WA0099701092
B1120584025540N00726997WA0099701091
B1120594025543N00726991WA0099601090
B1121004025546N00726985WA0099501090
B1121014025549N00726980WA0099501090
B1121024025552N00726975WA0099501090
B1121034025554N00726970WA0099401089
B1121044025556N00726965WA0099301087
B1121054025559N00726959WA0099101085
B1121064025561N00726954WA0098901084
B1121074025562N00726948WA0098901083
B1121084025561N00726942WA0098701082
B1121094025557N00726936WA0098701082
B1121104025553N00726932WA0098601081
B1121114025549N00726930WA0098501080
B1121124025545N00726928WA0098301078
B1121134025541N00726927WA0098201077
B1121144025537N00726925WA0098101076
B1121154025533N00726925WA0098001074
B1121164025529N00726926WA0097801073
B1121174025524N00726927WA0097501070
B1121184025519N00726927WA0097501069
B1121194025514N00726928WA0097401068
B1121204025510N00726930WA0097301067
B1121214025506N00726932WA0097301068
B1121224025502N00726934WA0097401068
B1121234025497N00726935WA0097201067
B1121244025493N00726936WA0097201067
B1121254025490N00726937WA0097201067
B1121264025487N00726940WA0097101066
B1121274025483N00726943WA0097001064
B1121284025480N00726945WA0096801063
B1121294025476N00726947WA0096701062
B1121304025472N00726949WA0096701062
B1121314025468N00726951WA0096501060
B1121324025464N00726953WA0096401058
B1121334025460N00726955WA0096201057
B1121344025456N00726958WA0096101056
B1121354025452N00726961WA0096101056
B1121364025448N00726963WA0096101055
B1121374025444N00726966WA0096001055
B1121384025441N00726967WA0095901054
B1121394025437N00726969WA0095801052
B1121404025434N00726971WA0095601050
B1121414025430N00726973WA0095401049
B1121424025426N00726975WA0095301048
B1121434025422N00726977WA0095201047
B1121444025418N00726978WA0095201046
B1121454025414N00726978WA0095101045
B1121464025410N00726979WA0094801043
B1121474025406N00726981WA0094801042
B1121484025402N00726982WA0094801042
B1121494025397N00726983WA0094701042
B1121504025392N00726982WA0094801042
B1121514025388N00726982WA0094801042
B1121524025384N00726981WA0094701041
B1121534025380N00726981WA0094401039
B1121544025376N00726981WA0094301037
B1121554025371N00726981WA0094201037
B1121564025366N00726981WA0094401039
B1121574025361N00726982WA0094501039
B1121584025357N00726982WA0094401039
B1121594025354N00726981WA0094301038
B1122004025352N00726981WA0094101035
B1122014025350N00726979WA0093701032
B1122024025346N00726979WA0093501030
B1122034025342N00726978WA0093401028
B1122044025337N00726978WA0093301027
B1122054025331N00726979WA0093201027
B1122064025327N00726980WA0093101025
B1122074025323N00726982WA0092901024
B1122084025318N00726983WA0092701021
B1122094025314N00726985WA0092401019
B1122104025310N00726986WA0092301018
B1122114025305N00726987WA0092201017
B1122124025301N00726988WA0092101015
B1122134025297N00726989WA0091901014
B1122144025293N00726989WA0091601011
B1122154025290N00726990WA0091401008
B1122164025286N00726991WA0091101006
B1122174025282N00726993WA0090901004
B1122184025277N00726995WA0090801002
B1122194025273N00726997WA0090601000
B1122204025269N00726998WA0090300998
B1122214025266N00726998WA0090100995
B1122224025262N00726999WA0089900994
B1122234025257N00727000WA0089800993
B1122244025253N00727002WA0089600991
B1122254025249N00727003WA0089500989
B1122264025245N00727003WA0089300987
B1122274025241N00727004WA0089100985
B1122284025238N00727004WA0088800983
B1122294025234N00727005WA0088600981
B1122304025229N00727004WA0088600980
B1122314025225N00727004WA0088400979
B1122324025221N00727003WA0088100976
B1122334025217N00727002WA0087900973
B1122344025213N00727001WA0087600970
B1122354025209N00727000WA0087400969
B1122364025203N00726998WA0087300968
B1122374025198N00726998WA0087300967
B1122384025193N00726997WA0087200966
B1122394025188N00726997WA0087000965
B1122404025184N00726997WA0086900963
B1122414025180N00726996WA0086800963
B1122424025176N00726995WA0086700962
B1122434025171N00726994WA0086600960
B1122444025166N00726993WA0086500960
B1122454025162N00726991WA0086400959
B1122464025158N00726990WA0086300958
B1122474025154N00726989WA0086200956
B1122484025149N00726988WA0086000955
B1122494025145N00726987WA0085900954
B1122504025140N00726986WA0085800952
B1122514025136N00726984WA0085600951
B1122524025131N00726983WA0085600951
B1122534025126N00726982WA0085500950
B1122544025121N00726982WA0085300948
B1122554025115N00726981WA0085300947
B1122564025111N00726981WA0085200947
B1122574025105N00726981WA0085400948
B1122584025100N00726981WA0085500949
B1122594025094N00726981WA0085500950
B1123004025088N00726980WA0085700952
B1123014025085N00726980WA0085900954
B1123024025081N00726979WA0086000955
B1123034025079N00726979WA0085800953
B1123044025077N00726977WA0085600951
B1123054025074N00726975WA0085800952
B1123064025071N00726974WA0086300958
B1123074025066N00726974WA0086700962
B1123084025062N00726974WA0086900964
B1123094025059N00726972WA0087000965
B1123104025058N00726970WA0087000965
B1123114025056N00726967WA0087100965
B1123124025054N00726964WA0087100965
B1123134025052N00726962WA0087200966
B1123144025048N00726960WA0087300968
B1123154025044N00726959WA0087500970
B1123164025041N00726958WA0087600971
B1123174025039N00726957WA0087500970
B1123184025037N00726956WA0087400968
B1123194025034N00726955WA0087100966
B1123204025032N00726956WA0086900964
B1123214025028N00726958WA0086900963
B1123224025024N00726960WA0086700961
B1123234025020N00726961WA0086500959
B1123244025015N00726960WA0086200957
B1123254025012N00726959WA0086000955
B1123264025008N00726958WA0085900954
B1123274025004N00726957WA0085600951
B1123284025000N00726956WA0085100945
B1123294024995N00726955WA0084800942
B1123304024991N00726954WA0084600941
B1123314024985N00726953WA0084600941
B1123324024980N00726952WA0084600941
B1123334024975N00726951WA0084400939
B1123344024970N00726949WA0084200937
B1123354024966N00726947WA0083900934
B1123364024961N00726945WA0083800932
B1123374024956N00726944WA0083700932
B1123384024950N00726943WA0083600930
B1123394024944N00726940WA0083500930
B1123404024939N00726938WA0083500929
B1123414024934N00726937WA0083400928
B1123424024929N00726936WA0083300928
B1123434024924N00726935WA0083200927
B1123444024920N00726935WA0083100925
B1123454024916N00726934WA0082800923
B1123464024911N00726933WA0082700921
B1123474024907N00726933WA0082500919
B1123484024902N00726933WA0082200917
B1123494024897N00726932WA0082000915
B1123504024893N00726932WA0081800913
B1123514024888N00726932WA0081500909
B1123524024884N00726931WA0081100905
B1123534024880N00726931WA0080700901
B1123544024876N00726930WA0080400899
B1123554024871N00726929WA0080100896
B1123564024866N00726927WA0080000894
B1123574024861N00726926WA0079800892
B1123584024857N00726925WA0079600890
B1123594024852N00726924WA0079300888
B1124004024848N00726923WA0079100885
B1124014024844N00726921WA0078800883
B1124024024839N00726920WA0078600880
B1124034024834N00726919WA0078400879
B1124044024829N00726918WA0078200877
B1124054024825N00726917WA0078000875
B1124064024820N00726916WA0077700871
B1124074024816N00726914WA0077400869
B1124084024811N00726913WA0077200867
B1124094024806N00726911WA0076900864
B1124104024802N00726910WA0076600861
B1124114024798N00726909WA0076300857
B1124124024794N00726907WA0076000855
B1124134024789N00726905WA0075800852
B1124144024785N00726904WA0075500849
B1124154024781N00726902WA0075200847
B1124164024777N00726900WA0074900843
B1124174024772N00726898WA0074600840
B1124184024769N00726894WA0074200837
B1124194024765N00726892WA0073900834
B1124204024760N00726890WA0073800833
B1124214024756N00726888WA0073700832
B1124224024751N00726887WA0073700832
B1124234024746N00726885WA0073700831
B1124244024741N00726884WA0073500830
B1124254024738N00726882WA0073300827
B1124264024734N00726881WA0073000825
B1124274024729N00726881WA0072900824
B1124284024723N00726880WA0072800822
B1124294024718N00726880WA0072700822
B1124304024712N00726879WA0072600821
B1124314024708N00726878WA0072400819
B1124324024703N00726877WA0072400818
B1124334024698N00726875WA0072300817
B1124344024693N00726874WA0072200816
B1124354024689N00726873WA0072100815
B1124364024684N00726873WA0072100815
B1124374024680N00726872WA0071900814
B1124384024675N00726872WA0071800813
B1124394024670N00726872WA0071700811
B1124404024665N00726871WA0071500810
B1124414024660N00726870WA0071200807
B1124424024656N00726870WA0071100805
B1124434024651N00726869WA0071000804
B1124444024646N00726869WA0070900803
B1124454024641N00726869WA0070700801
B1124464024637N00726868WA0070500800
B1124474024633N00726867WA0070400799
B1124484024628N00726866WA0070500799
B1124494024625N00726866WA0070400799
B1124504024622N00726866WA0070200797
B1124514024619N00726865WA0070000795
B1124524024617N00726864WA0069700792
B1124534024613N00726864WA0069500790
B1124544024610N00726863WA0069500790
B1124554024605N00726863WA0069500789
B1124564024602N00726863WA0069400788
B1124574024599N00726862WA0069100786
B1124584024596N00726862WA0068700782
B1124594024594N00726861WA0068400778
B1125004024591N00726859WA0068000775
B1125014024588N00726857WA0067900773
B1125024024584N00726857WA0067800773
B1125034024580N00726856WA0067700772
B1125044024576N00726857WA0067500769
B1125054024573N00726857WA0067200767
B1125064024570N00726857WA0067100765
B1125074024567N00726857WA0067000764
B1125084024563N00726857WA0066800763
B1125094024560N00726857WA0066700761
B1125104024557N00726857WA0066500760
B1125114024555N00726858WA0066400759
B1125124024552N00726857WA0066200757
B1125134024549N00726857WA0066200757
B1125144024547N00726855WA0066100756
B1125154024544N00726853WA0065900754
B1125164024542N00726851WA0065900754
B1125174024540N00726849WA0065900754
B1125184024538N00726848WA0066000754
B1125194024535N00726847WA0066000755
B1125204024533N00726847WA0066000754
B1125214024530N00726845WA0065900754
B1125224024527N00726844WA0065900754
B1125234024525N00726844WA0065700752
B1125244024522N00726845WA0065400749
B1125254024519N00726846WA0065400749
B1125264024516N00726846WA0065300747
B1125274024513N00726846WA0065000745
B1125284024509N00726846WA0065100745
B1125294024505N00726848WA0065300748
B1125304024501N00726850WA0065700752
B1125314024498N00726853WA0065900754
B1125324024496N00726855WA0065900754
B1125334024493N00726857WA0066000754
B1125344024492N00726858WA0065900754
B1125354024489N00726860WA0065900753
B1125364024486N00726862WA0065900754
B1125374024482N00726864WA0066100756
B1125384024479N00726867WA0066200757
B1125394024476N00726869WA0066200757
B1125404024473N00726872WA0066300757
B1125414024471N00726875WA0066200757
B1125424024468N00726877WA0066200757
B1125434024464N00726880WA0066200757
B1125444024461N00726882WA0066300758
B1125454024457N00726885WA0066500759
B1125464024453N00726887WA0066800763
B1125474024449N00726890WA0067000765
B1125484024447N00726892WA0067000765
B1125494024444N00726894WA0066900764
B1125504024442N00726896WA0066800763
B1125514024440N00726898WA0066800763
B1125524024437N00726900WA0067000764
B1125534024433N00726902WA0067200766
B1125544024431N00726905WA0067400769
B1125554024428N00726907WA0067500770
B1125564024426N00726909WA0067600771
B1125574024424N00726910WA0067700771
B1125584024421N00726912WA0067700772
B1125594024419N00726915WA0067900773
B1126004024417N00726919WA0067900773
B1126014024415N00726922WA0067800773
B1126024024414N00726924WA0067600770
B1126034024414N00726927WA0067300767
B1126044024412N00726928WA0067100766
B1126054024410N00726928WA0067200766
B1126064024408N00726928WA0067100766
B1126074024407N00726925WA0067000765
B1126084024407N00726921WA0066900764
B1126094024410N00726916WA0066900764
B1126104024413N00726911WA0066900763
B1126114024418N00726908WA0066900764
B1126124024423N00726905WA0067100765
B1126134024429N00726903WA0067100766
B1126144024436N00726901WA0067200767
B1126154024443N00726900WA0067500770
B1126164024448N00726899WA0067800772
B1126174024454N00726899WA0067800773
B1126184024459N00726899WA0068000774
B1126194024464N00726898WA0068100775
B1126204024470N00726898WA0068200777
B1126214024475N00726896WA0068300777
B1126224024479N00726895WA0068300777
B1126234024482N00726892WA0068200777
B1126244024484N00726888WA0068300777
B1126254024484N00726884WA0068400778
B1126264024483N00726883WA0068500779
B1126274024480N00726884WA0068800782
B1126284024476N00726887WA0069000784
B1126294024473N00726891WA0069100786
B1126304024471N00726894WA0069100786
B1126314024470N00726897WA0069100786
B1126324024468N00726899WA0069200786
B1126334024466N00726902WA0069100785
B1126344024464N00726904WA0069000785
B1126354024463N00726907WA0069200787
B1126364024461N00726909WA0069300787
B1126374024459N00726912WA0069300788
B1126384024458N00726916WA0069300788
B1126394024457N00726919WA0069300788
B1126404024456N00726923WA0069300787
B1126414024454N00726926WA0069200787
B1126424024452N00726928WA0069200787
B1126434024450N00726928WA0069100786
B1126444024449N00726927WA0069000785
B1126454024448N00726923WA0068800782
B1126464024450N00726918WA0068600781
B1126474024452N00726914WA0068600780
B1126484024456N00726910WA0068500780
B1126494024460N00726907WA0068400779
B1126504024467N00726905WA0068400778
B1126514024474N00726903WA0068400779
B1126524024481N00726902WA0068500780
B1126534024488N00726901WA0068700781
B1126544024495N00726899WA0068700781
B1126554024500N00726896WA0068600780
B1126564024503N00726892WA0068400778
B1126574024505N00726888WA0068400778
B1126584024506N00726883WA0068400778
B1126594024505N00726879WA0068500779
B1127004024503N00726877WA0068700781
B1127014024499N00726877WA0068900783
B1127024024496N00726877WA0068900784
B1127034024494N00726878WA0068800783
B1127044024494N00726878WA0068700782
B1127054024493N00726879WA0068500779
B1127064024491N00726881WA0068300778
B1127074024488N00726884WA0068100776
B1127084024484N00726887WA0068000775
B1127094024481N00726890WA0068000775
B1127104024478N00726891WA0067900773
B1127114024475N00726893WA0067700771
B1127124024471N00726894WA0067400769
B1127134024467N00726895WA0067300767
B1127144024464N00726897WA0067200767
B1127154024460N00726900WA0067200766
B1127164024456N00726902WA0067100766
B1127174024453N00726905WA0066900764
B1127184024449N00726906WA0066700761
B1127194024445N00726908WA0066700762
B1127204024441N00726909WA0067200767
B1127214024436N00726912WA0067600771
B1127224024433N00726914WA0067700771
B1127234024429N00726917WA0067400768
B1127244024426N00726919WA0067100766
B1127254024426N00726920WA0066900763
B1127264024423N00726922WA0066700762
B1127274024421N00726923WA0066700762
B1127284024418N00726924WA0066600761
B1127294024416N00726925WA0066500760
B1127304024413N00726925WA0066400758
B1127314024411N00726925WA0066200757
B1127324024409N00726926WA0066100756
B1127334024407N00726926WA0066000755
B1127344024405N00726926WA0066000755
B1127354024403N00726926WA0065800753
B1127364024400N00726925WA0065700751
B1127374024399N00726925WA0065500749
B1127384024396N00726924WA0065300747
B1127394024393N00726923WA0065100746
B1127404024389N00726922WA0064900743
B1127414024386N00726919WA0064700741
B1127424024383N00726915WA0064600741
B1127434024379N00726913WA0064700741
B1127444024375N00726912WA0064700742
B1127454024372N00726911WA0064500740
B1127464024369N00726909WA0064400739
B1127474024365N00726907WA0064400739
B1127484024361N00726905WA0064400739
B1127494024357N00726903WA0064700742
B1127504024353N00726901WA0065200747
B1127514024351N00726901WA0065400748
B1127524024350N00726903WA0065500750
B1127534024348N00726904WA0065500750
B1127544024346N00726904WA0065300747
B1127554024344N00726904WA0065200747
B1127564024342N00726903WA0065400749
B1127574024340N00726903WA0065600750
B1127584024337N00726902WA0065500750
B1127594024335N00726902WA0065400748
B1128004024333N00726902WA0065200746
B1128014024331N00726904WA0065100745
B1128024024329N00726905WA0065100745
B1128034024327N00726907WA0064800743
B1128044024324N00726909WA0064700741
B1128054024322N00726910WA0064500740
B1128064024319N00726911WA0064400739
B1128074024316N00726912WA0064400739
B1128084024313N00726914WA0064400738
B1128094024310N00726916WA0064300738
B1128104024306N00726918WA0064300738
B1128114024303N00726920WA0064200737
B1128124024299N00726923WA0064300737
B1128134024295N00726926WA0064400739
B1128144024291N00726929WA0064600740
B1128154024288N00726933WA0064600741
B1128164024286N00726936WA0064600741
B1128174024283N00726939WA0064500740
B1128184024281N00726942WA0064400739
B1128194024278N00726945WA0064400739
B1128204024275N00726947WA0064500739
B1128214024272N00726949WA0064400739
B1128224024269N00726950WA0064300738
B1128234024266N00726952WA0064200737
B1128244024264N00726954WA0064000735
B1128254024261N00726956WA0063800733
B1128264024258N00726958WA0063700732
B1128274024255N00726958WA0063600731
B1128284024251N00726959WA0063600730
B1128294024249N00726960WA0063400729
B1128304024246N00726960WA0063200727
B1128314024245N00726959WA0062900724
B1128324024243N00726957WA0062600721
B1128334024242N00726954WA0062600720
B1128344024239N00726951WA0062600721
B1128354024235N00726946WA0062700722
B1128364024232N00726943WA0062900723
B1128374024230N00726939WA0062900724
B1128384024228N00726935WA0062900723
B1128394024226N00726931WA0062700722
B1128404024224N00726927WA0062700721
B1128414024222N00726923WA0062500720
B1128424024220N00726919WA0062500720
B1128434024218N00726917WA0062600720
B1128444024216N00726914WA0062500719
B1128454024214N00726912WA0062300718
B1128464024212N00726908WA0062300717
B1128474024211N00726905WA0062400718
B1128484024209N00726903WA0062400719
B1128494024207N00726901WA0062400719
B1128504024206N00726899WA0062300718
B1128514024204N00726896WA0062300717
B1128524024203N00726893WA0062200717
B1128534024202N00726889WA0062300718
B1128544024202N00726885WA0062300718
B1128554024203N00726880WA0062400718
B1128564024204N00726875WA0062400719
B1128574024209N00726871WA0062400719
B1128584024213N00726866WA0062500719
B1128594024218N00726863WA0062400718
B1129004024223N00726859WA0062300718
B1129014024229N00726855WA0062100715
B1129024024234N00726851WA0061800713
B1129034024240N00726848WA0061600711
B1129044024244N00726843WA0061400709
B1129054024249N00726838WA0061300707
B1129064024250N00726834WA0061100706
B1129074024250N00726829WA0061000705
B1129084024250N00726826WA0060700702
B1129094024248N00726823WA0060300698
B1129104024247N00726821WA0059900693
B1129114024246N00726816WA0059600690
B1129124024244N00726811WA0059200687
B1129134024242N00726805WA0059000684
B1129144024241N00726800WA0058700681
B1129154024240N00726794WA0058400678
B1129164024239N00726788WA0058100676
B1129174024237N00726782WA0057900674
B1129184024236N00726776WA0057900674
B1129194024235N00726771WA0057900673
B1129204024233N00726766WA0057700672
B1129214024233N00726763WA0057500670
B1129224024232N00726758WA0057400669
B1129234024232N00726753WA0057300667
B1129244024231N00726747WA0057200666
B1129254024231N00726742WA0057200666
B1129264024232N00726736WA0057300668
B1129274024232N00726732WA0057400669
B1129284024232N00726728WA0057400668
B1129294024233N00726724WA0057300668
B1129304024233N00726719WA0057300668
B1129314024234N00726714WA0057200667
B1129324024235N00726710WA0057100665
B1129334024237N00726705WA0056900664
B1129344024239N00726700WA0056800662
B1129354024240N00726695WA0056700661
B1129364024240N00726690WA0056600660
B1129374024240N00726687WA0056500660
B1129384024240N00726683WA0056600660
B1129394024241N00726680WA0056500660
B1129404024242N00726677WA0056500659
B1129414024245N00726675WA0056400658
B1129424024247N00726672WA0056300657
B1129434024249N00726669WA0056300658
B1129444024251N00726665WA0056200657
B1129454024254N00726663WA0056100655
B1129464024256N00726660WA0056000654
B1129474024257N00726657WA0055800653
B1129484024258N00726654WA0055700652
B1129494024258N00726652WA0055600651
B1129504024258N00726650WA0055500650
B1129514024256N00726648WA0055300647
B1129524024254N00726645WA0055200646
B1129534024252N00726643WA0055200646
B1129544024250N00726640WA0055100646
B1129554024250N00726637WA0055100645
B1129564024250N00726634WA0055100645
B1129574024250N00726630WA0055000645
B1129584024251N00726627WA0055000645
B1129594024252N00726623WA0055000645
B1130004024254N00726620WA0055000645
B1130014024257N00726616WA0055100645
B1130024024259N00726612WA0055100646
B1130034024262N00726608WA0055100646
B1130044024264N00726604WA0055200646
B1130054024266N00726601WA0055200646
B1130064024267N00726597WA0055200646
B1130074024269N00726593WA0055100646
B1130084024270N00726589WA0055000645
B1130094024272N00726585WA0055000644
B1130104024272N00726582WA0054900644
B1130114024272N00726578WA0054700642
B1130124024269N00726576WA0054600640
B1130134024267N00726574WA0054600640
B1130144024263N00726575WA0054600641
B1130154024259N00726578WA0054700642
B1130164024256N00726584WA0054900643
B1130174024253N00726590WA0054900643
B1130184024252N00726596WA0054700642
B1130194024252N00726600WA0054700641
B1130204024250N00726605WA0054600640
B1130214024249N00726610WA0054500639
B1130224024248N00726614WA0054400639
B1130234024246N00726619WA0054300638
B1130244024243N00726621WA0054100636
B1130254024241N00726622WA0054000635
B1130264024239N00726622WA0053800633
B1130274024236N00726620WA0053800633
B1130284024235N00726618WA0053700632
B1130294024234N00726616WA0053400629
B1130304024234N00726612WA0053100626
B1130314024235N00726607WA0053000625
B1130324024238N00726601WA0053000624
B1130334024242N00726596WA0052900624
B1130344024246N00726593WA0052900624
B1130354024251N00726589WA0052900623
B1130364024255N00726586WA0052800622
B1130374024259N00726582WA0052600621
B1130384024262N00726577WA0052600621
B1130394024266N00726572WA0052600621
B1130404024267N00726567WA0052500619
B1130414024266N00726563WA0052300617
B1130424024263N00726560WA0052200616
B1130434024259N00726557WA0052000615
B1130444024255N00726558WA0051900614
B1130454024251N00726561WA0052000615
B1130464024248N00726566WA0052100616
B1130474024245N00726571WA0052100616
B1130484024243N00726575WA0052100615
B1130494024241N00726577WA0051900613
B1130504024239N00726580WA0051700611
B1130514024236N00726584WA0051500609
B1130524024233N00726590WA0051400609
B1130534024230N00726595WA0051300608
B1130544024227N00726600WA0051200606
B1130554024224N00726605WA0051000605
B1130564024221N00726608WA0050700602
B1130574024218N00726610WA0050500599
B1130584024215N00726609WA0050200597
B1130594024212N00726606WA0050000595
B1131004024211N00726601WA0049900594
B1131014024211N00726597WA0049800593
B1131024024211N00726593WA0049700592
B1131034024211N00726590WA0049700592
B1131044024211N00726587WA0049700591
B1131054024211N00726584WA0049700591
B1131064024211N00726581WA0049600590
B1131074024212N00726579WA0049200587
B1131084024212N00726576WA0048800583
B1131094024212N00726572WA0048400578
B1131104024210N00726568WA0048200577
B1131114024209N00726564WA0048400579
B1131124024206N00726560WA0048600581
B1131134024200N00726562WA0048600580
B1131144024197N00726562WA0048600581
B1131154024193N00726562WA0048500580
B1131164024191N00726563WA0048200576
B1131174024188N00726563WA0047900573
B1131184024185N00726563WA0047800572
B1131194024183N00726563WA0047800572
B1131204024180N00726563WA0047700572
B1131214024178N00726563WA0047700572
B1131224024176N00726563WA0047700572
B1131234024174N00726562WA0047700572
B1131244024174N00726562WA0047700571
B1131254024173N00726562WA0047700572
B1131264024173N00726562WA0047700572
B1131274024173N00726563WA0047700572
B1131284024173N00726563WA0047700572
B1131294024173N00726563WA0047700572
B1131304024173N00726563WA0047700572
B1131314024173N00726563WA0047700572
B1131324024173N00726563WA0047700572
B1131334024173N00726563WA0047700572
B1131344024173N00726563WA0047700572
B1131354024173N00726563WA0047700572
B1131364024173N00726564WA0047700572
B1131374024173N00726564WA0047700572
B1131384024173N00726564WA0047700572
B1131394024173N00726564WA0047700572
B1131404024173N00726564WA0047700572
B1131414024173N00726564WA0047700572
B1131424024173N00726564WA0047700572
B1131434024173N00726564WA0047700572
B1131444024173N00726564WA0047700572
B1131454024173N00726564WA0047700572
B1131464024173N00726564WA0047700572
B1131474024173N00726564WA0047700572
B1131484024173N00726564WA0047700572
B1131494024173N00726564WA0047700572
B1131504024173N00726564WA0047700572
B1131514024173N00726564WA0047700572
B1131524024173N00726564WA0047700572
B1131534024174N00726564WA0047800572
B1131544024174N00726565WA0047800572
B1131554024174N00726565WA0047800572
B1131564024174N00726565WA0047700572
B1131574024174N00726565WA0047700572
B1131584024174N00726565WA0047700572
B1131594024174N00726565WA0047700572
B1132004024174N00726565WA0047700572
B1132014024174N00726566WA0047800572
B1132024024175N00726566WA0047700572
B1132034024175N00726566WA0047800572
B1132044024175N00726566WA0047700572
B1132054024175N00726566WA0047800572
B1132064024175N00726566WA0047800572
B1132074024175N00726566WA0047800572
B1132084024175N00726566WA0047800572
B1132094024175N00726566WA0047700572
B1132104024175N00726566WA0047700572
B1132114024174N00726566WA0047600571
B1132124024174N00726566WA0047700571
B1132134024173N00726566WA0047700571
B1132144024173N00726566WA0047700571
B1132154024172N00726566WA0047700571
B1132164024172N00726566WA0047700571
B1132174024171N00726565WA0047700572
B1132184024170N00726565WA0047700572
B1132194024170N00726565WA0047700572
B1132204024169N00726565WA0047700572
B1132214024169N00726565WA0047700572
B1132224024169N00726565WA0047700572
B1132234024167N00726565WA0047700572
B1132244024166N00726565WA0047700572
B1132254024166N00726565WA0047700571
B1132264024166N00726565WA0047700571
B1132274024165N00726565WA0047700571
B1132284024165N00726564WA0047700572
B1132294024165N00726564WA0047700572
B1132304024165N00726564WA0047800572
B1132314024164N00726564WA0047700572
B1132324024164N00726564WA0047700572
B1132334024164N00726564WA0047700572
B1132344024164N00726564WA0047700572
B1132354024164N00726564WA0047700572
B1132364024164N00726564WA0047700572
LXSX;GF:1.5
GFE2569C425CC020A39AA81E16CDFDF01
