AXSX003 SKYTRAXX V3.0.6 SN:00000380
HOPLTPILOT:Sepp Bucher
HOGTYGLIDERTYPE:Sigma9
HOCIDCOMPETITIONID:0000
HODTM100GPSDATUM:WGS-84
HOCCLCOMPETITION CLASS:Paraglider (Standard)
HPSITSITE:Itrabo
HFDTE170317
B1213173646527N00338745WA0061400647
B1213183646527N00338746WA0061400647
B1213193646528N00338745WA0061300646
B1213203646528N00338745WA0061200646
B1213213646528N00338744WA0061300647
B1213223646528N00338744WA0061200647
B1213233646529N00338743WA0061000645
B1213243646528N00338741WA0060900644
B1213253646528N00338737WA0060900645
B1213263646528N00338736WA0060700648
B1213273646528N00338733WA0060600651
B1213283646528N00338731WA0060400649
B1213293646528N00338727WA0060000646
B1213303646527N00338724WA0060000646
B1213313646527N00338719WA0060100646
B1213323646527N00338713WA0060200648
B1213333646528N00338707WA0060200648
B1213343646528N00338702WA0060100646
B1213353646528N00338697WA0060000645
B1213363646528N00338693WA0059900645
B1213373646527N00338687WA0060000646
B1213383646526N00338682WA0060200647
B1213393646526N00338676WA0060300649
B1213403646526N00338671WA0060400650
B1213413646526N00338666WA0060500651
B1213423646525N00338661WA0060600651
B1213433646523N00338656WA0060700652
B1213443646520N00338654WA0060700652
B1213453646515N00338653WA0060700653
B1213463646510N00338655WA0060700653
B1213473646506N00338661WA0060700652
B1213483646505N00338669WA0060600652
B1213493646504N00338677WA0060400649
B1213503646506N00338684WA0060300648
B1213513646511N00338689WA0060400650
B1213523646517N00338691WA0060800653
B1213533646522N00338691WA0061000655
B1213543646525N00338690WA0061100656
B1213553646528N00338688WA0061100656
B1213563646532N00338686WA0061100657
B1213573646535N00338683WA0061100657
B1213583646539N00338679WA0061300658
B1213593646540N00338674WA0061400660
B1214003646541N00338670WA0061500660
B1214013646540N00338665WA0061400660
B1214023646539N00338660WA0061500660
B1214033646537N00338656WA0061500661
B1214043646534N00338652WA0061600662
B1214053646531N00338649WA0061600662
B1214063646527N00338647WA0061700662
B1214073646523N00338646WA0061600662
B1214083646518N00338646WA0061400659
B1214093646515N00338650WA0061400659
B1214103646511N00338655WA0061300659
B1214113646510N00338662WA0061400660
B1214123646512N00338669WA0061600661
B1214133646515N00338675WA0061700663
B1214143646518N00338680WA0061800663
B1214153646521N00338685WA0061900665
B1214163646525N00338688WA0062000666
B1214173646528N00338691WA0062100666
B1214183646532N00338691WA0061900665
B1214193646536N00338690WA0062100666
B1214203646540N00338688WA0062300668
B1214213646542N00338683WA0062400670
B1214223646545N00338679WA0062500670
B1214233646546N00338674WA0062500670
B1214243646545N00338670WA0062400669
B1214253646545N00338666WA0062300669
B1214263646543N00338662WA0062200667
B1214273646542N00338657WA0062200667
B1214283646539N00338653WA0062300669
B1214293646535N00338650WA0062400669
B1214303646531N00338650WA0062500671
B1214313646528N00338650WA0062600671
B1214323646524N00338651WA0062600671
B1214333646521N00338654WA0062500671
B1214343646518N00338658WA0062500671
B1214353646515N00338663WA0062500670
B1214363646513N00338669WA0062500670
B1214373646512N00338676WA0062500670
B1214383646512N00338684WA0062400670
B1214393646513N00338691WA0062500670
B1214403646515N00338697WA0062400670
B1214413646518N00338702WA0062500670
B1214423646522N00338703WA0062600672
B1214433646529N00338701WA0062800674
B1214443646535N00338698WA0062900675
B1214453646538N00338695WA0063000675
B1214463646540N00338690WA0063000675
B1214473646542N00338686WA0062900675
B1214483646542N00338682WA0062800674
B1214493646540N00338679WA0062800673
B1214503646538N00338675WA0062800674
B1214513646534N00338674WA0062800673
B1214523646529N00338675WA0062900674
B1214533646524N00338677WA0063000675
B1214543646521N00338681WA0063000675
B1214553646518N00338687WA0063100676
B1214563646516N00338694WA0063200677
B1214573646516N00338701WA0063200677
B1214583646517N00338708WA0063300678
B1214593646520N00338714WA0063400679
B1215003646523N00338719WA0063500680
B1215013646528N00338721WA0063500680
B1215023646533N00338721WA0063400680
B1215033646538N00338720WA0063300679
B1215043646541N00338716WA0063200678
B1215053646544N00338713WA0063300678
B1215063646546N00338708WA0063300678
B1215073646547N00338703WA0063200677
B1215083646548N00338698WA0063100677
B1215093646549N00338694WA0063000675
B1215103646549N00338690WA0062900675
B1215113646548N00338685WA0062900674
B1215123646546N00338682WA0062800673
B1215133646543N00338680WA0063000675
B1215143646539N00338681WA0063300678
B1215153646535N00338681WA0063600681
B1215163646531N00338681WA0063700683
B1215173646528N00338681WA0063800683
B1215183646527N00338680WA0063800684
B1215193646524N00338679WA0063900685
B1215203646522N00338678WA0064100686
B1215213646519N00338678WA0064200687
B1215223646516N00338678WA0064100686
B1215233646514N00338680WA0063900685
B1215243646511N00338682WA0063800683
B1215253646507N00338687WA0063700683
B1215263646504N00338692WA0063700683
B1215273646502N00338699WA0063800683
B1215283646504N00338707WA0063800684
B1215293646505N00338715WA0063900684
B1215303646508N00338720WA0064100686
B1215313646512N00338723WA0064200688
B1215323646519N00338722WA0064300689
B1215333646524N00338723WA0064300688
B1215343646529N00338721WA0064300688
B1215353646534N00338719WA0064300688
B1215363646537N00338715WA0064300689
B1215373646539N00338710WA0064400690
B1215383646541N00338705WA0064600691
B1215393646540N00338701WA0064800694
B1215403646538N00338697WA0065200697
B1215413646537N00338695WA0065400699
B1215423646535N00338693WA0065500701
B1215433646534N00338692WA0065500701
B1215443646532N00338690WA0065500701
B1215453646529N00338690WA0065400700
B1215463646525N00338690WA0065400699
B1215473646520N00338692WA0065500701
B1215483646516N00338695WA0065700702
B1215493646512N00338700WA0065700702
B1215503646508N00338707WA0065700702
B1215513646506N00338714WA0065700702
B1215523646504N00338722WA0065800703
B1215533646504N00338730WA0065700703
B1215543646504N00338737WA0065600701
B1215553646505N00338744WA0065400699
B1215563646510N00338749WA0065400699
B1215573646517N00338753WA0065400699
B1215583646523N00338754WA0065300698
B1215593646529N00338754WA0065200698
B1216003646533N00338752WA0065200698
B1216013646538N00338748WA0065300699
B1216023646541N00338745WA0065400699
B1216033646544N00338740WA0065600702
B1216043646545N00338735WA0065800703
B1216053646546N00338730WA0066000705
B1216063646546N00338726WA0066100707
B1216073646545N00338722WA0066200708
B1216083646545N00338719WA0066300708
B1216093646544N00338715WA0066500710
B1216103646544N00338711WA0066700712
B1216113646542N00338706WA0067000715
B1216123646541N00338703WA0067100716
B1216133646540N00338700WA0067100717
B1216143646537N00338698WA0067100717
B1216153646534N00338696WA0067100716
B1216163646529N00338695WA0067100716
B1216173646524N00338695WA0067100716
B1216183646519N00338696WA0067200717
B1216193646513N00338697WA0067300719
B1216203646508N00338697WA0067600721
B1216213646504N00338696WA0067800723
B1216223646499N00338693WA0067800724
B1216233646496N00338689WA0068000725
B1216243646494N00338686WA0068100727
B1216253646493N00338682WA0068200727
B1216263646494N00338678WA0068200727
B1216273646496N00338674WA0068200727
B1216283646498N00338670WA0068100727
B1216293646501N00338667WA0068200727
B1216303646504N00338665WA0068300728
B1216313646509N00338665WA0068500730
B1216323646513N00338666WA0068600732
B1216333646517N00338669WA0068600732
B1216343646521N00338674WA0068500731
B1216353646523N00338680WA0068500731
B1216363646525N00338688WA0068700732
B1216373646526N00338695WA0069000735
B1216383646524N00338703WA0069200737
B1216393646522N00338710WA0069300739
B1216403646519N00338716WA0069400740
B1216413646515N00338721WA0069500740
B1216423646510N00338725WA0069400740
B1216433646504N00338727WA0069500740
B1216443646497N00338728WA0069600741
B1216453646490N00338728WA0069500741
B1216463646486N00338725WA0069600741
B1216473646483N00338722WA0069600742
B1216483646480N00338719WA0069600741
B1216493646479N00338716WA0069500740
B1216503646476N00338713WA0069300738
B1216513646474N00338709WA0069100736
B1216523646472N00338704WA0068700732
B1216533646475N00338700WA0068400729
B1216543646478N00338696WA0068200727
B1216553646482N00338695WA0068000726
B1216563646486N00338697WA0067900724
B1216573646490N00338700WA0067700722
B1216583646495N00338703WA0067700722
B1216593646500N00338708WA0067800723
B1217003646505N00338714WA0067900725
B1217013646509N00338719WA0068100726
B1217023646513N00338723WA0068100727
B1217033646519N00338725WA0068100727
B1217043646524N00338726WA0068500730
B1217053646530N00338725WA0068800733
B1217063646534N00338724WA0068900735
B1217073646537N00338721WA0068900734
B1217083646539N00338717WA0068700733
B1217093646538N00338712WA0068700732
B1217103646537N00338706WA0068800734
B1217113646535N00338701WA0068900734
B1217123646531N00338697WA0068800733
B1217133646525N00338696WA0068900734
B1217143646520N00338698WA0069100736
B1217153646515N00338701WA0069300738
B1217163646512N00338706WA0069500741
B1217173646510N00338714WA0069800743
B1217183646510N00338720WA0069900744
B1217193646511N00338727WA0070000746
B1217203646512N00338734WA0070100747
B1217213646517N00338738WA0070300748
B1217223646521N00338742WA0070500751
B1217233646526N00338745WA0070700752
B1217243646531N00338747WA0070700753
B1217253646536N00338747WA0070700753
B1217263646540N00338746WA0070600751
B1217273646544N00338743WA0070500751
B1217283646547N00338740WA0070500750
B1217293646550N00338736WA0070600751
B1217303646553N00338732WA0070700752
B1217313646554N00338728WA0070700753
B1217323646554N00338724WA0070700752
B1217333646552N00338721WA0070700753
B1217343646550N00338718WA0070800753
B1217353646547N00338715WA0070900754
B1217363646543N00338713WA0071000755
B1217373646540N00338710WA0071100756
B1217383646537N00338708WA0071200757
B1217393646534N00338704WA0071200758
B1217403646532N00338701WA0071400759
B1217413646531N00338698WA0071400760
B1217423646528N00338696WA0071300759
B1217433646525N00338696WA0071200757
B1217443646521N00338696WA0070900755
B1217453646517N00338697WA0070900754
B1217463646512N00338698WA0070800753
B1217473646508N00338698WA0070700752
B1217483646504N00338698WA0070400749
B1217493646502N00338698WA0070000745
B1217503646500N00338696WA0069500741
B1217513646500N00338692WA0069300738
B1217523646502N00338688WA0069100737
B1217533646505N00338685WA0068900734
B1217543646508N00338683WA0068600731
B1217553646513N00338683WA0068300729
B1217563646517N00338685WA0068200728
B1217573646523N00338690WA0068100726
B1217583646528N00338697WA0068000725
B1217593646533N00338704WA0067800724
B1218003646535N00338712WA0067500721
B1218013646536N00338721WA0067400719
B1218023646534N00338729WA0067300718
B1218033646529N00338737WA0067300718
B1218043646523N00338742WA0067400719
B1218053646517N00338746WA0067500720
B1218063646512N00338747WA0067400720
B1218073646509N00338748WA0067100716
B1218083646506N00338748WA0066700712
B1218093646504N00338748WA0066200707
B1218103646499N00338745WA0065900704
B1218113646495N00338742WA0065800703
B1218123646490N00338739WA0065900704
B1218133646487N00338737WA0065800704
B1218143646483N00338735WA0065600702
B1218153646480N00338734WA0065300698
B1218163646477N00338732WA0064900694
B1218173646473N00338729WA0064600692
B1218183646469N00338725WA0064700693
B1218193646464N00338721WA0064900694
B1218203646461N00338719WA0065000696
B1218213646458N00338717WA0065200697
B1218223646455N00338715WA0065100697
B1218233646453N00338712WA0065200697
B1218243646450N00338709WA0065100697
B1218253646446N00338707WA0065000695
B1218263646443N00338704WA0064800693
B1218273646439N00338702WA0064800694
B1218283646435N00338700WA0064800693
B1218293646431N00338698WA0064800693
B1218303646425N00338696WA0064800694
B1218313646420N00338695WA0064900694
B1218323646416N00338693WA0064900694
B1218333646412N00338691WA0064800694
B1218343646408N00338690WA0064800693
B1218353646404N00338689WA0064800693
B1218363646400N00338687WA0064900695
B1218373646397N00338686WA0065000695
B1218383646394N00338684WA0065100696
B1218393646392N00338682WA0065200697
B1218403646389N00338680WA0065300698
B1218413646387N00338679WA0065300698
B1218423646384N00338676WA0065400699
B1218433646381N00338674WA0065500701
B1218443646379N00338672WA0065700703
B1218453646377N00338670WA0065800703
B1218463646375N00338668WA0065800703
B1218473646374N00338666WA0065700703
B1218483646373N00338664WA0065700703
B1218493646372N00338661WA0065700703
B1218503646371N00338658WA0065800703
B1218513646372N00338655WA0065900705
B1218523646372N00338654WA0065900705
B1218533646372N00338654WA0065800704
B1218543646372N00338653WA0065700702
B1218553646372N00338652WA0065500701
B1218563646371N00338650WA0065500700
B1218573646370N00338648WA0065400699
B1218583646367N00338647WA0065200698
B1218593646364N00338647WA0065000695
B1219003646360N00338648WA0064700693
B1219013646356N00338648WA0064500690
B1219023646352N00338649WA0064300688
B1219033646347N00338650WA0064100686
B1219043646342N00338652WA0064100686
B1219053646338N00338656WA0064000686
B1219063646334N00338660WA0064100686
B1219073646331N00338666WA0064000685
B1219083646328N00338671WA0063800683
B1219093646325N00338675WA0063500680
B1219103646321N00338680WA0063300678
B1219113646316N00338684WA0063200677
B1219123646311N00338687WA0063000675
B1219133646305N00338689WA0062800674
B1219143646300N00338691WA0062700672
B1219153646294N00338692WA0062600671
B1219163646288N00338694WA0062400669
B1219173646282N00338696WA0062200668
B1219183646277N00338696WA0062200667
B1219193646272N00338696WA0062100666
B1219203646268N00338695WA0061900665
B1219213646263N00338695WA0061800664
B1219223646258N00338696WA0061600662
B1219233646253N00338698WA0061500660
B1219243646247N00338700WA0061400659
B1219253646242N00338701WA0061300659
B1219263646237N00338703WA0061200657
B1219273646233N00338705WA0060900655
B1219283646227N00338707WA0060700652
B1219293646222N00338709WA0060500651
B1219303646216N00338711WA0060400649
B1219313646211N00338713WA0060300648
B1219323646206N00338716WA0060100647
B1219333646202N00338719WA0059900644
B1219343646198N00338722WA0059400640
B1219353646193N00338725WA0059100636
B1219363646187N00338728WA0058800634
B1219373646182N00338731WA0058800633
B1219383646176N00338733WA0058600631
B1219393646171N00338736WA0058300629
B1219403646167N00338737WA0058100626
B1219413646163N00338739WA0057900624
B1219423646158N00338741WA0057700622
B1219433646154N00338743WA0057600622
B1219443646148N00338745WA0057500621
B1219453646144N00338747WA0057400620
B1219463646140N00338750WA0057300618
B1219473646136N00338753WA0057100616
B1219483646132N00338756WA0056800613
B1219493646128N00338759WA0056600611
B1219503646123N00338762WA0056400610
B1219513646119N00338764WA0056300608
B1219523646115N00338767WA0056000605
B1219533646111N00338768WA0055700602
B1219543646107N00338770WA0055400599
B1219553646102N00338772WA0055200597
B1219563646097N00338775WA0054900594
B1219573646092N00338778WA0054800593
B1219583646087N00338782WA0054700593
B1219593646084N00338786WA0054600591
B1220003646081N00338790WA0054300589
B1220013646078N00338794WA0053900585
B1220023646075N00338797WA0053500580
B1220033646070N00338802WA0053000576
B1220043646065N00338807WA0052900574
B1220053646059N00338813WA0052700573
B1220063646054N00338817WA0052600572
B1220073646049N00338821WA0052400569
B1220083646045N00338824WA0052200567
B1220093646040N00338828WA0052100566
B1220103646034N00338831WA0052100566
B1220113646029N00338834WA0052000565
B1220123646024N00338837WA0052000565
B1220133646019N00338841WA0052000565
B1220143646015N00338845WA0051900565
B1220153646011N00338849WA0051900564
B1220163646007N00338853WA0051900564
B1220173646002N00338857WA0052000565
B1220183645997N00338861WA0052000565
B1220193645993N00338865WA0052000565
B1220203645989N00338869WA0052000565
B1220213645985N00338873WA0051800564
B1220223645981N00338878WA0051600562
B1220233645977N00338882WA0051400559
B1220243645972N00338885WA0051200557
B1220253645967N00338889WA0051100557
B1220263645962N00338893WA0051100557
B1220273645957N00338898WA0051200557
B1220283645953N00338903WA0051300558
B1220293645950N00338907WA0051300558
B1220303645947N00338912WA0051000556
B1220313645945N00338917WA0050600552
B1220323645942N00338922WA0050400550
B1220333645939N00338927WA0050300549
B1220343645936N00338931WA0050100547
B1220353645933N00338933WA0050000545
B1220363645932N00338935WA0049700542
B1220373645930N00338938WA0049300538
B1220383645927N00338941WA0049000535
B1220393645924N00338945WA0048700532
B1220403645920N00338949WA0048500530
B1220413645915N00338952WA0048400530
B1220423645911N00338955WA0048400529
B1220433645906N00338957WA0048400529
B1220443645902N00338960WA0048500530
B1220453645898N00338963WA0048500530
B1220463645893N00338967WA0048500530
B1220473645889N00338970WA0048500531
B1220483645884N00338974WA0048600531
B1220493645879N00338977WA0048700533
B1220503645874N00338981WA0049100536
B1220513645869N00338986WA0049500540
B1220523645865N00338989WA0049600542
B1220533645861N00338992WA0049600542
B1220543645858N00338994WA0049600542
B1220553645854N00338995WA0049600541
B1220563645849N00338995WA0049700542
B1220573645844N00338996WA0050000545
B1220583645840N00338997WA0050100546
B1220593645835N00338997WA0050200548
B1221003645832N00338999WA0050200547
B1221013645829N00339000WA0050100547
B1221023645826N00339004WA0050100547
B1221033645823N00339008WA0050200547
B1221043645821N00339012WA0050300548
B1221053645820N00339018WA0050300549
B1221063645820N00339024WA0050300548
B1221073645822N00339029WA0050400549
B1221083645825N00339034WA0050600551
B1221093645829N00339036WA0050700553
B1221103645834N00339038WA0050700552
B1221113645839N00339038WA0050500551
B1221123645843N00339036WA0050400549
B1221133645847N00339034WA0050200548
B1221143645851N00339030WA0050100546
B1221153645854N00339026WA0050200547
B1221163645856N00339020WA0050200547
B1221173645859N00339016WA0050300549
B1221183645861N00339012WA0050400550
B1221193645863N00339007WA0050500550
B1221203645865N00339003WA0050600551
B1221213645867N00338997WA0050800553
B1221223645868N00338992WA0051000555
B1221233645868N00338987WA0051200557
B1221243645867N00338982WA0051300559
B1221253645865N00338978WA0051400560
B1221263645862N00338974WA0051600561
B1221273645858N00338973WA0051700563
B1221283645854N00338972WA0051900565
B1221293645850N00338973WA0052100566
B1221303645847N00338974WA0052200567
B1221313645844N00338977WA0052100567
B1221323645842N00338980WA0052100567
B1221333645840N00338985WA0052200567
B1221343645840N00338991WA0052300568
B1221353645841N00338998WA0052500570
B1221363645843N00339004WA0052700572
B1221373645846N00339009WA0052800573
B1221383645850N00339013WA0053000575
B1221393645854N00339016WA0053100576
B1221403645860N00339016WA0053300578
B1221413645865N00339016WA0053500580
B1221423645870N00339014WA0053700582
B1221433645875N00339011WA0053800583
B1221443645879N00339007WA0053900584
B1221453645883N00339002WA0054000585
B1221463645886N00338997WA0054000586
B1221473645889N00338992WA0054200588
B1221483645890N00338986WA0054500590
B1221493645890N00338981WA0054800593
B1221503645890N00338976WA0055100596
B1221513645890N00338972WA0055000596
B1221523645890N00338970WA0054800594
B1221533645889N00338966WA0054600591
B1221543645888N00338962WA0054200588
B1221553645885N00338959WA0054100586
B1221563645881N00338957WA0054000585
B1221573645876N00338956WA0053900585
B1221583645872N00338957WA0053800584
B1221593645869N00338959WA0053600582
B1222003645865N00338961WA0053400579
B1222013645863N00338964WA0053200577
B1222023645859N00338966WA0053200578
B1222033645854N00338968WA0053300579
B1222043645849N00338971WA0053700583
B1222053645843N00338974WA0054100587
B1222063645838N00338977WA0054300588
B1222073645835N00338979WA0054400589
B1222083645831N00338980WA0054500591
B1222093645826N00338981WA0054700593
B1222103645821N00338982WA0054900594
B1222113645816N00338985WA0055100597
B1222123645812N00338988WA0055400599
B1222133645808N00338993WA0055700602
B1222143645805N00338999WA0055800604
B1222153645804N00339005WA0055800603
B1222163645803N00339011WA0055700602
B1222173645804N00339016WA0055700602
B1222183645814N00339014WA0055900604
B1222193645819N00339010WA0056100606
B1222203645822N00339006WA0056400609
B1222213645825N00339001WA0056700613
B1222223645826N00338996WA0056900615
B1222233645827N00338992WA0057000616
B1222243645827N00338988WA0057000616
B1222253645827N00338983WA0057100616
B1222263645828N00338978WA0057200617
B1222273645828N00338972WA0057400620
B1222283645827N00338968WA0057700622
B1222293645826N00338964WA0057800623
B1222303645826N00338960WA0057900625
B1222313645827N00338956WA0058100626
B1222323645827N00338952WA0058200627
B1222333645827N00338947WA0057900625
B1222343645825N00338943WA0057900624
B1222353645823N00338940WA0057900624
B1222363645819N00338941WA0057700622
B1222373645816N00338945WA0057500621
B1222383645816N00338952WA0057500620
B1222393645818N00338960WA0057600621
B1222403645820N00338966WA0057900624
B1222413645823N00338972WA0058200627
B1222423645826N00338975WA0058300628
B1222433645830N00338977WA0058200628
B1222443645834N00338978WA0058200627
B1222453645839N00338977WA0058300629
B1222463645845N00338976WA0058600631
B1222473645851N00338974WA0058800633
B1222483645856N00338972WA0059000635
B1222493645859N00338969WA0059100636
B1222503645861N00338966WA0059200637
B1222513645862N00338961WA0059200637
B1222523645864N00338957WA0059300638
B1222533645866N00338952WA0059500641
B1222543645867N00338948WA0059700642
B1222553645868N00338943WA0059800643
B1222563645869N00338939WA0059900644
B1222573645869N00338934WA0060100646
B1222583645870N00338929WA0060400649
B1222593645870N00338924WA0060700653
B1223003645867N00338920WA0061000655
B1223013645864N00338918WA0061200657
B1223023645859N00338918WA0061400659
B1223033645854N00338918WA0061700662
B1223043645850N00338920WA0062000665
B1223053645845N00338924WA0062200667
B1223063645841N00338929WA0062500670
B1223073645837N00338935WA0062400669
B1223083645835N00338941WA0062400670
B1223093645834N00338948WA0062500670
B1223103645833N00338953WA0062400670
B1223113645834N00338957WA0062200667
B1223123645834N00338961WA0062000665
B1223133645836N00338963WA0061900664
B1223143645838N00338965WA0061900664
B1223153645843N00338966WA0061900664
B1223163645849N00338964WA0061900664
B1223173645853N00338961WA0062100666
B1223183645856N00338956WA0062400669
B1223193645859N00338952WA0062500671
B1223203645861N00338947WA0062600672
B1223213645862N00338944WA0062600671
B1223223645863N00338942WA0062500670
B1223233645863N00338940WA0062500670
B1223243645865N00338937WA0062500670
B1223253645867N00338935WA0062600671
B1223263645871N00338932WA0062600672
B1223273645874N00338931WA0062700672
B1223283645876N00338930WA0062600671
B1223293645878N00338928WA0062300668
B1223303645878N00338927WA0062100667
B1223313645878N00338924WA0062000666
B1223323645878N00338922WA0062000665
B1223333645877N00338919WA0061800664
B1223343645875N00338918WA0061800664
B1223353645872N00338917WA0061900664
B1223363645870N00338918WA0061900664
B1223373645866N00338919WA0061800663
B1223383645862N00338920WA0061800664
B1223393645858N00338923WA0061800663
B1223403645854N00338926WA0061800663
B1223413645850N00338930WA0061900664
B1223423645846N00338933WA0061900664
B1223433645842N00338936WA0061900664
B1223443645838N00338940WA0061900664
B1223453645834N00338944WA0061800664
B1223463645829N00338947WA0061800663
B1223473645825N00338950WA0061800663
B1223483645820N00338953WA0061800663
B1223493645816N00338956WA0061800663
B1223503645811N00338959WA0061800663
B1223513645807N00338963WA0061700662
B1223523645802N00338966WA0061600662
B1223533645797N00338968WA0061700663
B1223543645792N00338971WA0061900664
B1223553645787N00338974WA0062200667
B1223563645782N00338977WA0062500670
B1223573645778N00338980WA0062400670
B1223583645774N00338983WA0062400669
B1223593645772N00338985WA0062200667
B1224003645767N00338987WA0061900664
B1224013645762N00338988WA0061600661
B1224023645756N00338990WA0061300658
B1224033645750N00338992WA0061100656
B1224043645744N00338994WA0060800654
B1224053645738N00338998WA0060500651
B1224063645732N00339003WA0060100647
B1224073645727N00339009WA0059800643
B1224083645721N00339017WA0059600641
B1224093645715N00339024WA0059500640
B1224103645710N00339031WA0059300638
B1224113645705N00339038WA0059000635
B1224123645700N00339044WA0058700632
B1224133645695N00339050WA0058500630
B1224143645688N00339056WA0058400629
B1224153645683N00339062WA0058200628
B1224163645678N00339068WA0058100627
B1224173645674N00339074WA0057900624
B1224183645670N00339078WA0057500620
B1224193645665N00339083WA0057100616
B1224203645660N00339088WA0056800613
B1224213645653N00339095WA0056800613
B1224223645647N00339101WA0056700612
B1224233645640N00339108WA0056600611
B1224243645633N00339114WA0056500610
B1224253645627N00339120WA0056400609
B1224263645621N00339127WA0056400609
B1224273645614N00339133WA0056300608
B1224283645607N00339139WA0056300609
B1224293645601N00339145WA0056400609
B1224303645594N00339150WA0056300608
B1224313645588N00339155WA0056200608
B1224323645581N00339160WA0056100606
B1224333645574N00339166WA0056000605
B1224343645568N00339171WA0055900604
B1224353645561N00339177WA0055700603
B1224363645554N00339183WA0055600601
B1224373645548N00339188WA0055400600
B1224383645540N00339193WA0055300598
B1224393645533N00339199WA0055200598
B1224403645526N00339205WA0055200597
B1224413645519N00339212WA0055200598
B1224423645512N00339219WA0055300598
B1224433645504N00339226WA0055400599
B1224443645497N00339233WA0055500600
B1224453645489N00339240WA0055500601
B1224463645482N00339246WA0055600601
B1224473645476N00339251WA0055500601
B1224483645469N00339255WA0055500600
B1224493645463N00339258WA0055600602
B1224503645457N00339261WA0055700602
B1224513645452N00339263WA0055800603
B1224523645447N00339265WA0055800604
B1224533645444N00339267WA0055600601
B1224543645440N00339267WA0055300599
B1224553645436N00339267WA0055000595
B1224563645431N00339267WA0054800593
B1224573645425N00339266WA0054700592
B1224583645420N00339266WA0054700592
B1224593645415N00339266WA0054600591
B1225003645411N00339266WA0054400589
B1225013645407N00339265WA0054300588
B1225023645404N00339264WA0054200587
B1225033645402N00339262WA0054100586
B1225043645399N00339260WA0054000585
B1225053645396N00339258WA0053900584
B1225063645394N00339256WA0053600582
B1225073645391N00339254WA0053400580
B1225083645387N00339253WA0053300578
B1225093645382N00339251WA0053100577
B1225103645378N00339251WA0052900574
B1225113645374N00339251WA0052700572
B1225123645369N00339252WA0052500570
B1225133645364N00339253WA0052200567
B1225143645359N00339257WA0051900565
B1225153645353N00339261WA0051800564
B1225163645349N00339266WA0051600561
B1225173645345N00339270WA0051500560
B1225183645341N00339274WA0051300559
B1225193645337N00339279WA0051300558
B1225203645333N00339283WA0051300558
B1225213645329N00339287WA0051300558
B1225223645325N00339291WA0051200558
B1225233645322N00339294WA0051200557
B1225243645318N00339297WA0051100556
B1225253645315N00339299WA0050900555
B1225263645312N00339302WA0050800554
B1225273645308N00339306WA0050800554
B1225283645304N00339311WA0050800554
B1225293645300N00339316WA0050700553
B1225303645297N00339322WA0050500550
B1225313645295N00339329WA0050300548
B1225323645293N00339337WA0050100546
B1225333645289N00339346WA0049800544
B1225343645285N00339354WA0049700543
B1225353645281N00339362WA0049600541
B1225363645277N00339369WA0049500540
B1225373645275N00339376WA0049500540
B1225383645273N00339383WA0049200537
B1225393645271N00339389WA0048800534
B1225403645268N00339396WA0048500531
B1225413645264N00339402WA0048400529
B1225423645260N00339408WA0048300528
B1225433645255N00339414WA0048200528
B1225443645250N00339418WA0048100527
B1225453645245N00339423WA0048100526
B1225463645241N00339427WA0047900524
B1225473645236N00339431WA0047600521
B1225483645231N00339436WA0047400520
B1225493645226N00339441WA0047400519
B1225503645220N00339446WA0047300519
B1225513645215N00339452WA0047300518
B1225523645211N00339457WA0047200517
B1225533645207N00339463WA0047100516
B1225543645203N00339469WA0047100516
B1225553645198N00339475WA0047000515
B1225563645194N00339481WA0047000515
B1225573645189N00339487WA0046900514
B1225583645185N00339492WA0046700513
B1225593645180N00339497WA0046600511
B1226003645175N00339502WA0046500510
B1226013645170N00339508WA0046400509
B1226023645165N00339513WA0046200507
B1226033645161N00339519WA0046000505
B1226043645156N00339525WA0045700502
B1226053645152N00339531WA0045500500
B1226063645147N00339538WA0045300498
B1226073645143N00339544WA0045200498
B1226083645138N00339550WA0045100496
B1226093645134N00339556WA0045000495
B1226103645130N00339562WA0044900494
B1226113645126N00339569WA0044800493
B1226123645122N00339576WA0044700492
B1226133645118N00339583WA0044700492
B1226143645114N00339589WA0044700492
B1226153645110N00339595WA0044500491
B1226163645106N00339601WA0044500490
B1226173645101N00339608WA0044500490
B1226183645096N00339613WA0044500491
B1226193645092N00339619WA0044500490
B1226203645088N00339624WA0044300489
B1226213645085N00339630WA0044100486
B1226223645082N00339637WA0043800484
B1226233645078N00339644WA0043600481
B1226243645073N00339651WA0043400479
B1226253645068N00339657WA0043200477
B1226263645064N00339662WA0043100477
B1226273645059N00339668WA0043000476
B1226283645055N00339673WA0042900475
B1226293645050N00339679WA0042900474
B1226303645046N00339684WA0042800473
B1226313645043N00339689WA0042500470
B1226323645038N00339694WA0042200468
B1226333645034N00339698WA0041900464
B1226343645028N00339703WA0041600462
B1226353645023N00339708WA0041400460
B1226363645018N00339713WA0041300458
B1226373645014N00339717WA0041000455
B1226383645010N00339722WA0040600452
B1226393645005N00339727WA0040300449
B1226403645000N00339733WA0040100446
B1226413644996N00339740WA0039900444
B1226423644991N00339747WA0039700442
B1226433644987N00339754WA0039400440
B1226443644982N00339761WA0039000436
B1226453644978N00339766WA0038800433
B1226463644972N00339771WA0038500430
B1226473644967N00339776WA0038200427
B1226483644962N00339780WA0038100426
B1226493644958N00339784WA0037900424
B1226503644953N00339788WA0037700422
B1226513644949N00339792WA0037400419
B1226523644944N00339797WA0037100417
B1226533644938N00339801WA0037000415
B1226543644934N00339805WA0036800413
B1226553644929N00339809WA0036600411
B1226563644924N00339813WA0036200408
B1226573644919N00339817WA0035900405
B1226583644914N00339822WA0035700402
B1226593644908N00339827WA0035700402
B1227003644904N00339832WA0035600401
B1227013644900N00339836WA0035400399
B1227023644896N00339840WA0035200397
B1227033644891N00339844WA0034900395
B1227043644886N00339848WA0034700393
B1227053644881N00339853WA0034600391
B1227063644875N00339857WA0034500391
B1227073644871N00339862WA0034400389
B1227083644866N00339866WA0034300388
B1227093644861N00339870WA0034000386
B1227103644856N00339873WA0033800384
B1227113644850N00339877WA0033700383
B1227123644845N00339881WA0033600382
B1227133644840N00339884WA0033500381
B1227143644835N00339888WA0033500380
B1227153644829N00339891WA0033400379
B1227163644824N00339895WA0033300378
B1227173644818N00339898WA0033200377
B1227183644813N00339901WA0033000376
B1227193644807N00339903WA0033000376
B1227203644802N00339906WA0033000376
B1227213644796N00339909WA0032900375
B1227223644791N00339912WA0032700373
B1227233644785N00339914WA0032600372
B1227243644779N00339917WA0032600372
B1227253644773N00339919WA0032700372
B1227263644768N00339922WA0032600371
B1227273644763N00339925WA0032400369
B1227283644758N00339927WA0032100367
B1227293644753N00339931WA0032000365
B1227303644748N00339934WA0031900364
B1227313644742N00339937WA0031700363
B1227323644737N00339940WA0031600361
B1227333644732N00339944WA0031400360
B1227343644726N00339948WA0031300358
B1227353644721N00339952WA0031200357
B1227363644716N00339957WA0031100356
B1227373644711N00339961WA0031000355
B1227383644706N00339966WA0030900354
B1227393644701N00339971WA0030800354
B1227403644696N00339976WA0030800354
B1227413644692N00339981WA0030600352
B1227423644687N00339984WA0030500350
B1227433644682N00339987WA0030400349
B1227443644677N00339990WA0030300349
B1227453644672N00339993WA0030300348
B1227463644667N00339997WA0030200347
B1227473644663N00340001WA0030100346
B1227483644657N00340004WA0030000345
B1227493644652N00340008WA0029900345
B1227503644647N00340012WA0029900345
B1227513644642N00340016WA0029900345
B1227523644637N00340020WA0029900345
B1227533644633N00340024WA0029900344
B1227543644628N00340028WA0029800344
B1227553644623N00340033WA0029800344
B1227563644618N00340037WA0029800343
B1227573644613N00340041WA0029800343
B1227583644607N00340044WA0029700343
B1227593644602N00340048WA0029800343
B1228003644597N00340052WA0029800344
B1228013644593N00340056WA0029800344
B1228023644588N00340059WA0029800343
B1228033644583N00340061WA0029700342
B1228043644578N00340065WA0029600342
B1228053644573N00340068WA0029600341
B1228063644567N00340072WA0029600341
B1228073644562N00340075WA0029700342
B1228083644557N00340078WA0029700343
B1228093644552N00340080WA0029600342
B1228103644548N00340081WA0029500340
B1228113644545N00340081WA0029300339
B1228123644542N00340079WA0029100336
B1228133644539N00340077WA0029000335
B1228143644536N00340074WA0028900335
B1228153644534N00340071WA0029000335
B1228163644532N00340068WA0028900335
B1228173644531N00340066WA0028800334
B1228183644529N00340063WA0028600332
B1228193644527N00340060WA0028600331
B1228203644525N00340057WA0028500330
B1228213644524N00340054WA0028300329
B1228223644523N00340051WA0028200328
B1228233644523N00340048WA0028100326
B1228243644521N00340045WA0027900325
B1228253644520N00340042WA0027800324
B1228263644520N00340038WA0027900324
B1228273644519N00340035WA0027900325
B1228283644517N00340033WA0027900324
B1228293644516N00340030WA0027800323
B1228303644513N00340029WA0027700322
B1228313644508N00340030WA0027600321
B1228323644503N00340031WA0027500321
B1228333644498N00340034WA0027600321
B1228343644493N00340037WA0027600321
B1228353644490N00340041WA0027500320
B1228363644485N00340045WA0027300319
B1228373644481N00340049WA0027100316
B1228383644476N00340052WA0026900314
B1228393644471N00340056WA0026800314
B1228403644465N00340060WA0027000315
B1228413644460N00340065WA0027100316
B1228423644456N00340071WA0027000316
B1228433644453N00340076WA0026900315
B1228443644449N00340081WA0026800314
B1228453644445N00340086WA0026700312
B1228463644440N00340091WA0026600312
B1228473644436N00340098WA0026600312
B1228483644431N00340104WA0026700312
B1228493644427N00340109WA0026600312
B1228503644423N00340115WA0026600312
B1228513644419N00340120WA0026700312
B1228523644415N00340126WA0026700313
B1228533644410N00340132WA0026700312
B1228543644405N00340137WA0026700312
B1228553644400N00340142WA0026700313
B1228563644396N00340148WA0026800313
B1228573644392N00340154WA0026800313
B1228583644387N00340159WA0026700312
B1228593644382N00340164WA0026600311
B1229003644378N00340169WA0026600311
B1229013644373N00340175WA0026500310
B1229023644368N00340180WA0026400309
B1229033644363N00340186WA0026400309
B1229043644358N00340192WA0026400309
B1229053644354N00340197WA0026300309
B1229063644350N00340203WA0026300308
B1229073644345N00340208WA0026300308
B1229083644341N00340214WA0026100307
B1229093644336N00340219WA0026000306
B1229103644332N00340224WA0025900305
B1229113644327N00340231WA0025900305
B1229123644323N00340237WA0025900305
B1229133644319N00340242WA0025800303
B1229143644314N00340247WA0025700302
B1229153644309N00340253WA0025600301
B1229163644304N00340258WA0025600301
B1229173644298N00340264WA0025500301
B1229183644293N00340269WA0025400299
B1229193644287N00340274WA0025400299
B1229203644282N00340279WA0025300299
B1229213644277N00340285WA0025400299
B1229223644272N00340291WA0025300299
B1229233644268N00340296WA0025100297
B1229243644263N00340302WA0025000295
B1229253644258N00340307WA0024800293
B1229263644253N00340312WA0024600291
B1229273644248N00340316WA0024600291
B1229283644243N00340320WA0024500290
B1229293644239N00340323WA0024300288
B1229303644236N00340326WA0024000286
B1229313644232N00340326WA0023700282
B1229323644228N00340324WA0023500281
B1229333644224N00340321WA0023300278
B1229343644222N00340317WA0023100277
B1229353644221N00340313WA0022900275
B1229363644222N00340308WA0022900275
B1229373644222N00340304WA0022800273
B1229383644222N00340299WA0022700272
B1229393644222N00340295WA0022600272
B1229403644223N00340291WA0022600271
B1229413644225N00340286WA0022500270
B1229423644226N00340283WA0022400270
B1229433644227N00340279WA0022400269
B1229443644227N00340275WA0022300269
B1229453644227N00340272WA0022200268
B1229463644228N00340270WA0022100266
B1229473644230N00340267WA0022000265
B1229483644231N00340264WA0021800264
B1229493644233N00340261WA0021800263
B1229503644235N00340257WA0021700262
B1229513644237N00340254WA0021600261
B1229523644240N00340251WA0021500261
B1229533644243N00340249WA0021400260
B1229543644247N00340246WA0021300259
B1229553644250N00340244WA0021200258
B1229563644254N00340243WA0021100257
B1229573644258N00340241WA0021100257
B1229583644263N00340240WA0021100256
B1229593644267N00340240WA0021000256
B1230003644272N00340241WA0021000255
B1230013644277N00340242WA0021000255
B1230023644282N00340243WA0020900255
B1230033644287N00340244WA0020800254
B1230043644292N00340244WA0020600252
B1230053644297N00340243WA0020300248
B1230063644302N00340242WA0020300248
B1230073644307N00340242WA0020400249
B1230083644312N00340241WA0020500251
B1230093644316N00340239WA0020500250
B1230103644321N00340237WA0020300249
B1230113644326N00340235WA0020300249
B1230123644330N00340233WA0020300249
B1230133644334N00340231WA0020300249
B1230143644338N00340228WA0020200248
B1230153644340N00340225WA0020100247
B1230163644341N00340221WA0020000245
B1230173644340N00340216WA0019900244
B1230183644339N00340212WA0019800244
B1230193644336N00340210WA0019700243
B1230203644330N00340212WA0019700242
B1230213644325N00340214WA0019600242
B1230223644322N00340218WA0019500241
B1230233644318N00340223WA0019400240
B1230243644315N00340228WA0019400239
B1230253644312N00340233WA0019300238
B1230263644309N00340239WA0019200237
B1230273644307N00340245WA0019200237
B1230283644304N00340250WA0019200237
B1230293644301N00340255WA0019200237
B1230303644298N00340260WA0019100236
B1230313644296N00340265WA0019000236
B1230323644292N00340270WA0019000236
B1230333644289N00340275WA0019000236
B1230343644285N00340279WA0019000235
B1230353644281N00340283WA0019000235
B1230363644278N00340287WA0019000236
B1230373644274N00340291WA0019000236
B1230383644271N00340295WA0019000235
B1230393644267N00340299WA0018900234
B1230403644263N00340304WA0018900235
B1230413644260N00340308WA0018900234
B1230423644257N00340313WA0018900234
B1230433644253N00340318WA0018800234
B1230443644250N00340322WA0018800234
B1230453644247N00340327WA0018800234
B1230463644244N00340332WA0018800234
B1230473644241N00340337WA0018800234
B1230483644237N00340341WA0018800233
B1230493644234N00340346WA0018800233
B1230503644231N00340351WA0018800233
B1230513644228N00340356WA0018700233
B1230523644225N00340360WA0018600232
B1230533644222N00340364WA0018600231
B1230543644218N00340368WA0018500230
B1230553644215N00340372WA0018400230
B1230563644211N00340376WA0018400230
B1230573644207N00340379WA0018400230
B1230583644203N00340383WA0018400229
B1230593644200N00340387WA0018300229
B1231003644196N00340391WA0018300228
B1231013644192N00340395WA0018300228
B1231023644188N00340398WA0018200228
B1231033644184N00340401WA0018200227
B1231043644181N00340404WA0018100227
B1231053644177N00340407WA0018000226
B1231063644173N00340409WA0018000226
B1231073644169N00340411WA0018000225
B1231083644165N00340414WA0017900224
B1231093644160N00340416WA0017900224
B1231103644156N00340418WA0017800224
B1231113644152N00340421WA0017800223
B1231123644148N00340423WA0017800223
B1231133644145N00340425WA0017800223
B1231143644141N00340426WA0017700222
B1231153644138N00340425WA0017600221
B1231163644135N00340423WA0017500221
B1231173644132N00340421WA0017500220
B1231183644130N00340418WA0017400219
B1231193644129N00340414WA0017300218
B1231203644129N00340411WA0017100217
B1231213644129N00340406WA0017100217
B1231223644131N00340402WA0017000215
B1231233644132N00340397WA0017000215
B1231243644133N00340392WA0017000215
B1231253644135N00340388WA0016900214
B1231263644138N00340385WA0016800213
B1231273644141N00340381WA0016700212
B1231283644144N00340378WA0016600212
B1231293644148N00340374WA0016600211
B1231303644152N00340371WA0016500211
B1231313644157N00340368WA0016500210
B1231323644161N00340366WA0016500210
B1231333644165N00340363WA0016400210
B1231343644170N00340361WA0016400209
B1231353644175N00340358WA0016400209
B1231363644179N00340356WA0016300208
B1231373644184N00340354WA0016200207
B1231383644188N00340352WA0016100207
B1231393644193N00340349WA0016100206
B1231403644197N00340346WA0016000205
B1231413644201N00340342WA0016000205
B1231423644205N00340339WA0015900205
B1231433644209N00340336WA0015800204
B1231443644214N00340334WA0015700203
B1231453644219N00340333WA0015600202
B1231463644224N00340331WA0015600202
B1231473644230N00340329WA0015600201
B1231483644234N00340328WA0015500200
B1231493644239N00340326WA0015400199
B1231503644244N00340324WA0015300198
B1231513644248N00340321WA0015200197
B1231523644253N00340319WA0015100196
B1231533644258N00340317WA0014900195
B1231543644263N00340315WA0014900194
B1231553644268N00340313WA0014800194
B1231563644271N00340309WA0014700193
B1231573644274N00340305WA0014600191
B1231583644275N00340300WA0014500190
B1231593644276N00340295WA0014400189
B1232003644276N00340291WA0014300188
B1232013644274N00340287WA0014200187
B1232023644271N00340286WA0014100186
B1232033644265N00340287WA0014100186
B1232043644261N00340289WA0014000185
B1232053644257N00340293WA0013900184
B1232063644253N00340297WA0013800183
B1232073644250N00340302WA0013700182
B1232083644247N00340307WA0013600182
B1232093644243N00340312WA0013500181
B1232103644240N00340317WA0013400180
B1232113644237N00340322WA0013400179
B1232123644233N00340326WA0013300178
B1232133644230N00340331WA0013200178
B1232143644226N00340335WA0013200178
B1232153644222N00340339WA0013200177
B1232163644218N00340342WA0013100177
B1232173644214N00340345WA0013000176
B1232183644210N00340348WA0013000175
B1232193644206N00340350WA0012900175
B1232203644203N00340352WA0012900174
B1232213644199N00340353WA0012900174
B1232223644195N00340353WA0012800174
B1232233644192N00340351WA0012800173
B1232243644190N00340349WA0012700173
B1232253644188N00340345WA0012700172
B1232263644187N00340341WA0012600171
B1232273644186N00340337WA0012400170
B1232283644187N00340332WA0012300168
B1232293644188N00340328WA0012200168
B1232303644190N00340323WA0012200167
B1232313644193N00340319WA0012100167
B1232323644197N00340315WA0012100167
B1232333644201N00340312WA0012000166
B1232343644204N00340308WA0012000165
B1232353644209N00340305WA0012000165
B1232363644212N00340302WA0011900164
B1232373644217N00340298WA0011800163
B1232383644220N00340294WA0011700162
B1232393644224N00340291WA0011600162
B1232403644228N00340287WA0011600161
B1232413644231N00340283WA0011500161
B1232423644235N00340279WA0011500160
B1232433644239N00340275WA0011400160
B1232443644243N00340272WA0011400159
B1232453644247N00340268WA0011300158
B1232463644252N00340265WA0011200157
B1232473644256N00340263WA0011000156
B1232483644260N00340259WA0010900155
B1232493644265N00340256WA0010800154
B1232503644269N00340253WA0010800154
B1232513644274N00340250WA0010800153
B1232523644278N00340247WA0010800153
B1232533644282N00340244WA0010700153
B1232543644287N00340241WA0010700152
B1232553644291N00340238WA0010600151
B1232563644296N00340236WA0010500151
B1232573644300N00340233WA0010400150
B1232583644304N00340230WA0010400149
B1232593644308N00340226WA0010300148
B1233003644312N00340223WA0010200147
B1233013644316N00340220WA0010100147
B1233023644320N00340216WA0010000146
B1233033644324N00340213WA0010000145
B1233043644328N00340210WA0009900145
B1233053644332N00340206WA0009900144
B1233063644336N00340203WA0009800143
B1233073644340N00340200WA0009700142
B1233083644344N00340197WA0009600141
B1233093644348N00340194WA0009500141
B1233103644353N00340191WA0009400140
B1233113644358N00340188WA0009400139
B1233123644363N00340185WA0009300139
B1233133644367N00340182WA0009300138
B1233143644371N00340179WA0009200137
B1233153644375N00340177WA0009100136
B1233163644380N00340173WA0009000136
B1233173644384N00340170WA0009000135
B1233183644388N00340167WA0008900135
B1233193644392N00340163WA0008900134
B1233203644396N00340160WA0008800133
B1233213644399N00340157WA0008700132
B1233223644404N00340154WA0008600132
B1233233644407N00340151WA0008500131
B1233243644410N00340147WA0008400130
B1233253644411N00340142WA0008300129
B1233263644410N00340137WA0008200127
B1233273644409N00340133WA0008200127
B1233283644405N00340132WA0008100127
B1233293644401N00340131WA0008100126
B1233303644397N00340132WA0008000126
B1233313644393N00340134WA0007900124
B1233323644390N00340137WA0007800124
B1233333644386N00340139WA0007800124
B1233343644382N00340143WA0007800123
B1233353644379N00340147WA0007700122
B1233363644375N00340150WA0007700122
B1233373644371N00340154WA0007500121
B1233383644368N00340157WA0007500120
B1233393644364N00340159WA0007500120
B1233403644360N00340162WA0007400120
B1233413644357N00340165WA0007300119
B1233423644353N00340167WA0007200118
B1233433644349N00340169WA0007100117
B1233443644345N00340172WA0007100116
B1233453644342N00340174WA0007100116
B1233463644338N00340177WA0007000116
B1233473644335N00340179WA0007000115
B1233483644331N00340182WA0006900114
B1233493644328N00340184WA0006800113
B1233503644324N00340186WA0006800113
B1233513644321N00340189WA0006800113
B1233523644318N00340191WA0006700112
B1233533644314N00340194WA0006600112
B1233543644311N00340197WA0006600112
B1233553644307N00340199WA0006600111
B1233563644303N00340200WA0006500111
B1233573644299N00340201WA0006500111
B1233583644296N00340200WA0006500111
B1233593644293N00340199WA0006500110
B1234003644290N00340198WA0006400110
B1234013644288N00340195WA0006300108
B1234023644287N00340191WA0006200108
B1234033644287N00340186WA0006200107
B1234043644287N00340182WA0006200107
B1234053644289N00340177WA0006100106
B1234063644292N00340173WA0006000106
B1234073644296N00340169WA0006000105
B1234083644301N00340166WA0005900104
B1234093644307N00340164WA0005800104
B1234103644312N00340162WA0005800103
B1234113644318N00340161WA0005700103
B1234123644324N00340161WA0005600102
B1234133644330N00340162WA0005600101
B1234143644336N00340162WA0005500100
B1234153644343N00340163WA0005400099
B1234163644349N00340163WA0005300099
B1234173644355N00340163WA0005300098
B1234183644362N00340162WA0005200098
B1234193644368N00340162WA0005200097
B1234203644374N00340161WA0005100096
B1234213644380N00340160WA0005100096
B1234223644385N00340158WA0005000096
B1234233644390N00340155WA0004900094
B1234243644394N00340151WA0004700093
B1234253644396N00340146WA0004700092
B1234263644397N00340140WA0004500090
B1234273644397N00340136WA0004400089
B1234283644394N00340133WA0004400089
B1234293644390N00340132WA0004300088
B1234303644387N00340132WA0004300088
B1234313644384N00340134WA0004200087
B1234323644381N00340137WA0004100087
B1234333644378N00340139WA0004100086
B1234343644375N00340142WA0004000086
B1234353644373N00340145WA0004000085
B1234363644370N00340149WA0004000085
B1234373644367N00340151WA0003900085
B1234383644365N00340154WA0003900084
B1234393644362N00340156WA0003800084
B1234403644360N00340157WA0003800083
B1234413644357N00340158WA0003700083
B1234423644354N00340159WA0003600081
B1234433644351N00340159WA0003500081
B1234443644348N00340159WA0003500080
B1234453644345N00340159WA0003500080
B1234463644342N00340158WA0003400080
B1234473644340N00340158WA0003300079
B1234483644337N00340158WA0003300078
B1234493644334N00340158WA0003200078
B1234503644331N00340158WA0003200077
B1234513644328N00340158WA0003100077
B1234523644325N00340158WA0003100076
B1234533644322N00340158WA0003100076
B1234543644319N00340158WA0003000076
B1234553644317N00340158WA0003000075
B1234563644315N00340156WA0002900074
B1234573644314N00340153WA0002800073
B1234583644314N00340150WA0002800073
B1234593644314N00340145WA0002800073
B1235003644314N00340140WA0002700073
B1235013644314N00340137WA0002600072
B1235023644314N00340133WA0002500070
B1235033644314N00340129WA0002400070
B1235043644313N00340126WA0002400069
B1235053644312N00340122WA0002400069
B1235063644311N00340119WA0002300069
B1235073644310N00340115WA0002300068
B1235083644309N00340112WA0002200067
B1235093644309N00340108WA0002100066
B1235103644309N00340104WA0002000065
B1235113644308N00340100WA0001900064
B1235123644308N00340096WA0001900064
B1235133644307N00340093WA0001800064
B1235143644307N00340089WA0001800063
B1235153644307N00340085WA0001700062
B1235163644307N00340081WA0001600061
B1235173644309N00340077WA0001400059
B1235183644312N00340073WA0001200058
B1235193644317N00340071WA0001100056
B1235203644323N00340069WA0001100056
B1235213644329N00340070WA0001100056
B1235223644335N00340072WA0001000056
B1235233644340N00340074WA0001000055
B1235243644345N00340078WA0000900054
B1235253644350N00340083WA0000700053
B1235263644355N00340088WA0000700052
B1235273644360N00340093WA0000600052
B1235283644366N00340097WA0000600051
B1235293644371N00340100WA0000500050
B1235303644377N00340101WA0000400049
B1235313644383N00340101WA0000300048
B1235323644389N00340098WA0000300048
B1235333644393N00340093WA0000200047
B1235343644396N00340087WA0000100047
B1235353644398N00340082WA0000100046
B1235363644399N00340078WA0000100046
B1235373644397N00340075WA0000000046
B1235383644395N00340073WA0000000045
B1235393644392N00340071WA-000100044
B1235403644390N00340070WA-000200043
B1235413644388N00340068WA-000300043
B1235423644386N00340066WA-000400041
B1235433644385N00340063WA-000500040
B1235443644386N00340058WA-000600040
B1235453644388N00340053WA-000700039
B1235463644392N00340049WA-000800038
B1235473644396N00340047WA-000800037
B1235483644402N00340045WA-000900036
B1235493644407N00340045WA-001000035
B1235503644414N00340046WA-001100035
B1235513644419N00340047WA-001100034
B1235523644425N00340049WA-001100034
B1235533644430N00340051WA-001200033
B1235543644436N00340053WA-001300032
B1235553644442N00340053WA-001400031
B1235563644447N00340052WA-001600029
B1235573644452N00340048WA-001800027
B1235583644454N00340043WA-001900026
B1235593644453N00340038WA-002000025
B1236003644450N00340036WA-002000025
B1236013644446N00340037WA-002100025
B1236023644444N00340039WA-002100025
B1236033644441N00340041WA-002100025
B1236043644440N00340042WA-002200023
B1236053644437N00340042WA-002300022
B1236063644434N00340042WA-002400022
B1236073644432N00340041WA-002500021
B1236083644429N00340038WA-002600020
B1236093644428N00340035WA-002700019
B1236103644428N00340030WA-002700018
B1236113644429N00340026WA-002700018
B1236123644428N00340022WA-002800017
B1236133644428N00340019WA-003000016
B1236143644427N00340015WA-003100014
B1236153644428N00340011WA-003200013
B1236163644429N00340006WA-003400012
B1236173644432N00340001WA-003400011
B1236183644435N00339997WA-003500010
B1236193644440N00339993WA-003600010
B1236203644444N00339991WA-003700008
B1236213644448N00339988WA-003800007
B1236223644454N00339986WA-003900007
B1236233644458N00339983WA-003900006
B1236243644463N00339980WA-004000005
B1236253644467N00339977WA-004200004
B1236263644471N00339974WA-004200003
B1236273644475N00339970WA-004300002
B1236283644478N00339966WA-004400001
B1236293644481N00339962WA-004500000
B1236303644485N00339958WA-0047-0001
B1236313644488N00339954WA-0048-0002
B1236323644492N00339950WA-0049-0003
B1236333644495N00339946WA-0051-0005
B1236343644497N00339941WA-0052-0007
B1236353644499N00339937WA-0053-0007
B1236363644501N00339933WA-0053-0008
B1236373644503N00339929WA-0053-0007
B1236383644504N00339925WA-0052-0007
B1236393644506N00339923WA-0053-0007
B1236403644507N00339922WA-0053-0007
B1236413644507N00339921WA-0053-0007
B1236423644507N00339922WA-0053-0007
B1236433644508N00339921WA-0052-0007
B1236443644508N00339922WA-0052-0007
B1236453644508N00339922WA-0052-0007
B1236463644508N00339922WA-0052-0007
B1236473644508N00339922WA-0052-0007
B1236483644508N00339923WA-0052-0007
B1236493644508N00339923WA-0052-0007
B1236503644508N00339923WA-0053-0007
B1236513644508N00339923WA-0053-0007
B1236523644508N00339923WA-0052-0007
B1236533644508N00339923WA-0052-0007
B1236543644508N00339923WA-0052-0007
B1236553644508N00339923WA-0052-0007
B1236563644508N00339923WA-0052-0007
B1236573644508N00339923WA-0052-0007
B1236583644508N00339923WA-0052-0007
B1236593644508N00339923WA-0052-0007
B1237003644508N00339923WA-0052-0007
B1237013644508N00339923WA-0052-0007
B1237023644508N00339923WA-0052-0007
B1237033644508N00339923WA-0052-0007
B1237043644508N00339923WA-0052-0007
B1237053644508N00339923WA-0052-0007
B1237063644508N00339923WA-0052-0007
B1237073644509N00339923WA-0052-0007
B1237083644509N00339923WA-0052-0007
B1237093644509N00339923WA-0052-0007
B1237103644509N00339923WA-0052-0007
B1237113644509N00339923WA-0052-0007
B1237123644509N00339923WA-0052-0007
B1237133644509N00339923WA-0052-0007
B1237143644510N00339923WA-0052-0007
B1237153644510N00339923WA-0052-0007
B1237163644510N00339923WA-0052-0007
B1237173644510N00339923WA-0052-0007
B1237183644510N00339923WA-0052-0007
B1237193644510N00339923WA-0052-0007
B1237203644510N00339923WA-0052-0007
B1237213644510N00339923WA-0052-0007
B1237223644510N00339923WA-0052-0007
B1237233644510N00339923WA-0052-0007
B1237243644510N00339923WA-0052-0007
B1237253644510N00339923WA-0052-0007
B1237263644510N00339923WA-0052-0007
B1237273644510N00339923WA-0052-0007
B1237283644510N00339923WA-0052-0007
B1237293644510N00339923WA-0053-0007
B1237303644510N00339923WA-0052-0007
B1237313644510N00339923WA-0052-0007
B1237323644510N00339923WA-0053-0007
B1237333644510N00339923WA-0052-0007
B1237343644510N00339923WA-0052-0007
B1237353644510N00339923WA-0052-0007
B1237363644510N00339923WA-0052-0007
B1237373644510N00339923WA-0052-0007
B1237383644510N00339923WA-0052-0007
B1237393644510N00339923WA-0053-0007
B1237403644510N00339923WA-0052-0007
B1237413644510N00339923WA-0052-0007
B1237423644510N00339923WA-0052-0007
B1237433644510N00339923WA-0052-0007
B1237443644510N00339923WA-0052-0007
B1237453644510N00339923WA-0052-0007
B1237463644510N00339923WA-0052-0006
B1237473644510N00339923WA-0052-0006
B1237483644510N00339923WA-0052-0007
B1237493644510N00339923WA-0052-0007
B1237503644510N00339923WA-0052-0007
B1237513644510N00339923WA-0052-0007
B1237523644510N00339923WA-0052-0007
B1237533644510N00339923WA-0052-0007
B1237543644510N00339923WA-0052-0007
B1237553644510N00339923WA-0052-0007
B1237563644510N00339923WA-0052-0006
LXSX;GF:1.4
G9447754EA61434B3F4F731CEA5F58599
