AXSX003 SKYTRAXX V3.0.8 SN:00000380
HOPLTPILOT:Sepp Bucher
HOGTYGLIDERTYPE:Sigma10
HOCIDCOMPETITIONID:0000
HODTM100GPSDATUM:WGS-84
HOCCLCOMPETITION CLASS:Paraglider (Standard)
HPSITSITE:Bellwald - Ried
HFDTE050817
B0855414626922N00809787EA0229202411
B0855424626922N00809787EA0229202411
B0855434626921N00809786EA0229002410
B0855444626920N00809785EA0228902409
B0855454626919N00809783EA0228702408
B0855464626919N00809780EA0228602407
B0855474626917N00809776EA0228702412
B0855484626914N00809772EA0228902418
B0855494626909N00809767EA0228602418
B0855504626903N00809764EA0228802423
B0855514626898N00809762EA0229002428
B0855524626894N00809761EA0229102429
B0855534626889N00809760EA0229102429
B0855544626884N00809760EA0229002428
B0855554626879N00809762EA0229002428
B0855564626874N00809763EA0228802426
B0855574626869N00809766EA0228702425
B0855584626864N00809768EA0228602424
B0855594626859N00809771EA0228402423
B0856004626853N00809775EA0228302422
B0856014626847N00809779EA0228302422
B0856024626842N00809783EA0228402422
B0856034626836N00809788EA0228302421
B0856044626832N00809792EA0228202421
B0856054626827N00809797EA0228102419
B0856064626822N00809802EA0228002419
B0856074626817N00809807EA0228002418
B0856084626813N00809813EA0227902418
B0856094626808N00809820EA0227902417
B0856104626804N00809827EA0227802416
B0856114626799N00809833EA0227602414
B0856124626795N00809840EA0227402412
B0856134626791N00809848EA0227202410
B0856144626786N00809856EA0227202410
B0856154626781N00809864EA0227102409
B0856164626777N00809873EA0226902407
B0856174626773N00809883EA0226702405
B0856184626770N00809892EA0226602404
B0856194626767N00809903EA0226602404
B0856204626763N00809913EA0226502404
B0856214626760N00809925EA0226402403
B0856224626757N00809935EA0226402402
B0856234626755N00809946EA0226202401
B0856244626752N00809956EA0226202400
B0856254626751N00809966EA0226102399
B0856264626749N00809977EA0225802397
B0856274626746N00809987EA0225702396
B0856284626745N00809997EA0225602395
B0856294626744N00810007EA0225702395
B0856304626742N00810017EA0225702396
B0856314626741N00810026EA0225602394
B0856324626741N00810034EA0225402392
B0856334626740N00810044EA0225202390
B0856344626740N00810052EA0224902388
B0856354626740N00810062EA0224802387
B0856364626742N00810070EA0224802387
B0856374626745N00810076EA0224902387
B0856384626747N00810085EA0224802387
B0856394626749N00810093EA0224702385
B0856404626751N00810101EA0224502384
B0856414626752N00810109EA0224402383
B0856424626754N00810118EA0224402382
B0856434626755N00810127EA0224402382
B0856444626757N00810136EA0224402382
B0856454626759N00810144EA0224302382
B0856464626762N00810152EA0224202381
B0856474626765N00810160EA0224202381
B0856484626768N00810168EA0224302381
B0856494626771N00810176EA0224302382
B0856504626774N00810183EA0224202381
B0856514626778N00810189EA0224002378
B0856524626782N00810195EA0223702376
B0856534626785N00810201EA0223502373
B0856544626789N00810208EA0223302371
B0856554626794N00810216EA0223202370
B0856564626798N00810225EA0223102369
B0856574626802N00810235EA0223102370
B0856584626806N00810245EA0223202370
B0856594626811N00810254EA0223002369
B0857004626815N00810263EA0223002369
B0857014626820N00810270EA0223002369
B0857024626824N00810277EA0223002369
B0857034626828N00810284EA0222902368
B0857044626833N00810290EA0222702366
B0857054626837N00810296EA0222602365
B0857064626841N00810302EA0222402362
B0857074626845N00810308EA0222202361
B0857084626848N00810315EA0222202361
B0857094626852N00810323EA0222302361
B0857104626855N00810331EA0222302362
B0857114626859N00810338EA0222402363
B0857124626863N00810343EA0222302362
B0857134626867N00810349EA0222102359
B0857144626872N00810352EA0221802357
B0857154626877N00810360EA0221602354
B0857164626881N00810369EA0221302352
B0857174626885N00810378EA0221202351
B0857184626888N00810386EA0221202350
B0857194626892N00810394EA0221002348
B0857204626896N00810402EA0220802347
B0857214626899N00810411EA0220702345
B0857224626902N00810421EA0220602344
B0857234626905N00810431EA0220702346
B0857244626908N00810440EA0220802347
B0857254626911N00810448EA0220902347
B0857264626914N00810456EA0220902347
B0857274626917N00810464EA0220802346
B0857284626920N00810472EA0220602345
B0857294626924N00810480EA0220602345
B0857304626929N00810489EA0220702346
B0857314626934N00810497EA0220802347
B0857324626938N00810505EA0220802347
B0857334626943N00810514EA0220702346
B0857344626948N00810521EA0220502344
B0857354626953N00810529EA0220302341
B0857364626958N00810537EA0220102339
B0857374626963N00810546EA0219902337
B0857384626968N00810554EA0219802336
B0857394626974N00810562EA0219702336
B0857404626979N00810572EA0219702335
B0857414626984N00810581EA0219602334
B0857424626989N00810590EA0219402333
B0857434626993N00810600EA0219302332
B0857444626998N00810609EA0219302331
B0857454627002N00810620EA0219302332
B0857464627007N00810629EA0219602335
B0857474627013N00810638EA0219902338
B0857484627018N00810646EA0220002338
B0857494627022N00810653EA0219902337
B0857504627027N00810659EA0219702336
B0857514627033N00810665EA0219702336
B0857524627038N00810673EA0219602335
B0857534627045N00810681EA0219602335
B0857544627050N00810688EA0219802337
B0857554627054N00810696EA0219902338
B0857564627058N00810705EA0220002338
B0857574627063N00810713EA0220002339
B0857584627068N00810721EA0220202341
B0857594627072N00810726EA0220402342
B0858004627076N00810730EA0220402343
B0858014627079N00810737EA0220402343
B0858024627081N00810744EA0220302342
B0858034627082N00810751EA0220302341
B0858044627082N00810758EA0220402342
B0858054627082N00810763EA0220402343
B0858064627082N00810768EA0220402343
B0858074627080N00810774EA0220402342
B0858084627076N00810777EA0220402343
B0858094627071N00810779EA0220502343
B0858104627066N00810777EA0220702345
B0858114627062N00810770EA0220702346
B0858124627058N00810766EA0220702346
B0858134627056N00810759EA0220702346
B0858144627054N00810751EA0220702346
B0858154627052N00810743EA0220802347
B0858164627055N00810733EA0220902348
B0858174627056N00810724EA0221102349
B0858184627060N00810716EA0221202350
B0858194627066N00810711EA0221202351
B0858204627071N00810709EA0221202350
B0858214627078N00810707EA0221202351
B0858224627085N00810706EA0221202351
B0858234627091N00810708EA0221202350
B0858244627096N00810712EA0221302351
B0858254627100N00810716EA0221402353
B0858264627103N00810720EA0221702355
B0858274627106N00810724EA0221902358
B0858284627108N00810727EA0222002359
B0858294627111N00810729EA0222002358
B0858304627112N00810734EA0221902357
B0858314627111N00810739EA0221802357
B0858324627111N00810745EA0221902357
B0858334627110N00810750EA0221902357
B0858344627108N00810754EA0221902358
B0858354627102N00810753EA0222002358
B0858364627096N00810752EA0221902358
B0858374627092N00810750EA0221802357
B0858384627088N00810748EA0221802356
B0858394627084N00810746EA0221702356
B0858404627081N00810741EA0221702356
B0858414627078N00810731EA0221702356
B0858424627075N00810724EA0221802356
B0858434627073N00810717EA0221702356
B0858444627073N00810711EA0221702355
B0858454627074N00810702EA0221602355
B0858464627077N00810697EA0221702355
B0858474627082N00810692EA0221902358
B0858484627087N00810689EA0222202360
B0858494627095N00810688EA0222302362
B0858504627101N00810686EA0222502363
B0858514627106N00810685EA0222502364
B0858524627112N00810684EA0222402363
B0858534627118N00810685EA0222102360
B0858544627122N00810688EA0221902358
B0858554627128N00810695EA0221702356
B0858564627131N00810703EA0221702356
B0858574627135N00810711EA0221702356
B0858584627138N00810719EA0221802356
B0858594627141N00810726EA0221802357
B0859004627144N00810733EA0221702355
B0859014627147N00810740EA0221602354
B0859024627151N00810749EA0221502353
B0859034627154N00810757EA0221502353
B0859044627157N00810766EA0221402353
B0859054627160N00810774EA0221302351
B0859064627162N00810781EA0221202350
B0859074627165N00810788EA0221102349
B0859084627168N00810794EA0220902348
B0859094627170N00810800EA0220802346
B0859104627173N00810806EA0220502344
B0859114627177N00810812EA0220302342
B0859124627182N00810818EA0220302342
B0859134627185N00810825EA0220302342
B0859144627188N00810832EA0220302341
B0859154627191N00810839EA0220202341
B0859164627193N00810844EA0220002339
B0859174627196N00810849EA0219702336
B0859184627199N00810854EA0219502334
B0859194627203N00810861EA0219502333
B0859204627206N00810868EA0219502334
B0859214627210N00810878EA0219802337
B0859224627214N00810885EA0219902338
B0859234627218N00810890EA0219902337
B0859244627222N00810895EA0219702336
B0859254627227N00810898EA0219602334
B0859264627231N00810903EA0219502334
B0859274627234N00810909EA0219602335
B0859284627238N00810917EA0219802336
B0859294627241N00810924EA0219802336
B0859304627245N00810929EA0219702335
B0859314627249N00810934EA0219402333
B0859324627253N00810938EA0219302332
B0859334627256N00810945EA0219302332
B0859344627259N00810952EA0219402332
B0859354627263N00810959EA0219502333
B0859364627266N00810967EA0219502334
B0859374627269N00810973EA0219502333
B0859384627272N00810979EA0219402333
B0859394627275N00810986EA0219402333
B0859404627278N00810993EA0219602334
B0859414627281N00811001EA0219602335
B0859424627284N00811008EA0219702336
B0859434627288N00811014EA0219802337
B0859444627291N00811020EA0219802337
B0859454627295N00811026EA0219802336
B0859464627298N00811032EA0219702336
B0859474627301N00811039EA0219702335
B0859484627304N00811045EA0219702336
B0859494627307N00811053EA0219802336
B0859504627310N00811062EA0219802337
B0859514627313N00811068EA0219702336
B0859524627317N00811074EA0219502334
B0859534627320N00811079EA0219202331
B0859544627323N00811085EA0218902328
B0859554627326N00811093EA0218702326
B0859564627330N00811103EA0218702326
B0859574627334N00811114EA0218802327
B0859584627337N00811122EA0218902328
B0859594627341N00811130EA0218902327
B0900004627344N00811137EA0218702326
B0900014627348N00811143EA0218502324
B0900024627352N00811150EA0218402323
B0900034627356N00811158EA0218402323
B0900044627360N00811165EA0218402322
B0900054627363N00811173EA0218202321
B0900064627367N00811179EA0217902318
B0900074627371N00811186EA0217602315
B0900084627375N00811192EA0217402312
B0900094627379N00811199EA0217202311
B0900104627383N00811205EA0217202311
B0900114627387N00811212EA0217202311
B0900124627391N00811218EA0217202310
B0900134627395N00811224EA0217202310
B0900144627398N00811230EA0217102310
B0900154627401N00811237EA0217302311
B0900164627405N00811244EA0217602315
B0900174627409N00811251EA0218002318
B0900184627412N00811256EA0218202320
B0900194627415N00811262EA0218302321
B0900204627418N00811267EA0218302322
B0900214627421N00811272EA0218202321
B0900224627425N00811277EA0218202321
B0900234627430N00811281EA0218202321
B0900244627434N00811287EA0218402322
B0900254627438N00811292EA0218502324
B0900264627441N00811299EA0218502324
B0900274627444N00811305EA0218502323
B0900284627446N00811312EA0218502323
B0900294627448N00811319EA0218402322
B0900304627450N00811326EA0218202321
B0900314627450N00811334EA0218202320
B0900324627448N00811341EA0218202321
B0900334627443N00811345EA0218302321
B0900344627436N00811346EA0218302321
B0900354627430N00811346EA0218302322
B0900364627426N00811342EA0218402323
B0900374627421N00811338EA0218802326
B0900384627417N00811333EA0219002328
B0900394627414N00811326EA0219202330
B0900404627412N00811319EA0219402333
B0900414627415N00811311EA0219602335
B0900424627419N00811305EA0219802336
B0900434627423N00811300EA0219802337
B0900444627427N00811296EA0219702336
B0900454627430N00811294EA0219602335
B0900464627434N00811294EA0219502334
B0900474627440N00811303EA0219402332
B0900484627441N00811312EA0219302331
B0900494627440N00811320EA0219402333
B0900504627439N00811329EA0219602335
B0900514627436N00811335EA0219702335
B0900524627432N00811339EA0219702335
B0900534627428N00811341EA0219602335
B0900544627424N00811340EA0219702336
B0900554627421N00811336EA0219902337
B0900564627417N00811331EA0220102340
B0900574627414N00811325EA0220402343
B0900584627410N00811320EA0220802347
B0900594627408N00811314EA0221002349
B0901004627408N00811308EA0221102350
B0901014627408N00811302EA0221302351
B0901024627409N00811295EA0221502354
B0901034627412N00811288EA0221802357
B0901044627418N00811282EA0222002358
B0901054627423N00811278EA0222102359
B0901064627429N00811277EA0222102360
B0901074627434N00811280EA0222102359
B0901084627438N00811285EA0222002358
B0901094627441N00811291EA0221802356
B0901104627443N00811299EA0221702356
B0901114627444N00811307EA0221702356
B0901124627443N00811315EA0221702356
B0901134627442N00811322EA0221802356
B0901144627439N00811328EA0222002358
B0901154627435N00811332EA0222302362
B0901164627431N00811334EA0222702366
B0901174627425N00811336EA0223102369
B0901184627422N00811335EA0223402372
B0901194627421N00811323EA0223402373
B0901204627418N00811318EA0223402372
B0901214627415N00811314EA0223402373
B0901224627411N00811308EA0223602375
B0901234627409N00811303EA0223702376
B0901244627407N00811297EA0223802376
B0901254627406N00811293EA0223702375
B0901264627405N00811287EA0223502373
B0901274627406N00811284EA0223202371
B0901284627409N00811278EA0223302371
B0901294627415N00811274EA0223502373
B0901304627422N00811271EA0223802376
B0901314627429N00811272EA0224102380
B0901324627435N00811275EA0224402382
B0901334627440N00811279EA0224602385
B0901344627444N00811285EA0224702385
B0901354627446N00811292EA0224802386
B0901364627448N00811298EA0224802386
B0901374627449N00811305EA0224802387
B0901384627448N00811311EA0224802387
B0901394627447N00811317EA0224902387
B0901404627441N00811320EA0224902388
B0901414627436N00811320EA0225202391
B0901424627431N00811318EA0225502394
B0901434627428N00811315EA0225702396
B0901444627426N00811312EA0225902398
B0901454627425N00811307EA0226002398
B0901464627423N00811302EA0226002398
B0901474627422N00811297EA0226102400
B0901484627424N00811291EA0226202401
B0901494627428N00811287EA0226502404
B0901504627434N00811283EA0226802407
B0901514627440N00811281EA0227002409
B0901524627446N00811282EA0227102409
B0901534627452N00811286EA0227202410
B0901544627458N00811292EA0227202410
B0901554627461N00811300EA0227302411
B0901564627464N00811307EA0227302411
B0901574627466N00811315EA0227102409
B0901584627465N00811323EA0227102409
B0901594627461N00811327EA0227102409
B0902004627456N00811330EA0227202411
B0902014627449N00811332EA0227402412
B0902024627443N00811332EA0227502414
B0902034627439N00811328EA0227702416
B0902044627433N00811325EA0228002418
B0902054627430N00811319EA0228202420
B0902064627428N00811313EA0228102420
B0902074627426N00811309EA0227902418
B0902084627425N00811303EA0227802416
B0902094627424N00811298EA0227702415
B0902104627425N00811292EA0227602415
B0902114627427N00811286EA0227502414
B0902124627430N00811283EA0227302412
B0902134627434N00811282EA0227302411
B0902144627440N00811282EA0227202411
B0902154627448N00811286EA0227302411
B0902164627455N00811289EA0227202411
B0902174627461N00811294EA0227402413
B0902184627467N00811300EA0227602415
B0902194627472N00811308EA0227802417
B0902204627474N00811316EA0227902418
B0902214627476N00811324EA0227902418
B0902224627476N00811331EA0227902417
B0902234627474N00811336EA0227902418
B0902244627470N00811338EA0228002419
B0902254627464N00811337EA0228302421
B0902264627461N00811334EA0228502423
B0902274627457N00811331EA0228702425
B0902284627455N00811326EA0228802427
B0902294627455N00811319EA0229002428
B0902304627456N00811312EA0229002428
B0902314627456N00811306EA0228902428
B0902324627460N00811298EA0228802427
B0902334627470N00811298EA0229102429
B0902344627477N00811302EA0229402432
B0902354627483N00811308EA0229702435
B0902364627485N00811316EA0229802436
B0902374627487N00811323EA0229702436
B0902384627487N00811330EA0229602435
B0902394627487N00811337EA0229702435
B0902404627485N00811343EA0229802436
B0902414627480N00811346EA0229802437
B0902424627475N00811347EA0230002438
B0902434627471N00811346EA0230102439
B0902444627466N00811345EA0230202441
B0902454627461N00811342EA0230402443
B0902464627459N00811337EA0230602444
B0902474627458N00811332EA0230502444
B0902484627458N00811325EA0230302442
B0902494627456N00811318EA0230102439
B0902504627457N00811311EA0230002438
B0902514627459N00811306EA0229902437
B0902524627463N00811302EA0229902438
B0902534627470N00811303EA0229902438
B0902544627480N00811307EA0230102439
B0902554627488N00811314EA0230402442
B0902564627492N00811320EA0230502443
B0902574627495N00811328EA0230402442
B0902584627495N00811334EA0230302442
B0902594627495N00811341EA0230302441
B0903004627495N00811349EA0230302442
B0903014627494N00811356EA0230402442
B0903024627492N00811362EA0230402442
B0903034627491N00811368EA0230502443
B0903044627488N00811373EA0230502443
B0903054627484N00811376EA0230502444
B0903064627480N00811377EA0230502444
B0903074627475N00811377EA0230602445
B0903084627470N00811377EA0230802446
B0903094627466N00811375EA0230802446
B0903104627461N00811372EA0230702446
B0903114627460N00811367EA0230502444
B0903124627458N00811362EA0230202440
B0903134627455N00811357EA0229702436
B0903144627456N00811350EA0229302432
B0903154627456N00811342EA0229202431
B0903164627459N00811335EA0229102430
B0903174627462N00811330EA0228902427
B0903184627468N00811329EA0228702426
B0903194627476N00811332EA0228602425
B0903204627483N00811338EA0228602424
B0903214627491N00811345EA0228502424
B0903224627499N00811354EA0228502424
B0903234627506N00811363EA0228502424
B0903244627512N00811373EA0228702425
B0903254627517N00811382EA0228702426
B0903264627522N00811390EA0228802427
B0903274627526N00811397EA0228902427
B0903284627530N00811403EA0228802426
B0903294627533N00811408EA0228702425
B0903304627536N00811414EA0228502424
B0903314627540N00811421EA0228302421
B0903324627543N00811429EA0228202421
B0903334627547N00811436EA0228402423
B0903344627551N00811445EA0228702425
B0903354627555N00811453EA0228902427
B0903364627560N00811457EA0229102430
B0903374627564N00811461EA0229202431
B0903384627569N00811465EA0229202430
B0903394627573N00811469EA0229002428
B0903404627577N00811472EA0228802426
B0903414627582N00811478EA0228602425
B0903424627585N00811484EA0228502424
B0903434627588N00811492EA0228602424
B0903444627591N00811499EA0228602425
B0903454627595N00811505EA0228602424
B0903464627598N00811510EA0228402423
B0903474627601N00811515EA0228202421
B0903484627604N00811522EA0228202421
B0903494627607N00811529EA0228302421
B0903504627611N00811538EA0228502423
B0903514627615N00811546EA0228702425
B0903524627620N00811552EA0228802427
B0903534627623N00811559EA0228802427
B0903544627626N00811565EA0228702426
B0903554627630N00811570EA0228602425
B0903564627634N00811578EA0228502424
B0903574627638N00811585EA0228502423
B0903584627641N00811593EA0228502424
B0903594627643N00811601EA0228502424
B0904004627645N00811609EA0228502423
B0904014627647N00811617EA0228202421
B0904024627648N00811625EA0228102420
B0904034627650N00811633EA0228202420
B0904044627652N00811642EA0228202420
B0904054627654N00811650EA0228302421
B0904064627656N00811657EA0228202421
B0904074627658N00811664EA0228102420
B0904084627660N00811672EA0227902417
B0904094627662N00811680EA0227802417
B0904104627663N00811688EA0227902417
B0904114627665N00811696EA0227802416
B0904124627667N00811703EA0227602415
B0904134627668N00811712EA0227602414
B0904144627670N00811721EA0227502414
B0904154627672N00811730EA0227702416
B0904164627675N00811738EA0227802416
B0904174627677N00811745EA0227702416
B0904184627680N00811752EA0227602414
B0904194627682N00811759EA0227402413
B0904204627684N00811767EA0227302411
B0904214627686N00811776EA0227302411
B0904224627688N00811784EA0227102410
B0904234627691N00811792EA0226902408
B0904244627695N00811799EA0226802407
B0904254627699N00811806EA0226702406
B0904264627702N00811814EA0226702406
B0904274627705N00811823EA0226702405
B0904284627708N00811831EA0226602405
B0904294627710N00811839EA0226502403
B0904304627713N00811846EA0226302401
B0904314627717N00811854EA0226102399
B0904324627721N00811862EA0225902398
B0904334627724N00811870EA0225802397
B0904344627727N00811878EA0225702395
B0904354627731N00811885EA0225502393
B0904364627734N00811892EA0225402392
B0904374627738N00811899EA0225202390
B0904384627743N00811906EA0225102389
B0904394627747N00811913EA0225002389
B0904404627751N00811920EA0225102389
B0904414627756N00811928EA0225002389
B0904424627759N00811935EA0224902387
B0904434627763N00811942EA0224702386
B0904444627767N00811949EA0224602384
B0904454627771N00811955EA0224402383
B0904464627775N00811962EA0224302381
B0904474627780N00811969EA0224102379
B0904484627784N00811977EA0223902378
B0904494627789N00811984EA0223802377
B0904504627793N00811992EA0223802376
B0904514627797N00812000EA0223702376
B0904524627801N00812007EA0223702376
B0904534627805N00812014EA0223602375
B0904544627809N00812021EA0223502374
B0904554627812N00812027EA0223402373
B0904564627816N00812033EA0223202371
B0904574627820N00812040EA0223202370
B0904584627825N00812047EA0223202370
B0904594627829N00812055EA0223202371
B0905004627833N00812063EA0223402372
B0905014627837N00812070EA0223402372
B0905024627841N00812076EA0223202371
B0905034627845N00812083EA0223102370
B0905044627848N00812089EA0223002368
B0905054627851N00812097EA0223002368
B0905064627855N00812104EA0222902367
B0905074627858N00812111EA0222902367
B0905084627862N00812119EA0222902368
B0905094627866N00812126EA0222902368
B0905104627870N00812132EA0222802367
B0905114627873N00812138EA0222602365
B0905124627877N00812144EA0222502363
B0905134627881N00812151EA0222302361
B0905144627886N00812158EA0222302361
B0905154627890N00812166EA0222302362
B0905164627894N00812173EA0222402362
B0905174627898N00812180EA0222402362
B0905184627902N00812187EA0222202361
B0905194627906N00812193EA0222002358
B0905204627910N00812200EA0221702355
B0905214627914N00812209EA0221402352
B0905224627918N00812217EA0221102350
B0905234627922N00812225EA0221002349
B0905244627927N00812232EA0220902348
B0905254627932N00812239EA0220702346
B0905264627935N00812246EA0220502343
B0905274627939N00812253EA0220202341
B0905284627943N00812260EA0220002339
B0905294627947N00812268EA0219802337
B0905304627952N00812275EA0219802336
B0905314627956N00812282EA0219602335
B0905324627960N00812289EA0219502333
B0905334627964N00812296EA0219202331
B0905344627968N00812304EA0219002329
B0905354627972N00812311EA0218802327
B0905364627976N00812319EA0218702325
B0905374627981N00812327EA0218602324
B0905384627986N00812334EA0218402323
B0905394627990N00812342EA0218302322
B0905404627995N00812351EA0218102319
B0905414628000N00812358EA0217902318
B0905424628004N00812366EA0217802317
B0905434628009N00812374EA0217702315
B0905444628014N00812381EA0217502314
B0905454628019N00812388EA0217402312
B0905464628024N00812395EA0217202310
B0905474628029N00812402EA0217102309
B0905484628035N00812409EA0216902308
B0905494628041N00812416EA0216802307
B0905504628046N00812422EA0216802307
B0905514628052N00812429EA0216902307
B0905524628057N00812435EA0216802307
B0905534628062N00812441EA0216802306
B0905544628066N00812447EA0216602305
B0905554628070N00812453EA0216402303
B0905564628075N00812460EA0216302302
B0905574628079N00812468EA0216302302
B0905584628084N00812475EA0216302301
B0905594628089N00812481EA0216202301
B0906004628094N00812486EA0216202300
B0906014628099N00812491EA0216002299
B0906024628103N00812497EA0215902298
B0906034628109N00812502EA0215802297
B0906044628114N00812508EA0215702296
B0906054628119N00812513EA0215702296
B0906064628124N00812519EA0215702295
B0906074628129N00812524EA0215602295
B0906084628134N00812530EA0215502293
B0906094628139N00812536EA0215402293
B0906104628144N00812541EA0215402292
B0906114628148N00812547EA0215202291
B0906124628154N00812552EA0215102290
B0906134628160N00812557EA0215002289
B0906144628165N00812562EA0214902288
B0906154628170N00812566EA0214902288
B0906164628176N00812571EA0214802287
B0906174628181N00812576EA0214702285
B0906184628187N00812580EA0214502284
B0906194628191N00812585EA0214402283
B0906204628196N00812591EA0214302281
B0906214628201N00812598EA0214102279
B0906224628205N00812605EA0214002278
B0906234628209N00812613EA0214002279
B0906244628212N00812621EA0214102279
B0906254628216N00812628EA0214202280
B0906264628219N00812636EA0214402282
B0906274628222N00812642EA0214402283
B0906284628225N00812648EA0214402282
B0906294628229N00812654EA0214302281
B0906304628233N00812660EA0214302281
B0906314628238N00812665EA0214402283
B0906324628242N00812671EA0214702285
B0906334628247N00812677EA0214902287
B0906344628250N00812682EA0214902287
B0906354628253N00812688EA0214802287
B0906364628255N00812695EA0214702286
B0906374628258N00812703EA0214802286
B0906384628259N00812711EA0214802287
B0906394628260N00812721EA0214902288
B0906404628259N00812730EA0215002289
B0906414628257N00812738EA0215002289
B0906424628253N00812743EA0215102289
B0906434628247N00812748EA0215102290
B0906444628243N00812750EA0215202290
B0906454628238N00812750EA0215102290
B0906464628233N00812749EA0215002288
B0906474628231N00812744EA0215002289
B0906484628228N00812738EA0215002289
B0906494628228N00812732EA0215102289
B0906504628228N00812726EA0215102289
B0906514628228N00812721EA0215002289
B0906524628231N00812715EA0215102289
B0906534628233N00812710EA0215102290
B0906544628237N00812706EA0215002289
B0906554628242N00812704EA0215002288
B0906564628247N00812703EA0215102289
B0906574628253N00812701EA0215102290
B0906584628259N00812702EA0215202291
B0906594628265N00812704EA0215302291
B0907004628271N00812707EA0215302292
B0907014628275N00812711EA0215402292
B0907024628280N00812716EA0215402292
B0907034628285N00812721EA0215302292
B0907044628289N00812728EA0215302292
B0907054628293N00812734EA0215202291
B0907064628297N00812741EA0215202291
B0907074628302N00812748EA0215302291
B0907084628306N00812754EA0215302292
B0907094628310N00812760EA0215402292
B0907104628315N00812766EA0215502293
B0907114628319N00812771EA0215502294
B0907124628323N00812775EA0215602294
B0907134628328N00812780EA0215502294
B0907144628332N00812784EA0215402293
B0907154628335N00812790EA0215302292
B0907164628339N00812796EA0215302291
B0907174628343N00812802EA0215102290
B0907184628347N00812809EA0215002289
B0907194628351N00812815EA0215002288
B0907204628356N00812821EA0214902287
B0907214628361N00812826EA0214702286
B0907224628366N00812831EA0214702286
B0907234628372N00812836EA0214702286
B0907244628377N00812840EA0214802287
B0907254628382N00812844EA0214702286
B0907264628387N00812848EA0214702285
B0907274628392N00812851EA0214502284
B0907284628397N00812853EA0214302282
B0907294628401N00812857EA0214002279
B0907304628407N00812860EA0213802276
B0907314628413N00812864EA0213602274
B0907324628418N00812868EA0213302272
B0907334628424N00812873EA0213102269
B0907344628430N00812877EA0213102270
B0907354628437N00812883EA0213202270
B0907364628443N00812887EA0213202271
B0907374628449N00812891EA0213202270
B0907384628456N00812893EA0213202270
B0907394628462N00812895EA0213102270
B0907404628468N00812898EA0213102270
B0907414628475N00812902EA0213102270
B0907424628481N00812906EA0213202270
B0907434628487N00812911EA0213302271
B0907444628494N00812916EA0213302272
B0907454628499N00812920EA0213402273
B0907464628504N00812925EA0213402273
B0907474628509N00812929EA0213302272
B0907484628514N00812933EA0213202271
B0907494628518N00812936EA0213202270
B0907504628524N00812941EA0213102270
B0907514628529N00812946EA0213202270
B0907524628534N00812952EA0213302272
B0907534628538N00812956EA0213402272
B0907544628542N00812960EA0213302272
B0907554628547N00812964EA0213302272
B0907564628553N00812967EA0213302272
B0907574628558N00812971EA0213302271
B0907584628563N00812974EA0213202270
B0907594628567N00812978EA0213002269
B0908004628572N00812983EA0212802266
B0908014628576N00812988EA0212602264
B0908024628579N00812994EA0212402262
B0908034628583N00813001EA0212402262
B0908044628586N00813008EA0212602264
B0908054628589N00813017EA0212802267
B0908064628592N00813024EA0213002269
B0908074628595N00813030EA0213102270
B0908084628599N00813035EA0213202270
B0908094628603N00813040EA0213202271
B0908104628607N00813046EA0213202271
B0908114628611N00813053EA0213302272
B0908124628615N00813059EA0213402272
B0908134628618N00813065EA0213302272
B0908144628619N00813072EA0213102270
B0908154628618N00813078EA0213002269
B0908164628615N00813082EA0213102269
B0908174628611N00813083EA0213102270
B0908184628607N00813083EA0213202270
B0908194628605N00813080EA0213102270
B0908204628603N00813075EA0213102270
B0908214628601N00813069EA0213202270
B0908224628600N00813063EA0213402272
B0908234628599N00813055EA0213602275
B0908244628600N00813048EA0213602275
B0908254628601N00813040EA0213502274
B0908264628603N00813033EA0213502273
B0908274628605N00813025EA0213502274
B0908284628608N00813019EA0213502273
B0908294628614N00813014EA0213502273
B0908304628621N00813010EA0213602274
B0908314628627N00813007EA0213702275
B0908324628634N00813004EA0213702275
B0908334628642N00813003EA0213502274
B0908344628649N00813005EA0213502273
B0908354628655N00813008EA0213602274
B0908364628662N00813011EA0213502274
B0908374628667N00813017EA0213402273
B0908384628670N00813024EA0213402273
B0908394628673N00813031EA0213502274
B0908404628676N00813037EA0213502273
B0908414628677N00813044EA0213402273
B0908424628679N00813050EA0213302272
B0908434628680N00813055EA0213102270
B0908444628681N00813061EA0212902267
B0908454628681N00813068EA0212702265
B0908464628681N00813076EA0212602265
B0908474628681N00813084EA0212602265
B0908484628682N00813092EA0212502264
B0908494628684N00813099EA0212402263
B0908504628685N00813107EA0212302262
B0908514628685N00813114EA0212202261
B0908524628685N00813122EA0212202261
B0908534628685N00813130EA0212202261
B0908544628686N00813138EA0212102260
B0908554628686N00813145EA0212102259
B0908564628686N00813153EA0212102260
B0908574628687N00813160EA0212102259
B0908584628688N00813167EA0212002258
B0908594628689N00813175EA0211902258
B0909004628689N00813182EA0212002258
B0909014628689N00813189EA0212002259
B0909024628690N00813196EA0211902258
B0909034628691N00813202EA0211802256
B0909044628693N00813206EA0211602255
B0909054628694N00813212EA0211402253
B0909064628696N00813219EA0211202251
B0909074628697N00813227EA0211202250
B0909084628698N00813235EA0211202251
B0909094628698N00813244EA0211202250
B0909104628698N00813250EA0211002249
B0909114628698N00813257EA0210702246
B0909124628699N00813264EA0210402243
B0909134628699N00813272EA0210202240
B0909144628700N00813281EA0210102239
B0909154628701N00813290EA0210002238
B0909164628702N00813299EA0209902238
B0909174628703N00813307EA0209702236
B0909184628704N00813314EA0209502233
B0909194628706N00813322EA0209202231
B0909204628707N00813330EA0209002229
B0909214628708N00813339EA0208902228
B0909224628710N00813348EA0208902228
B0909234628711N00813356EA0208802227
B0909244628712N00813364EA0208702225
B0909254628713N00813373EA0208402223
B0909264628714N00813382EA0208202221
B0909274628715N00813391EA0208102219
B0909284628716N00813400EA0207902218
B0909294628717N00813410EA0207902217
B0909304628718N00813418EA0207902218
B0909314628719N00813426EA0207902218
B0909324628721N00813434EA0207802217
B0909334628723N00813442EA0207702216
B0909344628725N00813450EA0207702216
B0909354628727N00813457EA0207602215
B0909364628729N00813465EA0207602215
B0909374628729N00813473EA0207602215
B0909384628731N00813481EA0207502214
B0909394628732N00813489EA0207402213
B0909404628733N00813497EA0207402212
B0909414628735N00813505EA0207302212
B0909424628736N00813513EA0207402213
B0909434628738N00813521EA0207402213
B0909444628740N00813528EA0207302211
B0909454628742N00813534EA0207102209
B0909464628744N00813539EA0206802206
B0909474628747N00813546EA0206602205
B0909484628750N00813555EA0206502203
B0909494628753N00813563EA0206402203
B0909504628756N00813571EA0206302202
B0909514628758N00813579EA0206202200
B0909524628761N00813586EA0206002199
B0909534628763N00813594EA0206002199
B0909544628766N00813601EA0205902198
B0909554628769N00813609EA0205902197
B0909564628773N00813616EA0205902197
B0909574628776N00813623EA0205902197
B0909584628779N00813630EA0205902197
B0909594628782N00813638EA0205902197
B0910004628785N00813645EA0205902197
B0910014628788N00813653EA0205902198
B0910024628792N00813660EA0206002198
B0910034628796N00813666EA0205902197
B0910044628800N00813673EA0205802196
B0910054628804N00813680EA0205702195
B0910064628808N00813687EA0205602194
B0910074628811N00813694EA0205402193
B0910084628816N00813701EA0205102190
B0910094628820N00813709EA0205102189
B0910104628824N00813716EA0204902188
B0910114628829N00813723EA0204902187
B0910124628833N00813730EA0204802186
B0910134628838N00813737EA0204702186
B0910144628843N00813743EA0204702186
B0910154628848N00813750EA0204702185
B0910164628853N00813757EA0204602185
B0910174628857N00813764EA0204602185
B0910184628861N00813771EA0204502184
B0910194628866N00813779EA0204602184
B0910204628871N00813786EA0204602184
B0910214628876N00813794EA0204802187
B0910224628881N00813800EA0205002189
B0910234628886N00813806EA0205202191
B0910244628891N00813811EA0205502193
B0910254628896N00813816EA0205602195
B0910264628901N00813819EA0205802196
B0910274628906N00813822EA0206002199
B0910284628910N00813825EA0206102199
B0910294628914N00813827EA0206002199
B0910304628917N00813830EA0206002199
B0910314628919N00813835EA0206002199
B0910324628922N00813841EA0206002199
B0910334628924N00813848EA0206202201
B0910344628925N00813856EA0206302202
B0910354628925N00813863EA0206402202
B0910364628923N00813869EA0206402202
B0910374628918N00813872EA0206402202
B0910384628913N00813872EA0206502204
B0910394628908N00813871EA0206702206
B0910404628903N00813869EA0207102209
B0910414628900N00813865EA0207402212
B0910424628900N00813860EA0207502214
B0910434628902N00813855EA0207602215
B0910444628904N00813851EA0207702216
B0910454628907N00813847EA0207702216
B0910464628912N00813843EA0207802217
B0910474628917N00813840EA0208002218
B0910484628924N00813838EA0208102219
B0910494628931N00813839EA0208202221
B0910504628936N00813843EA0208202221
B0910514628941N00813848EA0208202221
B0910524628942N00813855EA0208202221
B0910534628943N00813862EA0208202220
B0910544628943N00813869EA0208002219
B0910554628942N00813875EA0207902218
B0910564628941N00813883EA0207902218
B0910574628938N00813890EA0208102220
B0910584628935N00813895EA0208202220
B0910594628930N00813899EA0208202221
B0911004628926N00813900EA0208202221
B0911014628921N00813900EA0208502223
B0911024628917N00813897EA0208602224
B0911034628913N00813895EA0208602225
B0911044628911N00813893EA0208702225
B0911054628909N00813890EA0208702226
B0911064628907N00813885EA0208702225
B0911074628906N00813880EA0208702226
B0911084628906N00813874EA0208902227
B0911094628907N00813868EA0209002229
B0911104628908N00813863EA0209102230
B0911114628912N00813859EA0209102230
B0911124628916N00813856EA0209202231
B0911134628921N00813854EA0209402232
B0911144628929N00813853EA0209502233
B0911154628935N00813853EA0209502234
B0911164628943N00813855EA0209602235
B0911174628950N00813859EA0209802236
B0911184628956N00813865EA0209902237
B0911194628960N00813872EA0209802237
B0911204628961N00813879EA0209702236
B0911214628962N00813886EA0209702236
B0911224628961N00813893EA0209702235
B0911234628958N00813898EA0209602235
B0911244628954N00813902EA0209602235
B0911254628950N00813904EA0209702236
B0911264628946N00813905EA0209902238
B0911274628941N00813905EA0210002239
B0911284628938N00813904EA0210202241
B0911294628936N00813902EA0210402242
B0911304628933N00813901EA0210502243
B0911314628930N00813900EA0210502243
B0911324628927N00813898EA0210602244
B0911334628924N00813897EA0210702245
B0911344628920N00813894EA0210802247
B0911354628917N00813891EA0211002248
B0911364628915N00813888EA0211102250
B0911374628913N00813885EA0211202251
B0911384628912N00813882EA0211202251
B0911394628911N00813878EA0211202251
B0911404628914N00813873EA0211302251
B0911414628917N00813869EA0211402252
B0911424628921N00813866EA0211302252
B0911434628926N00813867EA0211302252
B0911444628931N00813870EA0211302252
B0911454628938N00813879EA0211202251
B0911464628943N00813887EA0211402252
B0911474628946N00813898EA0211402253
B0911484628949N00813908EA0211702255
B0911494628951N00813918EA0212002258
B0911504628953N00813927EA0212102259
B0911514628953N00813934EA0212002258
B0911524628952N00813942EA0211902258
B0911534628950N00813949EA0212002259
B0911544628946N00813955EA0212002258
B0911554628941N00813956EA0212002258
B0911564628937N00813956EA0212002258
B0911574628933N00813955EA0211902258
B0911584628929N00813952EA0211902257
B0911594628927N00813949EA0211902258
B0912004628924N00813945EA0211902258
B0912014628922N00813941EA0212002258
B0912024628921N00813937EA0212002259
B0912034628920N00813932EA0212002259
B0912044628919N00813928EA0212002259
B0912054628916N00813925EA0212102260
B0912064628913N00813921EA0212202261
B0912074628909N00813918EA0212302261
B0912084628905N00813916EA0212202261
B0912094628903N00813915EA0212102260
B0912104628900N00813914EA0211902257
B0912114628898N00813912EA0211602254
B0912124628897N00813908EA0211402252
B0912134628897N00813901EA0211402252
B0912144628898N00813894EA0211402253
B0912154628900N00813888EA0211502253
B0912164628901N00813883EA0211402253
B0912174628903N00813878EA0211302252
B0912184628904N00813872EA0211202251
B0912194628906N00813866EA0211302252
B0912204628908N00813859EA0211602254
B0912214628911N00813853EA0211802256
B0912224628913N00813847EA0212002258
B0912234628917N00813844EA0212102259
B0912244628920N00813842EA0212102259
B0912254628923N00813838EA0212102259
B0912264628927N00813835EA0212002258
B0912274628933N00813831EA0212102259
B0912284628939N00813830EA0212302262
B0912294628945N00813831EA0212502264
B0912304628951N00813834EA0212702266
B0912314628956N00813839EA0212902268
B0912324628960N00813846EA0213002268
B0912334628961N00813853EA0213002268
B0912344628961N00813861EA0213102269
B0912354628961N00813867EA0213202271
B0912364628959N00813874EA0213402272
B0912374628955N00813877EA0213702275
B0912384628953N00813880EA0214002279
B0912394628951N00813879EA0214402282
B0912404628949N00813875EA0214502284
B0912414628948N00813871EA0214502284
B0912424628948N00813866EA0214502283
B0912434628948N00813862EA0214502284
B0912444628948N00813857EA0214602284
B0912454628949N00813852EA0214702285
B0912464628953N00813846EA0214902287
B0912474628959N00813842EA0215102289
B0912484628965N00813841EA0215302291
B0912494628972N00813841EA0215402293
B0912504628979N00813843EA0215502294
B0912514628984N00813848EA0215402293
B0912524628990N00813855EA0215402292
B0912534628993N00813863EA0215402292
B0912544628994N00813872EA0215402293
B0912554628993N00813881EA0215602294
B0912564628991N00813889EA0215702295
B0912574628986N00813894EA0215902298
B0912584628981N00813899EA0216102299
B0912594628978N00813899EA0216202301
B0913004628974N00813897EA0216402303
B0913014628970N00813896EA0216602304
B0913024628967N00813894EA0216702306
B0913034628965N00813891EA0216902307
B0913044628963N00813887EA0217002309
B0913054628962N00813883EA0217102310
B0913064628962N00813878EA0217302312
B0913074628962N00813873EA0217502314
B0913084628965N00813865EA0217802316
B0913094628971N00813860EA0217902318
B0913104628979N00813859EA0218102320
B0913114628984N00813861EA0218302321
B0913124628990N00813865EA0218402323
B0913134628995N00813872EA0218402323
B0913144628997N00813880EA0218402323
B0913154628999N00813888EA0218402323
B0913164628999N00813896EA0218402323
B0913174628997N00813905EA0218502323
B0913184628996N00813911EA0218602325
B0913194628991N00813916EA0218802327
B0913204628987N00813918EA0219002328
B0913214628983N00813919EA0219202331
B0913224628979N00813919EA0219302332
B0913234628977N00813919EA0219402332
B0913244628973N00813919EA0219302332
B0913254628970N00813916EA0219402333
B0913264628967N00813912EA0219602334
B0913274628965N00813908EA0219702336
B0913284628965N00813904EA0219802336
B0913294628964N00813901EA0219802337
B0913304628963N00813898EA0219902338
B0913314628963N00813894EA0219802337
B0913324628963N00813889EA0220002338
B0913334628963N00813883EA0220302342
B0913344628962N00813878EA0220602345
B0913354628962N00813874EA0220702346
B0913364628962N00813870EA0220702346
B0913374628962N00813867EA0220802346
B0913384628961N00813864EA0220802347
B0913394628960N00813859EA0220802347
B0913404628959N00813854EA0220802347
B0913414628959N00813849EA0220902347
B0913424628961N00813843EA0220902348
B0913434628964N00813838EA0221002349
B0913444628968N00813834EA0221102349
B0913454628972N00813831EA0221002348
B0913464628977N00813829EA0221002348
B0913474628981N00813831EA0221002349
B0913484628988N00813838EA0221002348
B0913494628994N00813846EA0220902347
B0913504628998N00813855EA0221002349
B0913514629001N00813863EA0221202350
B0913524629003N00813872EA0221302352
B0913534629003N00813880EA0221402352
B0913544629001N00813888EA0221602354
B0913554628997N00813893EA0221802357
B0913564628994N00813898EA0222002358
B0913574628990N00813901EA0222102359
B0913584628987N00813899EA0222102360
B0913594628984N00813896EA0222202360
B0914004628982N00813892EA0222202361
B0914014628981N00813886EA0222202361
B0914024628982N00813881EA0222202360
B0914034628985N00813875EA0222102359
B0914044628988N00813870EA0222102359
B0914054628993N00813866EA0222102359
B0914064629000N00813863EA0222102360
B0914074629006N00813860EA0222202360
B0914084629016N00813859EA0222302362
B0914094629024N00813861EA0222302362
B0914104629032N00813866EA0222402362
B0914114629038N00813873EA0222502363
B0914124629042N00813882EA0222602365
B0914134629045N00813891EA0222702365
B0914144629046N00813900EA0222802366
B0914154629045N00813907EA0222802367
B0914164629043N00813912EA0222902367
B0914174629038N00813915EA0223002369
B0914184629034N00813916EA0223102370
B0914194629031N00813913EA0223202371
B0914204629028N00813911EA0223302372
B0914214629026N00813907EA0223402373
B0914224629026N00813903EA0223502374
B0914234629026N00813896EA0223602375
B0914244629032N00813888EA0223702376
B0914254629036N00813882EA0223802377
B0914264629042N00813879EA0223902378
B0914274629048N00813877EA0224002378
B0914284629055N00813876EA0224002378
B0914294629061N00813877EA0224002379
B0914304629070N00813882EA0224102379
B0914314629077N00813888EA0224202380
B0914324629081N00813896EA0224302382
B0914334629084N00813905EA0224402383
B0914344629085N00813913EA0224402383
B0914354629085N00813920EA0224402383
B0914364629081N00813925EA0224402383
B0914374629077N00813928EA0224502383
B0914384629074N00813927EA0224602385
B0914394629071N00813924EA0224602385
B0914404629069N00813921EA0224802387
B0914414629070N00813916EA0225002389
B0914424629070N00813910EA0225002389
B0914434629072N00813905EA0225002388
B0914444629075N00813901EA0224902387
B0914454629078N00813898EA0224902387
B0914464629084N00813895EA0224802387
B0914474629090N00813892EA0224902388
B0914484629098N00813892EA0225102389
B0914494629106N00813893EA0225202390
B0914504629112N00813898EA0225202391
B0914514629117N00813904EA0225202390
B0914524629120N00813911EA0225102390
B0914534629122N00813918EA0225102390
B0914544629124N00813926EA0225102389
B0914554629124N00813934EA0225102390
B0914564629122N00813940EA0225102390
B0914574629117N00813941EA0225202391
B0914584629113N00813942EA0225402392
B0914594629110N00813941EA0225402393
B0915004629106N00813940EA0225402393
B0915014629104N00813938EA0225302391
B0915024629103N00813935EA0225102390
B0915034629103N00813929EA0224902388
B0915044629103N00813922EA0224902388
B0915054629106N00813914EA0225102389
B0915064629109N00813906EA0225202390
B0915074629113N00813901EA0225202390
B0915084629119N00813897EA0225202391
B0915094629125N00813895EA0225302391
B0915104629131N00813894EA0225302391
B0915114629137N00813894EA0225202390
B0915124629143N00813898EA0225002389
B0915134629148N00813903EA0224902388
B0915144629153N00813910EA0224802386
B0915154629157N00813917EA0224702386
B0915164629162N00813924EA0224702386
B0915174629165N00813930EA0224702386
B0915184629170N00813937EA0224802386
B0915194629174N00813945EA0224802387
B0915204629179N00813951EA0224902388
B0915214629184N00813956EA0224802387
B0915224629188N00813961EA0224602385
B0915234629192N00813966EA0224402383
B0915244629197N00813972EA0224302381
B0915254629201N00813978EA0224102380
B0915264629206N00813984EA0224002379
B0915274629210N00813989EA0223902378
B0915284629215N00813994EA0223802377
B0915294629220N00814000EA0223702376
B0915304629225N00814006EA0223702376
B0915314629229N00814012EA0223802377
B0915324629233N00814019EA0223902378
B0915334629238N00814026EA0223902378
B0915344629242N00814032EA0223802377
B0915354629246N00814037EA0223602375
B0915364629250N00814043EA0223402372
B0915374629254N00814049EA0223202371
B0915384629258N00814056EA0223202370
B0915394629261N00814064EA0223002368
B0915404629265N00814072EA0222802367
B0915414629268N00814079EA0222702365
B0915424629271N00814087EA0222602364
B0915434629275N00814094EA0222502364
B0915444629278N00814102EA0222402363
B0915454629281N00814109EA0222302361
B0915464629284N00814116EA0222202360
B0915474629287N00814123EA0222002359
B0915484629290N00814131EA0221902358
B0915494629293N00814139EA0221802357
B0915504629296N00814147EA0221802356
B0915514629298N00814155EA0221702356
B0915524629301N00814164EA0221702356
B0915534629303N00814173EA0221702356
B0915544629306N00814182EA0221702355
B0915554629309N00814191EA0221702355
B0915564629312N00814199EA0221702355
B0915574629315N00814207EA0221602354
B0915584629318N00814215EA0221502353
B0915594629321N00814224EA0221302352
B0916004629324N00814232EA0221302351
B0916014629326N00814241EA0221302351
B0916024629329N00814250EA0221202351
B0916034629331N00814259EA0221202351
B0916044629334N00814268EA0221202350
B0916054629337N00814276EA0221102350
B0916064629340N00814283EA0221102349
B0916074629343N00814291EA0221002349
B0916084629347N00814300EA0221002349
B0916094629350N00814307EA0220902348
B0916104629353N00814315EA0220902347
B0916114629358N00814322EA0220802346
B0916124629361N00814330EA0220702345
B0916134629364N00814337EA0220602345
B0916144629367N00814345EA0220502344
B0916154629371N00814353EA0220402343
B0916164629374N00814362EA0220402343
B0916174629377N00814370EA0220502343
B0916184629381N00814377EA0220402342
B0916194629384N00814384EA0220302341
B0916204629388N00814391EA0220102339
B0916214629392N00814398EA0219902337
B0916224629396N00814406EA0219702336
B0916234629401N00814414EA0219702335
B0916244629405N00814422EA0219702335
B0916254629409N00814431EA0219602335
B0916264629412N00814440EA0219602335
B0916274629415N00814448EA0219602334
B0916284629418N00814456EA0219502333
B0916294629422N00814464EA0219302332
B0916304629427N00814472EA0219502333
B0916314629432N00814482EA0219902337
B0916324629437N00814492EA0220302342
B0916334629442N00814500EA0220602344
B0916344629446N00814507EA0220802346
B0916354629450N00814514EA0220802347
B0916364629455N00814521EA0220802346
B0916374629459N00814529EA0220702346
B0916384629463N00814537EA0220902347
B0916394629466N00814547EA0221002349
B0916404629468N00814556EA0221202350
B0916414629470N00814563EA0221102350
B0916424629471N00814571EA0220902348
B0916434629470N00814579EA0220602345
B0916444629469N00814586EA0220402342
B0916454629465N00814591EA0220302341
B0916464629460N00814593EA0220102339
B0916474629455N00814592EA0220002338
B0916484629451N00814589EA0220002338
B0916494629450N00814583EA0220002339
B0916504629449N00814576EA0220102339
B0916514629450N00814569EA0220102340
B0916524629451N00814563EA0220102339
B0916534629452N00814557EA0220002338
B0916544629453N00814551EA0219902338
B0916554629455N00814545EA0220002338
B0916564629457N00814539EA0220102339
B0916574629460N00814534EA0220202341
B0916584629463N00814528EA0220302342
B0916594629469N00814523EA0220402343
B0917004629474N00814518EA0220702346
B0917014629479N00814514EA0220802347
B0917024629484N00814511EA0220902347
B0917034629489N00814508EA0220902348
B0917044629496N00814507EA0220902347
B0917054629502N00814508EA0220902347
B0917064629510N00814514EA0220902347
B0917074629515N00814523EA0220902348
B0917084629518N00814533EA0221002349
B0917094629518N00814544EA0221102349
B0917104629517N00814552EA0221202351
B0917114629514N00814559EA0221402352
B0917124629512N00814565EA0221402353
B0917134629511N00814570EA0221502354
B0917144629509N00814575EA0221502354
B0917154629507N00814578EA0221502354
B0917164629503N00814578EA0221502354
B0917174629500N00814578EA0221602355
B0917184629498N00814575EA0221602355
B0917194629496N00814572EA0221602355
B0917204629494N00814568EA0221602355
B0917214629492N00814563EA0221602355
B0917224629491N00814557EA0221702356
B0917234629491N00814551EA0221802356
B0917244629492N00814546EA0221802356
B0917254629493N00814540EA0221902358
B0917264629495N00814533EA0221802356
B0917274629497N00814528EA0221602355
B0917284629501N00814523EA0221502354
B0917294629506N00814520EA0221402353
B0917304629515N00814520EA0221402353
B0917314629523N00814522EA0221402352
B0917324629530N00814527EA0221202350
B0917334629536N00814533EA0221102350
B0917344629542N00814539EA0221302352
B0917354629548N00814546EA0221402352
B0917364629554N00814552EA0221402353
B0917374629559N00814559EA0221502353
B0917384629563N00814566EA0221402353
B0917394629567N00814573EA0221302352
B0917404629572N00814581EA0221302352
B0917414629577N00814587EA0221202351
B0917424629583N00814592EA0221202350
B0917434629588N00814598EA0221202351
B0917444629594N00814603EA0221202351
B0917454629598N00814609EA0221102350
B0917464629603N00814616EA0221002349
B0917474629607N00814622EA0221002349
B0917484629612N00814628EA0221002349
B0917494629616N00814635EA0221102349
B0917504629620N00814641EA0221102349
B0917514629624N00814648EA0221102350
B0917524629628N00814655EA0221202351
B0917534629631N00814661EA0221302351
B0917544629635N00814667EA0221202351
B0917554629639N00814672EA0221002349
B0917564629642N00814679EA0221102350
B0917574629647N00814687EA0221202351
B0917584629651N00814694EA0221302352
B0917594629655N00814700EA0221302351
B0918004629659N00814705EA0221202350
B0918014629664N00814711EA0221102349
B0918024629668N00814717EA0221002349
B0918034629673N00814724EA0221202350
B0918044629678N00814731EA0221202351
B0918054629683N00814737EA0221202351
B0918064629687N00814741EA0221202351
B0918074629691N00814746EA0221202351
B0918084629694N00814752EA0221102350
B0918094629699N00814758EA0221102350
B0918104629703N00814764EA0221102350
B0918114629707N00814769EA0221202350
B0918124629711N00814774EA0221102350
B0918134629715N00814779EA0220902348
B0918144629718N00814786EA0220602345
B0918154629721N00814794EA0220502344
B0918164629724N00814802EA0221002348
B0918174629727N00814810EA0221502354
B0918184629730N00814817EA0221902358
B0918194629732N00814821EA0222202360
B0918204629734N00814825EA0222302361
B0918214629738N00814829EA0222202361
B0918224629743N00814833EA0222302361
B0918234629749N00814837EA0222602365
B0918244629753N00814842EA0222902368
B0918254629755N00814847EA0223002369
B0918264629756N00814852EA0223002368
B0918274629757N00814856EA0223002368
B0918284629755N00814860EA0223202370
B0918294629753N00814863EA0223302372
B0918304629748N00814862EA0223502373
B0918314629744N00814860EA0223602374
B0918324629741N00814858EA0223902377
B0918334629739N00814852EA0224102379
B0918344629740N00814844EA0224302381
B0918354629740N00814838EA0224402382
B0918364629741N00814831EA0224402383
B0918374629741N00814825EA0224302382
B0918384629742N00814820EA0224302381
B0918394629744N00814815EA0224302381
B0918404629747N00814810EA0224202380
B0918414629750N00814805EA0224102379
B0918424629755N00814802EA0224002378
B0918434629761N00814799EA0223902377
B0918444629769N00814798EA0224002379
B0918454629776N00814799EA0224102379
B0918464629783N00814801EA0224102379
B0918474629789N00814803EA0224102380
B0918484629794N00814806EA0224102380
B0918494629800N00814809EA0224102379
B0918504629806N00814812EA0224102380
B0918514629812N00814816EA0224102380
B0918524629817N00814820EA0224102379
B0918534629822N00814826EA0224002378
B0918544629826N00814832EA0223802376
B0918554629829N00814840EA0223702375
B0918564629832N00814848EA0223702375
B0918574629835N00814857EA0223702375
B0918584629837N00814865EA0223702376
B0918594629841N00814872EA0223702376
B0919004629844N00814878EA0223702376
B0919014629847N00814885EA0223802376
B0919024629850N00814891EA0223802376
B0919034629854N00814897EA0223702375
B0919044629857N00814903EA0223602375
B0919054629861N00814909EA0223602375
B0919064629865N00814915EA0223502373
B0919074629868N00814922EA0223302372
B0919084629872N00814929EA0223202371
B0919094629875N00814937EA0223202370
B0919104629878N00814945EA0223202371
B0919114629882N00814952EA0223202370
B0919124629885N00814959EA0223102370
B0919134629888N00814966EA0223102369
B0919144629890N00814972EA0223002368
B0919154629893N00814979EA0223002368
B0919164629897N00814987EA0223002368
B0919174629900N00814995EA0222902368
B0919184629903N00815002EA0223002368
B0919194629907N00815010EA0223002368
B0919204629910N00815017EA0222902368
B0919214629914N00815025EA0222802367
B0919224629917N00815034EA0222802366
B0919234629920N00815042EA0222802366
B0919244629923N00815051EA0222702366
B0919254629927N00815059EA0222702365
B0919264629930N00815067EA0222602365
B0919274629934N00815074EA0222402363
B0919284629938N00815082EA0222302361
B0919294629942N00815090EA0222102359
B0919304629945N00815098EA0221902358
B0919314629949N00815106EA0221802357
B0919324629952N00815114EA0221702355
B0919334629956N00815122EA0221602354
B0919344629959N00815130EA0221402353
B0919354629962N00815137EA0221202351
B0919364629964N00815145EA0220902348
B0919374629966N00815154EA0220602345
B0919384629967N00815164EA0220602344
B0919394629969N00815174EA0220702345
B0919404629970N00815184EA0220702345
B0919414629972N00815192EA0220502344
B0919424629975N00815200EA0220402342
B0919434629977N00815209EA0220202341
B0919444629978N00815217EA0220102339
B0919454629981N00815227EA0220102339
B0919464629983N00815236EA0220002338
B0919474629986N00815245EA0219802337
B0919484629988N00815253EA0219702336
B0919494629989N00815262EA0219602334
B0919504629990N00815270EA0219502333
B0919514629992N00815279EA0219402332
B0919524629993N00815288EA0219302332
B0919534629994N00815296EA0219302331
B0919544629995N00815304EA0219102330
B0919554629996N00815312EA0218902328
B0919564629997N00815320EA0218702326
B0919574629998N00815329EA0218602324
B0919584629999N00815337EA0218502323
B0919594630000N00815345EA0218402322
B0920004630001N00815353EA0218302321
B0920014630003N00815360EA0218202321
B0920024630003N00815367EA0218202321
B0920034630004N00815375EA0218302322
B0920044630005N00815383EA0218202321
B0920054630005N00815390EA0218102320
B0920064630005N00815396EA0217802317
B0920074630005N00815402EA0217702316
B0920084630005N00815407EA0217502314
B0920094630005N00815413EA0217402313
B0920104630005N00815420EA0217302312
B0920114630006N00815426EA0217302311
B0920124630007N00815433EA0217202311
B0920134630007N00815440EA0217202310
B0920144630009N00815446EA0217102310
B0920154630010N00815452EA0217102309
B0920164630011N00815458EA0217002309
B0920174630012N00815464EA0217002309
B0920184630013N00815471EA0216902308
B0920194630015N00815476EA0216802307
B0920204630016N00815481EA0216602305
B0920214630017N00815487EA0216502304
B0920224630019N00815494EA0216502304
B0920234630019N00815502EA0216602304
B0920244630021N00815510EA0216702305
B0920254630022N00815517EA0216702305
B0920264630024N00815524EA0216602305
B0920274630026N00815530EA0216402302
B0920284630028N00815536EA0216202300
B0920294630029N00815543EA0215902298
B0920304630030N00815551EA0215702295
B0920314630031N00815560EA0215602294
B0920324630032N00815568EA0215502294
B0920334630034N00815575EA0215502293
B0920344630034N00815582EA0215302292
B0920354630035N00815589EA0215202290
B0920364630036N00815596EA0215102290
B0920374630037N00815604EA0215202290
B0920384630037N00815613EA0215302291
B0920394630037N00815620EA0215402292
B0920404630036N00815627EA0215202291
B0920414630037N00815634EA0215102289
B0920424630037N00815640EA0214902288
B0920434630038N00815646EA0214602285
B0920444630039N00815652EA0214502283
B0920454630039N00815659EA0214302281
B0920464630040N00815666EA0214202280
B0920474630041N00815674EA0214102279
B0920484630041N00815681EA0214002279
B0920494630040N00815689EA0214002279
B0920504630040N00815695EA0214002279
B0920514630040N00815702EA0214002279
B0920524630040N00815709EA0214102279
B0920534630041N00815716EA0214002279
B0920544630041N00815723EA0213902278
B0920554630042N00815730EA0213902277
B0920564630043N00815737EA0213802276
B0920574630044N00815746EA0213802277
B0920584630046N00815753EA0213802277
B0920594630048N00815761EA0213802277
B0921004630050N00815768EA0213802277
B0921014630053N00815774EA0213902277
B0921024630054N00815780EA0213902278
B0921034630056N00815786EA0213902278
B0921044630058N00815792EA0213902277
B0921054630060N00815798EA0213802277
B0921064630062N00815804EA0213802277
B0921074630063N00815811EA0213802277
B0921084630065N00815818EA0213802277
B0921094630065N00815826EA0213902277
B0921104630066N00815833EA0213902277
B0921114630067N00815840EA0213902277
B0921124630069N00815846EA0213902277
B0921134630071N00815853EA0213802277
B0921144630074N00815859EA0213802276
B0921154630076N00815866EA0213702276
B0921164630080N00815872EA0213702276
B0921174630083N00815880EA0213802276
B0921184630086N00815887EA0213902277
B0921194630089N00815895EA0214002278
B0921204630091N00815902EA0213902278
B0921214630094N00815908EA0213902277
B0921224630097N00815914EA0213802276
B0921234630100N00815920EA0213602275
B0921244630104N00815926EA0213602274
B0921254630108N00815933EA0213602274
B0921264630112N00815941EA0213602275
B0921274630115N00815948EA0213702276
B0921284630118N00815956EA0213802276
B0921294630121N00815963EA0213802277
B0921304630124N00815969EA0213902277
B0921314630126N00815976EA0213702276
B0921324630129N00815982EA0213602275
B0921334630133N00815988EA0213502274
B0921344630137N00815994EA0213402273
B0921354630141N00816001EA0213402273
B0921364630144N00816007EA0213402272
B0921374630149N00816013EA0213302272
B0921384630152N00816020EA0213302271
B0921394630156N00816026EA0213302271
B0921404630159N00816034EA0213102270
B0921414630162N00816041EA0213002269
B0921424630165N00816049EA0212902268
B0921434630168N00816056EA0212802267
B0921444630171N00816064EA0212702266
B0921454630174N00816072EA0212702265
B0921464630177N00816079EA0212602264
B0921474630180N00816086EA0212402263
B0921484630183N00816093EA0212202261
B0921494630186N00816100EA0212002258
B0921504630189N00816107EA0211702256
B0921514630192N00816114EA0211602254
B0921524630196N00816123EA0211502254
B0921534630200N00816132EA0211702255
B0921544630204N00816142EA0211902257
B0921554630208N00816150EA0212002259
B0921564630212N00816156EA0212102260
B0921574630216N00816162EA0212202260
B0921584630220N00816168EA0212302261
B0921594630226N00816175EA0212402263
B0922004630230N00816182EA0212802266
B0922014630234N00816190EA0213202270
B0922024630236N00816196EA0213502273
B0922034630238N00816201EA0213402273
B0922044630239N00816204EA0213402273
B0922054630244N00816208EA0213502273
B0922064630249N00816211EA0213702275
B0922074630253N00816214EA0213802276
B0922084630258N00816216EA0213902277
B0922094630264N00816217EA0213702276
B0922104630268N00816217EA0213702275
B0922114630274N00816215EA0213702276
B0922124630278N00816210EA0213802277
B0922134630281N00816205EA0213802277
B0922144630281N00816199EA0213902277
B0922154630281N00816193EA0214002278
B0922164630280N00816187EA0214102279
B0922174630279N00816181EA0214102280
B0922184630277N00816176EA0214102280
B0922194630274N00816174EA0214102279
B0922204630271N00816172EA0214002279
B0922214630267N00816170EA0214102280
B0922224630262N00816168EA0214302281
B0922234630257N00816167EA0214402282
B0922244630252N00816168EA0214502283
B0922254630249N00816171EA0214602285
B0922264630245N00816175EA0214602285
B0922274630241N00816180EA0214602284
B0922284630239N00816186EA0214602284
B0922294630238N00816192EA0214602284
B0922304630237N00816199EA0214502284
B0922314630237N00816207EA0214602284
B0922324630238N00816215EA0214702285
B0922334630240N00816224EA0214802286
B0922344630244N00816231EA0215102289
B0922354630248N00816237EA0215302292
B0922364630252N00816242EA0215502294
B0922374630255N00816246EA0215602295
B0922384630260N00816250EA0215702296
B0922394630265N00816251EA0215702296
B0922404630270N00816252EA0215702295
B0922414630276N00816249EA0215602294
B0922424630280N00816245EA0215502293
B0922434630285N00816240EA0215502293
B0922444630288N00816235EA0215502294
B0922454630291N00816229EA0215702295
B0922464630293N00816222EA0215802296
B0922474630293N00816215EA0215902298
B0922484630293N00816209EA0216102299
B0922494630293N00816202EA0216102300
B0922504630292N00816196EA0216202301
B0922514630290N00816189EA0216202301
B0922524630289N00816183EA0216302301
B0922534630287N00816177EA0216402302
B0922544630282N00816173EA0216402303
B0922554630277N00816170EA0216502303
B0922564630271N00816170EA0216402303
B0922574630267N00816170EA0216402303
B0922584630262N00816172EA0216402303
B0922594630257N00816175EA0216402302
B0923004630252N00816179EA0216202301
B0923014630249N00816184EA0216102300
B0923024630248N00816192EA0216002299
B0923034630247N00816201EA0215902298
B0923044630248N00816210EA0215902297
B0923054630249N00816219EA0215902297
B0923064630252N00816228EA0215802296
B0923074630255N00816236EA0215702295
B0923084630259N00816244EA0215602295
B0923094630263N00816253EA0215602294
B0923104630268N00816261EA0215502294
B0923114630272N00816269EA0215602294
B0923124630278N00816277EA0215702295
B0923134630283N00816284EA0215802297
B0923144630288N00816290EA0216002298
B0923154630292N00816297EA0216102300
B0923164630296N00816303EA0216202300
B0923174630299N00816309EA0216202301
B0923184630303N00816315EA0216302301
B0923194630307N00816320EA0216202300
B0923204630311N00816324EA0216102299
B0923214630315N00816329EA0216002298
B0923224630320N00816334EA0216002298
B0923234630324N00816340EA0216002299
B0923244630329N00816345EA0215902298
B0923254630333N00816351EA0215802297
B0923264630337N00816357EA0215802296
B0923274630342N00816363EA0215802297
B0923284630346N00816369EA0215902297
B0923294630350N00816375EA0216002299
B0923304630353N00816380EA0216002299
B0923314630356N00816385EA0215902298
B0923324630360N00816389EA0215802296
B0923334630363N00816395EA0215702295
B0923344630367N00816401EA0215602295
B0923354630371N00816407EA0215602295
B0923364630376N00816412EA0215502294
B0923374630380N00816418EA0215302292
B0923384630384N00816424EA0215202290
B0923394630389N00816430EA0214902288
B0923404630393N00816438EA0214702285
B0923414630397N00816446EA0214402283
B0923424630401N00816453EA0214202281
B0923434630406N00816460EA0213902278
B0923444630410N00816467EA0213602275
B0923454630414N00816475EA0213302272
B0923464630418N00816482EA0213002269
B0923474630423N00816490EA0212802266
B0923484630426N00816498EA0212602265
B0923494630430N00816505EA0212402262
B0923504630433N00816512EA0212102260
B0923514630436N00816519EA0211802256
B0923524630439N00816527EA0211402253
B0923534630443N00816535EA0211202250
B0923544630448N00816542EA0210902248
B0923554630453N00816550EA0210802247
B0923564630458N00816555EA0210602245
B0923574630463N00816560EA0210402243
B0923584630468N00816565EA0210202241
B0923594630473N00816571EA0210102240
B0924004630478N00816578EA0210102240
B0924014630483N00816584EA0210202241
B0924024630488N00816591EA0210402243
B0924034630491N00816597EA0210502243
B0924044630494N00816603EA0210402243
B0924054630497N00816609EA0210302242
B0924064630501N00816615EA0210302241
B0924074630504N00816623EA0210302242
B0924084630510N00816631EA0210502244
B0924094630514N00816638EA0210602245
B0924104630518N00816643EA0210602244
B0924114630521N00816649EA0210302242
B0924124630525N00816654EA0210102239
B0924134630528N00816660EA0209902238
B0924144630533N00816666EA0209802236
B0924154630537N00816673EA0209802237
B0924164630542N00816680EA0209902237
B0924174630545N00816687EA0209802237
B0924184630549N00816694EA0209602235
B0924194630552N00816702EA0209402232
B0924204630555N00816710EA0209202230
B0924214630559N00816718EA0209002229
B0924224630563N00816725EA0208902227
B0924234630566N00816734EA0208702225
B0924244630569N00816742EA0208402223
B0924254630573N00816751EA0208202220
B0924264630576N00816760EA0208002218
B0924274630580N00816769EA0207802217
B0924284630583N00816779EA0207802217
B0924294630586N00816789EA0207802216
B0924304630589N00816799EA0207802216
B0924314630593N00816809EA0207802216
B0924324630597N00816818EA0208102219
B0924334630602N00816827EA0208402222
B0924344630606N00816835EA0208602224
B0924354630611N00816842EA0208702226
B0924364630615N00816848EA0208802226
B0924374630618N00816854EA0208802227
B0924384630622N00816861EA0208902228
B0924394630625N00816868EA0209002229
B0924404630628N00816875EA0209202231
B0924414630630N00816883EA0209302231
B0924424630632N00816891EA0209302232
B0924434630633N00816897EA0209402233
B0924444630632N00816903EA0209402233
B0924454630630N00816908EA0209502234
B0924464630627N00816913EA0209702235
B0924474630622N00816917EA0209902237
B0924484630618N00816919EA0210002239
B0924494630613N00816920EA0210102240
B0924504630609N00816918EA0210202240
B0924514630607N00816915EA0210202241
B0924524630605N00816911EA0210302242
B0924534630604N00816907EA0210502243
B0924544630606N00816902EA0210602244
B0924554630609N00816899EA0210702246
B0924564630613N00816895EA0210902247
B0924574630618N00816893EA0210902248
B0924584630624N00816893EA0210902248
B0924594630630N00816895EA0210902248
B0925004630637N00816899EA0211102249
B0925014630642N00816905EA0211102250
B0925024630645N00816911EA0211202250
B0925034630648N00816917EA0211102250
B0925044630649N00816925EA0211002249
B0925054630650N00816932EA0210802247
B0925064630649N00816939EA0210802246
B0925074630648N00816948EA0210802247
B0925084630645N00816955EA0210902247
B0925094630642N00816962EA0210902248
B0925104630636N00816966EA0211002248
B0925114630631N00816970EA0211102249
B0925124630626N00816973EA0211202251
B0925134630623N00816969EA0211302252
B0925144630620N00816966EA0211402252
B0925154630618N00816963EA0211402252
B0925164630615N00816960EA0211302252
B0925174630614N00816956EA0211202251
B0925184630615N00816949EA0211202250
B0925194630616N00816943EA0211202250
B0925204630617N00816937EA0211202250
B0925214630620N00816932EA0211102250
B0925224630625N00816929EA0211102249
B0925234630631N00816927EA0211102249
B0925244630639N00816928EA0211202251
B0925254630645N00816929EA0211302251
B0925264630652N00816930EA0211402252
B0925274630659N00816934EA0211502254
B0925284630663N00816940EA0211502254
B0925294630667N00816946EA0211402252
B0925304630672N00816952EA0211302252
B0925314630675N00816960EA0211302251
B0925324630678N00816967EA0211302252
B0925334630680N00816976EA0211302251
B0925344630682N00816985EA0211302252
B0925354630684N00816995EA0211402253
B0925364630686N00817005EA0211502253
B0925374630688N00817015EA0211402253
B0925384630690N00817025EA0211402252
B0925394630691N00817034EA0211302251
B0925404630693N00817043EA0211002249
B0925414630695N00817053EA0210902247
B0925424630698N00817062EA0210802246
B0925434630700N00817072EA0210602245
B0925444630703N00817082EA0210502244
B0925454630704N00817091EA0210402242
B0925464630707N00817101EA0210302241
B0925474630710N00817110EA0210302241
B0925484630712N00817119EA0210302242
B0925494630714N00817129EA0210302242
B0925504630716N00817138EA0210302242
B0925514630717N00817146EA0210202241
B0925524630719N00817154EA0210002239
B0925534630720N00817163EA0209802237
B0925544630722N00817172EA0209702235
B0925554630724N00817181EA0209602234
B0925564630726N00817191EA0209502234
B0925574630728N00817200EA0209502233
B0925584630729N00817208EA0209502233
B0925594630731N00817217EA0209402233
B0926004630732N00817225EA0209402232
B0926014630733N00817233EA0209302231
B0926024630734N00817241EA0209202230
B0926034630735N00817250EA0209102229
B0926044630737N00817258EA0208902228
B0926054630739N00817267EA0208902227
B0926064630740N00817276EA0208802227
B0926074630742N00817286EA0208902228
B0926084630743N00817295EA0208902228
B0926094630745N00817303EA0208902227
B0926104630746N00817311EA0208802227
B0926114630747N00817318EA0208802226
B0926124630748N00817326EA0208702225
B0926134630749N00817334EA0208602225
B0926144630751N00817343EA0208602224
B0926154630751N00817350EA0208502224
B0926164630752N00817358EA0208502223
B0926174630753N00817366EA0208402223
B0926184630754N00817375EA0208302222
B0926194630756N00817382EA0208402222
B0926204630757N00817391EA0208502223
B0926214630759N00817400EA0208502224
B0926224630760N00817408EA0208502223
B0926234630761N00817416EA0208402222
B0926244630762N00817424EA0208402222
B0926254630763N00817432EA0208402222
B0926264630764N00817441EA0208502223
B0926274630765N00817451EA0208602224
B0926284630766N00817459EA0208502223
B0926294630767N00817466EA0208302222
B0926304630767N00817474EA0208102219
B0926314630768N00817482EA0207902217
B0926324630770N00817491EA0207702216
B0926334630771N00817501EA0207602215
B0926344630772N00817510EA0207602214
B0926354630773N00817519EA0207402213
B0926364630774N00817528EA0207202211
B0926374630775N00817538EA0207002208
B0926384630777N00817547EA0206802207
B0926394630778N00817557EA0206802207
B0926404630779N00817566EA0206802207
B0926414630781N00817575EA0206802206
B0926424630782N00817583EA0206602204
B0926434630782N00817590EA0206302202
B0926444630781N00817598EA0206102200
B0926454630781N00817607EA0206002198
B0926464630782N00817617EA0205902198
B0926474630783N00817627EA0205902198
B0926484630783N00817637EA0205802197
B0926494630784N00817646EA0205702195
B0926504630784N00817654EA0205502194
B0926514630784N00817663EA0205402192
B0926524630785N00817673EA0205302191
B0926534630786N00817683EA0205202190
B0926544630786N00817694EA0205102190
B0926554630785N00817704EA0205002189
B0926564630785N00817713EA0204902187
B0926574630785N00817722EA0204802187
B0926584630786N00817731EA0204702186
B0926594630786N00817740EA0204602185
B0927004630786N00817749EA0204402183
B0927014630786N00817759EA0204302182
B0927024630785N00817768EA0204102180
B0927034630785N00817777EA0204002179
B0927044630786N00817787EA0203902178
B0927054630786N00817796EA0203902177
B0927064630785N00817805EA0203802176
B0927074630784N00817814EA0203702176
B0927084630784N00817823EA0203602175
B0927094630785N00817831EA0203402173
B0927104630785N00817840EA0203202171
B0927114630785N00817849EA0203102169
B0927124630785N00817859EA0203002168
B0927134630783N00817868EA0202902168
B0927144630782N00817877EA0202802167
B0927154630781N00817886EA0202602165
B0927164630780N00817895EA0202602164
B0927174630780N00817904EA0202502163
B0927184630780N00817913EA0202402162
B0927194630782N00817922EA0202202161
B0927204630783N00817930EA0202202160
B0927214630785N00817939EA0202102159
B0927224630788N00817947EA0202002158
B0927234630791N00817956EA0201902157
B0927244630793N00817964EA0201802157
B0927254630796N00817972EA0201802156
B0927264630799N00817979EA0201602155
B0927274630803N00817985EA0201402153
B0927284630806N00817992EA0201302151
B0927294630808N00818000EA0201202150
B0927304630811N00818009EA0201202150
B0927314630814N00818018EA0201202150
B0927324630817N00818026EA0201102150
B0927334630820N00818033EA0201102150
B0927344630824N00818040EA0201102149
B0927354630828N00818047EA0201002149
B0927364630831N00818054EA0200902147
B0927374630835N00818061EA0200802146
B0927384630838N00818068EA0200702146
B0927394630841N00818075EA0200602145
B0927404630845N00818083EA0200602144
B0927414630848N00818091EA0200602144
B0927424630852N00818098EA0200402143
B0927434630856N00818105EA0200402142
B0927444630861N00818111EA0200302142
B0927454630865N00818118EA0200302141
B0927464630869N00818125EA0200202141
B0927474630872N00818133EA0200202140
B0927484630876N00818140EA0200102140
B0927494630879N00818148EA0200102139
B0927504630883N00818156EA0199902138
B0927514630887N00818164EA0199802137
B0927524630891N00818172EA0199702136
B0927534630895N00818180EA0199602135
B0927544630900N00818187EA0199502134
B0927554630904N00818193EA0199402133
B0927564630908N00818199EA0199302131
B0927574630913N00818205EA0199102130
B0927584630918N00818210EA0199002129
B0927594630922N00818216EA0198902128
B0928004630927N00818222EA0198902127
B0928014630932N00818228EA0198802127
B0928024630937N00818235EA0198702126
B0928034630941N00818240EA0198602124
B0928044630945N00818246EA0198402123
B0928054630950N00818253EA0198302122
B0928064630956N00818259EA0198202121
B0928074630960N00818267EA0198202121
B0928084630965N00818274EA0198202120
B0928094630970N00818281EA0198102120
B0928104630974N00818287EA0198102119
B0928114630978N00818293EA0198002119
B0928124630983N00818300EA0198002119
B0928134630987N00818307EA0198002118
B0928144630991N00818314EA0197902118
B0928154630996N00818320EA0197802116
B0928164631000N00818326EA0197602115
B0928174631003N00818333EA0197402113
B0928184631007N00818340EA0197302112
B0928194631011N00818347EA0197202111
B0928204631016N00818355EA0197102110
B0928214631019N00818362EA0197102109
B0928224631023N00818370EA0197002109
B0928234631027N00818377EA0197002108
B0928244631031N00818384EA0196902108
B0928254631034N00818390EA0196802106
B0928264631038N00818396EA0196602105
B0928274631041N00818403EA0196502103
B0928284631044N00818411EA0196402102
B0928294631047N00818418EA0196202101
B0928304631051N00818426EA0196102099
B0928314631054N00818433EA0195902098
B0928324631057N00818440EA0195802096
B0928334631060N00818448EA0195702095
B0928344631062N00818456EA0195502094
B0928354631065N00818464EA0195302092
B0928364631068N00818472EA0195102089
B0928374631071N00818480EA0194802087
B0928384631074N00818488EA0194602085
B0928394631077N00818496EA0194502083
B0928404631081N00818505EA0194402082
B0928414631084N00818514EA0194302081
B0928424631087N00818522EA0194102080
B0928434631090N00818530EA0193902078
B0928444631094N00818537EA0193702075
B0928454631097N00818545EA0193502073
B0928464631101N00818554EA0193302071
B0928474631105N00818562EA0193202071
B0928484631109N00818571EA0193102070
B0928494631112N00818580EA0193102069
B0928504631116N00818589EA0193002068
B0928514631120N00818597EA0192802066
B0928524631123N00818605EA0192602065
B0928534631127N00818614EA0192602064
B0928544631130N00818624EA0192502064
B0928554631134N00818634EA0192502064
B0928564631138N00818643EA0192502064
B0928574631141N00818651EA0192402063
B0928584631145N00818659EA0192302062
B0928594631148N00818668EA0192302061
B0929004631151N00818677EA0192202061
B0929014631155N00818686EA0192202060
B0929024631159N00818694EA0192102059
B0929034631162N00818701EA0191902058
B0929044631167N00818709EA0191702056
B0929054631171N00818717EA0191602055
B0929064631175N00818725EA0191502054
B0929074631179N00818734EA0191402053
B0929084631183N00818744EA0191302052
B0929094631186N00818753EA0191302051
B0929104631189N00818761EA0191202050
B0929114631191N00818769EA0191002048
B0929124631194N00818778EA0190802047
B0929134631197N00818787EA0190702045
B0929144631200N00818796EA0190602045
B0929154631204N00818806EA0190702045
B0929164631207N00818814EA0190602045
B0929174631210N00818823EA0190502044
B0929184631213N00818830EA0190302042
B0929194631217N00818838EA0190202040
B0929204631221N00818847EA0190102039
B0929214631225N00818856EA0190002039
B0929224631227N00818865EA0190002039
B0929234631231N00818873EA0189902038
B0929244631234N00818882EA0189802037
B0929254631237N00818892EA0189802036
B0929264631240N00818902EA0189702035
B0929274631244N00818912EA0189702035
B0929284631247N00818922EA0189702035
B0929294631250N00818932EA0189602035
B0929304631252N00818942EA0189502034
B0929314631255N00818951EA0189402033
B0929324631258N00818958EA0189302031
B0929334631263N00818970EA0189102030
B0929344631266N00818980EA0189002029
B0929354631270N00818991EA0189102029
B0929364631274N00819001EA0189102029
B0929374631277N00819012EA0189002029
B0929384631280N00819023EA0188902028
B0929394631283N00819033EA0188802026
B0929404631287N00819044EA0188702025
B0929414631290N00819054EA0188602024
B0929424631293N00819065EA0188402023
B0929434631295N00819077EA0188302022
B0929444631298N00819088EA0188302021
B0929454631301N00819100EA0188202020
B0929464631303N00819110EA0188102020
B0929474631306N00819121EA0188002019
B0929484631308N00819132EA0187902018
B0929494631311N00819143EA0187802017
B0929504631314N00819154EA0187702016
B0929514631317N00819165EA0187602014
B0929524631320N00819177EA0187402013
B0929534631324N00819187EA0187402012
B0929544631327N00819198EA0187302011
B0929554631330N00819209EA0187102009
B0929564631333N00819220EA0186902008
B0929574631336N00819231EA0186802006
B0929584631339N00819242EA0186602004
B0929594631342N00819252EA0186402003
B0930004631346N00819263EA0186302001
B0930014631350N00819274EA0186102000
B0930024631353N00819285EA0186001998
B0930034631357N00819296EA0185801997
B0930044631361N00819307EA0185701995
B0930054631365N00819318EA0185501994
B0930064631369N00819328EA0185401992
B0930074631373N00819339EA0185301991
B0930084631376N00819350EA0185201991
B0930094631379N00819360EA0185101989
B0930104631382N00819371EA0184901988
B0930114631385N00819382EA0184701986
B0930124631387N00819392EA0184501983
B0930134631390N00819403EA0184301982
B0930144631393N00819414EA0184201981
B0930154631395N00819425EA0184101980
B0930164631398N00819435EA0184001979
B0930174631400N00819446EA0183901977
B0930184631402N00819457EA0183701976
B0930194631405N00819468EA0183501974
B0930204631407N00819479EA0183401972
B0930214631410N00819490EA0183301972
B0930224631413N00819501EA0183301971
B0930234631417N00819513EA0183301971
B0930244631420N00819523EA0183301971
B0930254631423N00819534EA0183201970
B0930264631426N00819544EA0183101969
B0930274631429N00819554EA0182901968
B0930284631432N00819564EA0182801967
B0930294631436N00819574EA0182801966
B0930304631439N00819585EA0182801967
B0930314631441N00819596EA0182801967
B0930324631444N00819607EA0182801967
B0930334631447N00819617EA0182801966
B0930344631449N00819627EA0182601965
B0930354631450N00819638EA0182501964
B0930364631452N00819649EA0182501963
B0930374631453N00819660EA0182401962
B0930384631455N00819670EA0182301961
B0930394631458N00819681EA0182201960
B0930404631459N00819692EA0182201960
B0930414631460N00819702EA0182201960
B0930424631462N00819712EA0182101960
B0930434631463N00819721EA0182101959
B0930444631465N00819731EA0182001959
B0930454631466N00819741EA0181901958
B0930464631468N00819751EA0181801957
B0930474631470N00819763EA0181701956
B0930484631472N00819774EA0181701956
B0930494631474N00819785EA0181701956
B0930504631475N00819796EA0181701956
B0930514631477N00819806EA0181701956
B0930524631479N00819817EA0181601955
B0930534631482N00819828EA0181601954
B0930544631484N00819839EA0181601955
B0930554631486N00819851EA0181601955
B0930564631488N00819862EA0181701955
B0930574631490N00819873EA0181601955
B0930584631493N00819883EA0181601955
B0930594631495N00819894EA0181501954
B0931004631498N00819906EA0181401953
B0931014631501N00819917EA0181401952
B0931024631502N00819928EA0181301952
B0931034631505N00819939EA0181201951
B0931044631507N00819950EA0181101950
B0931054631510N00819960EA0181001949
B0931064631513N00819971EA0180901948
B0931074631516N00819982EA0180801946
B0931084631519N00819994EA0180701945
B0931094631520N00820004EA0180601945
B0931104631523N00820015EA0180501943
B0931114631524N00820026EA0180401943
B0931124631525N00820037EA0180401942
B0931134631527N00820048EA0180301941
B0931144631528N00820059EA0180101940
B0931154631530N00820069EA0180001939
B0931164631531N00820079EA0179901938
B0931174631533N00820090EA0179901937
B0931184631535N00820101EA0179801936
B0931194631538N00820112EA0179701935
B0931204631541N00820122EA0179601934
B0931214631544N00820133EA0179501933
B0931224631548N00820143EA0179401932
B0931234631552N00820154EA0179301932
B0931244631557N00820164EA0179301931
B0931254631561N00820175EA0179201931
B0931264631566N00820184EA0179101930
B0931274631571N00820194EA0179001928
B0931284631577N00820203EA0178901927
B0931294631582N00820212EA0178801926
B0931304631588N00820221EA0178701925
B0931314631594N00820230EA0178701925
B0931324631599N00820239EA0178601924
B0931334631604N00820248EA0178501924
B0931344631609N00820256EA0178401923
B0931354631615N00820265EA0178301922
B0931364631621N00820273EA0178201921
B0931374631626N00820282EA0178101920
B0931384631633N00820290EA0178101919
B0931394631639N00820298EA0178001919
B0931404631645N00820306EA0177901918
B0931414631650N00820314EA0177801917
B0931424631656N00820322EA0177801916
B0931434631662N00820330EA0177701916
B0931444631668N00820338EA0177601915
B0931454631674N00820346EA0177501914
B0931464631680N00820354EA0177401913
B0931474631685N00820362EA0177301912
B0931484631691N00820371EA0177201911
B0931494631695N00820381EA0177101909
B0931504631699N00820392EA0177001908
B0931514631701N00820404EA0176901907
B0931524631701N00820415EA0176801907
B0931534631701N00820426EA0176801907
B0931544631700N00820435EA0176801907
B0931554631697N00820442EA0176801906
B0931564631694N00820449EA0176701906
B0931574631691N00820454EA0176601905
B0931584631687N00820457EA0176601904
B0931594631684N00820459EA0176501904
B0932004631680N00820460EA0176401903
B0932014631676N00820460EA0176301902
B0932024631673N00820459EA0176201901
B0932034631670N00820459EA0176201900
B0932044631667N00820458EA0176101899
B0932054631665N00820457EA0176001899
B0932064631662N00820456EA0175901898
B0932074631659N00820456EA0175801896
B0932084631656N00820455EA0175701896
B0932094631653N00820454EA0175601895
B0932104631650N00820454EA0175601894
B0932114631647N00820453EA0175501893
B0932124631645N00820452EA0175401893
B0932134631642N00820452EA0175301892
B0932144631639N00820452EA0175201891
B0932154631636N00820451EA0175101890
B0932164631633N00820450EA0175101889
B0932174631630N00820450EA0175001889
B0932184631627N00820450EA0175001888
B0932194631624N00820449EA0174901888
B0932204631621N00820449EA0174801887
B0932214631618N00820450EA0174701886
B0932224631615N00820452EA0174601884
B0932234631612N00820454EA0174501883
B0932244631609N00820455EA0174401882
B0932254631605N00820456EA0174301882
B0932264631603N00820458EA0174201880
B0932274631599N00820459EA0174001879
B0932284631596N00820461EA0173901877
B0932294631592N00820463EA0173801877
B0932304631589N00820464EA0173801877
B0932314631586N00820464EA0173801877
B0932324631584N00820464EA0173701876
B0932334631582N00820463EA0173601875
B0932344631581N00820462EA0173501874
B0932354631580N00820461EA0173501873
B0932364631579N00820460EA0173301872
B0932374631577N00820459EA0173301871
B0932384631575N00820458EA0173201870
B0932394631574N00820458EA0173101870
B0932404631571N00820458EA0173001869
B0932414631570N00820458EA0172901868
B0932424631567N00820458EA0172801867
B0932434631565N00820460EA0172701866
B0932444631562N00820461EA0172601865
B0932454631560N00820462EA0172501864
B0932464631557N00820464EA0172501864
B0932474631555N00820464EA0172501864
B0932484631553N00820464EA0172401863
B0932494631551N00820464EA0172201861
B0932504631551N00820461EA0172101860
B0932514631551N00820457EA0172001859
B0932524631552N00820454EA0171801857
B0932534631555N00820449EA0171701856
B0932544631560N00820445EA0171601855
B0932554631565N00820442EA0171501854
B0932564631574N00820439EA0171501853
B0932574631582N00820438EA0171401852
B0932584631590N00820439EA0171201851
B0932594631599N00820441EA0171201850
B0933004631607N00820446EA0171101850
B0933014631616N00820452EA0171001849
B0933024631623N00820460EA0171001848
B0933034631630N00820468EA0170901848
B0933044631634N00820479EA0170801847
B0933054631637N00820490EA0170801846
B0933064631638N00820500EA0170801846
B0933074631638N00820510EA0170601845
B0933084631638N00820519EA0170501843
B0933094631637N00820527EA0170301841
B0933104631634N00820534EA0170101840
B0933114631631N00820539EA0170001839
B0933124631628N00820541EA0170001838
B0933134631624N00820541EA0169901838
B0933144631621N00820540EA0169901838
B0933154631619N00820539EA0169901837
B0933164631620N00820535EA0169701836
B0933174631621N00820531EA0169601835
B0933184631623N00820528EA0169501833
B0933194631626N00820523EA0169301832
B0933204631631N00820519EA0169201830
B0933214631640N00820517EA0169001829
B0933224631648N00820516EA0169001828
B0933234631656N00820519EA0169001829
B0933244631666N00820522EA0169001828
B0933254631672N00820530EA0168901827
B0933264631679N00820538EA0168701826
B0933274631685N00820547EA0168701825
B0933284631689N00820557EA0168601825
B0933294631690N00820567EA0168501824
B0933304631691N00820577EA0168401823
B0933314631689N00820585EA0168301822
B0933324631688N00820590EA0168201821
B0933334631685N00820595EA0168101819
B0933344631682N00820597EA0168001818
B0933354631679N00820599EA0167901818
B0933364631675N00820599EA0167901817
B0933374631672N00820599EA0167801817
B0933384631670N00820598EA0167701816
B0933394631667N00820597EA0167601815
B0933404631665N00820595EA0167601814
B0933414631662N00820593EA0167501814
B0933424631660N00820591EA0167401812
B0933434631657N00820588EA0167301812
B0933444631654N00820585EA0167201811
B0933454631652N00820581EA0167101810
B0933464631649N00820578EA0167001809
B0933474631646N00820575EA0167001808
B0933484631643N00820572EA0167001808
B0933494631641N00820570EA0166901807
B0933504631638N00820568EA0166801807
B0933514631635N00820567EA0166801806
B0933524631633N00820565EA0166701806
B0933534631630N00820563EA0166701805
B0933544631627N00820562EA0166601804
B0933554631626N00820560EA0166501804
B0933564631623N00820558EA0166501803
B0933574631622N00820555EA0166401803
B0933584631620N00820552EA0166401802
B0933594631618N00820550EA0166301801
B0934004631616N00820549EA0166201801
B0934014631613N00820548EA0166101800
B0934024631611N00820547EA0166001799
B0934034631609N00820546EA0166001798
B0934044631606N00820545EA0165901798
B0934054631604N00820544EA0165901797
B0934064631601N00820542EA0165801796
B0934074631600N00820541EA0165701795
B0934084631598N00820539EA0165601795
B0934094631596N00820538EA0165601794
B0934104631593N00820536EA0165501793
B0934114631591N00820534EA0165301792
B0934124631589N00820533EA0165201791
B0934134631587N00820531EA0165101790
B0934144631585N00820530EA0165001789
B0934154631582N00820528EA0165001788
B0934164631580N00820526EA0164901787
B0934174631578N00820524EA0164801787
B0934184631576N00820522EA0164801786
B0934194631574N00820520EA0164701785
B0934204631572N00820518EA0164601784
B0934214631570N00820516EA0164401783
B0934224631568N00820514EA0164401782
B0934234631566N00820512EA0164201780
B0934244631563N00820510EA0164101779
B0934254631561N00820508EA0164001779
B0934264631559N00820506EA0163901778
B0934274631557N00820504EA0163801777
B0934284631554N00820502EA0163801776
B0934294631551N00820500EA0163701775
B0934304631549N00820498EA0163601774
B0934314631546N00820497EA0163501773
B0934324631543N00820497EA0163401772
B0934334631541N00820496EA0163301771
B0934344631538N00820496EA0163201770
B0934354631535N00820495EA0163101769
B0934364631532N00820494EA0162901768
B0934374631529N00820493EA0162801767
B0934384631526N00820492EA0162701766
B0934394631523N00820490EA0162601765
B0934404631521N00820487EA0162501764
B0934414631520N00820484EA0162301762
B0934424631519N00820479EA0162101760
B0934434631520N00820474EA0161901758
B0934444631521N00820468EA0161801756
B0934454631527N00820465EA0161601755
B0934464631535N00820462EA0161501754
B0934474631543N00820465EA0161401752
B0934484631551N00820469EA0161301751
B0934494631559N00820474EA0161101750
B0934504631566N00820479EA0161101749
B0934514631573N00820484EA0161001748
B0934524631579N00820491EA0160801747
B0934534631585N00820500EA0160601745
B0934544631589N00820510EA0160501743
B0934554631591N00820522EA0160301742
B0934564631591N00820533EA0160101740
B0934574631590N00820542EA0159901737
B0934584631587N00820548EA0159801736
B0934594631583N00820550EA0159701735
B0935004631580N00820551EA0159501734
B0935014631577N00820550EA0159301731
B0935024631576N00820546EA0159101729
B0935034631575N00820542EA0158801727
B0935044631576N00820537EA0158601725
B0935054631580N00820533EA0158301722
B0935064631585N00820530EA0158101719
B0935074631593N00820530EA0157901717
B0935084631601N00820533EA0157801717
B0935094631608N00820540EA0157701715
B0935104631614N00820549EA0157501714
B0935114631620N00820559EA0157301712
B0935124631622N00820571EA0157201711
B0935134631623N00820581EA0157001709
B0935144631622N00820590EA0156801706
B0935154631620N00820597EA0156601704
B0935164631616N00820602EA0156301702
B0935174631612N00820604EA0156201700
B0935184631607N00820605EA0156001699
B0935194631604N00820603EA0155801697
B0935204631602N00820600EA0155501694
B0935214631601N00820596EA0155301692
B0935224631601N00820589EA0155001689
B0935234631603N00820583EA0154801687
B0935244631607N00820578EA0154601684
B0935254631614N00820574EA0154301682
B0935264631621N00820571EA0154001679
B0935274631628N00820570EA0153701676
B0935284631636N00820572EA0153501673
B0935294631644N00820575EA0153301672
B0935304631651N00820580EA0153101670
B0935314631658N00820587EA0152901667
B0935324631664N00820595EA0152701665
B0935334631669N00820604EA0152601664
B0935344631671N00820613EA0152401662
B0935354631672N00820622EA0152201661
B0935364631672N00820630EA0152101659
B0935374631670N00820636EA0151901658
B0935384631666N00820638EA0151701656
B0935394631662N00820637EA0151501653
B0935404631659N00820633EA0151301651
B0935414631657N00820630EA0151001648
B0935424631654N00820626EA0150701646
B0935434631657N00820619EA0150401643
B0935444631660N00820614EA0150201641
B0935454631664N00820610EA0149901638
B0935464631670N00820607EA0149701636
B0935474631677N00820607EA0149501634
B0935484631683N00820608EA0149501633
B0935494631691N00820611EA0149301632
B0935504631697N00820616EA0149301631
B0935514631704N00820622EA0149101630
B0935524631707N00820630EA0148901628
B0935534631708N00820637EA0148701625
B0935544631709N00820644EA0148501624
B0935554631708N00820649EA0148301622
B0935564631705N00820650EA0148201621
B0935574631701N00820646EA0148101620
B0935584631698N00820642EA0148101620
B0935594631696N00820636EA0148101619
B0936004631695N00820630EA0147901618
B0936014631697N00820622EA0147701616
B0936024631699N00820616EA0147501613
B0936034631701N00820609EA0147201611
B0936044631704N00820603EA0147101609
B0936054631711N00820597EA0147001609
B0936064631718N00820594EA0146901608
B0936074631725N00820595EA0146801607
B0936084631733N00820597EA0146801606
B0936094631739N00820603EA0146801606
B0936104631743N00820611EA0146801607
B0936114631746N00820618EA0146801607
B0936124631747N00820625EA0146801607
B0936134631747N00820630EA0146701606
B0936144631747N00820635EA0146601604
B0936154631746N00820640EA0146401602
B0936164631744N00820643EA0146201601
B0936174631741N00820647EA0146001599
B0936184631738N00820651EA0145901597
B0936194631735N00820655EA0145901597
B0936204631732N00820659EA0145801597
B0936214631729N00820660EA0145701596
B0936224631725N00820659EA0145601595
B0936234631722N00820657EA0145601594
B0936244631718N00820655EA0145501594
B0936254631716N00820653EA0145301592
B0936264631713N00820650EA0145101590
B0936274631710N00820648EA0144901588
B0936284631707N00820645EA0144801587
B0936294631704N00820643EA0144701586
B0936304631700N00820641EA0144601585
B0936314631697N00820639EA0144501583
B0936324631694N00820637EA0144301581
B0936334631691N00820636EA0144001578
B0936344631688N00820636EA0143801576
B0936354631684N00820636EA0143601574
B0936364631680N00820638EA0143401572
B0936374631676N00820639EA0143201570
B0936384631672N00820638EA0142901568
B0936394631668N00820635EA0142801566
B0936404631664N00820633EA0142601565
B0936414631660N00820630EA0142501563
B0936424631657N00820624EA0142201561
B0936434631656N00820617EA0142101560
B0936444631659N00820610EA0142001559
B0936454631666N00820603EA0141801557
B0936464631670N00820598EA0141701555
B0936474631676N00820595EA0141601555
B0936484631682N00820592EA0141501553
B0936494631687N00820590EA0141401552
B0936504631693N00820589EA0141301551
B0936514631698N00820589EA0141201551
B0936524631704N00820590EA0141101550
B0936534631710N00820592EA0141201550
B0936544631716N00820594EA0141201551
B0936554631720N00820597EA0141201550
B0936564631725N00820599EA0141101549
B0936574631730N00820601EA0140901548
B0936584631735N00820604EA0140901548
B0936594631741N00820607EA0141001548
B0937004631745N00820612EA0141001549
B0937014631748N00820617EA0141001548
B0937024631753N00820620EA0140901547
B0937034631756N00820623EA0140801547
B0937044631761N00820626EA0140701546
B0937054631766N00820628EA0140701545
B0937064631770N00820631EA0140801546
B0937074631775N00820634EA0140801546
B0937084631779N00820637EA0140701545
B0937094631784N00820638EA0140501544
B0937104631788N00820639EA0140401543
B0937114631793N00820640EA0140401542
B0937124631798N00820641EA0140301542
B0937134631803N00820642EA0140401542
B0937144631808N00820645EA0140301541
B0937154631813N00820649EA0140301542
B0937164631816N00820653EA0140401542
B0937174631820N00820658EA0140401542
B0937184631823N00820663EA0140401542
B0937194631826N00820667EA0140401542
B0937204631830N00820672EA0140301541
B0937214631834N00820675EA0140101540
B0937224631839N00820678EA0140001538
B0937234631843N00820683EA0139901538
B0937244631846N00820688EA0139801536
B0937254631849N00820694EA0139601535
B0937264631850N00820701EA0139601534
B0937274631852N00820707EA0139501534
B0937284631853N00820714EA0139501534
B0937294631854N00820721EA0139501533
B0937304631856N00820728EA0139401533
B0937314631859N00820733EA0139301532
B0937324631862N00820738EA0139301531
B0937334631864N00820743EA0139101530
B0937344631867N00820748EA0138901528
B0937354631869N00820753EA0138701526
B0937364631871N00820759EA0138601524
B0937374631872N00820766EA0138501523
B0937384631873N00820771EA0138401523
B0937394631874N00820778EA0138301521
B0937404631874N00820784EA0138101520
B0937414631874N00820790EA0137901518
B0937424631874N00820796EA0137801517
B0937434631874N00820802EA0137701516
B0937444631875N00820809EA0137701515
B0937454631875N00820816EA0137601515
B0937464631875N00820822EA0137501514
B0937474631875N00820829EA0137401513
B0937484631875N00820835EA0137301511
B0937494631875N00820841EA0137101510
B0937504631875N00820848EA0137101510
B0937514631875N00820855EA0137101510
B0937524631875N00820861EA0137201511
B0937534631873N00820867EA0137301511
B0937544631872N00820873EA0137301511
B0937554631871N00820879EA0137201510
B0937564631871N00820886EA0137101510
B0937574631871N00820892EA0137101509
B0937584631871N00820900EA0137101509
B0937594631870N00820906EA0137001509
B0938004631867N00820911EA0136901508
B0938014631864N00820915EA0136701505
B0938024631858N00820917EA0136501504
B0938034631853N00820916EA0136401502
B0938044631848N00820913EA0136201500
B0938054631845N00820906EA0136001498
B0938064631843N00820898EA0135801496
B0938074631846N00820892EA0135701495
B0938084631851N00820886EA0135601495
B0938094631857N00820883EA0135701496
B0938104631862N00820881EA0135801497
B0938114631868N00820879EA0135801497
B0938124631872N00820876EA0135801496
B0938134631878N00820874EA0135701495
B0938144631883N00820872EA0135501494
B0938154631888N00820870EA0135401493
B0938164631893N00820867EA0135301492
B0938174631897N00820864EA0135301491
B0938184631902N00820860EA0135201490
B0938194631907N00820856EA0135101490
B0938204631911N00820852EA0135001489
B0938214631914N00820846EA0134801487
B0938224631916N00820840EA0134701485
B0938234631917N00820834EA0134501483
B0938244631915N00820826EA0134301482
B0938254631911N00820819EA0134301482
B0938264631907N00820815EA0134301482
B0938274631902N00820814EA0134201481
B0938284631897N00820816EA0134201481
B0938294631893N00820820EA0134101480
B0938304631891N00820825EA0134001479
B0938314631889N00820830EA0133801477
B0938324631887N00820837EA0133701475
B0938334631888N00820846EA0133601475
B0938344631887N00820854EA0133701475
B0938354631886N00820861EA0133701475
B0938364631884N00820867EA0133701475
B0938374631881N00820872EA0133601475
B0938384631876N00820873EA0133501474
B0938394631871N00820871EA0133301472
B0938404631867N00820868EA0133201471
B0938414631862N00820862EA0133101469
B0938424631859N00820858EA0133001468
B0938434631859N00820855EA0133001469
B0938444631862N00820848EA0133201471
B0938454631872N00820840EA0133301472
B0938464631876N00820836EA0133301472
B0938474631879N00820832EA0133201470
B0938484631884N00820829EA0133001468
B0938494631888N00820825EA0132801466
B0938504631890N00820817EA0132601464
B0938514631892N00820809EA0132401463
B0938524631892N00820802EA0132201461
B0938534631890N00820795EA0132101459
B0938544631887N00820790EA0131901458
B0938554631884N00820786EA0131701456
B0938564631880N00820785EA0131501454
B0938574631877N00820785EA0131301452
B0938584631874N00820785EA0131201450
B0938594631869N00820785EA0131101449
B0939004631865N00820785EA0131001449
B0939014631860N00820785EA0131001448
B0939024631856N00820786EA0130801447
B0939034631851N00820788EA0130601445
B0939044631847N00820790EA0130501444
B0939054631842N00820792EA0130301441
B0939064631837N00820789EA0130001439
B0939074631832N00820784EA0129901437
B0939084631828N00820778EA0129701435
B0939094631824N00820770EA0129601435
B0939104631822N00820763EA0129701435
B0939114631819N00820756EA0129501434
B0939124631817N00820750EA0129301432
B0939134631813N00820744EA0129201431
B0939144631810N00820739EA0129301432
B0939154631806N00820733EA0129401433
B0939164631803N00820729EA0129401432
B0939174631800N00820724EA0129301431
B0939184631797N00820720EA0129101430
B0939194631794N00820717EA0129001429
B0939204631791N00820714EA0128901427
B0939214631788N00820711EA0128701426
B0939224631785N00820709EA0128501424
B0939234631782N00820706EA0128301421
B0939244631779N00820703EA0128201421
B0939254631775N00820700EA0128101420
B0939264631772N00820697EA0128101419
B0939274631769N00820694EA0128101420
B0939284631767N00820692EA0128101420
B0939294631765N00820689EA0128101420
B0939304631763N00820685EA0128101420
B0939314631762N00820682EA0128201420
B0939324631761N00820678EA0128201420
B0939334631759N00820674EA0128201420
B0939344631758N00820672EA0128201420
B0939354631757N00820670EA0128201420
B0939364631758N00820669EA0128201420
B0939374631758N00820667EA0128201420
B0939384631757N00820667EA0128201420
B0939394631757N00820668EA0128201420
B0939404631757N00820668EA0128201420
B0939414631757N00820669EA0128201420
B0939424631758N00820671EA0128201420
B0939434631758N00820671EA0128201420
B0939444631758N00820672EA0128201420
B0939454631758N00820673EA0128201420
B0939464631757N00820673EA0128201420
B0939474631757N00820673EA0128201420
B0939484631757N00820673EA0128201420
B0939494631757N00820674EA0128201420
B0939504631758N00820674EA0128201420
B0939514631758N00820674EA0128201420
B0939524631758N00820674EA0128201420
B0939534631759N00820675EA0128201420
B0939544631759N00820675EA0128201420
B0939554631760N00820675EA0128201420
B0939564631760N00820675EA0128101420
B0939574631761N00820676EA0128201420
B0939584631761N00820676EA0128201420
B0939594631761N00820676EA0128201420
B0940004631761N00820676EA0128201420
B0940014631762N00820677EA0128201420
B0940024631762N00820677EA0128201420
B0940034631762N00820677EA0128201420
B0940044631762N00820677EA0128201420
B0940054631762N00820677EA0128201420
B0940064631762N00820677EA0128101420
B0940074631762N00820677EA0128101420
B0940084631762N00820677EA0128101420
B0940094631762N00820677EA0128101420
B0940104631761N00820678EA0128201420
B0940114631761N00820679EA0128201420
B0940124631760N00820680EA0128101420
B0940134631759N00820680EA0128101420
B0940144631759N00820681EA0128201420
B0940154631758N00820682EA0128101420
B0940164631757N00820682EA0128101420
B0940174631757N00820683EA0128101420
B0940184631757N00820684EA0128101420
B0940194631756N00820685EA0128101420
B0940204631756N00820686EA0128101420
B0940214631755N00820686EA0128101420
B0940224631755N00820687EA0128101420
B0940234631754N00820687EA0128101420
B0940244631753N00820686EA0128101420
B0940254631753N00820687EA0128201420
B0940264631753N00820687EA0128201420
B0940274631752N00820687EA0128201420
B0940284631752N00820687EA0128201420
B0940294631751N00820687EA0128201420
B0940304631751N00820687EA0128201420
B0940314631751N00820688EA0128201420
B0940324631752N00820688EA0128201420
B0940334631752N00820688EA0128201421
B0940344631751N00820688EA0128201421
B0940354631751N00820688EA0128201421
B0940364631751N00820688EA0128201421
B0940374631750N00820688EA0128201421
B0940384631750N00820688EA0128201421
B0940394631748N00820687EA0128201421
B0940404631748N00820687EA0128201421
B0940414631747N00820686EA0128201421
B0940424631746N00820685EA0128201421
B0940434631745N00820684EA0128201421
B0940444631744N00820683EA0128201421
B0940454631744N00820683EA0128201421
B0940464631743N00820682EA0128201421
B0940474631742N00820681EA0128201421
B0940484631741N00820680EA0128201421
B0940494631742N00820681EA0128201421
B0940504631741N00820681EA0128201421
B0940514631741N00820681EA0128201421
B0940524631741N00820681EA0128201421
B0940534631741N00820681EA0128201421
B0940544631741N00820681EA0128201421
B0940554631741N00820681EA0128201421
B0940564631742N00820681EA0128201421
B0940574631742N00820680EA0128201420
B0940584631742N00820680EA0128201421
B0940594631741N00820680EA0128201421
B0941004631741N00820681EA0128201421
B0941014631741N00820681EA0128201420
B0941024631741N00820681EA0128201421
B0941034631741N00820681EA0128201421
B0941044631741N00820681EA0128201421
B0941054631741N00820681EA0128201421
B0941064631741N00820681EA0128201421
B0941074631741N00820681EA0128201421
B0941084631741N00820681EA0128201421
B0941094631741N00820681EA0128201421
B0941104631741N00820681EA0128201421
B0941114631741N00820681EA0128201421
B0941124631741N00820681EA0128201421
B0941134631741N00820681EA0128201421
B0941144631741N00820681EA0128201420
B0941154631741N00820681EA0128201420
B0941164631742N00820683EA0128201421
B0941174631741N00820683EA0128201421
B0941184631742N00820684EA0128201421
B0941194631743N00820685EA0128201421
B0941204631743N00820687EA0128201421
B0941214631744N00820688EA0128201421
B0941224631744N00820688EA0128201421
B0941234631743N00820688EA0128201421
B0941244631743N00820688EA0128201421
B0941254631743N00820687EA0128201421
B0941264631743N00820687EA0128201421
B0941274631743N00820687EA0128201421
B0941284631743N00820687EA0128201421
LXSX;GF:1.5
G2AEBDBE94A0B290741E171F3505A8A75
