AXSX003 SKYTRAXX V3.0.10a SN:00000380
HOPLTPILOT:Sepp Bucher
HOGTYGLIDERTYPE:Sigma10
HOCIDCOMPETITIONID:0000
HODTM100GPSDATUM:WGS-84
HOCCLCOMPETITION CLASS:Paraglider (Standard)
HPSITSITE:Sedgeview
HFDTE231217
B1248003400372S02247615EA0012800112
B1248013400372S02247615EA0012800111
B1248023400373S02247614EA0013000112
B1248033400374S02247615EA0013000112
B1248043400377S02247617EA0013000110
B1248053400378S02247618EA0013100113
B1248063400379S02247618EA0013100115
B1248073400380S02247616EA0013100117
B1248083400380S02247612EA0013200120
B1248093400379S02247608EA0013400124
B1248103400379S02247604EA0013500127
B1248113400377S02247600EA0013600128
B1248123400376S02247596EA0013700129
B1248133400374S02247593EA0013600128
B1248143400373S02247589EA0013700129
B1248153400372S02247585EA0013800130
B1248163400371S02247581EA0013900131
B1248173400370S02247577EA0013900131
B1248183400370S02247573EA0014000132
B1248193400369S02247570EA0014000133
B1248203400368S02247566EA0014000132
B1248213400367S02247563EA0013900131
B1248223400366S02247561EA0013800131
B1248233400366S02247558EA0013800131
B1248243400365S02247555EA0013800130
B1248253400364S02247551EA0013700130
B1248263400363S02247547EA0013800130
B1248273400360S02247543EA0013700130
B1248283400359S02247539EA0013800130
B1248293400358S02247534EA0013800131
B1248303400357S02247529EA0014000132
B1248313400356S02247524EA0014200134
B1248323400355S02247520EA0014300135
B1248333400355S02247517EA0014200135
B1248343400354S02247514EA0014200134
B1248353400353S02247510EA0014100133
B1248363400352S02247506EA0014100133
B1248373400351S02247500EA0014400136
B1248383400351S02247495EA0014600138
B1248393400350S02247490EA0014900141
B1248403400349S02247486EA0015000142
B1248413400348S02247482EA0015100143
B1248423400347S02247477EA0015300145
B1248433400346S02247473EA0015400146
B1248443400344S02247468EA0015500148
B1248453400343S02247465EA0015700149
B1248463400341S02247461EA0015800150
B1248473400340S02247457EA0015900151
B1248483400339S02247452EA0015900151
B1248493400340S02247448EA0015900152
B1248503400341S02247446EA0016000153
B1248513400342S02247445EA0016200154
B1248523400344S02247446EA0016300155
B1248533400346S02247449EA0016400156
B1248543400347S02247452EA0016500157
B1248553400348S02247457EA0016600159
B1248563400349S02247462EA0016900161
B1248573400349S02247467EA0017000162
B1248583400348S02247472EA0017000162
B1248593400348S02247477EA0016900162
B1249003400348S02247482EA0016900161
B1249013400348S02247489EA0017000162
B1249023400349S02247494EA0017200164
B1249033400351S02247500EA0017400166
B1249043400352S02247505EA0017400167
B1249053400352S02247510EA0017400166
B1249063400352S02247514EA0017200164
B1249073400354S02247518EA0017100163
B1249083400358S02247521EA0017100163
B1249093400361S02247523EA0017100163
B1249103400364S02247522EA0017100163
B1249113400367S02247521EA0017100163
B1249123400368S02247518EA0017000162
B1249133400368S02247514EA0017000162
B1249143400368S02247511EA0017100164
B1249153400368S02247507EA0017300165
B1249163400367S02247503EA0017300166
B1249173400366S02247499EA0017400166
B1249183400365S02247495EA0017400166
B1249193400363S02247491EA0017300165
B1249203400361S02247487EA0017200164
B1249213400359S02247482EA0017200164
B1249223400356S02247477EA0017400166
B1249233400354S02247472EA0017700169
B1249243400351S02247467EA0018000172
B1249253400348S02247463EA0018200174
B1249263400346S02247459EA0018300176
B1249273400343S02247456EA0018500177
B1249283400341S02247452EA0018600178
B1249293400338S02247448EA0018700180
B1249303400336S02247443EA0019000182
B1249313400333S02247439EA0019200184
B1249323400331S02247436EA0019300185
B1249333400329S02247431EA0019400186
B1249343400326S02247427EA0019500187
B1249353400324S02247423EA0019500187
B1249363400322S02247418EA0019600188
B1249373400319S02247413EA0019600188
B1249383400317S02247408EA0019700189
B1249393400315S02247403EA0019700189
B1249403400314S02247398EA0019700189
B1249413400313S02247393EA0019700189
B1249423400313S02247389EA0019700189
B1249433400314S02247386EA0019800190
B1249443400316S02247383EA0019900191
B1249453400319S02247381EA0020000192
B1249463400321S02247383EA0020100193
B1249473400323S02247386EA0020200194
B1249483400326S02247390EA0020400196
B1249493400328S02247398EA0020600198
B1249503400330S02247404EA0020800200
B1249513400332S02247409EA0021000202
B1249523400333S02247414EA0021000202
B1249533400333S02247419EA0020900202
B1249543400334S02247423EA0020900201
B1249553400335S02247428EA0020900202
B1249563400336S02247433EA0021100203
B1249573400337S02247437EA0021200205
B1249583400339S02247441EA0021300206
B1249593400340S02247442EA0021300206
B1250003400340S02247442EA0021200204
B1250013400341S02247441EA0021100203
B1250023400340S02247438EA0021000203
B1250033400338S02247434EA0020900201
B1250043400337S02247431EA0020900201
B1250053400333S02247428EA0020900201
B1250063400330S02247424EA0020800200
B1250073400328S02247419EA0020900201
B1250083400325S02247414EA0020900202
B1250093400322S02247409EA0021100203
B1250103400321S02247404EA0021200204
B1250113400319S02247400EA0021200204
B1250123400318S02247395EA0021200205
B1250133400317S02247391EA0021200204
B1250143400316S02247387EA0021100203
B1250153400315S02247382EA0021100203
B1250163400313S02247377EA0021200205
B1250173400311S02247371EA0021400206
B1250183400309S02247367EA0021500208
B1250193400307S02247363EA0021600209
B1250203400305S02247359EA0021600208
B1250213400303S02247355EA0021600208
B1250223400300S02247351EA0021500208
B1250233400297S02247347EA0021500208
B1250243400295S02247342EA0021600208
B1250253400292S02247338EA0021700210
B1250263400290S02247333EA0021900211
B1250273400288S02247330EA0021900211
B1250283400286S02247326EA0021800210
B1250293400285S02247323EA0021500207
B1250303400285S02247320EA0021300205
B1250313400286S02247318EA0021200204
B1250323400286S02247318EA0021000203
B1250333400286S02247319EA0020900201
B1250343400289S02247324EA0020900201
B1250353400291S02247332EA0020900201
B1250363400294S02247338EA0020800200
B1250373400296S02247345EA0020600198
B1250383400298S02247352EA0020500197
B1250393400299S02247359EA0020500197
B1250403400301S02247366EA0020700199
B1250413400303S02247373EA0020700200
B1250423400305S02247379EA0020800200
B1250433400306S02247385EA0020800200
B1250443400308S02247391EA0020700199
B1250453400309S02247397EA0020600199
B1250463400311S02247403EA0020700199
B1250473400313S02247409EA0020600199
B1250483400315S02247416EA0020600199
B1250493400316S02247422EA0020600198
B1250503400318S02247428EA0020700199
B1250513400320S02247434EA0020700199
B1250523400321S02247440EA0020700199
B1250533400323S02247446EA0020700199
B1250543400325S02247452EA0020700199
B1250553400326S02247458EA0020700199
B1250563400327S02247464EA0020600199
B1250573400329S02247470EA0020600199
B1250583400331S02247475EA0020700199
B1250593400333S02247480EA0020700200
B1251003400336S02247485EA0020800200
B1251013400338S02247490EA0020800200
B1251023400340S02247496EA0020800201
B1251033400342S02247501EA0020900201
B1251043400344S02247506EA0020900201
B1251053400346S02247511EA0020800201
B1251063400348S02247515EA0020800200
B1251073400352S02247520EA0020800201
B1251083400354S02247525EA0020700200
B1251093400356S02247529EA0020600198
B1251103400358S02247534EA0020500197
B1251113400360S02247539EA0020300196
B1251123400362S02247544EA0020200194
B1251133400364S02247549EA0020200194
B1251143400366S02247553EA0020200194
B1251153400369S02247557EA0020000192
B1251163400371S02247562EA0019900191
B1251173400373S02247568EA0019800190
B1251183400375S02247573EA0019700189
B1251193400378S02247578EA0019600188
B1251203400380S02247584EA0019500187
B1251213400382S02247590EA0019500187
B1251223400385S02247596EA0019400187
B1251233400387S02247601EA0019300185
B1251243400388S02247606EA0019100183
B1251253400390S02247612EA0019000182
B1251263400392S02247618EA0019100183
B1251273400394S02247626EA0019200184
B1251283400396S02247632EA0019500187
B1251293400398S02247638EA0019700190
B1251303400399S02247644EA0019900191
B1251313400401S02247649EA0020000192
B1251323400402S02247654EA0020100193
B1251333400403S02247659EA0020200195
B1251343400404S02247664EA0020300195
B1251353400406S02247669EA0020400197
B1251363400407S02247673EA0020600198
B1251373400409S02247676EA0020600199
B1251383400412S02247678EA0020600198
B1251393400414S02247679EA0020600199
B1251403400416S02247680EA0020700199
B1251413400419S02247680EA0020700199
B1251423400421S02247678EA0020800200
B1251433400422S02247676EA0020900201
B1251443400422S02247672EA0020900201
B1251453400421S02247668EA0020900202
B1251463400420S02247664EA0021000202
B1251473400417S02247661EA0020900201
B1251483400414S02247657EA0020900201
B1251493400410S02247653EA0021000202
B1251503400406S02247648EA0021200204
B1251513400402S02247643EA0021400207
B1251523400398S02247639EA0021700209
B1251533400396S02247636EA0021900211
B1251543400393S02247633EA0022000212
B1251553400391S02247629EA0022100214
B1251563400390S02247626EA0022300216
B1251573400389S02247622EA0022500217
B1251583400389S02247619EA0022700219
B1251593400389S02247616EA0022800221
B1252003400390S02247615EA0023100223
B1252013400392S02247614EA0023300225
B1252023400395S02247616EA0023500228
B1252033400398S02247618EA0023700229
B1252043400399S02247623EA0023800230
B1252053400399S02247628EA0023800230
B1252063400399S02247635EA0023800230
B1252073400396S02247643EA0023800231
B1252083400393S02247649EA0023900231
B1252093400388S02247655EA0023900231
B1252103400383S02247659EA0023800230
B1252113400377S02247661EA0023800231
B1252123400370S02247661EA0023900232
B1252133400364S02247659EA0024100234
B1252143400360S02247656EA0024400236
B1252153400358S02247653EA0024700239
B1252163400356S02247650EA0024900241
B1252173400354S02247647EA0025000242
B1252183400352S02247644EA0025100243
B1252193400352S02247640EA0025200244
B1252203400352S02247635EA0025200244
B1252213400354S02247633EA0025400246
B1252223400357S02247632EA0025700249
B1252233400360S02247631EA0025900251
B1252243400362S02247630EA0026100253
B1252253400365S02247630EA0026200254
B1252263400367S02247630EA0026200255
B1252273400370S02247630EA0026200254
B1252283400373S02247631EA0026400256
B1252293400375S02247633EA0026400256
B1252303400377S02247636EA0026300255
B1252313400378S02247640EA0026000253
B1252323400377S02247648EA0025900251
B1252333400377S02247656EA0025900252
B1252343400374S02247664EA0026000253
B1252353400372S02247673EA0026100253
B1252363400369S02247680EA0026000252
B1252373400365S02247687EA0025700250
B1252383400359S02247693EA0025700249
B1252393400352S02247699EA0025800250
B1252403400344S02247702EA0025900251
B1252413400336S02247704EA0026000252
B1252423400330S02247704EA0026000252
B1252433400323S02247703EA0026000253
B1252443400318S02247700EA0026100253
B1252453400313S02247696EA0026000252
B1252463400309S02247692EA0026000252
B1252473400306S02247687EA0026100253
B1252483400303S02247683EA0026100253
B1252493400300S02247678EA0026100253
B1252503400299S02247674EA0026100253
B1252513400297S02247669EA0026100254
B1252523400297S02247665EA0026000253
B1252533400297S02247660EA0026200254
B1252543400297S02247655EA0026300255
B1252553400298S02247651EA0026600258
B1252563400298S02247646EA0026800260
B1252573400298S02247643EA0027000262
B1252583400299S02247640EA0027100263
B1252593400299S02247637EA0027300265
B1253003400300S02247634EA0027500267
B1253013400301S02247632EA0027700269
B1253023400303S02247630EA0027900271
B1253033400304S02247629EA0028000272
B1253043400305S02247627EA0028000272
B1253053400306S02247625EA0028000273
B1253063400307S02247623EA0028100274
B1253073400309S02247621EA0028200275
B1253083400311S02247619EA0028400276
B1253093400314S02247617EA0028600279
B1253103400316S02247615EA0028800280
B1253113400318S02247613EA0029000282
B1253123400320S02247612EA0029200284
B1253133400321S02247610EA0029200284
B1253143400323S02247609EA0029200284
B1253153400324S02247609EA0029200284
B1253163400326S02247609EA0029200284
B1253173400329S02247608EA0029300285
B1253183400332S02247608EA0029500287
B1253193400335S02247608EA0029700290
B1253203400338S02247608EA0030000292
B1253213400341S02247608EA0030200294
B1253223400343S02247609EA0030400296
B1253233400346S02247609EA0030400296
B1253243400348S02247610EA0030400297
B1253253400350S02247611EA0030500297
B1253263400352S02247611EA0030500297
B1253273400355S02247611EA0030500298
B1253283400358S02247610EA0030600298
B1253293400361S02247610EA0030400297
B1253303400363S02247611EA0030300295
B1253313400365S02247612EA0030100293
B1253323400367S02247612EA0029900291
B1253333400369S02247613EA0029700290
B1253343400372S02247613EA0029700290
B1253353400376S02247613EA0029800290
B1253363400378S02247613EA0029800291
B1253373400381S02247612EA0029900291
B1253383400384S02247612EA0029900292
B1253393400386S02247612EA0030000292
B1253403400388S02247611EA0029900291
B1253413400390S02247610EA0029900291
B1253423400392S02247608EA0029900291
B1253433400393S02247606EA0029900291
B1253443400395S02247603EA0029900291
B1253453400397S02247601EA0030000292
B1253463400398S02247599EA0030000292
B1253473400400S02247597EA0030000292
B1253483400401S02247595EA0030000292
B1253493400404S02247593EA0030000292
B1253503400406S02247591EA0030000292
B1253513400408S02247587EA0030100293
B1253523400410S02247584EA0030200294
B1253533400411S02247581EA0030300295
B1253543400413S02247578EA0030400296
B1253553400414S02247576EA0030400296
B1253563400415S02247574EA0030300296
B1253573400417S02247572EA0030300295
B1253583400419S02247570EA0030200295
B1253593400421S02247568EA0030200295
B1254003400423S02247566EA0030300296
B1254013400425S02247564EA0030400296
B1254023400427S02247562EA0030300295
B1254033400429S02247561EA0030200295
B1254043400431S02247560EA0030200294
B1254053400432S02247558EA0030200294
B1254063400434S02247556EA0030200294
B1254073400435S02247553EA0030100293
B1254083400436S02247550EA0030000293
B1254093400437S02247548EA0030100293
B1254103400439S02247545EA0030100293
B1254113400439S02247542EA0030100293
B1254123400437S02247539EA0030000293
B1254133400434S02247537EA0030000292
B1254143400430S02247534EA0030000292
B1254153400425S02247532EA0029900291
B1254163400419S02247530EA0029900291
B1254173400412S02247532EA0029800290
B1254183400404S02247536EA0029800290
B1254193400397S02247541EA0029900291
B1254203400390S02247547EA0029900291
B1254213400385S02247554EA0029800290
B1254223400380S02247561EA0029700289
B1254233400376S02247568EA0029600288
B1254243400373S02247576EA0029500288
B1254253400371S02247584EA0029500287
B1254263400371S02247591EA0029400286
B1254273400373S02247597EA0029400286
B1254283400374S02247601EA0029300285
B1254293400376S02247606EA0029200285
B1254303400378S02247610EA0029100283
B1254313400381S02247613EA0028900281
B1254323400385S02247615EA0028800281
B1254333400388S02247617EA0028800280
B1254343400391S02247619EA0028800280
B1254353400395S02247620EA0028700280
B1254363400398S02247620EA0028600279
B1254373400401S02247620EA0028500277
B1254383400404S02247619EA0028400276
B1254393400408S02247619EA0028300276
B1254403400411S02247618EA0028400276
B1254413400414S02247618EA0028400276
B1254423400417S02247617EA0028300275
B1254433400419S02247618EA0028200274
B1254443400421S02247619EA0028000272
B1254453400424S02247619EA0027900271
B1254463400426S02247620EA0027800271
B1254473400429S02247620EA0028000272
B1254483400431S02247620EA0027900271
B1254493400434S02247621EA0027800270
B1254503400436S02247621EA0027800270
B1254513400438S02247622EA0027700269
B1254523400440S02247623EA0027600268
B1254533400442S02247624EA0027500267
B1254543400444S02247626EA0027500267
B1254553400447S02247628EA0027400266
B1254563400448S02247631EA0027300265
B1254573400450S02247636EA0027200264
B1254583400452S02247640EA0027200264
B1254593400454S02247645EA0027200264
B1255003400456S02247650EA0027200264
B1255013400458S02247655EA0027100263
B1255023400460S02247659EA0027100263
B1255033400462S02247664EA0027200264
B1255043400463S02247668EA0027300265
B1255053400465S02247673EA0027300265
B1255063400466S02247678EA0027300265
B1255073400467S02247684EA0027300265
B1255083400469S02247689EA0027300265
B1255093400470S02247695EA0027300266
B1255103400472S02247701EA0027400266
B1255113400473S02247708EA0027400267
B1255123400475S02247714EA0027500267
B1255133400476S02247721EA0027600268
B1255143400477S02247727EA0027600269
B1255153400479S02247733EA0027700269
B1255163400480S02247739EA0027700269
B1255173400481S02247746EA0027500268
B1255183400483S02247753EA0027500267
B1255193400484S02247761EA0027600269
B1255203400486S02247768EA0027700269
B1255213400487S02247775EA0027700269
B1255223400488S02247782EA0027700270
B1255233400489S02247789EA0027700269
B1255243400490S02247795EA0027600269
B1255253400491S02247802EA0027600268
B1255263400492S02247809EA0027500267
B1255273400493S02247816EA0027500268
B1255283400494S02247823EA0027500267
B1255293400496S02247830EA0027500267
B1255303400497S02247837EA0027400267
B1255313400498S02247844EA0027300266
B1255323400499S02247851EA0027300266
B1255333400500S02247858EA0027300265
B1255343400501S02247866EA0027200264
B1255353400502S02247873EA0027200264
B1255363400503S02247881EA0027100263
B1255373400504S02247888EA0027000262
B1255383400506S02247895EA0027000262
B1255393400507S02247902EA0026900262
B1255403400508S02247909EA0027000262
B1255413400509S02247916EA0026900262
B1255423400510S02247923EA0026900261
B1255433400510S02247929EA0026900261
B1255443400511S02247936EA0026900261
B1255453400512S02247942EA0026900261
B1255463400513S02247948EA0026900261
B1255473400515S02247954EA0027000262
B1255483400516S02247959EA0027000262
B1255493400518S02247965EA0027000262
B1255503400519S02247970EA0026900261
B1255513400520S02247975EA0026800260
B1255523400521S02247980EA0026600259
B1255533400523S02247986EA0026500257
B1255543400524S02247991EA0026400256
B1255553400527S02247996EA0026300256
B1255563400529S02248001EA0026400256
B1255573400531S02248007EA0026300255
B1255583400531S02248012EA0026200254
B1255593400532S02248017EA0026100253
B1256003400533S02248023EA0025900252
B1256013400534S02248029EA0025800250
B1256023400536S02248035EA0025800250
B1256033400537S02248041EA0025800250
B1256043400539S02248048EA0025800250
B1256053400540S02248054EA0025800251
B1256063400541S02248060EA0025800251
B1256073400542S02248066EA0025800250
B1256083400542S02248073EA0025800250
B1256093400543S02248080EA0025800251
B1256103400543S02248087EA0025900251
B1256113400541S02248095EA0026000252
B1256123400539S02248102EA0026000252
B1256133400538S02248109EA0025900251
B1256143400537S02248116EA0025700250
B1256153400536S02248123EA0025700249
B1256163400535S02248131EA0025700249
B1256173400534S02248139EA0025600248
B1256183400533S02248146EA0025500247
B1256193400532S02248154EA0025500247
B1256203400531S02248162EA0025500247
B1256213400531S02248169EA0025400246
B1256223400531S02248174EA0025100244
B1256233400532S02248178EA0024900241
B1256243400535S02248179EA0024600238
B1256253400538S02248179EA0024400236
B1256263400541S02248177EA0024300235
B1256273400544S02248175EA0024200235
B1256283400546S02248171EA0024200234
B1256293400548S02248168EA0024200234
B1256303400550S02248163EA0024200234
B1256313400551S02248159EA0024100234
B1256323400551S02248154EA0024100233
B1256333400551S02248149EA0024000232
B1256343400551S02248145EA0023900231
B1256353400551S02248140EA0023800231
B1256363400550S02248135EA0023800230
B1256373400550S02248131EA0023900231
B1256383400548S02248126EA0023900232
B1256393400547S02248121EA0024000232
B1256403400546S02248117EA0024100233
B1256413400545S02248113EA0024200235
B1256423400544S02248110EA0024400236
B1256433400543S02248107EA0024400236
B1256443400542S02248103EA0024500237
B1256453400540S02248100EA0024600238
B1256463400539S02248096EA0024900241
B1256473400538S02248092EA0025300245
B1256483400537S02248088EA0025700249
B1256493400536S02248086EA0025900251
B1256503400535S02248083EA0025900252
B1256513400534S02248082EA0025900252
B1256523400533S02248080EA0026100253
B1256533400531S02248076EA0026300255
B1256543400530S02248073EA0026500257
B1256553400529S02248070EA0026700259
B1256563400528S02248067EA0026700260
B1256573400527S02248065EA0026800260
B1256583400527S02248063EA0026800260
B1256593400527S02248059EA0026900262
B1257003400527S02248056EA0027000262
B1257013400529S02248056EA0027100263
B1257023400531S02248057EA0027200265
B1257033400533S02248059EA0027400266
B1257043400534S02248062EA0027400266
B1257053400535S02248068EA0027300266
B1257063400537S02248073EA0027300265
B1257073400539S02248078EA0027400266
B1257083400541S02248083EA0027400267
B1257093400543S02248089EA0027500267
B1257103400545S02248094EA0027500268
B1257113400547S02248100EA0027600268
B1257123400549S02248106EA0027600268
B1257133400551S02248111EA0027700269
B1257143400553S02248117EA0027900271
B1257153400556S02248122EA0028000273
B1257163400558S02248127EA0028300275
B1257173400560S02248133EA0028500277
B1257183400562S02248140EA0028700279
B1257193400564S02248146EA0029000282
B1257203400566S02248152EA0029100283
B1257213400568S02248158EA0029300285
B1257223400570S02248164EA0029600288
B1257233400574S02248169EA0029800290
B1257243400579S02248171EA0030000292
B1257253400583S02248173EA0030000292
B1257263400587S02248171EA0030100293
B1257273400588S02248168EA0030100294
B1257283400587S02248165EA0030100294
B1257293400585S02248162EA0030200294
B1257303400583S02248158EA0030200294
B1257313400581S02248155EA0030300295
B1257323400579S02248152EA0030200294
B1257333400577S02248150EA0030100293
B1257343400574S02248147EA0030000292
B1257353400570S02248144EA0029800290
B1257363400567S02248140EA0029700290
B1257373400564S02248135EA0029700289
B1257383400562S02248131EA0029600288
B1257393400559S02248127EA0029500287
B1257403400555S02248123EA0029500287
B1257413400552S02248118EA0029400286
B1257423400550S02248114EA0029100284
B1257433400547S02248109EA0029100283
B1257443400545S02248105EA0029100283
B1257453400542S02248100EA0029000282
B1257463400539S02248096EA0028900281
B1257473400537S02248091EA0028800280
B1257483400534S02248087EA0028700279
B1257493400531S02248083EA0028500278
B1257503400527S02248079EA0028500277
B1257513400524S02248074EA0028400276
B1257523400523S02248069EA0028400276
B1257533400521S02248065EA0028300275
B1257543400521S02248062EA0028200275
B1257553400522S02248060EA0028300275
B1257563400523S02248059EA0028200275
B1257573400525S02248059EA0028300276
B1257583400528S02248061EA0028400276
B1257593400530S02248063EA0028400276
B1258003400532S02248066EA0028200275
B1258013400534S02248070EA0028100273
B1258023400535S02248074EA0027900271
B1258033400537S02248079EA0027800270
B1258043400539S02248083EA0027700269
B1258053400542S02248088EA0027700269
B1258063400546S02248092EA0027700269
B1258073400549S02248096EA0027600269
B1258083400552S02248100EA0027600268
B1258093400555S02248104EA0027600268
B1258103400558S02248107EA0027600268
B1258113400561S02248111EA0027600268
B1258123400564S02248114EA0027700269
B1258133400567S02248118EA0027800270
B1258143400571S02248121EA0027900271
B1258153400574S02248124EA0027900271
B1258163400577S02248128EA0028000272
B1258173400580S02248131EA0028000272
B1258183400583S02248134EA0028100273
B1258193400586S02248137EA0028100274
B1258203400590S02248139EA0028200275
B1258213400593S02248142EA0028400276
B1258223400596S02248145EA0028400276
B1258233400599S02248149EA0028400276
B1258243400601S02248153EA0028300275
B1258253400603S02248157EA0028200274
B1258263400605S02248161EA0028000272
B1258273400607S02248166EA0027900271
B1258283400609S02248174EA0027900271
B1258293400612S02248181EA0027900271
B1258303400615S02248186EA0027900272
B1258313400618S02248191EA0028000272
B1258323400620S02248196EA0028000272
B1258333400623S02248200EA0027900271
B1258343400626S02248205EA0027800270
B1258353400629S02248210EA0027600269
B1258363400631S02248215EA0027500267
B1258373400633S02248221EA0027400266
B1258383400636S02248227EA0027400266
B1258393400638S02248233EA0027500267
B1258403400640S02248238EA0027600268
B1258413400642S02248243EA0027500267
B1258423400645S02248248EA0027400266
B1258433400647S02248254EA0027400266
B1258443400648S02248260EA0027300265
B1258453400651S02248265EA0027300265
B1258463400653S02248269EA0027300265
B1258473400655S02248274EA0027100264
B1258483400656S02248279EA0026900261
B1258493400658S02248283EA0026700259
B1258503400659S02248288EA0026500257
B1258513400662S02248292EA0026500257
B1258523400664S02248297EA0026400256
B1258533400666S02248302EA0026400257
B1258543400669S02248308EA0026500257
B1258553400671S02248313EA0026600258
B1258563400674S02248318EA0026800260
B1258573400676S02248323EA0026900261
B1258583400678S02248329EA0027000262
B1258593400680S02248334EA0027000262
B1259003400682S02248339EA0027000262
B1259013400684S02248342EA0026900261
B1259023400686S02248347EA0026800260
B1259033400688S02248352EA0026600259
B1259043400691S02248358EA0026700259
B1259053400693S02248363EA0026700259
B1259063400696S02248368EA0026700259
B1259073400699S02248372EA0026600259
B1259083400701S02248376EA0026500257
B1259093400704S02248381EA0026400256
B1259103400707S02248387EA0026300255
B1259113400710S02248393EA0026400256
B1259123400712S02248399EA0026400256
B1259133400714S02248406EA0026400257
B1259143400717S02248413EA0026500258
B1259153400719S02248419EA0026600258
B1259163400722S02248425EA0026600258
B1259173400724S02248431EA0026500257
B1259183400726S02248437EA0026400256
B1259193400728S02248444EA0026200254
B1259203400729S02248451EA0026100253
B1259213400732S02248458EA0026100253
B1259223400734S02248464EA0026000252
B1259233400736S02248470EA0025900251
B1259243400737S02248476EA0025700249
B1259253400739S02248481EA0025500247
B1259263400741S02248487EA0025300245
B1259273400743S02248494EA0025100244
B1259283400745S02248501EA0025000242
B1259293400747S02248509EA0025000242
B1259303400749S02248517EA0025000242
B1259313400751S02248524EA0025000243
B1259323400753S02248532EA0025100244
B1259333400755S02248539EA0025200244
B1259343400757S02248546EA0025300246
B1259353400759S02248552EA0025300246
B1259363400760S02248559EA0025300245
B1259373400761S02248565EA0025200245
B1259383400762S02248571EA0025200244
B1259393400763S02248577EA0025200244
B1259403400764S02248583EA0025100244
B1259413400766S02248589EA0025100243
B1259423400768S02248595EA0025100243
B1259433400769S02248601EA0025000243
B1259443400770S02248606EA0025100243
B1259453400772S02248612EA0025100243
B1259463400774S02248617EA0025100244
B1259473400776S02248623EA0025100244
B1259483400778S02248628EA0025100244
B1259493400779S02248633EA0025200244
B1259503400781S02248639EA0025200244
B1259513400783S02248644EA0025200244
B1259523400784S02248650EA0025200244
B1259533400786S02248657EA0025300245
B1259543400788S02248663EA0025400247
B1259553400791S02248669EA0025700249
B1259563400792S02248675EA0026000252
B1259573400794S02248681EA0026200254
B1259583400794S02248687EA0026300256
B1259593400795S02248693EA0026600258
B1300003400796S02248699EA0026800260
B1300013400798S02248704EA0026900262
B1300023400800S02248708EA0027000262
B1300033400803S02248709EA0027200264
B1300043400806S02248707EA0027400266
B1300053400809S02248704EA0027800270
B1300063400810S02248700EA0028000272
B1300073400810S02248697EA0028100273
B1300083400807S02248694EA0028100273
B1300093400803S02248692EA0028000272
B1300103400798S02248690EA0028000273
B1300113400792S02248689EA0028200274
B1300123400785S02248692EA0028400276
B1300133400779S02248696EA0028600279
B1300143400773S02248702EA0028900282
B1300153400770S02248708EA0029200284
B1300163400769S02248715EA0029400286
B1300173400767S02248721EA0029600288
B1300183400767S02248726EA0029800290
B1300193400768S02248731EA0030000292
B1300203400769S02248735EA0030200294
B1300213400770S02248740EA0030300295
B1300223400773S02248744EA0030500297
B1300233400777S02248748EA0030700300
B1300243400783S02248751EA0030900301
B1300253400786S02248753EA0031100303
B1300263400790S02248755EA0031200304
B1300273400792S02248755EA0031300305
B1300283400795S02248756EA0031300305
B1300293400798S02248756EA0031300306
B1300303400801S02248757EA0031300306
B1300313400804S02248757EA0031400306
B1300323400808S02248756EA0031400306
B1300333400811S02248755EA0031500307
B1300343400813S02248754EA0031600308
B1300353400816S02248754EA0031500308
B1300363400817S02248753EA0031400307
B1300373400819S02248753EA0031400306
B1300383400820S02248752EA0031200305
B1300393400822S02248751EA0031100303
B1300403400823S02248749EA0031100303
B1300413400824S02248746EA0031100303
B1300423400824S02248743EA0031100303
B1300433400823S02248741EA0031000302
B1300443400821S02248738EA0031000302
B1300453400820S02248735EA0030900301
B1300463400818S02248732EA0030800300
B1300473400816S02248729EA0030800300
B1300483400813S02248726EA0030700299
B1300493400810S02248722EA0030600298
B1300503400806S02248719EA0030400297
B1300513400802S02248715EA0030300295
B1300523400797S02248712EA0030200294
B1300533400793S02248709EA0030000292
B1300543400789S02248706EA0030000292
B1300553400785S02248703EA0029900291
B1300563400783S02248701EA0029700290
B1300573400780S02248699EA0029500287
B1300583400779S02248696EA0029300285
B1300593400780S02248694EA0029100284
B1301003400781S02248692EA0029100283
B1301013400783S02248692EA0029000283
B1301023400785S02248693EA0028900282
B1301033400787S02248695EA0028800280
B1301043400789S02248698EA0028700279
B1301053400791S02248702EA0028500277
B1301063400794S02248706EA0028200274
B1301073400797S02248711EA0028100274
B1301083400801S02248716EA0028100273
B1301093400804S02248720EA0028000273
B1301103400807S02248724EA0027900272
B1301113400810S02248728EA0027700269
B1301123400814S02248733EA0027400266
B1301133400817S02248738EA0027200264
B1301143400820S02248744EA0027100263
B1301153400823S02248749EA0027000262
B1301163400826S02248754EA0026800261
B1301173400828S02248760EA0026700259
B1301183400831S02248765EA0026600258
B1301193400834S02248771EA0026600258
B1301203400836S02248777EA0026500257
B1301213400839S02248782EA0026400256
B1301223400841S02248788EA0026300255
B1301233400843S02248792EA0026200255
B1301243400846S02248798EA0026200254
B1301253400848S02248803EA0026100253
B1301263400850S02248808EA0026100253
B1301273400852S02248814EA0026000252
B1301283400854S02248819EA0025900252
B1301293400855S02248825EA0025900251
B1301303400856S02248831EA0025800250
B1301313400857S02248837EA0025700249
B1301323400858S02248843EA0025600249
B1301333400860S02248849EA0025500248
B1301343400861S02248856EA0025500247
B1301353400862S02248863EA0025400246
B1301363400863S02248870EA0025300245
B1301373400864S02248878EA0025200244
B1301383400864S02248885EA0025100243
B1301393400865S02248892EA0025000242
B1301403400865S02248900EA0025000242
B1301413400865S02248909EA0025000242
B1301423400865S02248917EA0025000242
B1301433400864S02248926EA0025000243
B1301443400864S02248933EA0025000242
B1301453400863S02248941EA0024900242
B1301463400862S02248948EA0024900241
B1301473400862S02248956EA0024900241
B1301483400862S02248964EA0024900241
B1301493400862S02248971EA0024900241
B1301503400863S02248978EA0024800240
B1301513400864S02248983EA0024600239
B1301523400866S02248988EA0024500238
B1301533400868S02248990EA0024400236
B1301543400871S02248991EA0024200235
B1301553400873S02248990EA0024100233
B1301563400875S02248988EA0024100233
B1301573400875S02248984EA0024200234
B1301583400876S02248981EA0024200234
B1301593400877S02248978EA0024100233
B1302003400877S02248974EA0024000232
B1302013400876S02248969EA0023900231
B1302023400875S02248965EA0023900231
B1302033400875S02248961EA0023900232
B1302043400873S02248956EA0024000232
B1302053400872S02248952EA0024000232
B1302063400870S02248948EA0024000232
B1302073400869S02248944EA0024000232
B1302083400867S02248940EA0024100233
B1302093400865S02248936EA0024100233
B1302103400863S02248933EA0024100233
B1302113400860S02248929EA0024000232
B1302123400857S02248926EA0023900232
B1302133400854S02248922EA0023900231
B1302143400852S02248919EA0023800230
B1302153400850S02248915EA0023700229
B1302163400848S02248911EA0023700229
B1302173400847S02248907EA0023600228
B1302183400846S02248904EA0023500228
B1302193400845S02248901EA0023400226
B1302203400844S02248898EA0023300225
B1302213400843S02248894EA0023300225
B1302223400842S02248890EA0023300225
B1302233400842S02248887EA0023400226
B1302243400841S02248884EA0023300225
B1302253400840S02248882EA0023000222
B1302263400840S02248880EA0022600218
B1302273400839S02248877EA0022400216
B1302283400838S02248873EA0022200215
B1302293400837S02248869EA0022000212
B1302303400836S02248864EA0021900211
B1302313400836S02248858EA0021900211
B1302323400836S02248853EA0022000212
B1302333400836S02248848EA0022000213
B1302343400835S02248843EA0022100213
B1302353400835S02248839EA0022000212
B1302363400834S02248834EA0021700210
B1302373400832S02248829EA0021600208
B1302383400832S02248824EA0021600208
B1302393400831S02248819EA0021500207
B1302403400830S02248813EA0021300205
B1302413400830S02248808EA0021100204
B1302423400829S02248801EA0021000203
B1302433400828S02248795EA0021000202
B1302443400827S02248788EA0020900202
B1302453400826S02248781EA0020900202
B1302463400824S02248775EA0020900202
B1302473400823S02248770EA0021000202
B1302483400821S02248765EA0021000202
B1302493400820S02248760EA0021000202
B1302503400819S02248755EA0021100203
B1302513400818S02248750EA0021200204
B1302523400817S02248744EA0021200204
B1302533400816S02248739EA0021200204
B1302543400815S02248735EA0021200204
B1302553400814S02248731EA0021400207
B1302563400813S02248726EA0021600208
B1302573400813S02248722EA0021800210
B1302583400813S02248718EA0022000212
B1302593400812S02248715EA0022100213
B1303003400811S02248712EA0022200214
B1303013400810S02248709EA0022300215
B1303023400808S02248705EA0022500217
B1303033400807S02248700EA0022600219
B1303043400806S02248696EA0023000222
B1303053400805S02248691EA0023300225
B1303063400803S02248688EA0023500227
B1303073400802S02248684EA0023500227
B1303083400800S02248680EA0023500228
B1303093400799S02248675EA0023700229
B1303103400797S02248670EA0023800230
B1303113400796S02248665EA0024000232
B1303123400794S02248661EA0024000233
B1303133400793S02248657EA0024100233
B1303143400792S02248652EA0024200235
B1303153400792S02248648EA0024500237
B1303163400792S02248643EA0024700240
B1303173400793S02248640EA0024800240
B1303183400794S02248640EA0024800240
B1303193400795S02248642EA0024800240
B1303203400796S02248646EA0024800240
B1303213400796S02248650EA0024800240
B1303223400797S02248654EA0024900241
B1303233400799S02248659EA0024900241
B1303243400800S02248664EA0024900242
B1303253400802S02248668EA0025100243
B1303263400803S02248673EA0025100243
B1303273400805S02248677EA0025200244
B1303283400806S02248683EA0025200244
B1303293400808S02248688EA0025200245
B1303303400809S02248693EA0025200244
B1303313400809S02248698EA0025100243
B1303323400810S02248702EA0025000242
B1303333400812S02248705EA0024800240
B1303343400815S02248706EA0024600239
B1303353400816S02248705EA0024600238
B1303363400817S02248703EA0024600239
B1303373400818S02248699EA0024600239
B1303383400818S02248697EA0024600238
B1303393400817S02248694EA0024500237
B1303403400817S02248690EA0024300235
B1303413400816S02248686EA0024200234
B1303423400815S02248681EA0024100234
B1303433400814S02248677EA0024100233
B1303443400812S02248672EA0024100233
B1303453400811S02248668EA0024000233
B1303463400809S02248665EA0023900231
B1303473400807S02248661EA0023700229
B1303483400805S02248657EA0023500227
B1303493400802S02248653EA0023500227
B1303503400799S02248648EA0023500227
B1303513400797S02248644EA0023400226
B1303523400795S02248640EA0023400226
B1303533400793S02248636EA0023200225
B1303543400791S02248632EA0023100223
B1303553400790S02248627EA0022900221
B1303563400788S02248622EA0022700219
B1303573400787S02248616EA0022600218
B1303583400785S02248611EA0022700219
B1303593400783S02248605EA0022900221
B1304003400782S02248598EA0023100223
B1304013400780S02248594EA0023200225
B1304023400779S02248589EA0023300226
B1304033400777S02248585EA0023400226
B1304043400774S02248580EA0023300225
B1304053400772S02248575EA0023300225
B1304063400770S02248571EA0023300226
B1304073400766S02248567EA0023300225
B1304083400763S02248563EA0023300225
B1304093400759S02248558EA0023200224
B1304103400756S02248554EA0023200224
B1304113400753S02248549EA0023200225
B1304123400751S02248545EA0023300225
B1304133400748S02248542EA0023200225
B1304143400747S02248539EA0023200224
B1304153400745S02248536EA0023100223
B1304163400743S02248533EA0023000222
B1304173400741S02248529EA0022900221
B1304183400739S02248525EA0022900221
B1304193400736S02248521EA0022900222
B1304203400734S02248517EA0022900222
B1304213400732S02248513EA0023000222
B1304223400729S02248510EA0023000222
B1304233400727S02248507EA0023000222
B1304243400725S02248503EA0022900221
B1304253400723S02248499EA0023000222
B1304263400722S02248495EA0023100223
B1304273400720S02248491EA0023200225
B1304283400718S02248487EA0023200224
B1304293400717S02248484EA0023200224
B1304303400715S02248481EA0023000222
B1304313400714S02248477EA0022900221
B1304323400712S02248473EA0022900221
B1304333400710S02248469EA0022800221
B1304343400708S02248465EA0022700219
B1304353400706S02248461EA0022700219
B1304363400704S02248457EA0022700219
B1304373400702S02248452EA0022700219
B1304383400699S02248448EA0022800220
B1304393400697S02248443EA0022800221
B1304403400696S02248439EA0022900222
B1304413400694S02248435EA0023000222
B1304423400692S02248431EA0023100223
B1304433400690S02248426EA0023100223
B1304443400688S02248423EA0023200224
B1304453400686S02248418EA0023300225
B1304463400683S02248414EA0023400226
B1304473400682S02248410EA0023400227
B1304483400680S02248406EA0023500228
B1304493400679S02248403EA0023500227
B1304503400677S02248399EA0023400226
B1304513400675S02248396EA0023400226
B1304523400672S02248392EA0023300225
B1304533400669S02248388EA0023300225
B1304543400665S02248384EA0023400226
B1304553400662S02248379EA0023700229
B1304563400658S02248375EA0023900231
B1304573400656S02248372EA0024100233
B1304583400653S02248369EA0024200234
B1304593400652S02248367EA0024200234
B1305003400650S02248364EA0024100233
B1305013400649S02248360EA0024100234
B1305023400647S02248357EA0024200234
B1305033400646S02248354EA0024300235
B1305043400646S02248351EA0024400236
B1305053400648S02248348EA0024500237
B1305063400650S02248346EA0024600238
B1305073400652S02248345EA0024700239
B1305083400654S02248345EA0024800240
B1305093400657S02248346EA0024800241
B1305103400660S02248349EA0024800240
B1305113400663S02248354EA0024800240
B1305123400666S02248359EA0024800240
B1305133400669S02248365EA0024800240
B1305143400671S02248372EA0024700240
B1305153400674S02248378EA0024700239
B1305163400675S02248384EA0024600238
B1305173400677S02248392EA0024600239
B1305183400680S02248399EA0024800240
B1305193400682S02248407EA0024900242
B1305203400685S02248415EA0025100243
B1305213400688S02248419EA0025100243
B1305223400691S02248424EA0025100243
B1305233400694S02248426EA0025100244
B1305243400697S02248428EA0025100244
B1305253400701S02248427EA0025300245
B1305263400704S02248425EA0025500247
B1305273400706S02248423EA0025600248
B1305283400706S02248420EA0025700249
B1305293400706S02248416EA0025700250
B1305303400704S02248413EA0025800250
B1305313400702S02248410EA0025900251
B1305323400700S02248406EA0026000252
B1305333400699S02248402EA0026100253
B1305343400696S02248398EA0026200254
B1305353400695S02248393EA0026400257
B1305363400692S02248388EA0026500258
B1305373400691S02248384EA0026600258
B1305383400689S02248381EA0026700259
B1305393400688S02248377EA0026700259
B1305403400687S02248373EA0026800260
B1305413400687S02248369EA0027100263
B1305423400687S02248366EA0027300265
B1305433400688S02248363EA0027400266
B1305443400690S02248362EA0027400266
B1305453400692S02248362EA0027400267
B1305463400694S02248362EA0027500267
B1305473400697S02248363EA0027500267
B1305483400700S02248364EA0027500268
B1305493400703S02248367EA0027600268
B1305503400706S02248371EA0027700269
B1305513400708S02248378EA0027800270
B1305523400709S02248386EA0027900271
B1305533400708S02248394EA0028100273
B1305543400707S02248402EA0028300275
B1305553400705S02248409EA0028500277
B1305563400702S02248415EA0028600279
B1305573400699S02248421EA0028800280
B1305583400694S02248425EA0028900281
B1305593400689S02248427EA0029100283
B1306003400681S02248425EA0029200284
B1306013400676S02248422EA0029200284
B1306023400671S02248420EA0029200284
B1306033400668S02248416EA0029300286
B1306043400666S02248412EA0029400286
B1306053400667S02248407EA0029400286
B1306063400667S02248404EA0029500287
B1306073400667S02248400EA0029600288
B1306083400669S02248396EA0029800290
B1306093400671S02248393EA0029900291
B1306103400674S02248391EA0030100293
B1306113400677S02248390EA0030300295
B1306123400679S02248391EA0030400296
B1306133400682S02248393EA0030400296
B1306143400684S02248395EA0030300295
B1306153400687S02248398EA0030400296
B1306163400691S02248402EA0030600298
B1306173400694S02248408EA0030700300
B1306183400696S02248415EA0030800300
B1306193400696S02248423EA0030900301
B1306203400695S02248431EA0031000302
B1306213400693S02248439EA0031100303
B1306223400691S02248446EA0031000302
B1306233400687S02248452EA0030900301
B1306243400682S02248457EA0030900301
B1306253400676S02248462EA0030900301
B1306263400669S02248465EA0031000302
B1306273400662S02248465EA0031000303
B1306283400655S02248465EA0031200304
B1306293400649S02248462EA0031300305
B1306303400645S02248460EA0031500307
B1306313400641S02248457EA0031600309
B1306323400639S02248453EA0031600309
B1306333400638S02248449EA0031700309
B1306343400637S02248446EA0031700310
B1306353400638S02248442EA0031800310
B1306363400639S02248439EA0031800310
B1306373400640S02248436EA0031800310
B1306383400642S02248434EA0031800310
B1306393400645S02248432EA0031900311
B1306403400649S02248431EA0031900311
B1306413400652S02248432EA0031800311
B1306423400656S02248434EA0031700309
B1306433400659S02248438EA0031600308
B1306443400662S02248444EA0031400306
B1306453400664S02248450EA0031300305
B1306463400667S02248457EA0031100303
B1306473400668S02248464EA0031000302
B1306483400669S02248472EA0030900301
B1306493400669S02248481EA0030900301
B1306503400669S02248491EA0031000302
B1306513400667S02248501EA0031100304
B1306523400663S02248510EA0031300306
B1306533400658S02248517EA0031500307
B1306543400653S02248523EA0031500307
B1306553400647S02248528EA0031500307
B1306563400639S02248531EA0031600308
B1306573400632S02248533EA0031700309
B1306583400626S02248532EA0031700309
B1306593400620S02248531EA0031800310
B1307003400615S02248529EA0031800311
B1307013400611S02248527EA0031900311
B1307023400608S02248524EA0031800310
B1307033400606S02248521EA0031800310
B1307043400604S02248517EA0031700310
B1307053400604S02248512EA0031800310
B1307063400604S02248507EA0032000312
B1307073400603S02248503EA0032100313
B1307083400603S02248499EA0032000313
B1307093400603S02248496EA0032000312
B1307103400604S02248493EA0031800310
B1307113400604S02248492EA0031600308
B1307123400604S02248490EA0031400306
B1307133400604S02248487EA0031200304
B1307143400604S02248484EA0031100303
B1307153400605S02248481EA0030900302
B1307163400606S02248478EA0030800300
B1307173400608S02248476EA0030800300
B1307183400611S02248475EA0030800300
B1307193400613S02248474EA0030700299
B1307203400615S02248472EA0030700299
B1307213400618S02248471EA0030700299
B1307223400620S02248470EA0030600298
B1307233400622S02248471EA0030500297
B1307243400625S02248472EA0030400296
B1307253400628S02248474EA0030300295
B1307263400632S02248477EA0030300296
B1307273400636S02248481EA0030300296
B1307283400639S02248487EA0030200295
B1307293400642S02248493EA0030100294
B1307303400644S02248501EA0030100293
B1307313400645S02248509EA0030200294
B1307323400645S02248517EA0030200294
B1307333400644S02248526EA0030100294
B1307343400642S02248535EA0030100293
B1307353400639S02248543EA0030000293
B1307363400636S02248550EA0030100293
B1307373400631S02248557EA0030100294
B1307383400624S02248562EA0030100293
B1307393400618S02248565EA0030100293
B1307403400611S02248568EA0030200294
B1307413400604S02248569EA0030200295
B1307423400598S02248569EA0030200294
B1307433400593S02248567EA0030100293
B1307443400588S02248564EA0030000293
B1307453400585S02248561EA0030000293
B1307463400582S02248557EA0030100293
B1307473400579S02248551EA0030200294
B1307483400578S02248545EA0030400296
B1307493400577S02248541EA0030400296
B1307503400576S02248537EA0030400296
B1307513400576S02248533EA0030300295
B1307523400575S02248530EA0030200294
B1307533400575S02248526EA0030100293
B1307543400575S02248522EA0030100293
B1307553400575S02248517EA0030100293
B1307563400576S02248513EA0030100293
B1307573400576S02248510EA0030000292
B1307583400576S02248506EA0029900291
B1307593400575S02248503EA0029700289
B1308003400575S02248499EA0029600288
B1308013400575S02248496EA0029500287
B1308023400576S02248492EA0029500287
B1308033400577S02248488EA0029500288
B1308043400578S02248485EA0029500287
B1308053400579S02248482EA0029400286
B1308063400580S02248480EA0029200284
B1308073400582S02248477EA0029000283
B1308083400583S02248474EA0028900281
B1308093400585S02248471EA0028800280
B1308103400586S02248468EA0028700280
B1308113400588S02248465EA0028700279
B1308123400590S02248463EA0028600278
B1308133400591S02248461EA0028400276
B1308143400592S02248460EA0028100273
B1308153400593S02248458EA0027900271
B1308163400593S02248456EA0027700269
B1308173400596S02248453EA0027400266
B1308183400598S02248449EA0027000262
B1308193400600S02248446EA0026800260
B1308203400604S02248442EA0026600258
B1308213400607S02248437EA0026500258
B1308223400610S02248433EA0026400257
B1308233400612S02248429EA0026300256
B1308243400615S02248426EA0026200254
B1308253400618S02248423EA0026100253
B1308263400621S02248419EA0025900252
B1308273400624S02248415EA0025900251
B1308283400626S02248410EA0025900251
B1308293400629S02248406EA0025900251
B1308303400633S02248402EA0025900251
B1308313400636S02248398EA0025800250
B1308323400638S02248394EA0026000253
B1308333400638S02248390EA0026300255
B1308343400639S02248387EA0026500257
B1308353400640S02248384EA0026500257
B1308363400642S02248382EA0026500257
B1308373400643S02248379EA0026500257
B1308383400644S02248376EA0026600258
B1308393400646S02248372EA0026700259
B1308403400648S02248367EA0026800260
B1308413400650S02248364EA0027000262
B1308423400651S02248360EA0027100264
B1308433400651S02248357EA0027200264
B1308443400651S02248353EA0027300265
B1308453400652S02248349EA0027400266
B1308463400653S02248345EA0027500268
B1308473400654S02248341EA0027700270
B1308483400655S02248338EA0027800270
B1308493400654S02248336EA0027800270
B1308503400654S02248334EA0027700269
B1308513400655S02248331EA0027700269
B1308523400656S02248328EA0027900272
B1308533400658S02248325EA0028100273
B1308543400661S02248322EA0028400276
B1308553400663S02248320EA0028400277
B1308563400664S02248317EA0028400276
B1308573400666S02248316EA0028200274
B1308583400666S02248317EA0027900271
B1308593400668S02248319EA0027700270
B1309003400670S02248323EA0027700269
B1309013400673S02248329EA0027700269
B1309023400674S02248335EA0027700269
B1309033400674S02248342EA0027700269
B1309043400674S02248350EA0027700269
B1309053400673S02248357EA0027800270
B1309063400671S02248365EA0027900271
B1309073400669S02248373EA0027900271
B1309083400666S02248381EA0027900271
B1309093400662S02248387EA0027900271
B1309103400656S02248391EA0027900271
B1309113400651S02248393EA0027800271
B1309123400644S02248390EA0027900271
B1309133400640S02248387EA0027900271
B1309143400636S02248384EA0027900271
B1309153400633S02248381EA0027900271
B1309163400631S02248376EA0027900271
B1309173400631S02248372EA0027800271
B1309183400631S02248368EA0027900271
B1309193400630S02248365EA0027900271
B1309203400629S02248362EA0028000272
B1309213400629S02248358EA0028000272
B1309223400629S02248356EA0027900271
B1309233400629S02248353EA0027900271
B1309243400630S02248349EA0028000272
B1309253400630S02248346EA0028000272
B1309263400631S02248343EA0027900272
B1309273400631S02248340EA0028000272
B1309283400633S02248337EA0028100273
B1309293400634S02248335EA0028100273
B1309303400635S02248334EA0028200274
B1309313400636S02248332EA0028200274
B1309323400636S02248330EA0028200274
B1309333400637S02248327EA0028100273
B1309343400637S02248324EA0028000272
B1309353400637S02248322EA0027900271
B1309363400638S02248319EA0027800271
B1309373400638S02248316EA0027700270
B1309383400638S02248312EA0027600269
B1309393400638S02248309EA0027600268
B1309403400638S02248306EA0027500267
B1309413400638S02248303EA0027400266
B1309423400638S02248299EA0027300265
B1309433400638S02248296EA0027200265
B1309443400638S02248293EA0027200264
B1309453400638S02248290EA0027100263
B1309463400639S02248287EA0027000263
B1309473400639S02248284EA0027000263
B1309483400639S02248281EA0027000262
B1309493400639S02248279EA0026900261
B1309503400639S02248276EA0026700260
B1309513400639S02248273EA0026600258
B1309523400639S02248270EA0026500258
B1309533400639S02248267EA0026500257
B1309543400639S02248263EA0026500257
B1309553400639S02248260EA0026400256
B1309563400640S02248257EA0026300256
B1309573400640S02248254EA0026300255
B1309583400640S02248251EA0026200255
B1309593400640S02248248EA0026100253
B1310003400640S02248245EA0026000252
B1310013400640S02248242EA0025900251
B1310023400640S02248239EA0025700250
B1310033400640S02248237EA0025500247
B1310043400640S02248235EA0025300246
B1310053400641S02248232EA0025100243
B1310063400642S02248229EA0024900242
B1310073400643S02248226EA0024800241
B1310083400644S02248223EA0024900241
B1310093400646S02248221EA0025100243
B1310103400648S02248218EA0025100243
B1310113400649S02248216EA0025100243
B1310123400651S02248213EA0025200244
B1310133400653S02248211EA0025200244
B1310143400655S02248209EA0025100243
B1310153400658S02248207EA0025100243
B1310163400660S02248205EA0025300245
B1310173400664S02248203EA0025400247
B1310183400665S02248202EA0025500247
B1310193400667S02248201EA0025400246
B1310203400668S02248200EA0025200244
B1310213400670S02248199EA0025100243
B1310223400671S02248198EA0025100243
B1310233400672S02248196EA0025200244
B1310243400673S02248193EA0025300245
B1310253400674S02248191EA0025400246
B1310263400675S02248189EA0025300245
B1310273400676S02248188EA0025300245
B1310283400677S02248186EA0025200244
B1310293400678S02248184EA0025200244
B1310303400679S02248182EA0025200244
B1310313400680S02248179EA0025300245
B1310323400681S02248176EA0025300245
B1310333400680S02248174EA0025200244
B1310343400680S02248171EA0025000242
B1310353400679S02248169EA0024800240
B1310363400678S02248166EA0024600238
B1310373400677S02248163EA0024500237
B1310383400676S02248159EA0024300236
B1310393400676S02248155EA0024200234
B1310403400675S02248152EA0024200234
B1310413400675S02248149EA0024200234
B1310423400675S02248146EA0024000233
B1310433400675S02248143EA0023900232
B1310443400676S02248140EA0023800230
B1310453400676S02248137EA0023700229
B1310463400676S02248134EA0023700229
B1310473400675S02248130EA0023500228
B1310483400675S02248126EA0023400226
B1310493400675S02248123EA0023200225
B1310503400675S02248119EA0023100223
B1310513400676S02248115EA0023000222
B1310523400677S02248111EA0023000222
B1310533400677S02248108EA0022900222
B1310543400677S02248106EA0022800220
B1310553400678S02248104EA0022500217
B1310563400680S02248104EA0022300215
B1310573400684S02248105EA0022400216
B1310583400687S02248108EA0022300216
B1310593400690S02248111EA0022300215
B1311003400693S02248114EA0022100213
B1311013400696S02248119EA0021900211
B1311023400698S02248125EA0021800210
B1311033400701S02248131EA0021800211
B1311043400703S02248136EA0021800210
B1311053400706S02248142EA0021800210
B1311063400707S02248147EA0021600208
B1311073400710S02248153EA0021600208
B1311083400712S02248159EA0021600208
B1311093400713S02248166EA0021600208
B1311103400714S02248173EA0021600208
B1311113400714S02248179EA0021500208
B1311123400715S02248185EA0021500207
B1311133400715S02248191EA0021400206
B1311143400715S02248199EA0021400206
B1311153400715S02248206EA0021400206
B1311163400715S02248214EA0021500207
B1311173400715S02248222EA0021600208
B1311183400715S02248229EA0021600208
B1311193400714S02248236EA0021500207
B1311203400714S02248243EA0021400206
B1311213400713S02248250EA0021300205
B1311223400713S02248259EA0021300205
B1311233400713S02248268EA0021200204
B1311243400713S02248277EA0021300205
B1311253400712S02248285EA0021400206
B1311263400712S02248293EA0021400207
B1311273400712S02248302EA0021400207
B1311283400711S02248309EA0021400206
B1311293400710S02248317EA0021300205
B1311303400710S02248325EA0021200204
B1311313400709S02248333EA0021100204
B1311323400709S02248341EA0021100203
B1311333400708S02248349EA0021000202
B1311343400707S02248357EA0021000202
B1311353400706S02248364EA0020900201
B1311363400706S02248371EA0020800200
B1311373400705S02248377EA0020700199
B1311383400706S02248384EA0020700199
B1311393400707S02248389EA0020600199
B1311403400708S02248394EA0020500197
B1311413400711S02248398EA0020400196
B1311423400714S02248401EA0020200195
B1311433400717S02248403EA0020100193
B1311443400719S02248405EA0019900191
B1311453400722S02248403EA0019700189
B1311463400724S02248400EA0019600188
B1311473400725S02248395EA0019600188
B1311483400726S02248391EA0019600188
B1311493400726S02248387EA0019500187
B1311503400726S02248384EA0019300185
B1311513400725S02248380EA0019100183
B1311523400724S02248376EA0019000182
B1311533400722S02248371EA0018900182
B1311543400721S02248366EA0019000182
B1311553400718S02248362EA0018900182
B1311563400716S02248357EA0018800180
B1311573400713S02248353EA0018600178
B1311583400710S02248349EA0018500178
B1311593400706S02248344EA0018400176
B1312003400704S02248338EA0018200174
B1312013400701S02248333EA0018200174
B1312023400699S02248328EA0018400176
B1312033400697S02248323EA0018600178
B1312043400696S02248318EA0018800180
B1312053400695S02248314EA0019100183
B1312063400693S02248310EA0019200185
B1312073400691S02248307EA0019100184
B1312083400690S02248305EA0018900182
B1312093400688S02248303EA0018700179
B1312103400686S02248301EA0018500177
B1312113400684S02248297EA0018500177
B1312123400681S02248293EA0018500177
B1312133400679S02248289EA0018400176
B1312143400678S02248285EA0018300176
B1312153400677S02248281EA0018200174
B1312163400675S02248277EA0018100174
B1312173400674S02248272EA0018000173
B1312183400672S02248268EA0017900171
B1312193400670S02248262EA0017800171
B1312203400667S02248257EA0017900171
B1312213400665S02248251EA0017900171
B1312223400662S02248246EA0017900172
B1312233400659S02248241EA0018000172
B1312243400656S02248236EA0018000172
B1312253400653S02248232EA0018000172
B1312263400650S02248228EA0017900171
B1312273400648S02248223EA0017900171
B1312283400645S02248219EA0017800170
B1312293400642S02248215EA0017800170
B1312303400639S02248210EA0017800170
B1312313400636S02248205EA0017800170
B1312323400634S02248199EA0017800170
B1312333400631S02248195EA0017800170
B1312343400629S02248190EA0017800170
B1312353400626S02248186EA0017800170
B1312363400623S02248182EA0018000172
B1312373400620S02248178EA0018000172
B1312383400619S02248174EA0017900172
B1312393400618S02248170EA0018000172
B1312403400618S02248166EA0018100173
B1312413400618S02248163EA0018200174
B1312423400617S02248160EA0018300175
B1312433400617S02248156EA0018300175
B1312443400616S02248153EA0018400177
B1312453400617S02248150EA0018600178
B1312463400618S02248147EA0018700179
B1312473400619S02248144EA0018900182
B1312483400619S02248142EA0019100183
B1312493400620S02248140EA0019100184
B1312503400620S02248138EA0019100183
B1312513400620S02248135EA0019100183
B1312523400621S02248133EA0019200185
B1312533400623S02248130EA0019400186
B1312543400623S02248127EA0019500187
B1312553400624S02248124EA0019500187
B1312563400624S02248122EA0019500187
B1312573400624S02248119EA0019400187
B1312583400623S02248115EA0019400186
B1312593400622S02248112EA0019300185
B1313003400620S02248109EA0019200185
B1313013400615S02248108EA0019200185
B1313023400607S02248110EA0019300185
B1313033400601S02248114EA0019400186
B1313043400594S02248119EA0019400186
B1313053400590S02248125EA0019400186
B1313063400586S02248134EA0019500187
B1313073400583S02248142EA0019500187
B1313083400583S02248151EA0019500187
B1313093400583S02248158EA0019500188
B1313103400586S02248163EA0019600188
B1313113400590S02248167EA0019700189
B1313123400593S02248170EA0019800190
B1313133400596S02248172EA0019800190
B1313143400601S02248172EA0019800190
B1313153400604S02248171EA0019800191
B1313163400607S02248169EA0019900191
B1313173400609S02248167EA0020000193
B1313183400611S02248164EA0020200194
B1313193400612S02248161EA0020200194
B1313203400614S02248159EA0020200194
B1313213400616S02248157EA0020300195
B1313223400618S02248155EA0020400196
B1313233400620S02248153EA0020400196
B1313243400622S02248150EA0020400197
B1313253400623S02248147EA0020500197
B1313263400624S02248144EA0020600198
B1313273400625S02248141EA0020700199
B1313283400626S02248138EA0020700199
B1313293400626S02248135EA0020500198
B1313303400624S02248132EA0020300196
B1313313400622S02248128EA0020200194
B1313323400618S02248124EA0020200194
B1313333400612S02248120EA0020200194
B1313343400607S02248117EA0020100194
B1313353400599S02248119EA0020100194
B1313363400592S02248123EA0020100193
B1313373400585S02248127EA0020000192
B1313383400580S02248134EA0019800190
B1313393400576S02248142EA0019700189
B1313403400575S02248151EA0019700189
B1313413400575S02248159EA0019800190
B1313423400577S02248166EA0019900192
B1313433400579S02248171EA0020000192
B1313443400582S02248175EA0020000192
B1313453400585S02248178EA0020000192
B1313463400589S02248181EA0020000192
B1313473400593S02248182EA0020000192
B1313483400597S02248183EA0020000192
B1313493400600S02248183EA0020000192
B1313503400604S02248182EA0020000193
B1313513400606S02248181EA0020000192
B1313523400608S02248179EA0020000192
B1313533400609S02248176EA0019900192
B1313543400611S02248171EA0020100193
B1313553400612S02248167EA0020100194
B1313563400614S02248163EA0020100193
B1313573400615S02248160EA0020100193
B1313583400616S02248157EA0020000192
B1313593400616S02248153EA0019800190
B1314003400616S02248149EA0019700189
B1314013400615S02248144EA0019800190
B1314023400615S02248138EA0020000192
B1314033400613S02248132EA0020300195
B1314043400611S02248127EA0020500198
B1314053400609S02248122EA0020700199
B1314063400607S02248119EA0020700199
B1314073400604S02248115EA0020700199
B1314083400602S02248111EA0020700199
B1314093400598S02248106EA0020700199
B1314103400595S02248102EA0020700199
B1314113400592S02248097EA0020900202
B1314123400589S02248092EA0021200204
B1314133400587S02248088EA0021300205
B1314143400586S02248084EA0021400206
B1314153400585S02248080EA0021400206
B1314163400584S02248076EA0021500208
B1314173400584S02248072EA0021600208
B1314183400585S02248069EA0021600208
B1314193400586S02248066EA0021700209
B1314203400589S02248064EA0021800210
B1314213400591S02248063EA0021900212
B1314223400593S02248062EA0022000212
B1314233400596S02248062EA0022000213
B1314243400599S02248062EA0022100213
B1314253400602S02248062EA0022200214
B1314263400605S02248062EA0022200214
B1314273400608S02248063EA0022200214
B1314283400611S02248065EA0022100213
B1314293400615S02248068EA0022100213
B1314303400618S02248072EA0022300215
B1314313400621S02248076EA0022300215
B1314323400623S02248083EA0022300215
B1314333400624S02248090EA0022300215
B1314343400623S02248098EA0022400216
B1314353400622S02248107EA0022600218
B1314363400619S02248113EA0022700220
B1314373400615S02248119EA0022700220
B1314383400610S02248124EA0022800220
B1314393400605S02248128EA0023000223
B1314403400599S02248127EA0023200224
B1314413400595S02248125EA0023300225
B1314423400591S02248123EA0023300226
B1314433400587S02248120EA0023300226
B1314443400585S02248115EA0023300226
B1314453400583S02248111EA0023500227
B1314463400582S02248106EA0023500228
B1314473400581S02248100EA0023600228
B1314483400580S02248096EA0023600229
B1314493400579S02248092EA0023600228
B1314503400579S02248088EA0023600228
B1314513400579S02248084EA0023600228
B1314523400580S02248081EA0023600229
B1314533400581S02248077EA0023800230
B1314543400583S02248075EA0023800230
B1314553400585S02248074EA0023800230
B1314563400587S02248074EA0023800230
B1314573400590S02248075EA0023700229
B1314583400593S02248077EA0023600228
B1314593400596S02248079EA0023600228
B1315003400600S02248081EA0023500228
B1315013400603S02248082EA0023500228
B1315023400606S02248083EA0023500228
B1315033400609S02248084EA0023600228
B1315043400611S02248086EA0023600228
B1315053400614S02248091EA0023500227
B1315063400615S02248096EA0023500228
B1315073400615S02248103EA0023600228
B1315083400614S02248110EA0023600228
B1315093400612S02248117EA0023600228
B1315103400609S02248124EA0023600228
B1315113400604S02248131EA0023600228
B1315123400599S02248137EA0023600228
B1315133400593S02248142EA0023700229
B1315143400586S02248144EA0023600228
B1315153400580S02248146EA0023500227
B1315163400574S02248146EA0023400226
B1315173400569S02248143EA0023300225
B1315183400564S02248141EA0023300225
B1315193400559S02248137EA0023300225
B1315203400558S02248133EA0023200224
B1315213400556S02248128EA0023100224
B1315223400555S02248124EA0023100223
B1315233400554S02248119EA0023000222
B1315243400553S02248115EA0022800220
B1315253400552S02248109EA0022900221
B1315263400551S02248104EA0023000222
B1315273400550S02248100EA0023200224
B1315283400548S02248096EA0023400226
B1315293400545S02248093EA0023400227
B1315303400543S02248090EA0023500227
B1315313400541S02248087EA0023400226
B1315323400539S02248084EA0023500227
B1315333400538S02248080EA0023600229
B1315343400537S02248077EA0023700229
B1315353400535S02248074EA0023700229
B1315363400535S02248071EA0023600229
B1315373400534S02248067EA0023600228
B1315383400532S02248063EA0023600228
B1315393400531S02248059EA0023600228
B1315403400530S02248055EA0023500227
B1315413400529S02248051EA0023400226
B1315423400528S02248047EA0023400226
B1315433400527S02248042EA0023400226
B1315443400525S02248038EA0023300225
B1315453400523S02248033EA0023300226
B1315463400521S02248029EA0023300225
B1315473400520S02248026EA0023200224
B1315483400518S02248022EA0023200224
B1315493400517S02248018EA0023200224
B1315503400516S02248014EA0023100224
B1315513400515S02248010EA0023200224
B1315523400514S02248006EA0023200224
B1315533400512S02248001EA0023300225
B1315543400511S02247997EA0023300225
B1315553400509S02247992EA0023200224
B1315563400507S02247988EA0023100223
B1315573400506S02247983EA0023100224
B1315583400504S02247979EA0023100223
B1315593400502S02247975EA0023000222
B1316003400501S02247971EA0022900222
B1316013400499S02247966EA0023000222
B1316023400498S02247962EA0023000223
B1316033400497S02247957EA0023100223
B1316043400496S02247953EA0023100223
B1316053400495S02247949EA0023100223
B1316063400494S02247945EA0023200224
B1316073400493S02247941EA0023200224
B1316083400492S02247937EA0023300225
B1316093400491S02247932EA0023400226
B1316103400490S02247928EA0023600228
B1316113400488S02247924EA0023600228
B1316123400487S02247920EA0023600229
B1316133400486S02247915EA0023700229
B1316143400485S02247910EA0023700229
B1316153400485S02247906EA0023800230
B1316163400483S02247901EA0023700229
B1316173400481S02247897EA0023700229
B1316183400479S02247893EA0023600229
B1316193400477S02247889EA0023600228
B1316203400475S02247885EA0023600229
B1316213400473S02247881EA0023800230
B1316223400471S02247877EA0023800231
B1316233400469S02247873EA0023900231
B1316243400467S02247870EA0023800230
B1316253400466S02247867EA0023600228
B1316263400464S02247863EA0023400227
B1316273400463S02247859EA0023400226
B1316283400463S02247855EA0023300226
B1316293400461S02247850EA0023300225
B1316303400460S02247846EA0023300225
B1316313400458S02247842EA0023200224
B1316323400456S02247839EA0023200224
B1316333400454S02247835EA0023100224
B1316343400453S02247831EA0023100223
B1316353400451S02247827EA0023100223
B1316363400449S02247823EA0023000222
B1316373400447S02247819EA0023100223
B1316383400444S02247815EA0023100223
B1316393400442S02247811EA0023100223
B1316403400440S02247808EA0022900222
B1316413400438S02247805EA0022800220
B1316423400435S02247801EA0022700219
B1316433400433S02247796EA0022700219
B1316443400431S02247792EA0022700219
B1316453400429S02247788EA0022700219
B1316463400427S02247784EA0022700219
B1316473400426S02247781EA0022700219
B1316483400425S02247777EA0022500217
B1316493400424S02247774EA0022400216
B1316503400423S02247770EA0022400216
B1316513400423S02247766EA0022300215
B1316523400422S02247761EA0022300215
B1316533400422S02247757EA0022300215
B1316543400421S02247752EA0022300215
B1316553400420S02247747EA0022300215
B1316563400419S02247742EA0022300215
B1316573400418S02247737EA0022300215
B1316583400417S02247732EA0022300215
B1316593400416S02247728EA0022300215
B1317003400414S02247724EA0022300215
B1317013400413S02247720EA0022300215
B1317023400412S02247716EA0022200214
B1317033400410S02247711EA0022100214
B1317043400409S02247707EA0022100213
B1317053400407S02247702EA0022100213
B1317063400406S02247698EA0022100213
B1317073400404S02247694EA0022000212
B1317083400403S02247689EA0022000213
B1317093400402S02247685EA0022000213
B1317103400400S02247682EA0022000212
B1317113400399S02247678EA0021900212
B1317123400398S02247674EA0022000212
B1317133400397S02247671EA0022000212
B1317143400396S02247667EA0022000212
B1317153400396S02247664EA0022100213
B1317163400395S02247661EA0022200214
B1317173400394S02247659EA0022100213
B1317183400394S02247656EA0022100213
B1317193400393S02247653EA0022000213
B1317203400393S02247649EA0022100213
B1317213400392S02247646EA0022000213
B1317223400392S02247642EA0022100213
B1317233400391S02247639EA0022000213
B1317243400390S02247636EA0022000212
B1317253400388S02247633EA0021900212
B1317263400387S02247629EA0021900211
B1317273400385S02247625EA0021900211
B1317283400384S02247621EA0021800210
B1317293400383S02247617EA0021800210
B1317303400381S02247614EA0021700209
B1317313400380S02247610EA0021600208
B1317323400379S02247606EA0021500208
B1317333400378S02247602EA0021500207
B1317343400377S02247598EA0021400207
B1317353400375S02247594EA0021400206
B1317363400374S02247591EA0021300205
B1317373400373S02247587EA0021200204
B1317383400372S02247584EA0021100203
B1317393400371S02247580EA0020900202
B1317403400370S02247576EA0020800200
B1317413400369S02247572EA0020700199
B1317423400367S02247568EA0020600198
B1317433400366S02247564EA0020500197
B1317443400365S02247559EA0020400196
B1317453400364S02247555EA0020300195
B1317463400363S02247551EA0020400196
B1317473400361S02247546EA0020400197
B1317483400359S02247542EA0020500197
B1317493400358S02247538EA0020400196
B1317503400356S02247534EA0020300195
B1317513400355S02247531EA0020100194
B1317523400354S02247527EA0020100193
B1317533400353S02247522EA0020100193
B1317543400352S02247517EA0020100193
B1317553400350S02247512EA0020100193
B1317563400348S02247508EA0020100193
B1317573400347S02247503EA0020100193
B1317583400346S02247499EA0020100193
B1317593400344S02247494EA0020100193
B1318003400343S02247489EA0020100193
B1318013400340S02247484EA0020200194
B1318023400338S02247480EA0020200194
B1318033400336S02247475EA0020200194
B1318043400334S02247470EA0020200195
B1318053400333S02247466EA0020200194
B1318063400331S02247461EA0020200195
B1318073400330S02247456EA0020300195
B1318083400328S02247451EA0020400196
B1318093400327S02247447EA0020500197
B1318103400325S02247442EA0020600198
B1318113400324S02247437EA0020600198
B1318123400323S02247433EA0020500198
B1318133400322S02247429EA0020500197
B1318143400322S02247425EA0020400196
B1318153400321S02247420EA0020400197
B1318163400321S02247416EA0020600198
B1318173400321S02247412EA0020800200
B1318183400321S02247408EA0020800201
B1318193400320S02247406EA0020800201
B1318203400320S02247403EA0020900201
B1318213400320S02247399EA0020900201
B1318223400320S02247395EA0020900201
B1318233400319S02247392EA0021000202
B1318243400318S02247387EA0021100203
B1318253400317S02247384EA0021100203
B1318263400317S02247380EA0021000203
B1318273400316S02247377EA0020900202
B1318283400316S02247374EA0020900201
B1318293400315S02247369EA0020900201
B1318303400315S02247365EA0021000202
B1318313400314S02247361EA0021100203
B1318323400314S02247356EA0021200204
B1318333400313S02247353EA0021200204
B1318343400312S02247349EA0021200204
B1318353400311S02247344EA0021100204
B1318363400310S02247340EA0021100204
B1318373400309S02247335EA0021200204
B1318383400308S02247330EA0021300205
B1318393400306S02247325EA0021400206
B1318403400305S02247320EA0021600208
B1318413400304S02247315EA0021700209
B1318423400303S02247310EA0021800210
B1318433400301S02247305EA0021900211
B1318443400300S02247300EA0022100213
B1318453400298S02247295EA0022200214
B1318463400296S02247290EA0022300216
B1318473400295S02247285EA0022400217
B1318483400293S02247281EA0022600218
B1318493400292S02247276EA0022700219
B1318503400290S02247271EA0022900221
B1318513400288S02247267EA0023000222
B1318523400286S02247262EA0023100223
B1318533400284S02247258EA0023200224
B1318543400282S02247254EA0023300225
B1318553400280S02247250EA0023400226
B1318563400278S02247245EA0023400226
B1318573400277S02247241EA0023400227
B1318583400277S02247236EA0023500228
B1318593400277S02247232EA0023700229
B1319003400277S02247228EA0023700230
B1319013400279S02247225EA0023800230
B1319023400281S02247223EA0023800230
B1319033400283S02247224EA0023900231
B1319043400286S02247226EA0023900231
B1319053400289S02247229EA0023900231
B1319063400291S02247233EA0024000232
B1319073400293S02247236EA0024000232
B1319083400295S02247239EA0024000232
B1319093400298S02247242EA0024000233
B1319103400300S02247244EA0024000232
B1319113400302S02247247EA0024000232
B1319123400304S02247250EA0023900231
B1319133400306S02247254EA0023800231
B1319143400307S02247259EA0023800230
B1319153400308S02247264EA0023700229
B1319163400308S02247271EA0023600228
B1319173400307S02247278EA0023600228
B1319183400307S02247284EA0023600228
B1319193400306S02247290EA0023500227
B1319203400306S02247295EA0023300226
B1319213400306S02247301EA0023200225
B1319223400306S02247307EA0023200224
B1319233400307S02247313EA0023200224
B1319243400307S02247318EA0023000223
B1319253400307S02247323EA0022900222
B1319263400308S02247327EA0022700220
B1319273400310S02247329EA0022600218
B1319283400311S02247329EA0022600218
B1319293400313S02247327EA0022700219
B1319303400314S02247324EA0022900221
B1319313400314S02247321EA0023000222
B1319323400312S02247317EA0023100223
B1319333400310S02247313EA0023100223
B1319343400308S02247309EA0023200224
B1319353400305S02247305EA0023300225
B1319363400301S02247301EA0023200225
B1319373400298S02247296EA0023300225
B1319383400294S02247292EA0023200224
B1319393400291S02247288EA0023100223
B1319403400288S02247284EA0023100223
B1319413400286S02247279EA0023100223
B1319423400283S02247275EA0023100223
B1319433400281S02247270EA0023200224
B1319443400279S02247266EA0023100224
B1319453400277S02247261EA0023100223
B1319463400276S02247257EA0023000222
B1319473400274S02247252EA0023000222
B1319483400272S02247246EA0023100223
B1319493400270S02247241EA0023100223
B1319503400268S02247235EA0023300226
B1319513400266S02247230EA0023400227
B1319523400263S02247225EA0023400227
B1319533400261S02247220EA0023400226
B1319543400260S02247215EA0023400226
B1319553400258S02247210EA0023500227
B1319563400255S02247204EA0023600228
B1319573400253S02247199EA0023700229
B1319583400250S02247194EA0023700230
B1319593400247S02247189EA0023700229
B1320003400246S02247185EA0023700229
B1320013400243S02247181EA0023600229
B1320023400241S02247175EA0023600229
B1320033400239S02247170EA0023600229
B1320043400238S02247165EA0023600228
B1320053400237S02247161EA0023500228
B1320063400236S02247157EA0023400226
B1320073400235S02247153EA0023300225
B1320083400234S02247148EA0023200224
B1320093400234S02247144EA0023100224
B1320103400234S02247140EA0023100223
B1320113400235S02247136EA0023100223
B1320123400236S02247133EA0023200224
B1320133400237S02247129EA0023200224
B1320143400238S02247126EA0023200225
B1320153400240S02247124EA0023400226
B1320163400241S02247120EA0023400227
B1320173400242S02247117EA0023500227
B1320183400243S02247114EA0023400226
B1320193400244S02247111EA0023200225
B1320203400245S02247108EA0023100223
B1320213400247S02247105EA0023000222
B1320223400248S02247101EA0022900221
B1320233400250S02247098EA0022800220
B1320243400252S02247094EA0022800220
B1320253400253S02247091EA0022700220
B1320263400255S02247088EA0022700219
B1320273400257S02247084EA0022700219
B1320283400259S02247080EA0022800220
B1320293400261S02247076EA0022900221
B1320303400264S02247073EA0022900221
B1320313400267S02247071EA0022800220
B1320323400270S02247068EA0022700220
B1320333400272S02247065EA0022700220
B1320343400275S02247061EA0022800220
B1320353400278S02247058EA0022700219
B1320363400280S02247055EA0022600218
B1320373400282S02247052EA0022500218
B1320383400285S02247050EA0022400217
B1320393400288S02247047EA0022300215
B1320403400290S02247044EA0022200214
B1320413400292S02247041EA0022100213
B1320423400295S02247038EA0022100213
B1320433400298S02247036EA0021900211
B1320443400300S02247034EA0021800210
B1320453400303S02247031EA0021800210
B1320463400306S02247028EA0021700210
B1320473400309S02247025EA0021700209
B1320483400312S02247022EA0021600209
B1320493400314S02247019EA0021600209
B1320503400316S02247016EA0021600208
B1320513400319S02247014EA0021600208
B1320523400321S02247011EA0021600208
B1320533400322S02247009EA0021600208
B1320543400324S02247006EA0021500208
B1320553400326S02247003EA0021500207
B1320563400327S02247000EA0021500207
B1320573400329S02246997EA0021500207
B1320583400331S02246993EA0021500207
B1320593400333S02246990EA0021500208
B1321003400336S02246988EA0021500207
B1321013400338S02246986EA0021500207
B1321023400340S02246983EA0021500207
B1321033400343S02246981EA0021500207
B1321043400345S02246979EA0021400206
B1321053400347S02246977EA0021300205
B1321063400350S02246975EA0021100204
B1321073400352S02246972EA0021200204
B1321083400355S02246970EA0021200205
B1321093400358S02246968EA0021300205
B1321103400360S02246966EA0021300205
B1321113400362S02246964EA0021200205
B1321123400364S02246962EA0021200204
B1321133400365S02246959EA0021200204
B1321143400367S02246956EA0021100203
B1321153400368S02246953EA0021100203
B1321163400370S02246950EA0021100203
B1321173400372S02246947EA0021000203
B1321183400374S02246945EA0020900201
B1321193400375S02246942EA0020800200
B1321203400377S02246940EA0020700199
B1321213400378S02246937EA0020600198
B1321223400381S02246934EA0020500197
B1321233400383S02246931EA0020400197
B1321243400385S02246929EA0020300196
B1321253400387S02246927EA0020200195
B1321263400390S02246925EA0020000193
B1321273400392S02246923EA0019900191
B1321283400395S02246921EA0019800191
B1321293400398S02246919EA0019700189
B1321303400400S02246918EA0019600189
B1321313400403S02246917EA0019500187
B1321323400406S02246915EA0019400186
B1321333400408S02246914EA0019200184
B1321343400410S02246912EA0019000183
B1321353400412S02246909EA0018900181
B1321363400415S02246908EA0018800180
B1321373400418S02246906EA0018600178
B1321383400420S02246905EA0018300175
B1321393400422S02246902EA0018000173
B1321403400425S02246899EA0017800170
B1321413400427S02246895EA0017600169
B1321423400431S02246891EA0017700169
B1321433400434S02246887EA0017800170
B1321443400436S02246884EA0017700169
B1321453400439S02246881EA0017600168
B1321463400442S02246878EA0017300166
B1321473400443S02246875EA0017100164
B1321483400446S02246871EA0016900162
B1321493400448S02246868EA0016900161
B1321503400451S02246865EA0016800160
B1321513400453S02246864EA0016800160
B1321523400455S02246862EA0016600159
B1321533400457S02246861EA0016400156
B1321543400458S02246859EA0016100154
B1321553400461S02246857EA0015900151
B1321563400463S02246855EA0015700149
B1321573400465S02246854EA0015500147
B1321583400467S02246853EA0015200144
B1321593400469S02246852EA0014900141
B1322003400472S02246851EA0014700139
B1322013400474S02246850EA0014500138
B1322023400477S02246850EA0014300135
B1322033400479S02246850EA0014100133
B1322043400481S02246850EA0013800130
B1322053400483S02246850EA0013500127
B1322063400486S02246849EA0013400126
B1322073400489S02246848EA0013400126
B1322083400491S02246846EA0013200125
B1322093400492S02246845EA0013000123
B1322103400493S02246844EA0012800120
B1322113400493S02246842EA0012500118
B1322123400493S02246839EA0012300115
B1322133400494S02246836EA0012100113
B1322143400495S02246834EA0012100113
B1322153400497S02246832EA0012000113
B1322163400498S02246831EA0011900112
B1322173400499S02246831EA0011900111
B1322183400501S02246831EA0011800110
B1322193400502S02246831EA0011700109
B1322203400504S02246830EA0011700109
B1322213400506S02246829EA0011600108
B1322223400507S02246827EA0011500107
B1322233400508S02246824EA0011500107
B1322243400508S02246821EA0011300105
B1322253400508S02246818EA0011200104
B1322263400507S02246814EA0011100103
B1322273400507S02246811EA0011000102
B1322283400508S02246808EA0010900101
B1322293400509S02246805EA0010900101
B1322303400509S02246803EA0010900101
B1322313400509S02246800EA0010900101
B1322323400509S02246798EA0010900101
B1322333400509S02246795EA0010700100
B1322343400509S02246793EA0010700099
B1322353400508S02246791EA0010600098
B1322363400508S02246789EA0010400097
B1322373400509S02246788EA0010300095
B1322383400509S02246789EA0010200094
B1322393400510S02246791EA0010000093
B1322403400512S02246795EA0010000092
B1322413400512S02246800EA0010000092
B1322423400512S02246805EA0009900091
B1322433400512S02246810EA0009900091
B1322443400511S02246815EA0009700090
B1322453400510S02246820EA0009600089
B1322463400509S02246825EA0009500088
B1322473400509S02246831EA0009400087
B1322483400509S02246836EA0009400087
B1322493400508S02246842EA0009400086
B1322503400508S02246847EA0009400086
B1322513400507S02246853EA0009300085
B1322523400506S02246860EA0009200085
B1322533400505S02246865EA0009200084
B1322543400504S02246870EA0009000082
B1322553400504S02246874EA0008900081
B1322563400504S02246878EA0008900081
B1322573400504S02246882EA0009000082
B1322583400504S02246886EA0008900081
B1322593400503S02246891EA0008800080
B1323003400502S02246895EA0008600078
B1323013400499S02246901EA0008500077
B1323023400497S02246908EA0008400076
B1323033400494S02246914EA0008400076
B1323043400492S02246920EA0008300075
B1323053400490S02246926EA0008100074
B1323063400487S02246931EA0007900072
B1323073400484S02246936EA0007700069
B1323083400482S02246942EA0007500067
B1323093400480S02246948EA0007300065
B1323103400479S02246953EA0007200064
B1323113400478S02246959EA0007100063
B1323123400477S02246964EA0007000062
B1323133400475S02246970EA0006900061
B1323143400473S02246975EA0006900061
B1323153400471S02246979EA0006900061
B1323163400470S02246984EA0006800060
B1323173400470S02246989EA0006700060
B1323183400471S02246993EA0006700059
B1323193400473S02246997EA0006700059
B1323203400476S02246999EA0006700059
B1323213400479S02247000EA0006600058
B1323223400482S02246999EA0006500057
B1323233400485S02246996EA0006400057
B1323243400485S02246990EA0006300056
B1323253400485S02246984EA0006300055
B1323263400484S02246979EA0006200055
B1323273400481S02246974EA0006200054
B1323283400473S02246970EA0006100053
B1323293400467S02246967EA0006000052
B1323303400461S02246964EA0005900051
B1323313400455S02246961EA0005700049
B1323323400449S02246958EA0005600049
B1323333400443S02246955EA0005500047
B1323343400437S02246952EA0005500047
B1323353400432S02246948EA0005400047
B1323363400427S02246943EA0005400046
B1323373400423S02246938EA0005200044
B1323383400419S02246933EA0004900042
B1323393400417S02246928EA0004800040
B1323403400414S02246923EA0004600038
B1323413400412S02246918EA0004500037
B1323423400410S02246914EA0004200035
B1323433400410S02246910EA0004000033
B1323443400412S02246908EA0004000032
B1323453400413S02246906EA0003900032
B1323463400414S02246906EA0003800030
B1323473400415S02246906EA0003600028
B1323483400415S02246905EA0003400026
B1323493400417S02246904EA0003200024
B1323503400418S02246903EA0003000023
B1323513400420S02246902EA0003000022
B1323523400421S02246902EA0002900021
B1323533400422S02246901EA0002800021
B1323543400423S02246902EA0002700019
B1323553400423S02246902EA0002500017
B1323563400424S02246902EA0002400017
B1323573400425S02246901EA0002400016
B1323583400426S02246901EA0002300015
B1323593400426S02246900EA0002100014
B1324003400428S02246900EA0001900012
B1324013400428S02246900EA0001600008
B1324023400430S02246899EA0001500007
B1324033400432S02246899EA0001400006
B1324043400434S02246898EA0001300005
B1324053400435S02246898EA0001000002
B1324063400436S02246898EA00007-0001
B1324073400437S02246898EA00005-0003
B1324083400439S02246898EA00004-0004
B1324093400440S02246898EA00003-0005
B1324103400442S02246898EA00002-0006
B1324113400443S02246897EA00003-0005
B1324123400444S02246897EA00002-0006
B1324133400445S02246896EA00000-0008
B1324143400445S02246895EA-0003-0011
B1324153400445S02246894EA-0006-0014
B1324163400445S02246894EA-0007-0015
B1324173400446S02246894EA-0009-0017
B1324183400447S02246893EA-0009-0016
B1324193400449S02246892EA-0009-0017
B1324203400450S02246891EA-0009-0017
B1324213400450S02246891EA-0007-0015
B1324223400451S02246891EA-0008-0016
B1324233400451S02246891EA-0009-0016
B1324243400451S02246891EA-0008-0016
B1324253400451S02246892EA-0008-0015
B1324263400451S02246892EA-0008-0015
B1324273400451S02246893EA-0008-0016
B1324283400451S02246893EA-0009-0016
B1324293400451S02246894EA-0008-0016
B1324303400451S02246894EA-0008-0016
B1324313400451S02246895EA-0008-0016
B1324323400451S02246895EA-0008-0016
B1324333400451S02246895EA-0008-0016
B1324343400451S02246895EA-0008-0016
B1324353400451S02246896EA-0008-0016
B1324363400450S02246897EA-0008-0016
B1324373400450S02246897EA-0008-0016
B1324383400450S02246897EA-0008-0016
B1324393400450S02246898EA-0008-0016
B1324403400450S02246898EA-0008-0016
B1324413400449S02246899EA-0008-0016
B1324423400449S02246899EA-0008-0016
B1324433400449S02246899EA-0008-0016
B1324443400449S02246899EA-0008-0016
B1324453400449S02246899EA-0009-0016
B1324463400449S02246899EA-0008-0016
B1324473400449S02246900EA-0008-0016
B1324483400449S02246900EA-0008-0016
B1324493400448S02246900EA-0008-0016
B1324503400448S02246900EA-0008-0016
B1324513400448S02246900EA-0008-0016
B1324523400448S02246900EA-0008-0016
B1324533400447S02246900EA-0008-0016
B1324543400447S02246901EA-0009-0016
B1324553400447S02246901EA-0009-0017
B1324563400447S02246901EA-0009-0016
B1324573400447S02246900EA-0009-0017
B1324583400447S02246900EA-0009-0016
B1324593400446S02246900EA-0008-0016
B1325003400446S02246900EA-0009-0016
B1325013400446S02246900EA-0008-0016
B1325023400446S02246900EA-0008-0016
B1325033400446S02246901EA-0009-0017
B1325043400446S02246901EA-0009-0017
B1325053400446S02246901EA-0009-0017
B1325063400446S02246901EA-0009-0016
B1325073400446S02246901EA-0009-0017
B1325083400446S02246901EA-0009-0017
B1325093400446S02246901EA-0009-0016
B1325103400446S02246901EA-0009-0017
B1325113400446S02246902EA-0009-0017
B1325123400446S02246902EA-0009-0017
B1325133400446S02246902EA-0009-0017
B1325143400446S02246902EA-0009-0017
B1325153400446S02246901EA-0009-0017
B1325163400447S02246901EA-0009-0017
B1325173400447S02246900EA-0010-0017
B1325183400448S02246900EA-0009-0017
B1325193400448S02246899EA-0009-0017
B1325203400449S02246899EA-0009-0017
B1325213400450S02246899EA-0009-0017
B1325223400451S02246898EA-0009-0017
B1325233400451S02246898EA-0009-0017
B1325243400452S02246898EA-0009-0017
B1325253400453S02246897EA-0010-0017
B1325263400453S02246897EA-0010-0018
B1325273400454S02246897EA-0009-0017
B1325283400455S02246896EA-0009-0017
B1325293400456S02246896EA-0008-0016
B1325303400458S02246896EA-0009-0017
B1325313400459S02246896EA-0009-0017
B1325323400461S02246896EA-0009-0017
B1325333400461S02246896EA-0009-0017
B1325343400462S02246896EA-0009-0016
B1325353400462S02246895EA-0009-0016
B1325363400463S02246895EA-0010-0017
B1325373400463S02246895EA-0009-0017
B1325383400464S02246895EA-0009-0017
B1325393400464S02246895EA-0010-0017
B1325403400465S02246895EA-0010-0018
B1325413400465S02246895EA-0010-0017
B1325423400466S02246895EA-0010-0018
B1325433400466S02246895EA-0010-0017
B1325443400467S02246894EA-0010-0017
B1325453400468S02246894EA-0010-0017
B1325463400469S02246893EA-0009-0017
B1325473400469S02246893EA-0009-0017
B1325483400470S02246893EA-0010-0017
B1325493400471S02246892EA-0009-0017
B1325503400471S02246892EA-0009-0016
B1325513400472S02246892EA-0009-0017
B1325523400473S02246892EA-0010-0018
B1325533400474S02246891EA-0009-0017
B1325543400475S02246891EA-0009-0017
B1325553400476S02246892EA-0009-0017
B1325563400476S02246891EA-0009-0016
B1325573400477S02246891EA-0009-0017
B1325583400477S02246891EA-0009-0017
B1325593400478S02246891EA-0009-0017
B1326003400479S02246891EA-0009-0017
B1326013400480S02246890EA-0010-0017
B1326023400481S02246890EA-0011-0018
B1326033400481S02246890EA-0010-0018
B1326043400482S02246890EA-0010-0018
B1326053400482S02246889EA-0009-0017
B1326063400483S02246889EA-0009-0017
B1326073400483S02246889EA-0010-0017
B1326083400484S02246889EA-0009-0017
B1326093400486S02246889EA-0009-0016
B1326103400487S02246889EA-0008-0016
B1326113400487S02246888EA-0008-0016
B1326123400486S02246887EA-0008-0016
B1326133400487S02246887EA-0008-0016
B1326143400487S02246886EA-0009-0017
B1326153400487S02246885EA-0008-0016
B1326163400487S02246885EA-0009-0016
B1326173400487S02246884EA-0009-0017
B1326183400487S02246883EA-0009-0016
B1326193400487S02246882EA-0008-0016
B1326203400487S02246881EA-0008-0016
B1326213400487S02246881EA-0008-0016
B1326223400487S02246880EA-0009-0016
B1326233400487S02246880EA-0009-0017
B1326243400487S02246879EA-0008-0016
B1326253400487S02246879EA-0009-0016
B1326263400487S02246877EA-0009-0016
B1326273400487S02246877EA-0009-0016
B1326283400486S02246876EA-0009-0016
B1326293400486S02246875EA-0009-0016
B1326303400486S02246874EA-0009-0017
B1326313400486S02246873EA-0009-0016
B1326323400486S02246873EA-0009-0017
B1326333400486S02246872EA-0009-0016
B1326343400486S02246872EA-0009-0017
B1326353400485S02246871EA-0008-0016
B1326363400485S02246870EA-0009-0016
B1326373400484S02246870EA-0009-0017
B1326383400484S02246870EA-0009-0017
B1326393400485S02246870EA-0009-0016
B1326403400485S02246870EA-0008-0016
B1326413400485S02246870EA-0008-0016
B1326423400485S02246870EA-0008-0016
B1326433400485S02246870EA-0008-0016
B1326443400484S02246870EA-0008-0016
B1326453400484S02246870EA-0009-0016
B1326463400484S02246870EA-0008-0016
B1326473400484S02246870EA-0009-0016
B1326483400484S02246870EA-0008-0016
B1326493400484S02246870EA-0008-0016
B1326503400484S02246870EA-0008-0016
B1326513400485S02246870EA-0008-0016
B1326523400485S02246870EA-0009-0016
B1326533400485S02246870EA-0008-0016
B1326543400485S02246871EA-0008-0016
B1326553400485S02246871EA-0008-0016
B1326563400485S02246871EA-0008-0016
B1326573400485S02246871EA-0008-0016
B1326583400485S02246871EA-0008-0016
B1326593400485S02246871EA-0008-0016
B1327003400485S02246871EA-0008-0016
B1327013400485S02246871EA-0008-0016
B1327023400485S02246871EA-0008-0016
B1327033400485S02246871EA-0008-0016
B1327043400485S02246871EA-0008-0016
B1327053400485S02246871EA-0008-0016
B1327063400485S02246871EA-0008-0016
B1327073400485S02246871EA-0008-0016
B1327083400485S02246871EA-0008-0016
B1327093400485S02246871EA-0008-0016
B1327103400485S02246871EA-0008-0016
B1327113400485S02246871EA-0008-0016
B1327123400485S02246871EA-0008-0016
LXSX;GF:1.3
G62D324FE9FB618D385737FE9E488A0D6
