AXSX003 SKYTRAXX V3.0.7 SN:00000380
HOPLTPILOT:Sepp Bucher
HOGTYGLIDERTYPE:Sigma10
HOCIDCOMPETITIONID:0000
HODTM100GPSDATUM:WGS-84
HOCCLCOMPETITION CLASS:Paraglider (Standard)
HPSITSITE:bronzone-4km
HFDTE300417
B1332484544566N00956889EA0126301261
B1332494544566N00956889EA0126201261
B1332504544567N00956889EA0126201260
B1332514544567N00956890EA0126201261
B1332524544567N00956891EA0126101260
B1332534544566N00956890EA0126001259
B1332544544565N00956889EA0126001259
B1332554544564N00956888EA0125901259
B1332564544564N00956886EA0125701257
B1332574544561N00956884EA0125701258
B1332584544560N00956883EA0125701255
B1332594544558N00956881EA0125801256
B1333004544556N00956879EA0125901257
B1333014544554N00956878EA0125901257
B1333024544553N00956876EA0125901257
B1333034544552N00956873EA0125801256
B1333044544551N00956873EA0125601254
B1333054544550N00956874EA0125701255
B1333064544549N00956873EA0125801256
B1333074544547N00956872EA0125901256
B1333084544545N00956871EA0126001258
B1333094544543N00956870EA0125801256
B1333104544541N00956870EA0125901257
B1333114544539N00956871EA0126001258
B1333124544538N00956871EA0126201260
B1333134544547N00956871EA0126001258
B1333144544547N00956873EA0126001258
B1333154544545N00956877EA0126001258
B1333164544545N00956881EA0125901257
B1333174544543N00956887EA0125901257
B1333184544541N00956893EA0126201260
B1333194544538N00956899EA0126401262
B1333204544535N00956904EA0126701265
B1333214544534N00956908EA0126901267
B1333224544532N00956913EA0126801266
B1333234544531N00956918EA0126701265
B1333244544530N00956924EA0126501263
B1333254544527N00956929EA0126501263
B1333264544524N00956933EA0126701265
B1333274544520N00956935EA0126701265
B1333284544517N00956937EA0126601264
B1333294544514N00956939EA0126601264
B1333304544510N00956941EA0126701265
B1333314544506N00956943EA0126801266
B1333324544502N00956945EA0127101269
B1333334544499N00956946EA0127101269
B1333344544496N00956946EA0127201270
B1333354544494N00956945EA0127201270
B1333364544493N00956941EA0127201270
B1333374544494N00956935EA0127201270
B1333384544496N00956930EA0127201270
B1333394544499N00956926EA0127001268
B1333404544502N00956923EA0126801266
B1333414544505N00956918EA0126501263
B1333424544505N00956914EA0126401262
B1333434544504N00956909EA0126501263
B1333444544502N00956906EA0126601264
B1333454544500N00956904EA0126601264
B1333464544499N00956902EA0126501263
B1333474544497N00956900EA0126301261
B1333484544496N00956897EA0126101259
B1333494544493N00956894EA0126101259
B1333504544489N00956891EA0126301261
B1333514544486N00956888EA0126501263
B1333524544483N00956887EA0126501263
B1333534544481N00956886EA0126401262
B1333544544479N00956884EA0126401262
B1333554544477N00956882EA0126401261
B1333564544475N00956879EA0126501263
B1333574544473N00956875EA0126601264
B1333584544472N00956870EA0126701265
B1333594544471N00956865EA0126901267
B1334004544469N00956861EA0127201270
B1334014544466N00956857EA0127401272
B1334024544463N00956854EA0127801276
B1334034544459N00956854EA0128101278
B1334044544457N00956858EA0128201280
B1334054544455N00956866EA0128301281
B1334064544455N00956876EA0128401282
B1334074544455N00956886EA0128601284
B1334084544457N00956896EA0128701284
B1334094544461N00956905EA0128501283
B1334104544467N00956913EA0128401282
B1334114544475N00956918EA0128601284
B1334124544484N00956919EA0128901287
B1334134544491N00956919EA0129201290
B1334144544498N00956917EA0129401292
B1334154544503N00956915EA0129401292
B1334164544508N00956912EA0129601294
B1334174544513N00956907EA0129501292
B1334184544517N00956901EA0129501293
B1334194544517N00956894EA0129701295
B1334204544517N00956889EA0130001298
B1334214544515N00956885EA0130101299
B1334224544514N00956883EA0130301301
B1334234544513N00956880EA0130501303
B1334244544510N00956878EA0130701305
B1334254544507N00956879EA0130901307
B1334264544504N00956881EA0131201310
B1334274544501N00956885EA0131301311
B1334284544499N00956891EA0131401312
B1334294544497N00956897EA0131501312
B1334304544495N00956903EA0131401312
B1334314544493N00956909EA0131501313
B1334324544490N00956914EA0131501313
B1334334544486N00956917EA0131601314
B1334344544483N00956919EA0131501313
B1334354544479N00956921EA0131501312
B1334364544476N00956922EA0131401312
B1334374544472N00956922EA0131501313
B1334384544468N00956922EA0131501313
B1334394544466N00956919EA0131401312
B1334404544464N00956915EA0131401312
B1334414544463N00956910EA0131501312
B1334424544462N00956906EA0131501313
B1334434544462N00956901EA0131401312
B1334444544463N00956896EA0131301311
B1334454544463N00956892EA0131401312
B1334464544464N00956887EA0131401312
B1334474544465N00956882EA0131401312
B1334484544466N00956876EA0131401312
B1334494544467N00956872EA0131301311
B1334504544468N00956866EA0131301311
B1334514544469N00956861EA0131501312
B1334524544470N00956856EA0131501313
B1334534544471N00956851EA0131501313
B1334544544471N00956846EA0131501313
B1334554544471N00956841EA0131401312
B1334564544470N00956836EA0131501313
B1334574544469N00956831EA0131501313
B1334584544467N00956827EA0131501312
B1334594544465N00956824EA0131601314
B1335004544461N00956822EA0131801316
B1335014544458N00956821EA0132101319
B1335024544454N00956821EA0132301321
B1335034544451N00956821EA0132501323
B1335044544448N00956823EA0132501323
B1335054544446N00956826EA0132401322
B1335064544443N00956831EA0132201320
B1335074544440N00956838EA0132301321
B1335084544440N00956848EA0132401322
B1335094544441N00956858EA0132401322
B1335104544443N00956867EA0132501323
B1335114544447N00956875EA0132601323
B1335124544452N00956882EA0132601324
B1335134544458N00956889EA0132601324
B1335144544463N00956893EA0132501323
B1335154544471N00956896EA0132501323
B1335164544478N00956896EA0132601324
B1335174544484N00956892EA0132701325
B1335184544490N00956888EA0132901327
B1335194544493N00956883EA0133101329
B1335204544496N00956878EA0133101329
B1335214544498N00956873EA0133201330
B1335224544501N00956868EA0133101329
B1335234544504N00956862EA0133301331
B1335244544506N00956857EA0133501333
B1335254544506N00956852EA0133501333
B1335264544505N00956849EA0133501333
B1335274544504N00956845EA0133601334
B1335284544502N00956842EA0133601334
B1335294544501N00956838EA0133701335
B1335304544498N00956834EA0133701335
B1335314544496N00956831EA0133701335
B1335324544493N00956828EA0133701335
B1335334544490N00956827EA0133701335
B1335344544487N00956826EA0133601334
B1335354544483N00956825EA0133401332
B1335364544480N00956825EA0133101329
B1335374544476N00956825EA0133001328
B1335384544471N00956826EA0132901327
B1335394544467N00956826EA0132801326
B1335404544463N00956828EA0132801326
B1335414544459N00956831EA0132601324
B1335424544457N00956837EA0132501323
B1335434544454N00956844EA0132501323
B1335444544452N00956852EA0132401322
B1335454544451N00956861EA0132401322
B1335464544450N00956870EA0132401322
B1335474544450N00956879EA0132501323
B1335484544451N00956888EA0132701325
B1335494544452N00956899EA0132801326
B1335504544454N00956909EA0132901327
B1335514544456N00956918EA0133001328
B1335524544458N00956927EA0133101329
B1335534544459N00956935EA0133001328
B1335544544459N00956943EA0133001328
B1335554544459N00956950EA0133001328
B1335564544457N00956957EA0133001327
B1335574544454N00956960EA0133101329
B1335584544450N00956962EA0133201330
B1335594544447N00956962EA0133301331
B1336004544445N00956961EA0133301331
B1336014544442N00956959EA0133201330
B1336024544441N00956956EA0133101329
B1336034544439N00956951EA0133101329
B1336044544439N00956946EA0133101329
B1336054544439N00956939EA0133101329
B1336064544440N00956931EA0133201330
B1336074544442N00956925EA0133301331
B1336084544446N00956919EA0133301331
B1336094544450N00956913EA0133301331
B1336104544455N00956910EA0133301331
B1336114544461N00956906EA0133301331
B1336124544467N00956904EA0133201330
B1336134544474N00956905EA0133101329
B1336144544481N00956905EA0133201330
B1336154544489N00956907EA0133301331
B1336164544497N00956911EA0133301331
B1336174544504N00956917EA0133301331
B1336184544509N00956924EA0133401332
B1336194544514N00956932EA0133601334
B1336204544517N00956941EA0133701335
B1336214544519N00956949EA0133701335
B1336224544517N00956956EA0133701335
B1336234544516N00956963EA0133701335
B1336244544513N00956967EA0133701335
B1336254544510N00956971EA0133701335
B1336264544507N00956972EA0133701335
B1336274544504N00956973EA0133701335
B1336284544501N00956976EA0133601334
B1336294544499N00956979EA0133601334
B1336304544497N00956982EA0133601334
B1336314544494N00956987EA0133501333
B1336324544491N00956992EA0133501333
B1336334544488N00956997EA0133701335
B1336344544485N00957002EA0133801336
B1336354544482N00957006EA0133901337
B1336364544479N00957008EA0134001338
B1336374544475N00957011EA0134001338
B1336384544472N00957014EA0134001338
B1336394544469N00957018EA0134001338
B1336404544466N00957022EA0134001338
B1336414544462N00957025EA0134101339
B1336424544458N00957026EA0134201340
B1336434544454N00957026EA0134301341
B1336444544451N00957025EA0134401342
B1336454544448N00957022EA0134401342
B1336464544447N00957017EA0134301341
B1336474544448N00957011EA0134301341
B1336484544450N00957004EA0134301341
B1336494544452N00956997EA0134301341
B1336504544455N00956990EA0134501343
B1336514544458N00956984EA0134601344
B1336524544462N00956978EA0134901347
B1336534544465N00956972EA0135001348
B1336544544469N00956967EA0135201350
B1336554544472N00956962EA0135201350
B1336564544475N00956957EA0135201350
B1336574544478N00956951EA0135301351
B1336584544480N00956944EA0135401352
B1336594544480N00956937EA0135701355
B1337004544480N00956931EA0135501353
B1337014544479N00956927EA0135401352
B1337024544477N00956925EA0135301351
B1337034544473N00956927EA0135301350
B1337044544469N00956929EA0135201350
B1337054544466N00956933EA0135201350
B1337064544463N00956938EA0135101349
B1337074544461N00956944EA0135101349
B1337084544459N00956953EA0135001348
B1337094544460N00956963EA0135001348
B1337104544461N00956974EA0135201350
B1337114544464N00956983EA0135301351
B1337124544468N00956991EA0135201350
B1337134544473N00956997EA0135101349
B1337144544479N00957002EA0135201350
B1337154544486N00957006EA0135201350
B1337164544494N00957008EA0135401352
B1337174544501N00957008EA0135601354
B1337184544507N00957005EA0135601354
B1337194544513N00957002EA0135601354
B1337204544518N00956998EA0135701355
B1337214544523N00956993EA0135601354
B1337224544528N00956988EA0135701355
B1337234544532N00956982EA0135601354
B1337244544535N00956975EA0135701354
B1337254544537N00956969EA0135701355
B1337264544539N00956963EA0135601354
B1337274544539N00956957EA0135501353
B1337284544538N00956952EA0135401352
B1337294544535N00956947EA0135301351
B1337304544532N00956944EA0135201350
B1337314544529N00956943EA0135201350
B1337324544525N00956946EA0135001348
B1337334544523N00956950EA0134901347
B1337344544520N00956956EA0134801346
B1337354544517N00956963EA0134801346
B1337364544515N00956969EA0134801346
B1337374544512N00956976EA0134801346
B1337384544509N00956982EA0134701345
B1337394544506N00956988EA0134701344
B1337404544503N00956992EA0134701345
B1337414544501N00956996EA0134701345
B1337424544498N00956999EA0134801346
B1337434544495N00957001EA0134601344
B1337444544492N00957005EA0134401342
B1337454544489N00957008EA0134401342
B1337464544486N00957013EA0134401342
B1337474544482N00957017EA0134501343
B1337484544477N00957020EA0134701345
B1337494544473N00957022EA0134701345
B1337504544470N00957024EA0134701345
B1337514544467N00957027EA0134701345
B1337524544464N00957029EA0134501343
B1337534544461N00957032EA0134201340
B1337544544458N00957034EA0134101339
B1337554544454N00957034EA0134201340
B1337564544449N00957032EA0134301341
B1337574544446N00957027EA0134301341
B1337584544443N00957023EA0134301341
B1337594544441N00957018EA0134501343
B1338004544440N00957013EA0134601344
B1338014544440N00957007EA0134701345
B1338024544441N00957000EA0134901347
B1338034544443N00956994EA0134901347
B1338044544446N00956989EA0135001347
B1338054544451N00956983EA0134901347
B1338064544455N00956978EA0135001348
B1338074544460N00956973EA0135001348
B1338084544465N00956967EA0135101349
B1338094544469N00956961EA0135201350
B1338104544472N00956955EA0135301351
B1338114544475N00956949EA0135301351
B1338124544477N00956942EA0135401352
B1338134544480N00956936EA0135401352
B1338144544481N00956929EA0135501353
B1338154544483N00956923EA0135601354
B1338164544483N00956916EA0135501353
B1338174544482N00956910EA0135401352
B1338184544480N00956906EA0135401352
B1338194544476N00956902EA0135501353
B1338204544472N00956901EA0135701355
B1338214544469N00956901EA0135701355
B1338224544465N00956903EA0135601354
B1338234544462N00956907EA0135601354
B1338244544459N00956914EA0135701355
B1338254544457N00956922EA0135901357
B1338264544455N00956931EA0136201360
B1338274544455N00956939EA0136401362
B1338284544456N00956946EA0136401362
B1338294544458N00956954EA0136401362
B1338304544461N00956961EA0136501362
B1338314544465N00956969EA0136601364
B1338324544471N00956974EA0136501363
B1338334544477N00956978EA0136701365
B1338344544484N00956979EA0136901367
B1338354544491N00956977EA0137101369
B1338364544497N00956975EA0137201370
B1338374544502N00956971EA0137101369
B1338384544507N00956966EA0137101369
B1338394544511N00956959EA0137101369
B1338404544514N00956951EA0137201370
B1338414544516N00956943EA0137201370
B1338424544515N00956937EA0137201370
B1338434544514N00956931EA0137201370
B1338444544513N00956926EA0137201370
B1338454544512N00956921EA0137101369
B1338464544510N00956915EA0137101369
B1338474544509N00956910EA0137301371
B1338484544507N00956906EA0137501373
B1338494544506N00956902EA0137701375
B1338504544505N00956898EA0137801376
B1338514544504N00956894EA0137901377
B1338524544503N00956890EA0138201380
B1338534544503N00956886EA0138301381
B1338544544502N00956882EA0138401382
B1338554544501N00956877EA0138401382
B1338564544501N00956873EA0138401382
B1338574544499N00956868EA0138501383
B1338584544498N00956863EA0138601384
B1338594544497N00956859EA0138801385
B1339004544496N00956854EA0138901387
B1339014544495N00956851EA0138901387
B1339024544492N00956850EA0138901387
B1339034544488N00956851EA0138901387
B1339044544484N00956855EA0139101389
B1339054544480N00956860EA0139301391
B1339064544479N00956868EA0139801396
B1339074544477N00956877EA0140201400
B1339084544477N00956885EA0140401402
B1339094544477N00956893EA0140501403
B1339104544480N00956902EA0140601403
B1339114544484N00956910EA0140701405
B1339124544489N00956917EA0140701404
B1339134544495N00956922EA0140601404
B1339144544502N00956922EA0140801406
B1339154544509N00956919EA0141001408
B1339164544514N00956915EA0141201410
B1339174544520N00956912EA0141301411
B1339184544523N00956908EA0141401412
B1339194544527N00956904EA0141501413
B1339204544530N00956898EA0141401412
B1339214544532N00956892EA0141601414
B1339224544535N00956886EA0141701415
B1339234544537N00956881EA0141801416
B1339244544539N00956876EA0142001418
B1339254544539N00956870EA0142401421
B1339264544539N00956866EA0142501423
B1339274544539N00956863EA0142701425
B1339284544538N00956860EA0142801425
B1339294544537N00956857EA0142701425
B1339304544534N00956855EA0142801426
B1339314544531N00956854EA0142901427
B1339324544527N00956854EA0143101429
B1339334544524N00956857EA0143201430
B1339344544520N00956861EA0143501432
B1339354544518N00956867EA0143801436
B1339364544517N00956874EA0144001438
B1339374544515N00956881EA0144101439
B1339384544515N00956889EA0144301441
B1339394544514N00956896EA0144401442
B1339404544512N00956903EA0144601444
B1339414544509N00956908EA0144701445
B1339424544506N00956912EA0144701445
B1339434544503N00956914EA0144801446
B1339444544499N00956915EA0145001448
B1339454544496N00956915EA0145101449
B1339464544493N00956913EA0145201450
B1339474544491N00956910EA0145101449
B1339484544489N00956907EA0145201450
B1339494544489N00956903EA0145201450
B1339504544489N00956899EA0145201450
B1339514544491N00956894EA0145101449
B1339524544494N00956889EA0145001448
B1339534544498N00956884EA0144801446
B1339544544502N00956878EA0144701445
B1339554544506N00956873EA0144401442
B1339564544510N00956866EA0144301441
B1339574544513N00956859EA0144301441
B1339584544516N00956852EA0144301441
B1339594544518N00956846EA0144201440
B1340004544519N00956841EA0143901437
B1340014544519N00956836EA0143701435
B1340024544519N00956831EA0143501433
B1340034544518N00956825EA0143201430
B1340044544518N00956818EA0143201430
B1340054544517N00956811EA0143201430
B1340064544515N00956805EA0143201430
B1340074544513N00956800EA0143301431
B1340084544511N00956796EA0143301431
B1340094544509N00956792EA0143201430
B1340104544506N00956788EA0143101429
B1340114544503N00956784EA0143201430
B1340124544499N00956780EA0143301431
B1340134544495N00956777EA0143401432
B1340144544491N00956775EA0143601434
B1340154544487N00956773EA0143901437
B1340164544485N00956771EA0144101439
B1340174544483N00956770EA0144101439
B1340184544480N00956769EA0144001438
B1340194544477N00956769EA0144001438
B1340204544474N00956769EA0144101439
B1340214544470N00956768EA0144101439
B1340224544467N00956769EA0144301441
B1340234544464N00956768EA0144301441
B1340244544462N00956768EA0144101439
B1340254544459N00956769EA0143901437
B1340264544457N00956770EA0144001438
B1340274544453N00956771EA0144001438
B1340284544450N00956772EA0144101439
B1340294544448N00956773EA0144101439
B1340304544445N00956774EA0144001438
B1340314544442N00956775EA0144201439
B1340324544438N00956778EA0144401442
B1340334544435N00956781EA0144601444
B1340344544432N00956785EA0144901447
B1340354544429N00956787EA0144901447
B1340364544427N00956788EA0144801446
B1340374544424N00956787EA0144701445
B1340384544422N00956786EA0144701445
B1340394544421N00956782EA0144701445
B1340404544420N00956776EA0144801446
B1340414544422N00956770EA0145001448
B1340424544426N00956763EA0145001448
B1340434544430N00956758EA0145001448
B1340444544436N00956756EA0145101449
B1340454544444N00956757EA0145101449
B1340464544452N00956762EA0145101449
B1340474544458N00956770EA0145201450
B1340484544464N00956779EA0145401452
B1340494544468N00956789EA0145601454
B1340504544471N00956799EA0145601454
B1340514544474N00956808EA0145701455
B1340524544476N00956818EA0145701455
B1340534544479N00956827EA0145701455
B1340544544480N00956836EA0145801456
B1340554544482N00956845EA0145801456
B1340564544481N00956854EA0145701455
B1340574544480N00956862EA0145601454
B1340584544476N00956867EA0145601454
B1340594544472N00956870EA0145501453
B1341004544468N00956873EA0145401452
B1341014544465N00956874EA0145301451
B1341024544463N00956874EA0145101449
B1341034544460N00956874EA0145001448
B1341044544457N00956874EA0145001448
B1341054544453N00956873EA0145201450
B1341064544450N00956872EA0145401452
B1341074544446N00956871EA0145601454
B1341084544443N00956870EA0145801456
B1341094544440N00956870EA0145901457
B1341104544437N00956870EA0146001458
B1341114544434N00956870EA0146201460
B1341124544429N00956870EA0146501463
B1341134544425N00956870EA0146801466
B1341144544420N00956871EA0146901467
B1341154544417N00956873EA0146801466
B1341164544413N00956876EA0146801466
B1341174544410N00956878EA0146701465
B1341184544405N00956880EA0146801466
B1341194544400N00956881EA0146801466
B1341204544396N00956881EA0146901467
B1341214544391N00956882EA0146901467
B1341224544387N00956883EA0147001468
B1341234544383N00956883EA0147201470
B1341244544379N00956882EA0147401472
B1341254544375N00956881EA0147501473
B1341264544373N00956880EA0147701475
B1341274544370N00956879EA0147901477
B1341284544367N00956877EA0148201480
B1341294544364N00956876EA0148401482
B1341304544362N00956874EA0148501483
B1341314544359N00956873EA0148701485
B1341324544358N00956872EA0148801486
B1341334544355N00956868EA0149101488
B1341344544353N00956864EA0149201490
B1341354544352N00956860EA0149401492
B1341364544351N00956855EA0149501493
B1341374544350N00956851EA0149601494
B1341384544349N00956846EA0149701495
B1341394544347N00956842EA0149701495
B1341404544346N00956837EA0149801496
B1341414544345N00956831EA0149601494
B1341424544344N00956825EA0149501493
B1341434544344N00956818EA0149501493
B1341444544343N00956813EA0149401492
B1341454544342N00956807EA0149401492
B1341464544340N00956801EA0149201490
B1341474544336N00956796EA0149401492
B1341484544333N00956792EA0149401491
B1341494544330N00956787EA0149201490
B1341504544328N00956781EA0149301491
B1341514544326N00956775EA0148801486
B1341524544324N00956769EA0148601484
B1341534544320N00956764EA0148601484
B1341544544316N00956760EA0148601484
B1341554544313N00956757EA0148701485
B1341564544311N00956753EA0148801486
B1341574544309N00956750EA0148701485
B1341584544307N00956748EA0148501483
B1341594544304N00956746EA0148301480
B1342004544301N00956745EA0148101479
B1342014544296N00956745EA0148301481
B1342024544290N00956747EA0148501483
B1342034544287N00956749EA0148501483
B1342044544283N00956752EA0148301481
B1342054544280N00956755EA0148101479
B1342064544277N00956758EA0147901477
B1342074544274N00956763EA0147801476
B1342084544269N00956765EA0147801476
B1342094544264N00956765EA0147801476
B1342104544261N00956762EA0147701475
B1342114544260N00956756EA0147701475
B1342124544260N00956750EA0147901477
B1342134544261N00956744EA0148101478
B1342144544264N00956739EA0148101479
B1342154544269N00956737EA0148001478
B1342164544275N00956737EA0148001478
B1342174544282N00956740EA0148001478
B1342184544288N00956745EA0147801476
B1342194544292N00956754EA0147601474
B1342204544292N00956763EA0147401472
B1342214544290N00956772EA0147301471
B1342224544287N00956780EA0147101469
B1342234544286N00956787EA0147001468
B1342244544282N00956787EA0147001468
B1342254544279N00956771EA0147101469
B1342264544281N00956763EA0147101469
B1342274544287N00956758EA0147101469
B1342284544293N00956757EA0147101469
B1342294544298N00956762EA0147001468
B1342304544302N00956770EA0147001468
B1342314544303N00956779EA0147101469
B1342324544301N00956787EA0147001468
B1342334544298N00956794EA0146901467
B1342344544293N00956798EA0146701465
B1342354544288N00956799EA0146701465
B1342364544283N00956797EA0146701465
B1342374544277N00956795EA0146801466
B1342384544274N00956790EA0147001467
B1342394544272N00956785EA0147101469
B1342404544272N00956777EA0147101469
B1342414544274N00956770EA0147001468
B1342424544277N00956765EA0146901467
B1342434544283N00956762EA0146801466
B1342444544290N00956762EA0146601464
B1342454544296N00956766EA0146501462
B1342464544302N00956775EA0146401462
B1342474544304N00956787EA0146501463
B1342484544301N00956796EA0146501463
B1342494544297N00956801EA0146401462
B1342504544293N00956802EA0146401462
B1342514544289N00956800EA0146501463
B1342524544287N00956796EA0146601464
B1342534544287N00956791EA0146601464
B1342544544289N00956786EA0146601464
B1342554544293N00956782EA0146601464
B1342564544297N00956779EA0146601464
B1342574544301N00956776EA0146701465
B1342584544305N00956772EA0146701465
B1342594544307N00956769EA0146601463
B1343004544309N00956765EA0146401462
B1343014544309N00956760EA0146501462
B1343024544310N00956755EA0146401462
B1343034544309N00956750EA0146301461
B1343044544309N00956745EA0146301461
B1343054544309N00956740EA0146401462
B1343064544309N00956734EA0146501462
B1343074544308N00956729EA0146501463
B1343084544307N00956724EA0146601464
B1343094544305N00956720EA0146701465
B1343104544304N00956715EA0146701465
B1343114544305N00956710EA0146801465
B1343124544307N00956704EA0146701465
B1343134544309N00956699EA0146601464
B1343144544315N00956696EA0146401462
B1343154544321N00956694EA0146301461
B1343164544328N00956697EA0146301461
B1343174544336N00956703EA0146101459
B1343184544342N00956711EA0146101459
B1343194544345N00956721EA0146001458
B1343204544347N00956732EA0146001457
B1343214544345N00956741EA0145901457
B1343224544338N00956741EA0145901457
B1343234544335N00956736EA0145701455
B1343244544339N00956731EA0145301451
B1343254544348N00956732EA0145001448
B1343264544355N00956741EA0144701445
B1343274544356N00956755EA0144201440
B1343284544351N00956763EA0144301440
B1343294544346N00956759EA0144201440
B1343304544347N00956750EA0143701435
B1343314544358N00956748EA0143501433
B1343324544366N00956757EA0142701425
B1343334544366N00956771EA0142001418
B1343344544362N00956778EA0141901416
B1343354544363N00956771EA0141901417
B1343364544371N00956768EA0141301410
B1343374544377N00956772EA0139501393
B1343384544378N00956777EA0138701385
B1343394544375N00956781EA0138701385
B1343404544377N00956773EA0138901387
B1343414544391N00956780EA0138101379
B1343424544397N00956791EA0136801366
B1343434544394N00956805EA0135901357
B1343444544386N00956810EA0136501363
B1343454544386N00956804EA0136501363
B1343464544393N00956799EA0135801356
B1343474544400N00956805EA0134501343
B1343484544402N00956820EA0134001338
B1343494544396N00956829EA0133601334
B1343504544393N00956826EA0133301331
B1343514544399N00956817EA0133101329
B1343524544408N00956819EA0132401322
B1343534544413N00956834EA0131201310
B1343544544406N00956842EA0130701305
B1343554544399N00956839EA0131301311
B1343564544397N00956828EA0131701315
B1343574544403N00956822EA0131601314
B1343584544411N00956828EA0131401312
B1343594544417N00956838EA0131401311
B1344004544418N00956850EA0131801316
B1344014544417N00956860EA0132101319
B1344024544417N00956867EA0132201320
B1344034544416N00956873EA0132201320
B1344044544415N00956878EA0132001318
B1344054544413N00956885EA0131901317
B1344064544411N00956892EA0132001318
B1344074544407N00956899EA0132101319
B1344084544403N00956903EA0132101319
B1344094544399N00956903EA0132101319
B1344104544395N00956902EA0132101319
B1344114544392N00956899EA0132201320
B1344124544391N00956895EA0132301321
B1344134544391N00956892EA0132301321
B1344144544392N00956888EA0132401322
B1344154544393N00956884EA0132401322
B1344164544396N00956880EA0132501323
B1344174544399N00956876EA0132401322
B1344184544400N00956872EA0132201320
B1344194544401N00956867EA0132201320
B1344204544402N00956862EA0132101319
B1344214544405N00956856EA0132101319
B1344224544407N00956851EA0132001318
B1344234544411N00956845EA0132101319
B1344244544414N00956840EA0132101319
B1344254544417N00956835EA0132101319
B1344264544419N00956831EA0131901317
B1344274544421N00956826EA0131801316
B1344284544423N00956821EA0131601314
B1344294544425N00956815EA0131601313
B1344304544427N00956809EA0131501313
B1344314544428N00956802EA0131401312
B1344324544429N00956797EA0131401312
B1344334544429N00956792EA0131501313
B1344344544427N00956788EA0131401312
B1344354544425N00956785EA0131201310
B1344364544423N00956783EA0131101309
B1344374544420N00956781EA0130901307
B1344384544417N00956780EA0130701305
B1344394544414N00956778EA0130701305
B1344404544411N00956778EA0130601304
B1344414544407N00956778EA0130501303
B1344424544403N00956780EA0130501303
B1344434544399N00956783EA0130401302
B1344444544395N00956785EA0130301301
B1344454544390N00956789EA0130301301
B1344464544386N00956793EA0130301301
B1344474544382N00956798EA0130301301
B1344484544377N00956803EA0130501302
B1344494544373N00956807EA0130501303
B1344504544368N00956810EA0130601303
B1344514544363N00956812EA0130601304
B1344524544359N00956812EA0130501303
B1344534544355N00956811EA0130501303
B1344544544352N00956807EA0130401302
B1344554544351N00956802EA0130301301
B1344564544350N00956797EA0130201300
B1344574544350N00956792EA0130201300
B1344584544351N00956786EA0130101299
B1344594544355N00956780EA0130001298
B1345004544358N00956774EA0129801296
B1345014544362N00956770EA0129701295
B1345024544366N00956766EA0129701295
B1345034544371N00956763EA0129501293
B1345044544377N00956762EA0129401292
B1345054544383N00956761EA0129301291
B1345064544390N00956762EA0129201290
B1345074544396N00956763EA0129001288
B1345084544404N00956764EA0128701285
B1345094544411N00956765EA0128601284
B1345104544418N00956764EA0128401282
B1345114544425N00956762EA0128401282
B1345124544432N00956758EA0128601284
B1345134544436N00956754EA0128401282
B1345144544440N00956750EA0128301281
B1345154544443N00956746EA0128301281
B1345164544445N00956742EA0128201280
B1345174544447N00956738EA0128101279
B1345184544446N00956735EA0127901277
B1345194544444N00956732EA0127801276
B1345204544441N00956731EA0127901277
B1345214544437N00956732EA0128001278
B1345224544435N00956734EA0128001278
B1345234544432N00956737EA0127801276
B1345244544429N00956742EA0127401272
B1345254544425N00956747EA0127201270
B1345264544421N00956754EA0127101269
B1345274544418N00956762EA0127201270
B1345284544414N00956770EA0127401272
B1345294544411N00956778EA0127401272
B1345304544409N00956786EA0127301271
B1345314544407N00956794EA0127301271
B1345324544406N00956803EA0127301271
B1345334544404N00956812EA0127201270
B1345344544402N00956822EA0127401272
B1345354544401N00956833EA0127401272
B1345364544401N00956843EA0127301271
B1345374544401N00956855EA0127301271
B1345384544401N00956867EA0127501273
B1345394544402N00956878EA0127801276
B1345404544403N00956888EA0127901277
B1345414544404N00956898EA0127801276
B1345424544407N00956907EA0127701275
B1345434544410N00956917EA0127601274
B1345444544414N00956927EA0127901277
B1345454544418N00956937EA0128001278
B1345464544423N00956944EA0128001278
B1345474544429N00956951EA0127901277
B1345484544435N00956957EA0128001278
B1345494544442N00956963EA0128001278
B1345504544449N00956969EA0128201280
B1345514544455N00956973EA0128401282
B1345524544462N00956976EA0128601284
B1345534544469N00956978EA0128601284
B1345544544476N00956980EA0128701285
B1345554544482N00956981EA0128701285
B1345564544488N00956981EA0128801286
B1345574544495N00956981EA0128801286
B1345584544501N00956981EA0128901286
B1345594544507N00956980EA0129001288
B1346004544513N00956978EA0129001288
B1346014544519N00956977EA0129001288
B1346024544524N00956974EA0129001288
B1346034544526N00956970EA0129101289
B1346044544528N00956966EA0129201290
B1346054544530N00956961EA0129401292
B1346064544533N00956958EA0129401292
B1346074544534N00956954EA0129301291
B1346084544536N00956951EA0129201290
B1346094544536N00956947EA0129301291
B1346104544534N00956944EA0129501293
B1346114544532N00956942EA0129701295
B1346124544529N00956942EA0129801296
B1346134544527N00956942EA0129801296
B1346144544525N00956945EA0129701295
B1346154544523N00956948EA0129601294
B1346164544519N00956953EA0129601294
B1346174544515N00956959EA0129801296
B1346184544511N00956965EA0130001298
B1346194544507N00956972EA0130201300
B1346204544504N00956978EA0130201300
B1346214544502N00956984EA0130101299
B1346224544500N00956991EA0129901297
B1346234544498N00956999EA0129901297
B1346244544494N00957006EA0130001298
B1346254544491N00957014EA0130001298
B1346264544488N00957021EA0130001298
B1346274544485N00957028EA0130001298
B1346284544483N00957035EA0130101299
B1346294544480N00957040EA0130201300
B1346304544477N00957044EA0130001298
B1346314544473N00957047EA0130001298
B1346324544470N00957050EA0130001298
B1346334544466N00957053EA0130101299
B1346344544462N00957056EA0130001297
B1346354544459N00957059EA0130001298
B1346364544455N00957062EA0130101299
B1346374544452N00957061EA0130001298
B1346384544449N00957058EA0130101299
B1346394544448N00957055EA0130201300
B1346404544448N00957053EA0130101299
B1346414544448N00957050EA0129901297
B1346424544447N00957047EA0129501293
B1346434544448N00957042EA0129201290
B1346444544448N00957037EA0129001288
B1346454544447N00957031EA0128901287
B1346464544446N00957026EA0128601284
B1346474544443N00957022EA0128601284
B1346484544440N00957018EA0128701285
B1346494544437N00957013EA0128701285
B1346504544436N00957009EA0128701285
B1346514544435N00957004EA0128801286
B1346524544433N00957001EA0128701285
B1346534544432N00956998EA0128601284
B1346544544430N00956995EA0128501283
B1346554544429N00956992EA0128401282
B1346564544428N00956988EA0128301281
B1346574544427N00956984EA0128201280
B1346584544425N00956979EA0128101278
B1346594544424N00956976EA0128001278
B1347004544422N00956972EA0128001278
B1347014544420N00956969EA0127901277
B1347024544419N00956967EA0127901277
B1347034544417N00956964EA0127901277
B1347044544415N00956961EA0127901277
B1347054544413N00956959EA0127901277
B1347064544410N00956957EA0128001278
B1347074544407N00956956EA0128001278
B1347084544404N00956956EA0127901277
B1347094544400N00956956EA0127901277
B1347104544397N00956956EA0128001278
B1347114544394N00956956EA0128201280
B1347124544391N00956957EA0128301281
B1347134544389N00956956EA0128201280
B1347144544387N00956956EA0128101279
B1347154544385N00956954EA0128001278
B1347164544383N00956953EA0128001278
B1347174544380N00956950EA0127901277
B1347184544377N00956947EA0127901277
B1347194544375N00956942EA0128001278
B1347204544374N00956937EA0128001278
B1347214544374N00956932EA0128201280
B1347224544374N00956927EA0128201280
B1347234544373N00956924EA0128401282
B1347244544372N00956921EA0128601284
B1347254544373N00956917EA0128601284
B1347264544374N00956911EA0128301281
B1347274544377N00956904EA0128301281
B1347284544380N00956896EA0128301281
B1347294544386N00956888EA0128401282
B1347304544391N00956881EA0128301281
B1347314544399N00956878EA0128301281
B1347324544408N00956880EA0128401282
B1347334544415N00956886EA0128501283
B1347344544421N00956895EA0128701285
B1347354544427N00956904EA0128801286
B1347364544430N00956913EA0128801286
B1347374544432N00956922EA0128901287
B1347384544433N00956931EA0129001288
B1347394544434N00956940EA0129001288
B1347404544436N00956949EA0129101289
B1347414544437N00956958EA0129201290
B1347424544439N00956967EA0129101289
B1347434544439N00956974EA0128901287
B1347444544437N00956982EA0128901286
B1347454544434N00956986EA0128801286
B1347464544430N00956988EA0128801286
B1347474544426N00956989EA0128801286
B1347484544422N00956988EA0128801286
B1347494544419N00956985EA0128601284
B1347504544417N00956983EA0128601284
B1347514544413N00956983EA0128701285
B1347524544410N00956981EA0128501283
B1347534544407N00956978EA0128401282
B1347544544406N00956972EA0128301281
B1347554544406N00956967EA0127901277
B1347564544405N00956961EA0127501273
B1347574544404N00956956EA0127201270
B1347584544402N00956951EA0126901267
B1347594544400N00956947EA0126801266
B1348004544397N00956942EA0126701265
B1348014544396N00956937EA0126601264
B1348024544394N00956933EA0126401262
B1348034544393N00956928EA0126301261
B1348044544393N00956923EA0126101259
B1348054544393N00956916EA0125901257
B1348064544393N00956908EA0126101259
B1348074544393N00956900EA0126201260
B1348084544392N00956894EA0126101259
B1348094544391N00956890EA0125901257
B1348104544388N00956887EA0125801256
B1348114544385N00956887EA0125901257
B1348124544382N00956888EA0125801256
B1348134544380N00956891EA0125701254
B1348144544378N00956897EA0125601254
B1348154544378N00956903EA0125501253
B1348164544378N00956910EA0125501253
B1348174544380N00956918EA0125401252
B1348184544382N00956925EA0125301251
B1348194544387N00956931EA0125201250
B1348204544391N00956937EA0125001248
B1348214544397N00956941EA0124801246
B1348224544404N00956944EA0124701245
B1348234544412N00956945EA0124701245
B1348244544419N00956946EA0124601244
B1348254544427N00956946EA0124501243
B1348264544434N00956946EA0124301241
B1348274544441N00956947EA0124001238
B1348284544448N00956948EA0123701235
B1348294544456N00956948EA0123501233
B1348304544464N00956948EA0123701234
B1348314544472N00956946EA0123901237
B1348324544480N00956945EA0123901237
B1348334544486N00956943EA0123801236
B1348344544493N00956941EA0123801236
B1348354544499N00956938EA0123901237
B1348364544505N00956936EA0123901237
B1348374544511N00956934EA0123901237
B1348384544516N00956932EA0123801236
B1348394544521N00956929EA0123801236
B1348404544527N00956925EA0123701235
B1348414544532N00956921EA0123701235
B1348424544536N00956917EA0123801236
B1348434544539N00956913EA0123801236
B1348444544543N00956910EA0123901237
B1348454544546N00956907EA0124001238
B1348464544548N00956904EA0124201240
B1348474544549N00956902EA0124201240
B1348484544549N00956901EA0124201239
B1348494544549N00956902EA0124201240
B1348504544549N00956903EA0124301240
B1348514544548N00956903EA0124201240
B1348524544548N00956903EA0124201240
B1348534544548N00956903EA0124201240
B1348544544548N00956903EA0124201240
B1348554544548N00956903EA0124201240
B1348564544548N00956903EA0124201240
B1348574544548N00956903EA0124201240
B1348584544548N00956903EA0124201240
B1348594544548N00956903EA0124201240
B1349004544548N00956903EA0124201240
B1349014544548N00956903EA0124201240
B1349024544548N00956903EA0124201240
B1349034544548N00956903EA0124201240
B1349044544548N00956903EA0124201240
B1349054544548N00956903EA0124201240
B1349064544548N00956903EA0124201240
B1349074544548N00956902EA0124201240
B1349084544548N00956902EA0124201240
B1349094544548N00956902EA0124201240
B1349104544548N00956902EA0124201240
B1349114544548N00956902EA0124201240
B1349124544548N00956902EA0124201240
B1349134544548N00956902EA0124201240
B1349144544548N00956902EA0124201240
B1349154544548N00956902EA0124201240
B1349164544548N00956902EA0124201240
B1349174544548N00956902EA0124201240
B1349184544548N00956902EA0124201240
B1349194544548N00956902EA0124201240
B1349204544548N00956902EA0124201240
B1349214544548N00956902EA0124201240
B1349224544548N00956902EA0124201240
B1349234544547N00956902EA0124201240
B1349244544547N00956902EA0124201240
B1349254544547N00956902EA0124201240
LXSX;GF:3.2
G72D487BA0962BDCABCE9D33AD12EB5BF
