AXSX003 SKYTRAXX V3.0.10a SN:00000380
HOPLTPILOT:Sepp Bucher
HOGTYGLIDERTYPE:Sigma10
HOCIDCOMPETITIONID:0000
HODTM100GPSDATUM:WGS-84
HOCCLCOMPETITION CLASS:Paraglider (Standard)
HPSITSITE:Sedgeview
HFDTE211217
B1436553400365S02247601EA0015100106
B1436563400365S02247600EA0015100106
B1436573400367S02247601EA0015100106
B1436583400368S02247600EA0014900105
B1436593400370S02247599EA0014900106
B1437003400372S02247599EA0014800109
B1437013400374S02247598EA0014800113
B1437023400377S02247596EA0014900118
B1437033400379S02247595EA0015000122
B1437043400381S02247591EA0015100127
B1437053400381S02247588EA0015200131
B1437063400380S02247584EA0015100130
B1437073400379S02247579EA0015000128
B1437083400379S02247575EA0014900128
B1437093400378S02247569EA0014900128
B1437103400377S02247563EA0015000129
B1437113400375S02247558EA0015000128
B1437123400374S02247552EA0015000128
B1437133400372S02247546EA0015100130
B1437143400370S02247541EA0015200131
B1437153400370S02247535EA0015200131
B1437163400369S02247531EA0015300132
B1437173400369S02247525EA0015300132
B1437183400368S02247521EA0015300132
B1437193400366S02247515EA0015300132
B1437203400365S02247509EA0015400133
B1437213400363S02247503EA0015500134
B1437223400361S02247498EA0015600135
B1437233400360S02247492EA0015600135
B1437243400358S02247487EA0015600135
B1437253400357S02247482EA0015500134
B1437263400355S02247477EA0015500134
B1437273400354S02247471EA0015500134
B1437283400352S02247466EA0015600134
B1437293400351S02247460EA0015700136
B1437303400350S02247454EA0015800137
B1437313400348S02247448EA0015800137
B1437323400346S02247443EA0015800137
B1437333400344S02247438EA0015800137
B1437343400340S02247432EA0015800137
B1437353400338S02247426EA0015900138
B1437363400334S02247420EA0016100140
B1437373400332S02247414EA0016300142
B1437383400331S02247409EA0016500144
B1437393400329S02247404EA0016500144
B1437403400327S02247400EA0016500144
B1437413400326S02247395EA0016600145
B1437423400324S02247390EA0016800146
B1437433400322S02247385EA0017000148
B1437443400320S02247380EA0017100150
B1437453400317S02247376EA0017100150
B1437463400316S02247372EA0017100150
B1437473400315S02247368EA0017000149
B1437483400313S02247364EA0016900148
B1437493400312S02247361EA0017000149
B1437503400314S02247357EA0017000149
B1437513400315S02247355EA0017000149
B1437523400317S02247353EA0016900148
B1437533400320S02247354EA0016900148
B1437543400323S02247356EA0016900148
B1437553400325S02247360EA0016800147
B1437563400328S02247364EA0016800147
B1437573400329S02247370EA0016800147
B1437583400330S02247376EA0016800147
B1437593400331S02247381EA0016800147
B1438003400331S02247387EA0016700145
B1438013400332S02247392EA0016600145
B1438023400333S02247397EA0016600145
B1438033400334S02247403EA0016800147
B1438043400336S02247409EA0017000149
B1438053400339S02247415EA0017200151
B1438063400340S02247420EA0017300152
B1438073400341S02247425EA0017200151
B1438083400343S02247431EA0017300152
B1438093400344S02247437EA0017400153
B1438103400345S02247443EA0017500154
B1438113400347S02247448EA0017700155
B1438123400349S02247452EA0017800157
B1438133400351S02247456EA0017900158
B1438143400353S02247460EA0017800157
B1438153400355S02247463EA0017800156
B1438163400357S02247467EA0017700156
B1438173400359S02247471EA0017800157
B1438183400362S02247473EA0017700156
B1438193400365S02247474EA0017700156
B1438203400367S02247476EA0017600155
B1438213400367S02247476EA0017600155
B1438223400367S02247474EA0017700155
B1438233400363S02247472EA0017700156
B1438243400362S02247471EA0017700156
B1438253400361S02247464EA0017800157
B1438263400359S02247457EA0018000158
B1438273400357S02247451EA0018000159
B1438283400354S02247444EA0018000159
B1438293400352S02247437EA0018100159
B1438303400349S02247431EA0018200161
B1438313400347S02247425EA0018300162
B1438323400346S02247419EA0018400163
B1438333400344S02247413EA0018400163
B1438343400342S02247407EA0018400163
B1438353400339S02247402EA0018300162
B1438363400336S02247396EA0018300161
B1438373400333S02247389EA0018500164
B1438383400330S02247383EA0018700166
B1438393400327S02247376EA0018700166
B1438403400327S02247371EA0018600165
B1438413400327S02247367EA0018600165
B1438423400330S02247364EA0018600165
B1438433400333S02247363EA0018700166
B1438443400336S02247363EA0018700165
B1438453400340S02247365EA0018700166
B1438463400344S02247368EA0018700166
B1438473400348S02247372EA0018700166
B1438483400351S02247376EA0018800167
B1438493400354S02247382EA0018900167
B1438503400356S02247386EA0018900168
B1438513400358S02247392EA0019000169
B1438523400359S02247399EA0019000169
B1438533400361S02247406EA0019000169
B1438543400363S02247412EA0019100170
B1438553400365S02247418EA0019100170
B1438563400367S02247424EA0019100170
B1438573400369S02247430EA0019100170
B1438583400371S02247436EA0019100170
B1438593400372S02247443EA0019100170
B1439003400374S02247450EA0019100170
B1439013400376S02247457EA0019200171
B1439023400377S02247464EA0019200171
B1439033400379S02247471EA0019100170
B1439043400381S02247475EA0019100169
B1439053400384S02247479EA0019000169
B1439063400388S02247482EA0019100170
B1439073400394S02247483EA0019100170
B1439083400402S02247483EA0019100170
B1439093400409S02247482EA0019200171
B1439103400412S02247477EA0019200171
B1439113400395S02247472EA0019300172
B1439123400398S02247469EA0019300172
B1439133400377S02247443EA0019400173
B1439143400378S02247435EA0019400173
B1439153400379S02247428EA0019400173
B1439163400379S02247420EA0019400173
B1439173400376S02247409EA0019500174
B1439183400374S02247400EA0019700175
B1439193400373S02247392EA0019700175
B1439203400370S02247384EA0019600175
B1439213400367S02247378EA0019600175
B1439223400360S02247367EA0019600175
B1439233400356S02247360EA0019600175
B1439243400352S02247354EA0019700175
B1439253400347S02247346EA0019900178
B1439263400340S02247341EA0020100179
B1439273400336S02247334EA0020100180
B1439283400333S02247328EA0020100180
B1439293400330S02247322EA0020100180
B1439303400329S02247316EA0020100180
B1439313400329S02247311EA0020100179
B1439323400329S02247308EA0019900178
B1439333400330S02247306EA0019900178
B1439343400332S02247306EA0020100180
B1439353400334S02247306EA0020200181
B1439363400336S02247306EA0020200181
B1439373400338S02247307EA0020000179
B1439383400342S02247311EA0019900178
B1439393400344S02247314EA0019900178
B1439403400348S02247319EA0020100179
B1439413400352S02247322EA0020200181
B1439423400356S02247327EA0020200181
B1439433400358S02247332EA0020100180
B1439443400359S02247337EA0020100180
B1439453400361S02247342EA0020100180
B1439463400363S02247348EA0020200181
B1439473400363S02247354EA0020200181
B1439483400365S02247359EA0020200181
B1439493400366S02247364EA0020200181
B1439503400367S02247370EA0020200180
B1439513400368S02247375EA0020200181
B1439523400369S02247381EA0020200181
B1439533400370S02247387EA0020300181
B1439543400371S02247392EA0020200181
B1439553400372S02247398EA0020200181
B1439563400373S02247403EA0020200181
B1439573400374S02247408EA0020100180
B1439583400375S02247413EA0020100180
B1439593400376S02247419EA0020100180
B1440003400377S02247422EA0020200181
B1440013400378S02247424EA0020200180
B1440023400380S02247426EA0020100180
B1440033400380S02247425EA0020000179
B1440043400381S02247426EA0020000179
B1440053400379S02247424EA0019900178
B1440063400373S02247424EA0019900177
B1440073400373S02247423EA0019800177
B1440083400368S02247414EA0019800177
B1440093400365S02247406EA0019900178
B1440103400360S02247395EA0019900178
B1440113400356S02247388EA0019800177
B1440123400354S02247381EA0019800177
B1440133400352S02247373EA0020000178
B1440143400350S02247365EA0020100180
B1440153400351S02247356EA0020200181
B1440163400351S02247348EA0020300182
B1440173400351S02247341EA0020400183
B1440183400349S02247335EA0020300182
B1440193400349S02247328EA0020100180
B1440203400347S02247323EA0020100180
B1440213400345S02247317EA0020100180
B1440223400343S02247310EA0020200181
B1440233400337S02247304EA0020300181
B1440243400335S02247296EA0020200181
B1440253400334S02247289EA0020200181
B1440263400334S02247281EA0020200181
B1440273400334S02247274EA0020100180
B1440283400334S02247271EA0020100179
B1440293400336S02247267EA0020000179
B1440303400338S02247265EA0020000179
B1440313400341S02247266EA0020000179
B1440323400346S02247268EA0020100180
B1440333400351S02247270EA0020200181
B1440343400356S02247273EA0020300182
B1440353400360S02247276EA0020300181
B1440363400364S02247280EA0020300182
B1440373400366S02247284EA0020300182
B1440383400367S02247289EA0020300182
B1440393400368S02247294EA0020200181
B1440403400370S02247300EA0020200181
B1440413400371S02247306EA0020200181
B1440423400371S02247313EA0020400183
B1440433400372S02247320EA0020600185
B1440443400372S02247327EA0020700186
B1440453400374S02247333EA0020600185
B1440463400374S02247339EA0020600184
B1440473400373S02247345EA0020500184
B1440483400373S02247350EA0020400183
B1440493400371S02247356EA0020300182
B1440503400367S02247363EA0020300181
B1440513400365S02247369EA0020200181
B1440523400365S02247375EA0020200180
B1440533400365S02247382EA0020100180
B1440543400364S02247388EA0020100180
B1440553400365S02247395EA0020200180
B1440563400365S02247401EA0020200181
B1440573400366S02247408EA0020200181
B1440583400366S02247414EA0020400183
B1440593400368S02247420EA0020600185
B1441003400371S02247425EA0020500184
B1441013400374S02247430EA0020400183
B1441023400377S02247434EA0020400183
B1441033400380S02247438EA0020300182
B1441043400381S02247441EA0020300182
B1441053400382S02247441EA0020300182
B1441063400383S02247440EA0020400183
B1441073400386S02247438EA0020400183
B1441083400390S02247436EA0020400183
B1441093400395S02247435EA0020400183
B1441103400398S02247431EA0020500183
B1441113400402S02247428EA0020400183
B1441123400404S02247424EA0020400183
B1441133400404S02247416EA0020400183
B1441143400403S02247408EA0020300182
B1441153400403S02247401EA0020300182
B1441163400404S02247393EA0020200181
B1441173400404S02247386EA0020300182
B1441183400400S02247377EA0020200181
B1441193400397S02247367EA0020200181
B1441203400395S02247359EA0020200181
B1441213400391S02247351EA0020200181
B1441223400385S02247344EA0020200181
B1441233400378S02247336EA0020100180
B1441243400372S02247328EA0020100180
B1441253400366S02247321EA0020100180
B1441263400362S02247313EA0020100180
B1441273400358S02247305EA0020100179
B1441283400355S02247297EA0020100180
B1441293400350S02247290EA0020000179
B1441303400346S02247282EA0020000179
B1441313400342S02247275EA0020000179
B1441323400338S02247267EA0019900178
B1441333400334S02247260EA0019900178
B1441343400326S02247251EA0019900178
B1441353400316S02247242EA0019800177
B1441363400308S02247235EA0019800177
B1441373400301S02247227EA0019800177
B1441383400296S02247220EA0019800176
B1441393400291S02247212EA0019800177
B1441403400287S02247205EA0020000179
B1441413400283S02247197EA0020100180
B1441423400282S02247188EA0020200180
B1441433400281S02247181EA0020100180
B1441443400279S02247178EA0020000179
B1441453400278S02247175EA0019900178
B1441463400279S02247173EA0019800177
B1441473400281S02247177EA0019800176
B1441483400267S02247184EA0019900178
B1441493400269S02247184EA0019900177
B1441503400274S02247184EA0019700176
B1441513400280S02247186EA0019700176
B1441523400285S02247188EA0019800176
B1441533400290S02247194EA0019700176
B1441543400295S02247204EA0019600175
B1441553400301S02247212EA0019400173
B1441563400306S02247219EA0019400173
B1441573400309S02247227EA0019400173
B1441583400312S02247234EA0019400173
B1441593400316S02247240EA0019400172
B1442003400319S02247246EA0019300172
B1442013400322S02247252EA0019200171
B1442023400325S02247259EA0019200171
B1442033400328S02247265EA0019300172
B1442043400332S02247272EA0019400173
B1442053400334S02247279EA0019400173
B1442063400337S02247284EA0019500174
B1442073400340S02247289EA0019500173
B1442083400343S02247294EA0019400173
B1442093400345S02247299EA0019400173
B1442103400349S02247305EA0019400173
B1442113400352S02247310EA0019500174
B1442123400355S02247316EA0019500174
B1442133400358S02247321EA0019500174
B1442143400361S02247327EA0019500174
B1442153400365S02247332EA0019500173
B1442163400366S02247336EA0019400173
B1442173400367S02247341EA0019400173
B1442183400367S02247344EA0019400173
B1442193400368S02247350EA0019400172
B1442203400368S02247355EA0019300172
B1442213400369S02247360EA0019200171
B1442223400370S02247365EA0019200171
B1442233400371S02247370EA0019100170
B1442243400372S02247374EA0019000169
B1442253400374S02247377EA0018900168
B1442263400377S02247381EA0018900168
B1442273400380S02247385EA0018900168
B1442283400382S02247389EA0019000169
B1442293400385S02247392EA0019000169
B1442303400387S02247396EA0019000168
B1442313400391S02247399EA0018900168
B1442323400393S02247403EA0018800167
B1442333400396S02247406EA0018800167
B1442343400398S02247410EA0018700166
B1442353400399S02247415EA0018600165
B1442363400398S02247420EA0018500164
B1442373400399S02247425EA0018400162
B1442383400399S02247430EA0018300162
B1442393400399S02247436EA0018400163
B1442403400400S02247443EA0018400163
B1442413400401S02247449EA0018500164
B1442423400402S02247455EA0018600164
B1442433400402S02247459EA0018600165
B1442443400404S02247460EA0018400163
B1442453400404S02247458EA0018400163
B1442463400404S02247456EA0018400163
B1442473400407S02247454EA0018300162
B1442483400409S02247451EA0018300162
B1442493400410S02247447EA0018200161
B1442503400411S02247443EA0018200161
B1442513400409S02247437EA0018200161
B1442523400407S02247432EA0018300162
B1442533400404S02247427EA0018300162
B1442543400399S02247422EA0018200161
B1442553400394S02247417EA0018200161
B1442563400390S02247413EA0018100160
B1442573400385S02247408EA0018100160
B1442583400381S02247404EA0018000159
B1442593400377S02247398EA0018000159
B1443003400373S02247393EA0018000159
B1443013400368S02247388EA0018000159
B1443023400364S02247382EA0017900158
B1443033400359S02247377EA0018000158
B1443043400355S02247371EA0017900158
B1443053400352S02247366EA0017800157
B1443063400349S02247361EA0017700156
B1443073400344S02247355EA0017700156
B1443083400341S02247349EA0017700156
B1443093400340S02247343EA0017700156
B1443103400340S02247338EA0017600155
B1443113400340S02247333EA0017500154
B1443123400342S02247329EA0017500154
B1443133400344S02247327EA0017500153
B1443143400346S02247327EA0017500153
B1443153400349S02247328EA0017500153
B1443163400351S02247332EA0017500154
B1443173400352S02247336EA0017500154
B1443183400352S02247340EA0017400153
B1443193400352S02247346EA0017300152
B1443203400352S02247352EA0017300151
B1443213400352S02247357EA0017300152
B1443223400353S02247362EA0017200151
B1443233400353S02247368EA0017100150
B1443243400353S02247373EA0017000149
B1443253400354S02247378EA0017000149
B1443263400355S02247383EA0016900148
B1443273400356S02247388EA0016900147
B1443283400357S02247393EA0016900148
B1443293400358S02247399EA0016900148
B1443303400358S02247406EA0016900148
B1443313400358S02247412EA0017000149
B1443323400359S02247418EA0017000149
B1443333400360S02247424EA0017100150
B1443343400360S02247431EA0017100150
B1443353400360S02247437EA0017300152
B1443363400361S02247444EA0017600154
B1443373400362S02247450EA0017700156
B1443383400363S02247455EA0017700156
B1443393400363S02247459EA0017600155
B1443403400363S02247463EA0017500154
B1443413400363S02247465EA0017500154
B1443423400364S02247466EA0017500153
B1443433400365S02247464EA0017400153
B1443443400363S02247461EA0017400153
B1443453400362S02247457EA0017400152
B1443463400359S02247451EA0017300152
B1443473400357S02247445EA0017300151
B1443483400355S02247439EA0017200151
B1443493400354S02247433EA0017000149
B1443503400352S02247426EA0017000149
B1443513400352S02247420EA0017000149
B1443523400350S02247415EA0017000149
B1443533400348S02247409EA0016900148
B1443543400346S02247405EA0016900148
B1443553400342S02247400EA0016800147
B1443563400338S02247397EA0016900148
B1443573400334S02247392EA0016900148
B1443583400330S02247387EA0016700146
B1443593400326S02247383EA0016800147
B1444003400322S02247377EA0016900148
B1444013400319S02247372EA0017000149
B1444023400317S02247366EA0017100150
B1444033400316S02247361EA0017100149
B1444043400315S02247355EA0017000149
B1444053400314S02247351EA0016900148
B1444063400317S02247347EA0016800147
B1444073400319S02247344EA0016800147
B1444083400322S02247345EA0016800147
B1444093400326S02247347EA0016800147
B1444103400329S02247351EA0016800147
B1444113400331S02247356EA0016900147
B1444123400333S02247362EA0016900148
B1444133400333S02247367EA0016900148
B1444143400333S02247373EA0016900148
B1444153400334S02247379EA0016800147
B1444163400334S02247385EA0016700146
B1444173400333S02247391EA0016600144
B1444183400333S02247398EA0016500143
B1444193400333S02247406EA0016400143
B1444203400333S02247413EA0016300142
B1444213400334S02247420EA0016300142
B1444223400336S02247426EA0016300142
B1444233400338S02247432EA0016300142
B1444243400338S02247438EA0016400143
B1444253400338S02247444EA0016400143
B1444263400336S02247451EA0016300142
B1444273400334S02247457EA0016400143
B1444283400332S02247463EA0016400143
B1444293400328S02247470EA0016400142
B1444303400330S02247473EA0016300142
B1444313400330S02247476EA0016300142
B1444323400330S02247481EA0016200141
B1444333400330S02247487EA0016200141
B1444343400330S02247492EA0016300142
B1444353400331S02247496EA0016300142
B1444363400330S02247502EA0016300142
B1444373400330S02247507EA0016300142
B1444383400328S02247513EA0016200141
B1444393400327S02247519EA0016200141
B1444403400325S02247524EA0016200141
B1444413400325S02247528EA0016200141
B1444423400324S02247533EA0016200140
B1444433400325S02247540EA0016100140
B1444443400325S02247548EA0016100140
B1444453400326S02247554EA0016100140
B1444463400327S02247560EA0016100140
B1444473400327S02247562EA0016000139
B1444483400328S02247564EA0016000139
B1444493400333S02247560EA0016000139
B1444503400337S02247556EA0016000138
B1444513400340S02247552EA0015900138
B1444523400347S02247547EA0015900137
B1444533400354S02247543EA0015900138
B1444543400358S02247535EA0016000138
B1444553400360S02247528EA0016000139
B1444563400363S02247521EA0016100140
B1444573400368S02247512EA0016200141
B1444583400372S02247503EA0016300142
B1444593400376S02247496EA0016400142
B1445003400379S02247488EA0016400143
B1445013400381S02247482EA0016500144
B1445023400383S02247475EA0016500144
B1445033400383S02247472EA0016500144
B1445043400384S02247468EA0016500144
B1445053400387S02247464EA0016500144
B1445063400390S02247462EA0016400143
B1445073400394S02247462EA0016400143
B1445083400398S02247463EA0016400143
B1445093400402S02247466EA0016300142
B1445103400405S02247470EA0016200141
B1445113400409S02247473EA0016100140
B1445123400407S02247483EA0016000139
B1445133400403S02247493EA0015800137
B1445143400398S02247499EA0015700136
B1445153400393S02247504EA0015700135
B1445163400386S02247508EA0015600135
B1445173400380S02247509EA0015700136
B1445183400374S02247508EA0015800137
B1445193400369S02247506EA0015700136
B1445203400365S02247503EA0015600135
B1445213400366S02247497EA0015600135
B1445223400365S02247488EA0015700136
B1445233400365S02247482EA0015900137
B1445243400363S02247477EA0015900138
B1445253400362S02247472EA0015900138
B1445263400360S02247467EA0015900138
B1445273400358S02247462EA0015800137
B1445283400357S02247457EA0015800137
B1445293400355S02247452EA0015800137
B1445303400354S02247447EA0015700136
B1445313400352S02247442EA0015700136
B1445323400351S02247437EA0015600135
B1445333400350S02247432EA0015600135
B1445343400349S02247427EA0015600135
B1445353400348S02247423EA0015700135
B1445363400348S02247418EA0015600135
B1445373400349S02247414EA0015500134
B1445383400350S02247410EA0015400133
B1445393400353S02247406EA0015500134
B1445403400356S02247404EA0015500133
B1445413400360S02247403EA0015500133
B1445423400363S02247405EA0015500134
B1445433400368S02247409EA0015600135
B1445443400371S02247413EA0015700135
B1445453400373S02247417EA0015600135
B1445463400374S02247422EA0015600135
B1445473400375S02247427EA0015500134
B1445483400376S02247432EA0015500134
B1445493400377S02247438EA0015500134
B1445503400378S02247444EA0015500134
B1445513400379S02247450EA0015600134
B1445523400380S02247455EA0015500134
B1445533400380S02247460EA0015500134
B1445543400381S02247465EA0015500134
B1445553400381S02247471EA0015500134
B1445563400382S02247478EA0015600135
B1445573400382S02247484EA0015700136
B1445583400382S02247491EA0015800137
B1445593400383S02247497EA0015900138
B1446003400383S02247503EA0016000139
B1446013400383S02247509EA0016100140
B1446023400383S02247515EA0016100140
B1446033400384S02247520EA0016100140
B1446043400385S02247525EA0016000139
B1446053400387S02247529EA0016000138
B1446063400389S02247532EA0015900138
B1446073400393S02247532EA0016000138
B1446083400396S02247530EA0015900138
B1446093400399S02247528EA0015900138
B1446103400402S02247525EA0015900138
B1446113400402S02247519EA0015900137
B1446123400403S02247515EA0015800137
B1446133400401S02247508EA0015800136
B1446143400398S02247502EA0015700135
B1446153400394S02247496EA0015600135
B1446163400390S02247491EA0015600135
B1446173400387S02247487EA0015600135
B1446183400382S02247482EA0015600135
B1446193400378S02247478EA0015600135
B1446203400374S02247473EA0015500134
B1446213400370S02247468EA0015400133
B1446223400366S02247463EA0015400133
B1446233400362S02247458EA0015500133
B1446243400359S02247452EA0015400133
B1446253400355S02247446EA0015400133
B1446263400352S02247441EA0015400133
B1446273400350S02247435EA0015400133
B1446283400348S02247429EA0015300132
B1446293400346S02247423EA0015200131
B1446303400346S02247417EA0015300131
B1446313400348S02247413EA0015200131
B1446323400351S02247409EA0015100130
B1446333400355S02247406EA0015100130
B1446343400359S02247406EA0015000129
B1446353400363S02247408EA0015100130
B1446363400367S02247410EA0015100130
B1446373400371S02247414EA0015200130
B1446383400374S02247418EA0015200131
B1446393400377S02247423EA0015300131
B1446403400378S02247428EA0015200131
B1446413400379S02247433EA0015100130
B1446423400380S02247438EA0015000129
B1446433400381S02247443EA0014900128
B1446443400381S02247449EA0014900128
B1446453400381S02247457EA0014900128
B1446463400380S02247464EA0015000129
B1446473400379S02247470EA0015100129
B1446483400378S02247477EA0015100130
B1446493400377S02247483EA0015100130
B1446503400375S02247490EA0015100130
B1446513400374S02247497EA0015100130
B1446523400371S02247504EA0015100130
B1446533400370S02247511EA0015200131
B1446543400369S02247517EA0015100130
B1446553400368S02247524EA0015100130
B1446563400367S02247530EA0015100130
B1446573400367S02247537EA0015100130
B1446583400367S02247542EA0015000129
B1446593400369S02247547EA0014900128
B1447003400371S02247551EA0014800127
B1447013400374S02247554EA0014900128
B1447023400378S02247553EA0014800127
B1447033400381S02247552EA0014800127
B1447043400384S02247550EA0014800126
B1447053400385S02247547EA0014600125
B1447063400387S02247543EA0014600125
B1447073400388S02247537EA0014600124
B1447083400389S02247531EA0014500124
B1447093400389S02247525EA0014400123
B1447103400389S02247519EA0014400123
B1447113400389S02247512EA0014400123
B1447123400389S02247506EA0014400123
B1447133400389S02247500EA0014300122
B1447143400390S02247493EA0014300122
B1447153400389S02247486EA0014300122
B1447163400389S02247479EA0014400123
B1447173400389S02247473EA0014400123
B1447183400388S02247466EA0014300122
B1447193400388S02247459EA0014200121
B1447203400388S02247453EA0014200121
B1447213400388S02247446EA0014300121
B1447223400388S02247439EA0014200121
B1447233400387S02247432EA0014200121
B1447243400388S02247425EA0014200121
B1447253400388S02247419EA0014100120
B1447263400389S02247412EA0014000119
B1447273400389S02247405EA0013900118
B1447283400390S02247398EA0014000119
B1447293400390S02247391EA0013900118
B1447303400390S02247384EA0013900118
B1447313400390S02247377EA0013800117
B1447323400390S02247371EA0013700116
B1447333400390S02247364EA0013600115
B1447343400390S02247356EA0013600115
B1447353400390S02247349EA0013600115
B1447363400390S02247342EA0013700116
B1447373400390S02247335EA0013600115
B1447383400390S02247328EA0013500114
B1447393400390S02247321EA0013500114
B1447403400390S02247314EA0013400113
B1447413400389S02247307EA0013500114
B1447423400389S02247300EA0013500114
B1447433400389S02247293EA0013400113
B1447443400388S02247286EA0013500113
B1447453400388S02247279EA0013400113
B1447463400387S02247272EA0013400113
B1447473400387S02247265EA0013400112
B1447483400387S02247258EA0013300112
B1447493400386S02247252EA0013300112
B1447503400385S02247244EA0013300112
B1447513400385S02247237EA0013300112
B1447523400384S02247230EA0013200111
B1447533400383S02247223EA0013200111
B1447543400382S02247217EA0013200110
B1447553400381S02247210EA0013200111
B1447563400379S02247203EA0013100110
B1447573400378S02247197EA0013100110
B1447583400375S02247192EA0013100110
B1447593400372S02247187EA0013100110
B1448003400368S02247182EA0012900108
B1448013400365S02247177EA0012600104
B1448023400364S02247172EA0012500104
B1448033400366S02247168EA0012700105
B1448043400368S02247163EA0012600105
B1448053400369S02247158EA0012200101
B1448063400370S02247153EA0011800097
B1448073400370S02247147EA0011900098
B1448083400369S02247142EA0012200101
B1448093400364S02247136EA0011900098
B1448103400361S02247130EA0011600095
B1448113400361S02247125EA0011600095
B1448123400362S02247119EA0011500094
B1448133400363S02247113EA0011200091
B1448143400363S02247108EA0010800087
B1448153400363S02247103EA0010700085
B1448163400362S02247097EA0010900087
B1448173400359S02247092EA0010600085
B1448183400358S02247086EA0010000079
B1448193400356S02247082EA0009800077
B1448203400356S02247076EA0010200081
B1448213400356S02247069EA0010400083
B1448223400354S02247063EA0010200081
B1448233400352S02247057EA0010000078
B1448243400350S02247051EA0009800077
B1448253400347S02247043EA0009600075
B1448263400346S02247037EA0009600075
B1448273400347S02247031EA0009700075
B1448283400347S02247025EA0009600075
B1448293400347S02247020EA0009500074
B1448303400346S02247014EA0009400072
B1448313400344S02247008EA0009300072
B1448323400342S02247001EA0009300072
B1448333400339S02246994EA0009300072
B1448343400337S02246988EA0009200071
B1448353400336S02246981EA0009200070
B1448363400333S02246975EA0009000069
B1448373400331S02246969EA0008900068
B1448383400330S02246963EA0008800067
B1448393400328S02246956EA0008700066
B1448403400327S02246950EA0008700065
B1448413400326S02246944EA0008600065
B1448423400325S02246938EA0008600064
B1448433400325S02246932EA0008500064
B1448443400324S02246926EA0008500064
B1448453400323S02246919EA0008400062
B1448463400322S02246914EA0008300061
B1448473400322S02246908EA0008200061
B1448483400321S02246903EA0008100060
B1448493400320S02246897EA0008000059
B1448503400319S02246891EA0007900058
B1448513400317S02246885EA0007800057
B1448523400315S02246879EA0007600055
B1448533400313S02246874EA0007500054
B1448543400311S02246868EA0007400053
B1448553400309S02246862EA0007300051
B1448563400308S02246856EA0007000049
B1448573400307S02246850EA0006900047
B1448583400310S02246845EA0006600045
B1448593400312S02246841EA0006300042
B1449003400316S02246838EA0006100040
B1449013400321S02246835EA0005900038
B1449023400326S02246833EA0005900038
B1449033400330S02246832EA0005800037
B1449043400335S02246831EA0005700036
B1449053400340S02246830EA0005500034
B1449063400345S02246830EA0005400033
B1449073400350S02246829EA0005300032
B1449083400354S02246828EA0005200031
B1449093400359S02246828EA0005000029
B1449103400364S02246828EA0004900028
B1449113400369S02246829EA0005000028
B1449123400373S02246829EA0005000029
B1449133400377S02246830EA0004900028
B1449143400380S02246831EA0004700026
B1449153400383S02246832EA0004500024
B1449163400386S02246833EA0004300022
B1449173400389S02246834EA0004300022
B1449183400393S02246836EA0004300022
B1449193400396S02246838EA0004200021
B1449203400400S02246839EA0004200020
B1449213400403S02246840EA0004000019
B1449223400406S02246841EA0003800017
B1449233400409S02246842EA0003700016
B1449243400412S02246843EA0003800016
B1449253400415S02246844EA0003700016
B1449263400418S02246845EA0003600015
B1449273400421S02246847EA0003500014
B1449283400424S02246849EA0003400012
B1449293400426S02246851EA0003200011
B1449303400428S02246853EA0003100010
B1449313400430S02246856EA0002900008
B1449323400432S02246859EA0002900007
B1449333400434S02246861EA0002800006
B1449343400436S02246864EA0002600005
B1449353400439S02246866EA0002400003
B1449363400442S02246868EA0002200001
B1449373400445S02246869EA00020-0001
B1449383400449S02246869EA00017-0004
B1449393400453S02246868EA00016-0005
B1449403400457S02246866EA00016-0005
B1449413400461S02246864EA00017-0004
B1449423400465S02246864EA00016-0005
B1449433400468S02246863EA00016-0005
B1449443400471S02246862EA00017-0005
B1449453400473S02246861EA00018-0004
B1449463400475S02246861EA00018-0003
B1449473400477S02246862EA00017-0004
B1449483400478S02246862EA00017-0004
B1449493400478S02246863EA00017-0004
B1449503400479S02246863EA00017-0004
B1449513400479S02246864EA00017-0004
B1449523400479S02246864EA00017-0004
B1449533400478S02246865EA00017-0004
B1449543400478S02246866EA00017-0004
B1449553400478S02246866EA00017-0004
B1449563400477S02246867EA00017-0004
B1449573400477S02246867EA00017-0004
B1449583400477S02246868EA00017-0004
B1449593400478S02246868EA00017-0004
B1450003400478S02246869EA00017-0004
B1450013400478S02246870EA00017-0004
B1450023400478S02246870EA00017-0004
B1450033400477S02246871EA00017-0004
B1450043400476S02246871EA00017-0004
B1450053400475S02246872EA00017-0004
B1450063400473S02246872EA00017-0004
B1450073400472S02246873EA00017-0004
B1450083400471S02246874EA00017-0004
B1450093400471S02246875EA00017-0004
B1450103400470S02246875EA00017-0004
B1450113400469S02246875EA00017-0004
B1450123400467S02246876EA00017-0004
B1450133400466S02246876EA00017-0004
B1450143400465S02246876EA00017-0004
B1450153400463S02246875EA00017-0004
B1450163400462S02246875EA00017-0004
B1450173400462S02246871EA00017-0004
B1450183400461S02246866EA00018-0003
B1450193400458S02246864EA00017-0004
B1450203400456S02246862EA00017-0004
B1450213400455S02246860EA00017-0004
B1450223400454S02246859EA00017-0004
B1450233400453S02246859EA00017-0004
B1450243400452S02246858EA00017-0004
B1450253400451S02246858EA00017-0004
B1450263400450S02246858EA00017-0004
B1450273400450S02246857EA00017-0004
B1450283400450S02246857EA00017-0004
B1450293400450S02246856EA00017-0004
B1450303400450S02246856EA00017-0004
B1450313400450S02246856EA00017-0004
B1450323400449S02246857EA00017-0004
B1450333400447S02246857EA00017-0004
LXSX;GF:1.7
G248C346EB4F737E23302990E124D523D
