AXSX003 SKYTRAXX V3.0.10a SN:00000380
HOPLTPILOT:Sepp Bucher
HOGTYGLIDERTYPE:Sigma10
HOCIDCOMPETITIONID:0000
HODTM100GPSDATUM:WGS-84
HOCCLCOMPETITION CLASS:Paraglider (Standard)
HPSITSITE:Hermanus
HFDTE251217
B1435163424131S01914570EA0015400222
B1435173424132S01914570EA0015600223
B1435183424132S01914570EA0015700223
B1435193424132S01914569EA0015800223
B1435203424132S01914569EA0015700222
B1435213424133S01914569EA0015700221
B1435223424135S01914569EA0015800221
B1435233424137S01914569EA0015900221
B1435243424138S01914567EA0016100222
B1435253424139S01914565EA0016300225
B1435263424140S01914563EA0016400227
B1435273424141S01914561EA0016400227
B1435283424142S01914560EA0016400227
B1435293424144S01914559EA0016500228
B1435303424146S01914558EA0016500228
B1435313424148S01914557EA0016600229
B1435323424149S01914555EA0016700230
B1435333424151S01914553EA0016800231
B1435343424153S01914551EA0016800231
B1435353424155S01914549EA0016800231
B1435363424157S01914546EA0017000233
B1435373424159S01914544EA0017200235
B1435383424160S01914541EA0017400237
B1435393424162S01914539EA0017600239
B1435403424163S01914536EA0017700240
B1435413424163S01914534EA0017700240
B1435423424165S01914532EA0017700240
B1435433424166S01914531EA0017700240
B1435443424167S01914530EA0018000243
B1435453424168S01914528EA0018200245
B1435463424169S01914526EA0018400247
B1435473424169S01914524EA0018400247
B1435483424170S01914522EA0018400248
B1435493424171S01914521EA0018600249
B1435503424172S01914520EA0018700250
B1435513424174S01914519EA0018700250
B1435523424175S01914517EA0018900252
B1435533424177S01914516EA0019000253
B1435543424177S01914515EA0019200255
B1435553424179S01914515EA0019400257
B1435563424180S01914514EA0019600259
B1435573424181S01914514EA0019600259
B1435583424181S01914514EA0019700260
B1435593424181S01914513EA0019700260
B1436003424182S01914513EA0019600259
B1436013424182S01914513EA0019600259
B1436023424183S01914513EA0019600259
B1436033424183S01914513EA0019400257
B1436043424185S01914512EA0019300256
B1436053424187S01914511EA0019300256
B1436063424189S01914509EA0019200255
B1436073424191S01914505EA0019300256
B1436083424194S01914502EA0019500258
B1436093424196S01914500EA0019700260
B1436103424198S01914497EA0019800261
B1436113424199S01914494EA0019800261
B1436123424200S01914492EA0019700260
B1436133424202S01914489EA0019800261
B1436143424204S01914487EA0020000263
B1436153424207S01914485EA0020200265
B1436163424210S01914482EA0020300266
B1436173424211S01914480EA0020400267
B1436183424213S01914477EA0020500268
B1436193424214S01914474EA0020700270
B1436203424216S01914472EA0020900272
B1436213424218S01914469EA0021200275
B1436223424221S01914466EA0021400277
B1436233424223S01914464EA0021700280
B1436243424225S01914462EA0021800282
B1436253424227S01914460EA0022000283
B1436263424229S01914458EA0022300286
B1436273424231S01914455EA0022600289
B1436283424234S01914453EA0022900292
B1436293424235S01914451EA0023000293
B1436303424237S01914449EA0023200295
B1436313424239S01914447EA0023200295
B1436323424242S01914445EA0023300296
B1436333424245S01914444EA0023500298
B1436343424248S01914442EA0023700300
B1436353424251S01914441EA0024000303
B1436363424253S01914440EA0024200305
B1436373424254S01914440EA0024600309
B1436383424257S01914440EA0024800311
B1436393424259S01914440EA0025000313
B1436403424261S01914439EA0025100314
B1436413424263S01914439EA0025100314
B1436423424265S01914438EA0025200315
B1436433424267S01914436EA0025400317
B1436443424269S01914434EA0025800321
B1436453424270S01914433EA0026200325
B1436463424272S01914430EA0026500328
B1436473424272S01914428EA0026600329
B1436483424273S01914426EA0026700330
B1436493424275S01914424EA0026900332
B1436503424276S01914421EA0027100334
B1436513424279S01914419EA0027400337
B1436523424281S01914417EA0027600339
B1436533424282S01914416EA0027700340
B1436543424283S01914414EA0027700340
B1436553424284S01914413EA0027800341
B1436563424286S01914410EA0028100344
B1436573424288S01914407EA0028600349
B1436583424289S01914405EA0029000353
B1436593424291S01914403EA0029300356
B1437003424293S01914402EA0029400357
B1437013424294S01914401EA0029700360
B1437023424296S01914399EA0029900362
B1437033424298S01914396EA0030000363
B1437043424299S01914394EA0030100364
B1437053424300S01914392EA0030000363
B1437063424302S01914390EA0029800361
B1437073424304S01914388EA0029700360
B1437083424306S01914385EA0029800361
B1437093424307S01914382EA0030100364
B1437103424308S01914379EA0030500368
B1437113424310S01914376EA0030600369
B1437123424311S01914374EA0030700370
B1437133424312S01914372EA0030600369
B1437143424313S01914369EA0030600369
B1437153424314S01914367EA0030700370
B1437163424315S01914364EA0030700370
B1437173424317S01914362EA0030700370
B1437183424318S01914359EA0030700370
B1437193424320S01914357EA0030600369
B1437203424322S01914354EA0030600369
B1437213424323S01914352EA0030500368
B1437223424325S01914350EA0030300366
B1437233424326S01914348EA0030000363
B1437243424328S01914345EA0030000363
B1437253424331S01914342EA0030300366
B1437263424333S01914337EA0030700370
B1437273424335S01914333EA0030900372
B1437283424337S01914330EA0031000373
B1437293424339S01914328EA0031100374
B1437303424341S01914325EA0031300376
B1437313424343S01914322EA0031500378
B1437323424345S01914319EA0031600379
B1437333424346S01914317EA0031600379
B1437343424347S01914314EA0031600379
B1437353424349S01914311EA0031500378
B1437363424351S01914308EA0031700380
B1437373424352S01914304EA0032100384
B1437383424353S01914301EA0032300386
B1437393424354S01914298EA0032400387
B1437403424355S01914295EA0032300386
B1437413424357S01914293EA0032300386
B1437423424357S01914290EA0032200385
B1437433424359S01914288EA0032100384
B1437443424360S01914286EA0031900382
B1437453424361S01914283EA0031600379
B1437463424363S01914280EA0031400377
B1437473424364S01914277EA0031200375
B1437483424368S01914274EA0031000373
B1437493424371S01914272EA0030900372
B1437503424373S01914271EA0030700370
B1437513424375S01914270EA0030600369
B1437523424378S01914268EA0030300366
B1437533424379S01914266EA0030100364
B1437543424381S01914263EA0029900362
B1437553424383S01914260EA0029700360
B1437563424384S01914257EA0029600359
B1437573424385S01914254EA0029400357
B1437583424387S01914251EA0029200355
B1437593424389S01914248EA0029000353
B1438003424390S01914245EA0028800351
B1438013424392S01914241EA0028600349
B1438023424394S01914237EA0028400347
B1438033424395S01914233EA0028200345
B1438043424397S01914230EA0028100344
B1438053424399S01914227EA0027800341
B1438063424401S01914224EA0027600339
B1438073424403S01914220EA0027400337
B1438083424406S01914217EA0027300336
B1438093424408S01914214EA0027400337
B1438103424411S01914210EA0027500338
B1438113424413S01914207EA0027700340
B1438123424416S01914205EA0027600340
B1438133424418S01914203EA0027600339
B1438143424420S01914203EA0027500338
B1438153424422S01914202EA0027500338
B1438163424424S01914201EA0027400337
B1438173424425S01914199EA0027400337
B1438183424427S01914197EA0027500338
B1438193424429S01914195EA0027600339
B1438203424430S01914194EA0027700340
B1438213424431S01914192EA0027700340
B1438223424433S01914190EA0027800341
B1438233424434S01914188EA0027800341
B1438243424436S01914186EA0027800341
B1438253424437S01914184EA0027800341
B1438263424438S01914182EA0027800341
B1438273424439S01914180EA0027900342
B1438283424440S01914178EA0027900342
B1438293424442S01914176EA0028100344
B1438303424444S01914175EA0028100344
B1438313424445S01914174EA0028100344
B1438323424447S01914174EA0028100344
B1438333424448S01914174EA0028100344
B1438343424451S01914174EA0028000343
B1438353424453S01914176EA0028100344
B1438363424456S01914180EA0028000343
B1438373424458S01914187EA0028100344
B1438383424459S01914194EA0028200345
B1438393424460S01914201EA0028200345
B1438403424460S01914209EA0028300346
B1438413424453S01914216EA0028600349
B1438423424448S01914222EA0028700350
B1438433424443S01914228EA0028800351
B1438443424439S01914234EA0028800351
B1438453424434S01914241EA0028900352
B1438463424428S01914248EA0028900352
B1438473424422S01914256EA0029100354
B1438483424416S01914263EA0029400357
B1438493424412S01914271EA0029500358
B1438503424407S01914278EA0029600359
B1438513424401S01914284EA0029700360
B1438523424396S01914291EA0029900362
B1438533424391S01914297EA0030200365
B1438543424386S01914303EA0030400367
B1438553424381S01914309EA0030500368
B1438563424376S01914316EA0030600369
B1438573424371S01914322EA0030800371
B1438583424365S01914329EA0031000373
B1438593424361S01914336EA0031300376
B1439003424356S01914343EA0031600379
B1439013424351S01914349EA0031900382
B1439023424346S01914356EA0032100384
B1439033424341S01914362EA0032200385
B1439043424337S01914370EA0032400387
B1439053424333S01914378EA0032600389
B1439063424331S01914387EA0032800391
B1439073424330S01914394EA0033100394
B1439083424329S01914399EA0033400397
B1439093424329S01914403EA0033600399
B1439103424331S01914404EA0033700400
B1439113424332S01914405EA0033700401
B1439123424334S01914404EA0033800401
B1439133424334S01914403EA0033800401
B1439143424336S01914400EA0033800401
B1439153424336S01914397EA0034000403
B1439163424336S01914393EA0034200405
B1439173424335S01914389EA0034300406
B1439183424333S01914385EA0034500408
B1439193424331S01914381EA0034700411
B1439203424327S01914378EA0035100414
B1439213424322S01914376EA0035400417
B1439223424316S01914375EA0035600419
B1439233424308S01914375EA0035800421
B1439243424302S01914376EA0036000423
B1439253424294S01914378EA0036200425
B1439263424288S01914381EA0036500428
B1439273424282S01914385EA0036800431
B1439283424276S01914390EA0037200435
B1439293424271S01914394EA0037400437
B1439303424265S01914401EA0037800441
B1439313424261S01914407EA0038000443
B1439323424258S01914414EA0038100444
B1439333424256S01914421EA0038200445
B1439343424254S01914428EA0038200445
B1439353424254S01914437EA0038300446
B1439363424254S01914444EA0038400447
B1439373424256S01914448EA0038500448
B1439383424257S01914452EA0038500448
B1439393424258S01914454EA0038400447
B1439403424261S01914454EA0038200445
B1439413424263S01914455EA0038100444
B1439423424266S01914455EA0037900442
B1439433424269S01914455EA0037800441
B1439443424274S01914455EA0037800442
B1439453424278S01914454EA0038100444
B1439463424281S01914454EA0038200445
B1439473424284S01914453EA0038400447
B1439483424286S01914452EA0038600449
B1439493424288S01914451EA0038600449
B1439503424290S01914449EA0038700450
B1439513424291S01914447EA0038900452
B1439523424294S01914445EA0039100454
B1439533424296S01914443EA0039300456
B1439543424297S01914442EA0039400457
B1439553424299S01914440EA0039500458
B1439563424299S01914438EA0039500458
B1439573424301S01914436EA0039700460
B1439583424302S01914433EA0039900462
B1439593424302S01914431EA0040200465
B1440003424303S01914429EA0040300466
B1440013424304S01914427EA0040400467
B1440023424305S01914426EA0040500468
B1440033424306S01914425EA0040600469
B1440043424307S01914423EA0040800471
B1440053424308S01914422EA0040900472
B1440063424309S01914421EA0041000473
B1440073424310S01914420EA0041100474
B1440083424311S01914419EA0041100474
B1440093424313S01914418EA0041200475
B1440103424314S01914417EA0041300476
B1440113424315S01914416EA0041400477
B1440123424316S01914413EA0041500478
B1440133424316S01914410EA0041700480
B1440143424318S01914407EA0041800481
B1440153424319S01914405EA0041900482
B1440163424320S01914403EA0042100484
B1440173424321S01914400EA0042500488
B1440183424323S01914398EA0042800491
B1440193424324S01914396EA0043100494
B1440203424324S01914394EA0043300496
B1440213424324S01914393EA0043500498
B1440223424325S01914392EA0043600499
B1440233424326S01914391EA0043700500
B1440243424327S01914389EA0043800501
B1440253424328S01914388EA0044000504
B1440263424329S01914386EA0044300506
B1440273424330S01914384EA0044500508
B1440283424332S01914383EA0044700510
B1440293424333S01914382EA0044900512
B1440303424334S01914381EA0045200515
B1440313424336S01914380EA0045400517
B1440323424337S01914378EA0045500518
B1440333424338S01914377EA0045700520
B1440343424340S01914375EA0045900522
B1440353424341S01914373EA0046000523
B1440363424342S01914371EA0046100524
B1440373424343S01914368EA0046200525
B1440383424345S01914365EA0046400527
B1440393424346S01914361EA0046600529
B1440403424347S01914359EA0046700530
B1440413424349S01914356EA0046800531
B1440423424350S01914354EA0047000533
B1440433424352S01914352EA0047300536
B1440443424353S01914350EA0047500538
B1440453424355S01914348EA0047600540
B1440463424356S01914347EA0047900542
B1440473424357S01914346EA0048000543
B1440483424358S01914345EA0048100544
B1440493424358S01914343EA0048200545
B1440503424358S01914342EA0048200545
B1440513424359S01914341EA0048300546
B1440523424360S01914340EA0048300546
B1440533424360S01914339EA0048100544
B1440543424361S01914338EA0048000543
B1440553424363S01914337EA0047900542
B1440563424365S01914336EA0047800541
B1440573424367S01914335EA0047900542
B1440583424369S01914333EA0048000543
B1440593424371S01914332EA0048100544
B1441003424373S01914329EA0048200545
B1441013424375S01914328EA0048200545
B1441023424376S01914326EA0048300546
B1441033424378S01914325EA0048300546
B1441043424379S01914323EA0048400547
B1441053424381S01914320EA0048900552
B1441063424381S01914318EA0049300556
B1441073424383S01914316EA0049600559
B1441083424383S01914314EA0049800561
B1441093424383S01914313EA0049900562
B1441103424383S01914312EA0049900562
B1441113424386S01914312EA0050000563
B1441123424387S01914311EA0050300566
B1441133424388S01914310EA0050600569
B1441143424387S01914310EA0050700570
B1441153424387S01914308EA0050600569
B1441163424386S01914307EA0050500568
B1441173424385S01914304EA0050400567
B1441183424385S01914302EA0050500568
B1441193424386S01914300EA0050700570
B1441203424386S01914298EA0050700570
B1441213424386S01914299EA0050700570
B1441223424386S01914301EA0050900572
B1441233424387S01914302EA0051100574
B1441243424389S01914303EA0051300576
B1441253424390S01914306EA0051600579
B1441263424391S01914309EA0051800581
B1441273424393S01914313EA0052000583
B1441283424394S01914317EA0052300586
B1441293424395S01914321EA0052600589
B1441303424397S01914325EA0052800591
B1441313424398S01914328EA0053000593
B1441323424400S01914331EA0053200595
B1441333424403S01914334EA0053400597
B1441343424405S01914337EA0053800601
B1441353424407S01914339EA0054100604
B1441363424410S01914342EA0054400607
B1441373424412S01914345EA0054600609
B1441383424414S01914348EA0054700610
B1441393424416S01914351EA0054900612
B1441403424418S01914355EA0055000613
B1441413424420S01914359EA0055200615
B1441423424422S01914362EA0055400617
B1441433424424S01914366EA0055700620
B1441443424426S01914369EA0055900622
B1441453424429S01914373EA0056100624
B1441463424431S01914377EA0056400627
B1441473424433S01914381EA0056800631
B1441483424435S01914384EA0056900632
B1441493424435S01914388EA0057000633
B1441503424437S01914391EA0057000633
B1441513424437S01914395EA0057000633
B1441523424439S01914398EA0057000633
B1441533424442S01914401EA0057100634
B1441543424444S01914404EA0057200635
B1441553424447S01914406EA0057300636
B1441563424449S01914407EA0057400637
B1441573424451S01914407EA0057500638
B1441583424454S01914408EA0057600639
B1441593424456S01914409EA0057800641
B1442003424459S01914410EA0058000643
B1442013424460S01914411EA0058200645
B1442023424462S01914412EA0058300647
B1442033424464S01914413EA0058400647
B1442043424465S01914414EA0058400647
B1442053424467S01914415EA0058400647
B1442063424470S01914416EA0058400647
B1442073424473S01914417EA0058300646
B1442083424475S01914418EA0058200645
B1442093424478S01914419EA0058200645
B1442103424480S01914420EA0058100644
B1442113424482S01914421EA0058000643
B1442123424485S01914422EA0057900642
B1442133424488S01914423EA0057700640
B1442143424491S01914424EA0057600639
B1442153424493S01914425EA0057500638
B1442163424496S01914426EA0057400637
B1442173424499S01914428EA0057300636
B1442183424502S01914429EA0057100634
B1442193424504S01914431EA0056800631
B1442203424507S01914433EA0056700630
B1442213424510S01914435EA0056600629
B1442223424513S01914436EA0056600629
B1442233424516S01914437EA0056700630
B1442243424519S01914438EA0056800631
B1442253424521S01914440EA0056700630
B1442263424524S01914442EA0056600629
B1442273424527S01914444EA0056500628
B1442283424529S01914446EA0056600629
B1442293424532S01914448EA0056700630
B1442303424535S01914449EA0056600629
B1442313424537S01914451EA0056500628
B1442323424539S01914453EA0056300626
B1442333424541S01914455EA0056000623
B1442343424544S01914458EA0055900622
B1442353424546S01914462EA0055800621
B1442363424548S01914466EA0055700620
B1442373424550S01914470EA0055600619
B1442383424551S01914474EA0055400617
B1442393424552S01914478EA0055200615
B1442403424554S01914482EA0055000613
B1442413424557S01914487EA0054900612
B1442423424559S01914490EA0054800611
B1442433424562S01914494EA0054700610
B1442443424564S01914497EA0054500609
B1442453424566S01914501EA0054400607
B1442463424569S01914504EA0054200605
B1442473424571S01914507EA0054000603
B1442483424573S01914511EA0054000603
B1442493424576S01914514EA0053900602
B1442503424578S01914518EA0053800601
B1442513424580S01914521EA0053600599
B1442523424582S01914524EA0053500598
B1442533424584S01914527EA0053300596
B1442543424587S01914531EA0053300596
B1442553424590S01914535EA0053400597
B1442563424592S01914538EA0053500598
B1442573424595S01914542EA0053600599
B1442583424597S01914545EA0053600599
B1442593424598S01914548EA0053500598
B1443003424601S01914551EA0053400597
B1443013424602S01914552EA0053600599
B1443023424604S01914553EA0053800601
B1443033424605S01914553EA0053900602
B1443043424604S01914551EA0054000603
B1443053424602S01914548EA0054200605
B1443063424600S01914545EA0054200606
B1443073424598S01914542EA0054300606
B1443083424595S01914539EA0054400607
B1443093424590S01914537EA0054400607
B1443103424584S01914536EA0054500608
B1443113424579S01914536EA0054600609
B1443123424572S01914536EA0054600609
B1443133424566S01914537EA0054700610
B1443143424560S01914537EA0054700610
B1443153424554S01914537EA0054700610
B1443163424549S01914536EA0054700610
B1443173424544S01914534EA0054600609
B1443183424539S01914533EA0054600609
B1443193424534S01914531EA0054600609
B1443203424529S01914528EA0054600609
B1443213424525S01914526EA0054600609
B1443223424521S01914523EA0054500608
B1443233424517S01914518EA0054500608
B1443243424516S01914513EA0054500609
B1443253424514S01914509EA0054600609
B1443263424511S01914505EA0054500608
B1443273424508S01914502EA0054600609
B1443283424504S01914500EA0054500608
B1443293424502S01914498EA0054400607
B1443303424499S01914496EA0054400607
B1443313424497S01914493EA0054400607
B1443323424495S01914489EA0054600609
B1443333424493S01914487EA0054800611
B1443343424491S01914484EA0054800611
B1443353424489S01914482EA0054600609
B1443363424489S01914481EA0054200605
B1443373424489S01914480EA0054000603
B1443383424491S01914478EA0054000603
B1443393424492S01914476EA0053800601
B1443403424492S01914474EA0053500598
B1443413424491S01914470EA0053500598
B1443423424486S01914467EA0053500598
B1443433424481S01914464EA0053400597
B1443443424478S01914461EA0053200595
B1443453424476S01914457EA0053100594
B1443463424479S01914454EA0053600599
B1443473424481S01914452EA0053900602
B1443483424481S01914451EA0054000603
B1443493424480S01914449EA0054000603
B1443503424478S01914446EA0054000603
B1443513424476S01914442EA0054200605
B1443523424475S01914438EA0054300606
B1443533424475S01914435EA0054300606
B1443543424477S01914433EA0054400607
B1443553424480S01914433EA0054600609
B1443563424483S01914434EA0054700610
B1443573424486S01914437EA0054800611
B1443583424488S01914440EA0054900612
B1443593424489S01914445EA0054800612
B1444003424492S01914449EA0054800611
B1444013424494S01914453EA0054800611
B1444023424498S01914457EA0055000613
B1444033424500S01914460EA0055200615
B1444043424503S01914461EA0055300616
B1444053424505S01914463EA0055400617
B1444063424506S01914464EA0055500618
B1444073424508S01914465EA0055400617
B1444083424510S01914465EA0055400617
B1444093424512S01914465EA0055300616
B1444103424514S01914465EA0055200615
B1444113424517S01914465EA0055100614
B1444123424519S01914464EA0055200615
B1444133424522S01914463EA0055100614
B1444143424524S01914462EA0055000613
B1444153424527S01914461EA0055000613
B1444163424530S01914460EA0054900612
B1444173424532S01914459EA0054800611
B1444183424535S01914459EA0054600609
B1444193424538S01914459EA0054500608
B1444203424541S01914458EA0054400607
B1444213424544S01914458EA0054300606
B1444223424548S01914458EA0054200605
B1444233424549S01914456EA0054100604
B1444243424550S01914454EA0053900602
B1444253424551S01914452EA0053600599
B1444263424552S01914450EA0053400597
B1444273424554S01914449EA0053200595
B1444283424557S01914447EA0053200595
B1444293424559S01914446EA0053100594
B1444303424561S01914446EA0052900592
B1444313424562S01914446EA0052700590
B1444323424564S01914445EA0052500588
B1444333424567S01914444EA0052300586
B1444343424569S01914443EA0052200585
B1444353424571S01914442EA0052100584
B1444363424573S01914441EA0051900582
B1444373424575S01914440EA0051700580
B1444383424577S01914439EA0051500578
B1444393424579S01914437EA0051200575
B1444403424581S01914435EA0051100574
B1444413424583S01914433EA0051000573
B1444423424585S01914431EA0051000573
B1444433424587S01914429EA0050900572
B1444443424589S01914427EA0050800571
B1444453424590S01914426EA0050700570
B1444463424592S01914424EA0050600569
B1444473424593S01914423EA0050600569
B1444483424594S01914421EA0050500568
B1444493424595S01914419EA0050400567
B1444503424597S01914418EA0050200565
B1444513424598S01914416EA0050000563
B1444523424600S01914414EA0049900562
B1444533424602S01914412EA0049700560
B1444543424603S01914410EA0049700560
B1444553424605S01914409EA0049700560
B1444563424606S01914407EA0049800561
B1444573424607S01914407EA0049900562
B1444583424609S01914406EA0049900562
B1444593424610S01914406EA0049900562
B1445003424611S01914407EA0049900562
B1445013424612S01914407EA0049800561
B1445023424613S01914407EA0049800561
B1445033424614S01914406EA0049800561
B1445043424615S01914405EA0049600559
B1445053424609S01914403EA0049400557
B1445063424602S01914407EA0049400557
B1445073424596S01914413EA0049300556
B1445083424591S01914420EA0049000553
B1445093424591S01914430EA0048800551
B1445103424588S01914431EA0048700550
B1445113424591S01914431EA0048300546
B1445123424590S01914431EA0047800541
B1445133424581S01914440EA0047500538
B1445143424579S01914451EA0047300536
B1445153424575S01914458EA0046900532
B1445163424569S01914456EA0046500528
B1445173424566S01914455EA0046000523
B1445183424552S01914455EA0045900522
B1445193424543S01914462EA0045600519
B1445203424535S01914473EA0045200515
B1445213424525S01914481EA0044700510
B1445223424521S01914473EA0044500508
B1445233424514S01914467EA0044500508
B1445243424503S01914461EA0044200505
B1445253424488S01914466EA0043900502
B1445263424487S01914473EA0044000503
B1445273424481S01914478EA0043900502
B1445283424481S01914488EA0043600499
B1445293424477S01914492EA0043100494
B1445303424477S01914491EA0042700490
B1445313424478S01914491EA0042400487
B1445323424475S01914494EA0042100484
B1445333424471S01914502EA0041600479
B1445343424486S01914505EA0040900472
B1445353424488S01914505EA0040200465
B1445363424491S01914498EA0039900462
B1445373424493S01914493EA0039600459
B1445383424499S01914491EA0039000453
B1445393424501S01914497EA0038400447
B1445403424504S01914501EA0038000443
B1445413424504S01914500EA0037400437
B1445423424497S01914494EA0036800431
B1445433424487S01914494EA0036400427
B1445443424480S01914500EA0035900422
B1445453424473S01914508EA0035500418
B1445463424463S01914515EA0035100414
B1445473424457S01914514EA0034500408
B1445483424447S01914508EA0034100404
B1445493424446S01914509EA0033500398
B1445503424435S01914513EA0033200395
B1445513424444S01914522EA0032800392
B1445523424446S01914528EA0032200385
B1445533424444S01914524EA0031400377
B1445543424441S01914522EA0031000373
B1445553424430S01914529EA0030700370
B1445563424423S01914540EA0030300366
B1445573424414S01914551EA0029500358
B1445583424403S01914551EA0028900352
B1445593424392S01914545EA0028600349
B1446003424370S01914542EA0028500348
B1446013424355S01914541EA0027900343
B1446023424343S01914545EA0027400337
B1446033424329S01914545EA0027000333
B1446043424321S01914533EA0026800331
B1446053424311S01914525EA0026500328
B1446063424296S01914525EA0025900322
B1446073424308S01914533EA0025500318
B1446083424308S01914538EA0025300316
B1446093424325S01914551EA0025100314
B1446103424324S01914552EA0024600309
B1446113424328S01914546EA0024200305
B1446123424321S01914539EA0024000303
B1446133424309S01914536EA0024000303
B1446143424309S01914538EA0023900302
B1446153424315S01914543EA0023800301
B1446163424324S01914548EA0023700300
B1446173424338S01914554EA0023800301
B1446183424361S01914553EA0023900302
B1446193424370S01914556EA0023800301
B1446203424372S01914558EA0023600300
B1446213424374S01914558EA0023300297
B1446223424376S01914556EA0023100294
B1446233424383S01914557EA0023000293
B1446243424391S01914557EA0023100294
B1446253424396S01914556EA0023100294
B1446263424400S01914554EA0023100294
B1446273424403S01914551EA0022800291
B1446283424405S01914549EA0022400287
B1446293424407S01914547EA0022000283
B1446303424410S01914545EA0021700280
B1446313424417S01914545EA0021600279
B1446323424420S01914543EA0021600279
B1446333424422S01914539EA0021600279
B1446343424423S01914534EA0021400277
B1446353424424S01914530EA0021200275
B1446363424425S01914526EA0021100274
B1446373424427S01914522EA0021000273
B1446383424428S01914519EA0021000273
B1446393424429S01914515EA0021000273
B1446403424429S01914511EA0020900272
B1446413424430S01914507EA0020700270
B1446423424432S01914504EA0020500268
B1446433424435S01914498EA0020400267
B1446443424437S01914493EA0020500268
B1446453424439S01914491EA0020500268
B1446463424441S01914489EA0020400267
B1446473424442S01914489EA0020200265
B1446483424445S01914490EA0020100264
B1446493424447S01914491EA0020100264
B1446503424449S01914491EA0020000263
B1446513424451S01914492EA0019900262
B1446523424452S01914491EA0019800261
B1446533424453S01914490EA0019700260
B1446543424454S01914488EA0019500258
B1446553424454S01914485EA0019400257
B1446563424452S01914482EA0019500258
B1446573424450S01914478EA0019500258
B1446583424448S01914476EA0019400257
B1446593424445S01914474EA0019300256
B1447003424440S01914472EA0019300256
B1447013424434S01914471EA0019400257
B1447023424427S01914470EA0019500258
B1447033424420S01914470EA0019600259
B1447043424412S01914470EA0019600259
B1447053424404S01914471EA0019600259
B1447063424397S01914472EA0019700260
B1447073424388S01914473EA0019900262
B1447083424380S01914473EA0020100264
B1447093424372S01914474EA0020400267
B1447103424365S01914475EA0020600269
B1447113424359S01914476EA0020700270
B1447123424353S01914477EA0020800271
B1447133424346S01914479EA0020900272
B1447143424340S01914480EA0021000273
B1447153424332S01914481EA0021000273
B1447163424325S01914482EA0021100274
B1447173424318S01914484EA0021200275
B1447183424312S01914487EA0021300276
B1447193424305S01914491EA0021400277
B1447203424300S01914495EA0021500278
B1447213424295S01914500EA0021600279
B1447223424291S01914506EA0021600279
B1447233424292S01914512EA0021500278
B1447243424294S01914516EA0021500278
B1447253424295S01914520EA0021500278
B1447263424298S01914523EA0021600280
B1447273424300S01914524EA0021800281
B1447283424302S01914526EA0021900282
B1447293424305S01914525EA0021900282
B1447303424307S01914526EA0021700280
B1447313424309S01914527EA0021600279
B1447323424311S01914528EA0021600279
B1447333424313S01914530EA0021700280
B1447343424315S01914531EA0021800281
B1447353424317S01914532EA0022000283
B1447363424318S01914533EA0022100284
B1447373424319S01914534EA0022200285
B1447383424320S01914535EA0022200285
B1447393424322S01914535EA0022300286
B1447403424325S01914536EA0022300286
B1447413424327S01914536EA0022300286
B1447423424330S01914536EA0022400287
B1447433424332S01914536EA0022500288
B1447443424334S01914536EA0022400287
B1447453424336S01914537EA0022400287
B1447463424339S01914537EA0022500288
B1447473424341S01914537EA0022600289
B1447483424343S01914535EA0022600289
B1447493424345S01914534EA0022600289
B1447503424347S01914533EA0022500288
B1447513424349S01914533EA0022600289
B1447523424351S01914533EA0022600289
B1447533424352S01914533EA0022700290
B1447543424354S01914535EA0022800291
B1447553424356S01914536EA0022800291
B1447563424357S01914536EA0022700290
B1447573424359S01914537EA0022600289
B1447583424361S01914538EA0022600289
B1447593424362S01914540EA0022600289
B1448003424364S01914541EA0022700290
B1448013424366S01914542EA0022700290
B1448023424367S01914543EA0022600290
B1448033424369S01914544EA0022600289
B1448043424370S01914545EA0022500288
B1448053424372S01914546EA0022400287
B1448063424374S01914546EA0022300286
B1448073424375S01914547EA0022200285
B1448083424377S01914549EA0022200285
B1448093424379S01914550EA0022100284
B1448103424381S01914552EA0022000283
B1448113424382S01914554EA0021900282
B1448123424384S01914557EA0021800281
B1448133424386S01914560EA0021800281
B1448143424387S01914563EA0021700280
B1448153424390S01914566EA0021700280
B1448163424392S01914569EA0021600279
B1448173424393S01914572EA0021500278
B1448183424395S01914576EA0021300276
B1448193424397S01914579EA0021200275
B1448203424399S01914583EA0021100274
B1448213424401S01914585EA0021000273
B1448223424404S01914587EA0021000273
B1448233424406S01914588EA0021000273
B1448243424409S01914588EA0020900272
B1448253424411S01914587EA0020700270
B1448263424412S01914585EA0020500268
B1448273424414S01914581EA0020400267
B1448283424414S01914577EA0020200265
B1448293424413S01914571EA0020000263
B1448303424410S01914565EA0019900262
B1448313424408S01914560EA0019800261
B1448323424404S01914555EA0019800261
B1448333424400S01914551EA0019700260
B1448343424397S01914546EA0019500258
B1448353424393S01914542EA0019400257
B1448363424390S01914537EA0019400257
B1448373424387S01914532EA0019300256
B1448383424384S01914527EA0019200255
B1448393424381S01914522EA0019100254
B1448403424379S01914518EA0019000253
B1448413424376S01914513EA0019000253
B1448423424375S01914508EA0019000253
B1448433424373S01914503EA0019000253
B1448443424371S01914498EA0019000253
B1448453424368S01914493EA0019000253
B1448463424365S01914488EA0018900252
B1448473424362S01914483EA0018800251
B1448483424358S01914479EA0018600249
B1448493424354S01914474EA0018600249
B1448503424349S01914470EA0018600249
B1448513424343S01914466EA0018900252
B1448523424337S01914463EA0019100254
B1448533424330S01914461EA0019200255
B1448543424322S01914461EA0019300256
B1448553424315S01914461EA0019200255
B1448563424307S01914462EA0019100254
B1448573424299S01914463EA0019100254
B1448583424290S01914465EA0019200255
B1448593424281S01914467EA0019400257
B1449003424273S01914470EA0019500258
B1449013424266S01914472EA0019600259
B1449023424258S01914475EA0019700260
B1449033424250S01914478EA0019800261
B1449043424243S01914481EA0019700261
B1449053424236S01914484EA0019800261
B1449063424229S01914487EA0019800261
B1449073424222S01914491EA0020000263
B1449083424216S01914496EA0020100264
B1449093424210S01914501EA0020200265
B1449103424206S01914506EA0020200265
B1449113424201S01914510EA0020300266
B1449123424197S01914516EA0020300266
B1449133424193S01914521EA0020400267
B1449143424191S01914526EA0020400267
B1449153424189S01914531EA0020400267
B1449163424187S01914536EA0020500268
B1449173424186S01914540EA0020500268
B1449183424186S01914543EA0020500268
B1449193424185S01914547EA0020600269
B1449203424186S01914550EA0020600269
B1449213424186S01914553EA0020600269
B1449223424187S01914555EA0020600269
B1449233424188S01914556EA0020500268
B1449243424190S01914557EA0020600269
B1449253424192S01914557EA0020700270
B1449263424193S01914556EA0020800271
B1449273424196S01914555EA0020800271
B1449283424198S01914555EA0020900272
B1449293424200S01914554EA0020900272
B1449303424202S01914553EA0021000273
B1449313424203S01914550EA0021000273
B1449323424205S01914548EA0021100274
B1449333424206S01914545EA0021100274
B1449343424207S01914542EA0021100274
B1449353424207S01914538EA0021100274
B1449363424209S01914535EA0021200275
B1449373424210S01914531EA0021300276
B1449383424211S01914528EA0021300276
B1449393424211S01914525EA0021300276
B1449403424212S01914522EA0021300276
B1449413424213S01914519EA0021300276
B1449423424215S01914516EA0021200275
B1449433424216S01914514EA0021300276
B1449443424217S01914511EA0021300276
B1449453424218S01914508EA0021400277
B1449463424220S01914505EA0021500278
B1449473424220S01914502EA0021500278
B1449483424222S01914499EA0021700280
B1449493424223S01914497EA0021900282
B1449503424224S01914495EA0022100284
B1449513424225S01914493EA0022200285
B1449523424226S01914493EA0022200286
B1449533424226S01914492EA0022200285
B1449543424228S01914491EA0022200285
B1449553424229S01914489EA0022200285
B1449563424231S01914487EA0022200285
B1449573424233S01914485EA0022300286
B1449583424234S01914484EA0022400287
B1449593424236S01914482EA0022400287
B1450003424238S01914480EA0022400287
B1450013424240S01914478EA0022500288
B1450023424241S01914476EA0022500288
B1450033424243S01914473EA0022600289
B1450043424244S01914469EA0022700290
B1450053424246S01914466EA0022800291
B1450063424247S01914463EA0022900292
B1450073424249S01914460EA0023000293
B1450083424251S01914458EA0023200295
B1450093424253S01914455EA0023500298
B1450103424255S01914452EA0023800301
B1450113424256S01914450EA0024000303
B1450123424257S01914448EA0024100304
B1450133424258S01914448EA0023900303
B1450143424259S01914448EA0023800302
B1450153424260S01914448EA0023700300
B1450163424262S01914446EA0023800301
B1450173424264S01914443EA0023900302
B1450183424267S01914441EA0024100304
B1450193424269S01914440EA0024100305
B1450203424271S01914439EA0024100304
B1450213424272S01914436EA0024200305
B1450223424273S01914433EA0024300306
B1450233424274S01914429EA0024400307
B1450243424275S01914426EA0024400307
B1450253424276S01914422EA0024600309
B1450263424277S01914419EA0024800311
B1450273424277S01914415EA0024900312
B1450283424278S01914412EA0025000313
B1450293424279S01914410EA0025100314
B1450303424280S01914408EA0025100314
B1450313424282S01914407EA0025300316
B1450323424284S01914406EA0025600319
B1450333424286S01914406EA0025900322
B1450343424287S01914409EA0026000323
B1450353424287S01914412EA0026100324
B1450363424286S01914419EA0026200325
B1450373424284S01914425EA0026300326
B1450383424282S01914431EA0026400327
B1450393424279S01914436EA0026500329
B1450403424275S01914442EA0026700330
B1450413424270S01914448EA0026800331
B1450423424266S01914453EA0026900332
B1450433424261S01914458EA0027100334
B1450443424257S01914463EA0027100334
B1450453424253S01914468EA0027100334
B1450463424250S01914473EA0027300336
B1450473424247S01914479EA0027400337
B1450483424246S01914485EA0027600339
B1450493424244S01914491EA0027700340
B1450503424242S01914496EA0027700340
B1450513424240S01914502EA0027800341
B1450523424238S01914508EA0027900342
B1450533424237S01914516EA0028000343
B1450543424236S01914522EA0028200346
B1450553424236S01914527EA0028400347
B1450563424236S01914532EA0028500348
B1450573424236S01914535EA0028500348
B1450583424236S01914538EA0028400347
B1450593424237S01914540EA0028400347
B1451003424238S01914541EA0028500348
B1451013424240S01914540EA0028500348
B1451023424242S01914539EA0028500348
B1451033424243S01914538EA0028400347
B1451043424244S01914537EA0028400347
B1451053424246S01914535EA0028400347
B1451063424248S01914533EA0028400347
B1451073424249S01914531EA0028500348
B1451083424250S01914528EA0028600349
B1451093424250S01914526EA0028600349
B1451103424251S01914523EA0028400347
B1451113424252S01914521EA0028200345
B1451123424253S01914519EA0028100344
B1451133424255S01914517EA0028000343
B1451143424257S01914515EA0028000343
B1451153424258S01914513EA0027900342
B1451163424259S01914512EA0027800341
B1451173424260S01914511EA0027700340
B1451183424261S01914510EA0027500338
B1451193424264S01914509EA0027400337
B1451203424265S01914507EA0027200335
B1451213424267S01914505EA0027100334
B1451223424269S01914503EA0027000333
B1451233424270S01914501EA0026900332
B1451243424272S01914499EA0026700330
B1451253424273S01914497EA0026600329
B1451263424275S01914494EA0026500328
B1451273424276S01914491EA0026500328
B1451283424278S01914488EA0026600329
B1451293424279S01914485EA0026600329
B1451303424280S01914483EA0026600329
B1451313424281S01914481EA0026600329
B1451323424281S01914479EA0026500328
B1451333424282S01914477EA0026400327
B1451343424283S01914476EA0026300326
B1451353424284S01914474EA0026300326
B1451363424285S01914473EA0026200325
B1451373424286S01914471EA0026200325
B1451383424286S01914469EA0026100324
B1451393424287S01914466EA0026000323
B1451403424287S01914464EA0025900322
B1451413424288S01914461EA0025800321
B1451423424290S01914459EA0025800321
B1451433424291S01914457EA0025800321
B1451443424291S01914454EA0025800321
B1451453424292S01914452EA0025800321
B1451463424292S01914450EA0025700320
B1451473424293S01914448EA0025500318
B1451483424293S01914446EA0025300316
B1451493424293S01914443EA0025100314
B1451503424293S01914441EA0024800311
B1451513424294S01914439EA0024600309
B1451523424295S01914437EA0024400307
B1451533424296S01914434EA0024100304
B1451543424298S01914432EA0023900302
B1451553424299S01914430EA0023600299
B1451563424299S01914428EA0023300296
B1451573424301S01914426EA0023000293
B1451583424302S01914424EA0022800291
B1451593424303S01914421EA0022700290
B1452003424305S01914418EA0022600289
B1452013424306S01914415EA0022500288
B1452023424306S01914413EA0022300286
B1452033424307S01914412EA0021900282
B1452043424307S01914410EA0021500278
B1452053424308S01914407EA0021200275
B1452063424308S01914405EA0021100274
B1452073424310S01914402EA0021000273
B1452083424311S01914400EA0021100274
B1452093424312S01914398EA0021000273
B1452103424313S01914396EA0020800271
B1452113424313S01914395EA0020500268
B1452123424315S01914394EA0020400267
B1452133424316S01914392EA0020600269
B1452143424319S01914392EA0020800271
B1452153424321S01914391EA0020900272
B1452163424321S01914391EA0020900272
B1452173424323S01914392EA0020900272
B1452183424324S01914393EA0021000273
B1452193424326S01914393EA0021100274
B1452203424328S01914393EA0021400277
B1452213424330S01914392EA0021500278
B1452223424330S01914391EA0021500278
B1452233424331S01914390EA0021600279
B1452243424332S01914388EA0021700280
B1452253424333S01914387EA0021800281
B1452263424335S01914386EA0022000283
B1452273424336S01914385EA0022500288
B1452283424337S01914384EA0022700290
B1452293424338S01914383EA0022800291
B1452303424338S01914382EA0022900292
B1452313424337S01914382EA0022900293
B1452323424338S01914382EA0023100294
B1452333424337S01914381EA0023300296
B1452343424338S01914381EA0023500298
B1452353424337S01914380EA0023600299
B1452363424336S01914380EA0023600299
B1452373424336S01914381EA0023600299
B1452383424337S01914381EA0023600299
B1452393424337S01914379EA0023800301
B1452403424338S01914377EA0024000303
B1452413424338S01914375EA0024300306
B1452423424338S01914373EA0024400307
B1452433424338S01914371EA0024500308
B1452443424338S01914371EA0024600309
B1452453424339S01914370EA0024700310
B1452463424339S01914369EA0025000313
B1452473424340S01914367EA0025200315
B1452483424342S01914366EA0025600319
B1452493424342S01914365EA0025900322
B1452503424343S01914365EA0026100324
B1452513424344S01914364EA0026300326
B1452523424345S01914365EA0026300327
B1452533424346S01914365EA0026500328
B1452543424347S01914366EA0026800331
B1452553424348S01914368EA0027200335
B1452563424349S01914370EA0027400337
B1452573424350S01914372EA0027500338
B1452583424351S01914374EA0027700340
B1452593424351S01914377EA0027700340
B1453003424351S01914381EA0027700340
B1453013424351S01914386EA0027800341
B1453023424353S01914392EA0027900342
B1453033424353S01914397EA0027900342
B1453043424354S01914401EA0027800341
B1453053424355S01914405EA0027800341
B1453063424356S01914408EA0027700340
B1453073424359S01914411EA0027600339
B1453083424360S01914414EA0027500338
B1453093424362S01914417EA0027400337
B1453103424364S01914421EA0027400337
B1453113424365S01914425EA0027300336
B1453123424367S01914429EA0027200335
B1453133424369S01914434EA0027200335
B1453143424371S01914438EA0027100334
B1453153424372S01914443EA0027100334
B1453163424373S01914448EA0027000333
B1453173424374S01914453EA0026900332
B1453183424375S01914458EA0026800331
B1453193424377S01914462EA0026700330
B1453203424378S01914467EA0026600329
B1453213424381S01914470EA0026600329
B1453223424384S01914473EA0026600329
B1453233424387S01914475EA0026600329
B1453243424390S01914476EA0026700330
B1453253424393S01914477EA0026700330
B1453263424397S01914478EA0026700330
B1453273424399S01914478EA0026700330
B1453283424402S01914479EA0026800331
B1453293424404S01914479EA0026800331
B1453303424406S01914480EA0026900332
B1453313424408S01914480EA0026900332
B1453323424410S01914480EA0027000333
B1453333424411S01914480EA0027000333
B1453343424413S01914481EA0027100334
B1453353424415S01914482EA0027000333
B1453363424417S01914482EA0027200335
B1453373424420S01914483EA0027400337
B1453383424423S01914483EA0027600339
B1453393424425S01914483EA0027900342
B1453403424427S01914483EA0028000343
B1453413424429S01914484EA0028100344
B1453423424431S01914485EA0028200346
B1453433424433S01914487EA0028400347
B1453443424435S01914488EA0028500348
B1453453424437S01914489EA0028700350
B1453463424439S01914489EA0028700350
B1453473424441S01914489EA0028700351
B1453483424443S01914489EA0028800351
B1453493424446S01914489EA0028800351
B1453503424448S01914490EA0028700350
B1453513424450S01914490EA0028600349
B1453523424452S01914490EA0028600349
B1453533424455S01914489EA0028700350
B1453543424458S01914489EA0028700350
B1453553424460S01914487EA0028800351
B1453563424462S01914486EA0028900352
B1453573424464S01914485EA0028800351
B1453583424466S01914484EA0028700350
B1453593424468S01914484EA0028700350
B1454003424470S01914483EA0028600350
B1454013424473S01914482EA0028600349
B1454023424475S01914481EA0028600349
B1454033424478S01914480EA0028600349
B1454043424480S01914479EA0028700350
B1454053424482S01914478EA0028700350
B1454063424484S01914477EA0028800351
B1454073424486S01914477EA0028800351
B1454083424487S01914476EA0028700350
B1454093424489S01914476EA0028700350
B1454103424492S01914476EA0028600350
B1454113424494S01914475EA0028600349
B1454123424496S01914475EA0028600349
B1454133424498S01914474EA0028600349
B1454143424500S01914473EA0028700350
B1454153424502S01914472EA0029000353
B1454163424503S01914471EA0029200355
B1454173424504S01914471EA0029300356
B1454183424505S01914471EA0029300356
B1454193424506S01914472EA0029300356
B1454203424507S01914472EA0029200355
B1454213424508S01914472EA0029200355
B1454223424509S01914471EA0029300356
B1454233424510S01914470EA0029500358
B1454243424510S01914470EA0029400357
B1454253424510S01914470EA0029300356
B1454263424510S01914469EA0029200355
B1454273424510S01914468EA0029000353
B1454283424511S01914466EA0029100354
B1454293424513S01914465EA0029100354
B1454303424515S01914464EA0029200355
B1454313424517S01914464EA0029200355
B1454323424519S01914464EA0029200355
B1454333424520S01914463EA0029100354
B1454343424522S01914461EA0029100354
B1454353424523S01914459EA0029200355
B1454363424524S01914458EA0029200355
B1454373424525S01914456EA0029100354
B1454383424527S01914455EA0029000353
B1454393424528S01914454EA0028900352
B1454403424530S01914453EA0029000353
B1454413424532S01914452EA0029200355
B1454423424534S01914451EA0029400357
B1454433424535S01914451EA0029600359
B1454443424537S01914451EA0029600359
B1454453424536S01914451EA0029400357
B1454463424537S01914451EA0029200355
B1454473424538S01914450EA0029000353
B1454483424540S01914451EA0029000353
B1454493424541S01914451EA0029000353
B1454503424542S01914451EA0028700350
B1454513424543S01914450EA0028400347
B1454523424543S01914447EA0028100344
B1454533424544S01914444EA0028000343
B1454543424545S01914442EA0028000343
B1454553424546S01914440EA0027900342
B1454563424547S01914439EA0027800341
B1454573424548S01914438EA0027600339
B1454583424548S01914437EA0027400337
B1454593424548S01914435EA0027100334
B1455003424550S01914434EA0026800331
B1455013424551S01914432EA0026700330
B1455023424553S01914431EA0026600329
B1455033424555S01914430EA0026500328
B1455043424556S01914429EA0026300326
B1455053424557S01914428EA0026000323
B1455063424558S01914427EA0025700320
B1455073424559S01914427EA0025600319
B1455083424561S01914425EA0025500318
B1455093424562S01914423EA0025400317
B1455103424562S01914422EA0025300316
B1455113424563S01914420EA0025200315
B1455123424563S01914419EA0024900312
B1455133424565S01914419EA0024700310
B1455143424566S01914418EA0024500308
B1455153424567S01914417EA0024400307
B1455163424569S01914416EA0024300306
B1455173424570S01914415EA0024200305
B1455183424570S01914415EA0024000303
B1455193424571S01914414EA0023900302
B1455203424572S01914413EA0023800301
B1455213424573S01914412EA0023800301
B1455223424573S01914411EA0023900302
B1455233424574S01914409EA0024000303
B1455243424574S01914408EA0024100304
B1455253424575S01914406EA0024200305
B1455263424576S01914403EA0024100304
B1455273424577S01914402EA0023900302
B1455283424577S01914400EA0023700300
B1455293424579S01914399EA0023400297
B1455303424581S01914398EA0023200295
B1455313424583S01914397EA0023100294
B1455323424585S01914396EA0023000293
B1455333424587S01914396EA0022800291
B1455343424589S01914397EA0022500288
B1455353424590S01914397EA0022200285
B1455363424592S01914398EA0022000283
B1455373424594S01914400EA0021800281
B1455383424597S01914401EA0021600279
B1455393424599S01914403EA0021500278
B1455403424601S01914404EA0021300276
B1455413424603S01914405EA0021000274
B1455423424605S01914406EA0020800271
B1455433424607S01914408EA0020600269
B1455443424610S01914409EA0020500268
B1455453424612S01914410EA0020400267
B1455463424614S01914412EA0020200265
B1455473424616S01914413EA0020000263
B1455483424618S01914414EA0019800261
B1455493424621S01914416EA0019600259
B1455503424623S01914417EA0019400257
B1455513424625S01914418EA0019200255
B1455523424627S01914419EA0019000254
B1455533424630S01914420EA0018900252
B1455543424632S01914421EA0018600249
B1455553424634S01914423EA0018400247
B1455563424637S01914424EA0018300246
B1455573424639S01914425EA0018100244
B1455583424641S01914426EA0018000243
B1455593424643S01914427EA0017800241
B1456003424646S01914428EA0017600239
B1456013424647S01914428EA0017400237
B1456023424650S01914428EA0017200235
B1456033424652S01914429EA0017100234
B1456043424654S01914429EA0016900232
B1456053424657S01914430EA0016800231
B1456063424659S01914431EA0016600229
B1456073424661S01914432EA0016400227
B1456083424663S01914433EA0016400227
B1456093424665S01914433EA0016400227
B1456103424667S01914434EA0016400227
B1456113424670S01914433EA0016400227
B1456123424670S01914429EA0016400227
B1456133424669S01914425EA0016400227
B1456143424669S01914420EA0016400227
B1456153424667S01914415EA0016300226
B1456163424665S01914411EA0016300226
B1456173424662S01914407EA0016200225
B1456183424657S01914404EA0016000223
B1456193424651S01914401EA0016000223
B1456203424644S01914399EA0015900222
B1456213424636S01914398EA0015700220
B1456223424629S01914397EA0015500218
B1456233424622S01914396EA0015200215
B1456243424616S01914393EA0015000213
B1456253424610S01914388EA0014700210
B1456263424606S01914383EA0014500208
B1456273424604S01914378EA0014400207
B1456283424603S01914374EA0014200205
B1456293424603S01914371EA0014100204
B1456303424604S01914370EA0014000203
B1456313424605S01914370EA0014000203
B1456323424607S01914372EA0014000203
B1456333424607S01914374EA0014000203
B1456343424607S01914378EA0014000203
B1456353424607S01914382EA0014000203
B1456363424607S01914387EA0013900202
B1456373424608S01914391EA0013800201
B1456383424608S01914395EA0013700200
B1456393424610S01914398EA0013600199
B1456403424612S01914399EA0013600199
B1456413424614S01914400EA0013500198
B1456423424616S01914399EA0013500198
B1456433424618S01914398EA0013400197
B1456443424619S01914397EA0013400197
B1456453424621S01914396EA0013400197
B1456463424623S01914396EA0013400197
B1456473424623S01914394EA0013200195
B1456483424624S01914393EA0013100194
B1456493424625S01914390EA0013000193
B1456503424626S01914388EA0012900192
B1456513424627S01914386EA0012900192
B1456523424628S01914384EA0012700190
B1456533424630S01914383EA0012500188
B1456543424631S01914382EA0012200185
B1456553424633S01914381EA0012100184
B1456563424635S01914379EA0012100184
B1456573424638S01914375EA0012400187
B1456583424640S01914371EA0012600189
B1456593424641S01914367EA0012600189
B1457003424640S01914363EA0012500188
B1457013424638S01914360EA0012500188
B1457023424636S01914355EA0012500188
B1457033424634S01914352EA0012400187
B1457043424630S01914348EA0012300186
B1457053424624S01914343EA0012100184
B1457063424616S01914342EA0012000183
B1457073424607S01914344EA0011900182
B1457083424600S01914347EA0011800181
B1457093424594S01914351EA0011700180
B1457103424588S01914356EA0011600179
B1457113424583S01914362EA0011600179
B1457123424578S01914368EA0011600179
B1457133424576S01914374EA0011400177
B1457143424573S01914380EA0011200175
B1457153424572S01914385EA0011100174
B1457163424570S01914391EA0011100174
B1457173424567S01914397EA0011100174
B1457183424565S01914402EA0011100174
B1457193424562S01914407EA0011000173
B1457203424558S01914412EA0011000173
B1457213424555S01914418EA0011100174
B1457223424551S01914423EA0011100174
B1457233424546S01914429EA0011200175
B1457243424542S01914434EA0011300176
B1457253424538S01914439EA0011200175
B1457263424535S01914445EA0011200175
B1457273424532S01914450EA0011100174
B1457283424528S01914456EA0011000173
B1457293424524S01914462EA0011000173
B1457303424520S01914468EA0011100174
B1457313424516S01914473EA0011100174
B1457323424512S01914479EA0011000173
B1457333424508S01914484EA0011000173
B1457343424505S01914489EA0010900172
B1457353424501S01914495EA0010900172
B1457363424496S01914501EA0011000173
B1457373424492S01914508EA0011100174
B1457383424489S01914513EA0011100174
B1457393424486S01914518EA0011100174
B1457403424483S01914522EA0010900172
B1457413424480S01914527EA0010800171
B1457423424477S01914533EA0010700170
B1457433424474S01914539EA0010600169
B1457443424471S01914544EA0010600169
B1457453424469S01914550EA0010500168
B1457463424465S01914555EA0010400167
B1457473424462S01914561EA0010300166
B1457483424458S01914567EA0010300166
B1457493424456S01914573EA0010300166
B1457503424455S01914579EA0010300166
B1457513424454S01914584EA0010300166
B1457523424454S01914589EA0010200166
B1457533424453S01914593EA0010200165
B1457543424452S01914599EA0010000163
B1457553424451S01914604EA0009900162
B1457563424449S01914610EA0009900162
B1457573424446S01914617EA0009800161
B1457583424443S01914622EA0009700160
B1457593424440S01914628EA0009600159
B1458003424437S01914633EA0009500158
B1458013424433S01914639EA0009400157
B1458023424429S01914645EA0009300156
B1458033424425S01914650EA0009200155
B1458043424421S01914656EA0009000153
B1458053424418S01914661EA0008800151
B1458063424414S01914666EA0008600149
B1458073424410S01914671EA0008400147
B1458083424406S01914677EA0008200145
B1458093424403S01914683EA0008000143
B1458103424399S01914689EA0007800141
B1458113424397S01914694EA0007600139
B1458123424395S01914700EA0007300136
B1458133424393S01914706EA0007100134
B1458143424392S01914712EA0006900132
B1458153424391S01914717EA0006700130
B1458163424392S01914721EA0006500128
B1458173424393S01914724EA0006200125
B1458183424397S01914725EA0006000123
B1458193424399S01914724EA0005800121
B1458203424401S01914722EA0005600119
B1458213424402S01914719EA0005400117
B1458223424402S01914715EA0005200115
B1458233424401S01914710EA0005000113
B1458243424400S01914706EA0004800111
B1458253424398S01914702EA0004600109
B1458263424397S01914698EA0004300106
B1458273424396S01914694EA0004100104
B1458283424395S01914689EA0003900102
B1458293424394S01914685EA0003700100
B1458303424393S01914681EA0003600099
B1458313424392S01914677EA0003400097
B1458323424391S01914673EA0003300096
B1458333424390S01914669EA0003100094
B1458343424389S01914665EA0002900092
B1458353424388S01914662EA0002800091
B1458363424389S01914660EA0002600089
B1458373424390S01914658EA0002400087
B1458383424391S01914658EA0002300086
B1458393424393S01914659EA0002200085
B1458403424394S01914661EA0002100084
B1458413424395S01914663EA0001900082
B1458423424397S01914666EA0001700080
B1458433424399S01914669EA0001600079
B1458443424400S01914671EA0001500078
B1458453424403S01914672EA0001400077
B1458463424405S01914674EA0001200075
B1458473424407S01914676EA0001100074
B1458483424408S01914678EA0001000073
B1458493424410S01914679EA0000900072
B1458503424412S01914681EA0000800071
B1458513424413S01914682EA0000600069
B1458523424415S01914682EA0000400067
B1458533424416S01914682EA0000200065
B1458543424416S01914681EA0000000063
B1458553424418S01914679EA-000200061
B1458563424419S01914677EA-000400059
B1458573424420S01914675EA-000700056
B1458583424421S01914673EA-000900054
B1458593424422S01914670EA-001000053
B1459003424424S01914668EA-001200051
B1459013424425S01914666EA-001400049
B1459023424426S01914664EA-001600047
B1459033424428S01914662EA-001700046
B1459043424430S01914660EA-001700046
B1459053424431S01914659EA-001700046
B1459063424433S01914657EA-001700046
B1459073424435S01914657EA-001900044
B1459083424437S01914657EA-002100042
B1459093424438S01914656EA-002300040
B1459103424439S01914655EA-002400039
B1459113424441S01914652EA-002400039
B1459123424443S01914650EA-002400039
B1459133424444S01914647EA-002500038
B1459143424445S01914645EA-002600037
B1459153424446S01914644EA-002800035
B1459163424447S01914643EA-002900034
B1459173424449S01914641EA-002900034
B1459183424451S01914639EA-002800035
B1459193424452S01914637EA-002800035
B1459203424454S01914636EA-002900034
B1459213424455S01914635EA-003100032
B1459223424456S01914635EA-003300030
B1459233424457S01914634EA-003500028
B1459243424459S01914633EA-003700026
B1459253424460S01914632EA-003900024
B1459263424463S01914631EA-004000023
B1459273424465S01914630EA-003900024
B1459283424467S01914630EA-003900024
B1459293424469S01914630EA-004000023
B1459303424470S01914631EA-004200021
B1459313424472S01914632EA-004400019
B1459323424474S01914632EA-004500018
B1459333424477S01914632EA-004500018
B1459343424478S01914632EA-004400019
B1459353424480S01914632EA-004500018
B1459363424481S01914632EA-004600017
B1459373424484S01914632EA-004800015
B1459383424486S01914632EA-005000013
B1459393424488S01914631EA-005100012
B1459403424490S01914630EA-005300010
B1459413424492S01914629EA-005400009
B1459423424493S01914629EA-005600007
B1459433424495S01914630EA-005900004
B1459443424496S01914630EA-005800005
B1459453424497S01914630EA-005600007
B1459463424497S01914629EA-005700006
B1459473424497S01914630EA-005800005
B1459483424497S01914630EA-005800005
B1459493424497S01914630EA-005700006
B1459503424497S01914631EA-005700006
B1459513424497S01914631EA-005700006
B1459523424497S01914631EA-005700006
B1459533424497S01914631EA-005700006
B1459543424497S01914631EA-005700006
B1459553424497S01914631EA-005700006
B1459563424497S01914631EA-005700006
B1459573424497S01914631EA-005700006
B1459583424497S01914631EA-005700006
B1459593424497S01914631EA-005700006
B1500003424497S01914631EA-005700006
B1500013424497S01914631EA-005700006
B1500023424497S01914631EA-005700006
B1500033424497S01914631EA-005700006
B1500043424497S01914631EA-005700006
B1500053424497S01914631EA-005700006
B1500063424497S01914631EA-005700006
B1500073424497S01914631EA-005700006
B1500083424497S01914631EA-005700006
B1500093424497S01914631EA-005800006
B1500103424497S01914631EA-005700006
B1500113424497S01914631EA-005700006
B1500123424497S01914631EA-005700006
B1500133424497S01914631EA-005700006
B1500143424497S01914631EA-005800006
B1500153424497S01914631EA-005700006
B1500163424497S01914631EA-005700006
B1500173424497S01914631EA-005700006
LXSX;GF:2.7
G3302BB77EE646C5382B5F5F7FE3BA012
