AXSX003 SKYTRAXX V3.0.8 SN:00000380
HOPLTPILOT:Sepp Bucher
HOGTYGLIDERTYPE:Sigma10
HOCIDCOMPETITIONID:0000
HODTM100GPSDATUM:WGS-84
HOCCLCOMPETITION CLASS:Paraglider (Standard)
HPSITSITE:Bellwald - Ried
HFDTE160817
B0931334626878N00809831EA0226002392
B0931344626877N00809831EA0225902391
B0931354626877N00809830EA0225602389
B0931364626876N00809830EA0225202385
B0931374626876N00809829EA0224902384
B0931384626873N00809828EA0225102387
B0931394626869N00809825EA0225402391
B0931404626861N00809823EA0225102395
B0931414626854N00809822EA0224802398
B0931424626848N00809821EA0224502402
B0931434626841N00809823EA0224502408
B0931444626834N00809824EA0224602409
B0931454626828N00809827EA0224902412
B0931464626823N00809831EA0225002413
B0931474626818N00809836EA0225002413
B0931484626815N00809840EA0224902413
B0931494626811N00809846EA0225002413
B0931504626807N00809851EA0224902412
B0931514626802N00809858EA0225102414
B0931524626798N00809865EA0225202415
B0931534626795N00809871EA0225302416
B0931544626792N00809878EA0225302416
B0931554626791N00809884EA0225202415
B0931564626788N00809891EA0225002413
B0931574626786N00809900EA0224902412
B0931584626784N00809909EA0224702410
B0931594626782N00809918EA0224802411
B0932004626780N00809927EA0225102414
B0932014626778N00809935EA0225302416
B0932024626777N00809943EA0225502419
B0932034626776N00809950EA0225702420
B0932044626776N00809957EA0225902422
B0932054626778N00809964EA0226002423
B0932064626780N00809972EA0226002423
B0932074626784N00809978EA0226102424
B0932084626787N00809985EA0226402427
B0932094626789N00809992EA0226502428
B0932104626789N00809999EA0226502429
B0932114626788N00810005EA0226502428
B0932124626784N00810008EA0226502429
B0932134626780N00810010EA0226602430
B0932144626775N00810009EA0226802431
B0932154626770N00810004EA0226902432
B0932164626768N00809997EA0227002433
B0932174626768N00809989EA0227102434
B0932184626769N00809981EA0227202435
B0932194626771N00809973EA0227302436
B0932204626775N00809966EA0227502438
B0932214626784N00809965EA0227502438
B0932224626791N00809966EA0227602439
B0932234626796N00809971EA0227702440
B0932244626800N00809977EA0227902442
B0932254626802N00809984EA0228002443
B0932264626803N00809992EA0228102444
B0932274626803N00809999EA0228302446
B0932284626803N00810006EA0228502448
B0932294626804N00810011EA0228502448
B0932304626804N00810018EA0228502448
B0932314626803N00810024EA0228302446
B0932324626801N00810030EA0228102444
B0932334626797N00810034EA0228002444
B0932344626793N00810036EA0228002443
B0932354626789N00810037EA0228002443
B0932364626785N00810036EA0227902442
B0932374626781N00810035EA0227702441
B0932384626778N00810033EA0227602439
B0932394626774N00810030EA0227502438
B0932404626770N00810029EA0227302436
B0932414626766N00810029EA0227102434
B0932424626761N00810031EA0227002433
B0932434626758N00810034EA0227102434
B0932444626757N00810041EA0227102434
B0932454626758N00810047EA0227002433
B0932464626760N00810054EA0227002434
B0932474626763N00810062EA0227302436
B0932484626767N00810070EA0227402438
B0932494626772N00810078EA0227802441
B0932504626777N00810086EA0228102444
B0932514626783N00810093EA0228502448
B0932524626787N00810099EA0228902453
B0932534626792N00810105EA0229202455
B0932544626796N00810109EA0229502458
B0932554626801N00810113EA0229902462
B0932564626806N00810117EA0230102464
B0932574626810N00810122EA0230202465
B0932584626813N00810128EA0230302466
B0932594626813N00810136EA0230302466
B0933004626811N00810143EA0230502468
B0933014626809N00810149EA0230702471
B0933024626801N00810147EA0230902472
B0933034626796N00810143EA0231102474
B0933044626793N00810136EA0231302476
B0933054626791N00810128EA0231402477
B0933064626791N00810120EA0231602479
B0933074626793N00810112EA0231802481
B0933084626795N00810104EA0232102484
B0933094626801N00810097EA0232302486
B0933104626811N00810098EA0232602490
B0933114626818N00810100EA0233102494
B0933124626825N00810103EA0233502499
B0933134626830N00810106EA0233902502
B0933144626835N00810109EA0234102504
B0933154626838N00810112EA0234202505
B0933164626842N00810117EA0234302506
B0933174626845N00810124EA0234402507
B0933184626846N00810131EA0234502508
B0933194626846N00810139EA0234702510
B0933204626845N00810145EA0234802511
B0933214626842N00810150EA0234802511
B0933224626840N00810153EA0234802511
B0933234626838N00810153EA0234902512
B0933244626836N00810148EA0235102514
B0933254626835N00810143EA0235202516
B0933264626833N00810134EA0235402517
B0933274626842N00810128EA0235602519
B0933284626847N00810124EA0235802521
B0933294626852N00810123EA0236102524
B0933304626857N00810124EA0236602529
B0933314626862N00810126EA0237002533
B0933324626868N00810128EA0237202535
B0933334626872N00810130EA0237402537
B0933344626876N00810131EA0237502538
B0933354626880N00810132EA0237502538
B0933364626884N00810135EA0237602539
B0933374626889N00810138EA0237602539
B0933384626893N00810142EA0237602539
B0933394626897N00810148EA0237802541
B0933404626900N00810154EA0237802541
B0933414626904N00810159EA0237702541
B0933424626908N00810164EA0237602539
B0933434626912N00810169EA0237402537
B0933444626916N00810174EA0237102535
B0933454626919N00810180EA0236902533
B0933464626922N00810187EA0236602530
B0933474626925N00810194EA0236502529
B0933484626929N00810201EA0236402527
B0933494626932N00810208EA0236302526
B0933504626935N00810215EA0236302526
B0933514626938N00810222EA0236002523
B0933524626941N00810228EA0235802521
B0933534626944N00810235EA0235602519
B0933544626949N00810241EA0235402517
B0933554626953N00810248EA0235302516
B0933564626957N00810256EA0235202515
B0933574626960N00810263EA0235102514
B0933584626963N00810269EA0234902512
B0933594626966N00810276EA0234702510
B0934004626969N00810283EA0234502508
B0934014626973N00810290EA0234402507
B0934024626976N00810297EA0234202505
B0934034626980N00810304EA0234102504
B0934044626983N00810311EA0233902503
B0934054626986N00810318EA0233902502
B0934064626990N00810325EA0233702500
B0934074626993N00810331EA0233502499
B0934084626997N00810339EA0233402497
B0934094627000N00810346EA0233302496
B0934104627003N00810353EA0233102494
B0934114627006N00810361EA0233002493
B0934124627009N00810368EA0232802491
B0934134627012N00810376EA0232602489
B0934144627016N00810383EA0232502488
B0934154627019N00810391EA0232402488
B0934164627022N00810399EA0232402487
B0934174627025N00810406EA0232302487
B0934184627029N00810413EA0232302486
B0934194627032N00810420EA0232202485
B0934204627036N00810427EA0232002484
B0934214627040N00810434EA0232102484
B0934224627043N00810441EA0232202486
B0934234627046N00810449EA0232402488
B0934244627049N00810455EA0232602489
B0934254627053N00810461EA0233002493
B0934264627055N00810466EA0233202495
B0934274627059N00810470EA0233302497
B0934284627062N00810473EA0233402497
B0934294627066N00810475EA0233302496
B0934304627069N00810478EA0233402497
B0934314627073N00810482EA0233502498
B0934324627076N00810487EA0233602499
B0934334627077N00810492EA0233602499
B0934344627078N00810497EA0233602499
B0934354627076N00810501EA0233702500
B0934364627073N00810505EA0233902502
B0934374627068N00810505EA0234202505
B0934384627063N00810503EA0234502508
B0934394627060N00810501EA0234602509
B0934404627058N00810493EA0234802511
B0934414627055N00810481EA0235002513
B0934424627056N00810471EA0235302516
B0934434627058N00810462EA0235402517
B0934444627063N00810454EA0235602519
B0934454627067N00810450EA0235702520
B0934464627071N00810448EA0235702520
B0934474627078N00810452EA0235702520
B0934484627078N00810458EA0236002523
B0934494627078N00810464EA0236302526
B0934504627077N00810468EA0236602529
B0934514627076N00810471EA0236802531
B0934524627072N00810472EA0237002533
B0934534627068N00810472EA0237102534
B0934544627063N00810471EA0237302536
B0934554627058N00810470EA0237502538
B0934564627053N00810467EA0237502538
B0934574627049N00810461EA0237502538
B0934584627047N00810453EA0237602539
B0934594627047N00810444EA0237602539
B0935004627049N00810435EA0237702540
B0935014627056N00810429EA0237802541
B0935024627063N00810427EA0238002543
B0935034627068N00810429EA0238202546
B0935044627072N00810431EA0238602549
B0935054627076N00810434EA0238802551
B0935064627080N00810436EA0238902552
B0935074627083N00810441EA0238902552
B0935084627085N00810447EA0239002553
B0935094627087N00810454EA0239302557
B0935104627089N00810462EA0239902562
B0935114627091N00810469EA0240402567
B0935124627092N00810474EA0240802571
B0935134627093N00810477EA0241002573
B0935144627094N00810481EA0241102574
B0935154627096N00810486EA0241302576
B0935164627098N00810492EA0241602579
B0935174627101N00810498EA0241902582
B0935184627104N00810504EA0242302586
B0935194627107N00810508EA0242602589
B0935204627109N00810512EA0242802591
B0935214627111N00810516EA0242902592
B0935224627112N00810521EA0242902593
B0935234627114N00810527EA0243102594
B0935244627115N00810533EA0243302596
B0935254627117N00810539EA0243502598
B0935264627119N00810545EA0243602599
B0935274627122N00810550EA0243502599
B0935284627124N00810555EA0243302597
B0935294627125N00810560EA0243102595
B0935304627128N00810567EA0242902592
B0935314627131N00810575EA0242802592
B0935324627134N00810582EA0242802591
B0935334627138N00810589EA0242802591
B0935344627141N00810595EA0242902592
B0935354627144N00810601EA0242802591
B0935364627146N00810606EA0242602589
B0935374627147N00810610EA0242402587
B0935384627150N00810616EA0242102584
B0935394627151N00810622EA0241902582
B0935404627154N00810629EA0241802581
B0935414627157N00810636EA0241702580
B0935424627161N00810643EA0241702580
B0935434627163N00810650EA0241602579
B0935444627166N00810657EA0241402577
B0935454627169N00810663EA0241202575
B0935464627170N00810670EA0240902572
B0935474627173N00810678EA0240802571
B0935484627175N00810686EA0240702571
B0935494627178N00810694EA0240602569
B0935504627181N00810701EA0240402567
B0935514627183N00810708EA0240202566
B0935524627185N00810716EA0240002564
B0935534627188N00810723EA0239902562
B0935544627190N00810731EA0239802561
B0935554627192N00810738EA0239602559
B0935564627195N00810745EA0239402558
B0935574627198N00810752EA0239302556
B0935584627200N00810759EA0239102554
B0935594627203N00810766EA0239002554
B0936004627206N00810773EA0238902552
B0936014627209N00810779EA0238802551
B0936024627212N00810786EA0238702550
B0936034627215N00810793EA0238602549
B0936044627218N00810800EA0238602549
B0936054627222N00810806EA0238502548
B0936064627225N00810812EA0238402547
B0936074627228N00810819EA0238302546
B0936084627232N00810825EA0238202545
B0936094627236N00810832EA0238102544
B0936104627240N00810839EA0238102544
B0936114627244N00810846EA0238002543
B0936124627247N00810852EA0237902542
B0936134627251N00810858EA0237802541
B0936144627255N00810865EA0237602540
B0936154627259N00810871EA0237502538
B0936164627263N00810877EA0237302536
B0936174627267N00810883EA0237102534
B0936184627272N00810889EA0236902532
B0936194627276N00810895EA0236802531
B0936204627280N00810902EA0236602529
B0936214627284N00810908EA0236402527
B0936224627289N00810914EA0236302526
B0936234627293N00810919EA0236102524
B0936244627297N00810925EA0235902522
B0936254627300N00810931EA0235702520
B0936264627304N00810936EA0235502518
B0936274627307N00810942EA0235202515
B0936284627310N00810949EA0235002513
B0936294627313N00810955EA0234702511
B0936304627317N00810961EA0234602509
B0936314627321N00810968EA0234402508
B0936324627325N00810974EA0234402507
B0936334627328N00810980EA0234302506
B0936344627331N00810985EA0234102505
B0936354627334N00810991EA0234002504
B0936364627339N00810995EA0234002503
B0936374627344N00811000EA0234002503
B0936384627350N00811005EA0234002503
B0936394627355N00811010EA0234102504
B0936404627359N00811015EA0234202505
B0936414627363N00811019EA0234202505
B0936424627367N00811024EA0234302506
B0936434627371N00811029EA0234202505
B0936444627375N00811035EA0234202505
B0936454627379N00811040EA0234302506
B0936464627383N00811046EA0234402508
B0936474627386N00811051EA0234602509
B0936484627389N00811057EA0234602510
B0936494627393N00811062EA0234702510
B0936504627396N00811068EA0234702510
B0936514627399N00811074EA0234702510
B0936524627402N00811081EA0234702510
B0936534627406N00811088EA0234902512
B0936544627409N00811094EA0235102514
B0936554627412N00811101EA0235302516
B0936564627417N00811107EA0235702520
B0936574627419N00811112EA0236102524
B0936584627423N00811116EA0236302526
B0936594627425N00811118EA0236302526
B0937004627428N00811122EA0236202525
B0937014627430N00811126EA0236102524
B0937024627433N00811130EA0236302526
B0937034627437N00811136EA0236502528
B0937044627441N00811142EA0236702530
B0937054627444N00811147EA0236802531
B0937064627447N00811152EA0236802531
B0937074627450N00811157EA0236702531
B0937084627453N00811162EA0236702530
B0937094627456N00811169EA0236802531
B0937104627460N00811175EA0236902532
B0937114627464N00811181EA0237102534
B0937124627468N00811186EA0237102534
B0937134627472N00811190EA0237102534
B0937144627475N00811195EA0237102534
B0937154627478N00811201EA0237202535
B0937164627482N00811207EA0237202535
B0937174627485N00811213EA0237202535
B0937184627487N00811220EA0237302536
B0937194627489N00811226EA0237302536
B0937204627492N00811232EA0237202535
B0937214627496N00811239EA0237102534
B0937224627499N00811245EA0237202535
B0937234627503N00811251EA0237202535
B0937244627507N00811258EA0237202535
B0937254627511N00811264EA0237102534
B0937264627514N00811270EA0236902532
B0937274627517N00811276EA0236702531
B0937284627520N00811282EA0236602529
B0937294627523N00811289EA0236402527
B0937304627527N00811296EA0236302526
B0937314627531N00811303EA0236202525
B0937324627535N00811310EA0236102524
B0937334627539N00811316EA0236002523
B0937344627543N00811322EA0235902522
B0937354627546N00811329EA0235902522
B0937364627550N00811336EA0235802521
B0937374627553N00811342EA0235602519
B0937384627556N00811348EA0235402517
B0937394627560N00811355EA0235202515
B0937404627562N00811362EA0235102514
B0937414627566N00811369EA0235002513
B0937424627569N00811375EA0234902512
B0937434627573N00811381EA0234702510
B0937444627576N00811388EA0234402507
B0937454627579N00811394EA0234202505
B0937464627583N00811401EA0234002504
B0937474627586N00811408EA0233802501
B0937484627590N00811415EA0233702500
B0937494627594N00811422EA0233502498
B0937504627597N00811429EA0233402497
B0937514627601N00811436EA0233202496
B0937524627604N00811443EA0233102494
B0937534627606N00811450EA0232902492
B0937544627610N00811457EA0232802491
B0937554627614N00811464EA0232602489
B0937564627618N00811471EA0232402488
B0937574627621N00811477EA0232302486
B0937584627624N00811484EA0232102484
B0937594627628N00811491EA0231902482
B0938004627632N00811498EA0231702480
B0938014627636N00811505EA0231602479
B0938024627640N00811513EA0231502479
B0938034627644N00811519EA0231302477
B0938044627648N00811526EA0231202475
B0938054627652N00811533EA0231002473
B0938064627656N00811540EA0230902472
B0938074627661N00811547EA0230802471
B0938084627666N00811555EA0230702471
B0938094627671N00811562EA0230802472
B0938104627675N00811569EA0231002473
B0938114627679N00811575EA0231002473
B0938124627682N00811581EA0230902472
B0938134627686N00811587EA0230902472
B0938144627689N00811592EA0231002473
B0938154627694N00811598EA0231102474
B0938164627698N00811604EA0231202475
B0938174627701N00811611EA0231202475
B0938184627704N00811617EA0231202475
B0938194627707N00811624EA0231302476
B0938204627711N00811630EA0231302476
B0938214627715N00811636EA0231502478
B0938224627719N00811643EA0232002483
B0938234627723N00811649EA0232402487
B0938244627726N00811656EA0232802491
B0938254627729N00811661EA0233202495
B0938264627733N00811667EA0233502498
B0938274627736N00811672EA0233702500
B0938284627739N00811677EA0234102504
B0938294627741N00811684EA0234402508
B0938304627744N00811690EA0234702510
B0938314627746N00811696EA0234902512
B0938324627748N00811701EA0234902512
B0938334627749N00811706EA0234802511
B0938344627752N00811711EA0234802511
B0938354627754N00811717EA0234802511
B0938364627757N00811723EA0234802511
B0938374627760N00811728EA0234802511
B0938384627762N00811733EA0234602509
B0938394627764N00811738EA0234402507
B0938404627767N00811744EA0234302506
B0938414627770N00811750EA0234202505
B0938424627773N00811756EA0234202505
B0938434627776N00811763EA0234302506
B0938444627780N00811770EA0234302506
B0938454627784N00811776EA0234302506
B0938464627787N00811782EA0234402507
B0938474627791N00811787EA0234302506
B0938484627794N00811793EA0234302506
B0938494627798N00811799EA0234302506
B0938504627802N00811805EA0234302506
B0938514627806N00811812EA0234402507
B0938524627810N00811818EA0234302506
B0938534627814N00811824EA0234302506
B0938544627818N00811830EA0234102505
B0938554627822N00811835EA0234002503
B0938564627826N00811841EA0233802501
B0938574627830N00811848EA0233602499
B0938584627833N00811855EA0233502498
B0938594627837N00811862EA0233402497
B0939004627841N00811869EA0233302496
B0939014627844N00811876EA0233102495
B0939024627848N00811882EA0233002493
B0939034627851N00811889EA0232802491
B0939044627856N00811895EA0232602489
B0939054627860N00811903EA0232402487
B0939064627865N00811910EA0232302486
B0939074627869N00811917EA0232202485
B0939084627873N00811924EA0232002483
B0939094627877N00811930EA0231902482
B0939104627881N00811937EA0231702480
B0939114627885N00811943EA0231602479
B0939124627888N00811950EA0231402478
B0939134627892N00811957EA0231302476
B0939144627895N00811963EA0231102474
B0939154627898N00811970EA0231002474
B0939164627902N00811977EA0230902472
B0939174627906N00811983EA0230802471
B0939184627910N00811989EA0230602469
B0939194627914N00811995EA0230402467
B0939204627917N00812001EA0230202465
B0939214627921N00812008EA0230102464
B0939224627924N00812015EA0229902462
B0939234627928N00812022EA0229702460
B0939244627932N00812028EA0229602459
B0939254627935N00812034EA0229402457
B0939264627938N00812041EA0229202455
B0939274627941N00812047EA0229002453
B0939284627944N00812055EA0228802451
B0939294627948N00812062EA0228702450
B0939304627951N00812069EA0228502449
B0939314627954N00812076EA0228402447
B0939324627957N00812083EA0228302446
B0939334627961N00812090EA0228202445
B0939344627964N00812096EA0228002443
B0939354627968N00812103EA0227902442
B0939364627971N00812110EA0227702440
B0939374627974N00812116EA0227502438
B0939384627978N00812123EA0227402437
B0939394627981N00812130EA0227202436
B0939404627985N00812136EA0227102434
B0939414627989N00812143EA0227002433
B0939424627993N00812150EA0226802432
B0939434627996N00812157EA0226702430
B0939444627999N00812164EA0226602429
B0939454628003N00812172EA0226502428
B0939464628005N00812179EA0226402427
B0939474628008N00812186EA0226202425
B0939484628011N00812192EA0226102424
B0939494628014N00812200EA0225902422
B0939504628017N00812207EA0225802421
B0939514628019N00812214EA0225602420
B0939524628022N00812221EA0225502419
B0939534628025N00812227EA0225502418
B0939544628028N00812234EA0225402417
B0939554628032N00812240EA0225302416
B0939564628035N00812247EA0225302416
B0939574628038N00812253EA0225202415
B0939584628041N00812259EA0225102414
B0939594628043N00812265EA0225102415
B0940004628045N00812271EA0225102415
B0940014628049N00812277EA0225102414
B0940024628052N00812283EA0225202415
B0940034628055N00812288EA0225302416
B0940044628058N00812293EA0225302416
B0940054628061N00812299EA0225302416
B0940064628064N00812304EA0225302416
B0940074628068N00812309EA0225202416
B0940084628071N00812314EA0225302416
B0940094628075N00812320EA0225302416
B0940104628079N00812326EA0225302416
B0940114628082N00812331EA0225402417
B0940124628085N00812337EA0225302416
B0940134628089N00812342EA0225302416
B0940144628092N00812348EA0225402417
B0940154628096N00812354EA0225502418
B0940164628100N00812359EA0225502418
B0940174628103N00812364EA0225502418
B0940184628106N00812369EA0225702420
B0940194628109N00812374EA0225802421
B0940204628112N00812378EA0225802421
B0940214628114N00812382EA0225802421
B0940224628116N00812385EA0225702420
B0940234628118N00812389EA0225602419
B0940244628121N00812393EA0225502418
B0940254628122N00812397EA0225502418
B0940264628125N00812402EA0225502418
B0940274628129N00812407EA0225602420
B0940284628132N00812412EA0225802421
B0940294628136N00812416EA0225802422
B0940304628138N00812418EA0225802421
B0940314628140N00812421EA0225702420
B0940324628144N00812425EA0225702420
B0940334628147N00812430EA0225802422
B0940344628151N00812435EA0226102424
B0940354628155N00812439EA0226302426
B0940364628158N00812443EA0226402427
B0940374628159N00812447EA0226302426
B0940384628161N00812450EA0226302426
B0940394628164N00812455EA0226202425
B0940404628168N00812460EA0226302426
B0940414628171N00812466EA0226602429
B0940424628173N00812471EA0226902432
B0940434628176N00812476EA0227002433
B0940444628177N00812479EA0226902432
B0940454628179N00812482EA0226902432
B0940464628181N00812486EA0226802431
B0940474628183N00812491EA0226702430
B0940484628187N00812497EA0226802431
B0940494628190N00812503EA0227002433
B0940504628194N00812509EA0227202435
B0940514628198N00812515EA0227502438
B0940524628202N00812520EA0227902442
B0940534628206N00812525EA0228002443
B0940544628209N00812529EA0228302446
B0940554628212N00812534EA0228502448
B0940564628214N00812537EA0228602449
B0940574628217N00812541EA0228502448
B0940584628220N00812545EA0228302447
B0940594628223N00812550EA0228302446
B0941004628226N00812556EA0228402447
B0941014628230N00812562EA0228502448
B0941024628234N00812568EA0228502448
B0941034628238N00812571EA0228402447
B0941044628242N00812574EA0228402447
B0941054628247N00812575EA0228302446
B0941064628253N00812572EA0228202445
B0941074628258N00812568EA0228102444
B0941084628263N00812563EA0228002444
B0941094628266N00812555EA0228002443
B0941104628268N00812548EA0227902442
B0941114628269N00812540EA0227802441
B0941124628268N00812532EA0227702440
B0941134628266N00812524EA0227602439
B0941144628262N00812517EA0227402437
B0941154628259N00812510EA0227402437
B0941164628253N00812508EA0227302437
B0941174628248N00812508EA0227302436
B0941184628244N00812511EA0227202436
B0941194628242N00812515EA0227302436
B0941204628239N00812520EA0227402437
B0941214628239N00812528EA0227702440
B0941224628240N00812536EA0228002443
B0941234628242N00812543EA0228202445
B0941244628245N00812548EA0228402447
B0941254628247N00812552EA0228402447
B0941264628250N00812557EA0228402447
B0941274628253N00812561EA0228202445
B0941284628256N00812566EA0228002443
B0941294628259N00812574EA0227902442
B0941304628262N00812581EA0227802441
B0941314628266N00812588EA0227902442
B0941324628269N00812594EA0227902442
B0941334628272N00812600EA0227902442
B0941344628276N00812606EA0227802442
B0941354628280N00812611EA0227702441
B0941364628283N00812617EA0227702440
B0941374628287N00812624EA0227602440
B0941384628290N00812630EA0227602439
B0941394628295N00812635EA0227502438
B0941404628299N00812641EA0227402438
B0941414628302N00812647EA0227302437
B0941424628306N00812654EA0227202435
B0941434628309N00812660EA0227002434
B0941444628313N00812666EA0226902432
B0941454628318N00812673EA0226802431
B0941464628322N00812679EA0226802431
B0941474628326N00812686EA0226802431
B0941484628330N00812692EA0226702430
B0941494628333N00812698EA0226602429
B0941504628336N00812705EA0226402427
B0941514628340N00812711EA0226202426
B0941524628343N00812718EA0226102424
B0941534628347N00812725EA0226002423
B0941544628351N00812731EA0225902422
B0941554628355N00812736EA0225702420
B0941564628359N00812742EA0225602419
B0941574628363N00812747EA0225402418
B0941584628366N00812753EA0225402417
B0941594628369N00812758EA0225402418
B0942004628373N00812764EA0225502418
B0942014628376N00812768EA0225502418
B0942024628380N00812771EA0225602419
B0942034628383N00812774EA0225602419
B0942044628387N00812777EA0225702420
B0942054628390N00812781EA0225802421
B0942064628393N00812786EA0226002423
B0942074628396N00812791EA0226102424
B0942084628399N00812796EA0226202425
B0942094628402N00812800EA0226402427
B0942104628405N00812805EA0226502428
B0942114628409N00812809EA0226602429
B0942124628413N00812814EA0226602429
B0942134628417N00812819EA0226802431
B0942144628420N00812825EA0226902432
B0942154628424N00812831EA0227002433
B0942164628428N00812837EA0227102434
B0942174628433N00812843EA0227202435
B0942184628436N00812847EA0227302436
B0942194628440N00812852EA0227402437
B0942204628443N00812856EA0227202435
B0942214628446N00812860EA0227002433
B0942224628450N00812862EA0226902432
B0942234628454N00812866EA0226802431
B0942244628458N00812871EA0226802431
B0942254628462N00812876EA0226902432
B0942264628466N00812882EA0227002433
B0942274628469N00812888EA0227202435
B0942284628473N00812893EA0227202435
B0942294628476N00812899EA0227202435
B0942304628480N00812904EA0227102435
B0942314628483N00812907EA0226902432
B0942324628487N00812911EA0226602429
B0942334628492N00812917EA0226402427
B0942344628496N00812924EA0226402427
B0942354628501N00812931EA0226402427
B0942364628504N00812938EA0226402427
B0942374628508N00812944EA0226402427
B0942384628512N00812949EA0226202425
B0942394628516N00812954EA0226102424
B0942404628520N00812960EA0226002423
B0942414628523N00812967EA0225902422
B0942424628528N00812974EA0225902422
B0942434628532N00812980EA0226002423
B0942444628536N00812987EA0226102424
B0942454628539N00812992EA0226102424
B0942464628542N00812997EA0225902422
B0942474628545N00813002EA0225602419
B0942484628548N00813008EA0225402417
B0942494628551N00813014EA0225202415
B0942504628556N00813021EA0225002413
B0942514628560N00813028EA0224902412
B0942524628565N00813034EA0224702410
B0942534628569N00813041EA0224602409
B0942544628573N00813048EA0224402408
B0942554628577N00813054EA0224202406
B0942564628580N00813060EA0224002403
B0942574628584N00813066EA0223802401
B0942584628588N00813073EA0223502398
B0942594628592N00813079EA0223302396
B0943004628596N00813086EA0223102394
B0943014628600N00813093EA0222902392
B0943024628604N00813100EA0222702390
B0943034628607N00813107EA0222402388
B0943044628610N00813114EA0222302386
B0943054628613N00813121EA0222002383
B0943064628616N00813128EA0221802381
B0943074628619N00813136EA0221602379
B0943084628622N00813143EA0221402378
B0943094628625N00813150EA0221302376
B0943104628627N00813157EA0221102374
B0943114628629N00813164EA0220902372
B0943124628631N00813170EA0220802371
B0943134628635N00813177EA0220602369
B0943144628638N00813183EA0220402367
B0943154628642N00813190EA0220302366
B0943164628645N00813197EA0220102364
B0943174628648N00813204EA0219902362
B0943184628651N00813210EA0219702360
B0943194628654N00813217EA0219502358
B0943204628657N00813225EA0219302356
B0943214628660N00813232EA0219102355
B0943224628663N00813239EA0219002353
B0943234628666N00813247EA0218802352
B0943244628669N00813254EA0218702350
B0943254628672N00813261EA0218502348
B0943264628676N00813268EA0218302346
B0943274628680N00813274EA0218102344
B0943284628683N00813281EA0218002343
B0943294628687N00813288EA0217802341
B0943304628691N00813295EA0217702340
B0943314628694N00813301EA0217502338
B0943324628698N00813308EA0217302337
B0943334628703N00813314EA0217202335
B0943344628707N00813321EA0217102334
B0943354628710N00813327EA0217002333
B0943364628714N00813333EA0216802331
B0943374628717N00813339EA0216602330
B0943384628721N00813345EA0216402328
B0943394628724N00813352EA0216202326
B0943404628727N00813359EA0216002324
B0943414628730N00813365EA0215902322
B0943424628734N00813372EA0215802321
B0943434628737N00813379EA0215702320
B0943444628741N00813385EA0215502318
B0943454628745N00813392EA0215302316
B0943464628748N00813398EA0215202315
B0943474628751N00813405EA0215002313
B0943484628755N00813411EA0214902312
B0943494628759N00813418EA0214702310
B0943504628762N00813424EA0214402307
B0943514628766N00813431EA0214202305
B0943524628769N00813437EA0214102304
B0943534628772N00813443EA0214002303
B0943544628775N00813449EA0214002303
B0943554628778N00813455EA0213802301
B0943564628781N00813461EA0213602299
B0943574628785N00813466EA0213402298
B0943584628788N00813472EA0213302297
B0943594628791N00813478EA0213202295
B0944004628794N00813484EA0213002293
B0944014628797N00813489EA0212902292
B0944024628800N00813495EA0212702290
B0944034628804N00813502EA0212602289
B0944044628807N00813509EA0212702290
B0944054628810N00813516EA0212902292
B0944064628813N00813521EA0212902292
B0944074628816N00813526EA0212702291
B0944084628817N00813530EA0212602290
B0944094628820N00813536EA0212602289
B0944104628824N00813542EA0212502288
B0944114628827N00813548EA0212602289
B0944124628829N00813554EA0212902292
B0944134628832N00813560EA0213102294
B0944144628835N00813564EA0213102294
B0944154628838N00813567EA0213202295
B0944164628840N00813571EA0213302296
B0944174628843N00813575EA0213402297
B0944184628845N00813580EA0213602299
B0944194628847N00813585EA0213802302
B0944204628850N00813589EA0214002303
B0944214628852N00813593EA0214102304
B0944224628854N00813597EA0214202306
B0944234628857N00813600EA0214202306
B0944244628859N00813604EA0214202305
B0944254628861N00813607EA0214202305
B0944264628862N00813612EA0214102304
B0944274628862N00813616EA0214102304
B0944284628862N00813622EA0214102304
B0944294628860N00813627EA0214002304
B0944304628858N00813632EA0214002303
B0944314628855N00813636EA0214102304
B0944324628851N00813638EA0214202305
B0944334628847N00813638EA0214502308
B0944344628842N00813635EA0214902312
B0944354628835N00813629EA0215202315
B0944364628831N00813620EA0215302316
B0944374628828N00813613EA0215502318
B0944384628825N00813605EA0215502318
B0944394628824N00813596EA0215502318
B0944404628823N00813587EA0215602319
B0944414628826N00813578EA0215702320
B0944424628829N00813569EA0215802321
B0944434628832N00813562EA0215902322
B0944444628835N00813555EA0216002323
B0944454628841N00813550EA0216202325
B0944464628848N00813548EA0216302326
B0944474628854N00813546EA0216302326
B0944484628860N00813546EA0216302326
B0944494628865N00813547EA0216202326
B0944504628868N00813550EA0216102325
B0944514628870N00813553EA0216002323
B0944524628873N00813559EA0215902322
B0944534628876N00813564EA0216002323
B0944544628879N00813570EA0216202325
B0944554628880N00813577EA0216302326
B0944564628881N00813583EA0216502328
B0944574628881N00813588EA0216602330
B0944584628880N00813593EA0216802331
B0944594628879N00813596EA0216902332
B0945004628877N00813599EA0216902332
B0945014628873N00813603EA0217002333
B0945024628870N00813604EA0217102334
B0945034628865N00813605EA0217102334
B0945044628859N00813599EA0217102334
B0945054628855N00813593EA0217102334
B0945064628851N00813584EA0217102334
B0945074628851N00813575EA0217002333
B0945084628850N00813566EA0216902332
B0945094628851N00813556EA0216802331
B0945104628856N00813549EA0216802331
B0945114628862N00813543EA0216702330
B0945124628867N00813541EA0216702330
B0945134628873N00813541EA0216802331
B0945144628879N00813544EA0217102334
B0945154628884N00813549EA0217402337
B0945164628888N00813552EA0217602339
B0945174628892N00813555EA0217802341
B0945184628895N00813558EA0217702341
B0945194628899N00813563EA0217602339
B0945204628902N00813568EA0217602339
B0945214628904N00813574EA0217502338
B0945224628906N00813579EA0217302337
B0945234628908N00813584EA0217202336
B0945244628909N00813590EA0217302336
B0945254628910N00813597EA0217402337
B0945264628912N00813602EA0217502338
B0945274628914N00813607EA0217502338
B0945284628916N00813612EA0217702340
B0945294628917N00813617EA0217602339
B0945304628919N00813623EA0217502338
B0945314628921N00813629EA0217402337
B0945324628922N00813635EA0217302336
B0945334628924N00813642EA0217202335
B0945344628926N00813649EA0217202335
B0945354628928N00813656EA0217202335
B0945364628931N00813662EA0217302336
B0945374628933N00813669EA0217202335
B0945384628935N00813674EA0217102334
B0945394628938N00813680EA0217002333
B0945404628941N00813687EA0216802332
B0945414628944N00813694EA0216802331
B0945424628948N00813701EA0216702330
B0945434628951N00813707EA0216602329
B0945444628954N00813714EA0216502328
B0945454628957N00813721EA0216402327
B0945464628960N00813727EA0216302326
B0945474628962N00813734EA0216202325
B0945484628965N00813740EA0216202325
B0945494628967N00813747EA0216002323
B0945504628970N00813754EA0215902323
B0945514628973N00813760EA0215902322
B0945524628976N00813767EA0215902322
B0945534628979N00813774EA0215902322
B0945544628981N00813780EA0215802321
B0945554628984N00813786EA0215702320
B0945564628987N00813793EA0215602319
B0945574628991N00813800EA0215502318
B0945584628994N00813806EA0215402317
B0945594628997N00813813EA0215302316
B0946004629000N00813820EA0215202315
B0946014629003N00813826EA0215002313
B0946024629006N00813833EA0214902312
B0946034629009N00813840EA0214702310
B0946044629013N00813846EA0214502308
B0946054629016N00813853EA0214302306
B0946064629020N00813860EA0214102304
B0946074629023N00813867EA0213802302
B0946084629027N00813874EA0213702300
B0946094629030N00813881EA0213402297
B0946104629034N00813888EA0213302296
B0946114629037N00813895EA0213102294
B0946124629041N00813902EA0212902292
B0946134629044N00813909EA0212802291
B0946144629047N00813916EA0212602289
B0946154629051N00813922EA0212402287
B0946164629055N00813929EA0212202285
B0946174629059N00813935EA0212002284
B0946184629062N00813942EA0211902282
B0946194629066N00813949EA0211702280
B0946204629069N00813956EA0211502278
B0946214629072N00813963EA0211302276
B0946224629075N00813970EA0211202275
B0946234629079N00813977EA0211002273
B0946244629082N00813984EA0210802271
B0946254629085N00813991EA0210602270
B0946264629088N00813999EA0210502268
B0946274629091N00814006EA0210402267
B0946284629094N00814013EA0210202265
B0946294629098N00814020EA0210002264
B0946304629101N00814027EA0209902262
B0946314629104N00814034EA0209702260
B0946324629107N00814041EA0209602259
B0946334629111N00814048EA0209402258
B0946344629114N00814055EA0209302256
B0946354629117N00814062EA0209302256
B0946364629121N00814068EA0209302256
B0946374629124N00814074EA0209302256
B0946384629127N00814080EA0209302256
B0946394629130N00814086EA0209302256
B0946404629132N00814092EA0209502258
B0946414629134N00814097EA0209502258
B0946424629136N00814101EA0209502258
B0946434629137N00814106EA0209402257
B0946444629138N00814110EA0209102255
B0946454629140N00814115EA0209002253
B0946464629142N00814122EA0209002253
B0946474629144N00814128EA0209102254
B0946484629147N00814135EA0209302256
B0946494629149N00814140EA0209502258
B0946504629152N00814144EA0209602259
B0946514629154N00814149EA0209602260
B0946524629156N00814154EA0209602260
B0946534629158N00814159EA0209702260
B0946544629160N00814164EA0209702260
B0946554629162N00814170EA0209702260
B0946564629164N00814175EA0209702260
B0946574629167N00814180EA0209702260
B0946584629170N00814185EA0209702260
B0946594629174N00814190EA0209802261
B0947004629177N00814195EA0209802261
B0947014629180N00814201EA0209702260
B0947024629182N00814207EA0209702260
B0947034629184N00814214EA0209702260
B0947044629184N00814221EA0209702260
B0947054629186N00814227EA0209702260
B0947064629187N00814232EA0209602259
B0947074629190N00814238EA0209502258
B0947084629191N00814243EA0209202255
B0947094629193N00814249EA0209002253
B0947104629194N00814256EA0208702250
B0947114629195N00814263EA0208602249
B0947124629198N00814270EA0208502248
B0947134629201N00814278EA0208502248
B0947144629204N00814284EA0208402248
B0947154629207N00814291EA0208302247
B0947164629209N00814298EA0208202245
B0947174629212N00814305EA0208102244
B0947184629216N00814312EA0208102245
B0947194629219N00814320EA0208302246
B0947204629222N00814327EA0208502249
B0947214629224N00814334EA0208802251
B0947224629225N00814340EA0209002253
B0947234629226N00814346EA0209102254
B0947244629227N00814351EA0209102255
B0947254629228N00814356EA0209202255
B0947264629230N00814363EA0209402257
B0947274629232N00814369EA0209702260
B0947284629234N00814375EA0209902262
B0947294629236N00814379EA0210002263
B0947304629238N00814383EA0210102265
B0947314629241N00814387EA0210302266
B0947324629244N00814391EA0210402267
B0947334629246N00814396EA0210402267
B0947344629248N00814401EA0210502268
B0947354629249N00814406EA0210502268
B0947364629247N00814410EA0210402267
B0947374629245N00814413EA0210302266
B0947384629242N00814416EA0210302267
B0947394629237N00814416EA0210502268
B0947404629231N00814413EA0210602269
B0947414629227N00814409EA0210602270
B0947424629224N00814403EA0210602269
B0947434629221N00814395EA0210602269
B0947444629219N00814387EA0210502269
B0947454629218N00814378EA0210602270
B0947464629222N00814368EA0210802271
B0947474629225N00814361EA0211102274
B0947484629231N00814355EA0211402277
B0947494629238N00814354EA0211702281
B0947504629248N00814356EA0211902282
B0947514629254N00814355EA0211902282
B0947524629259N00814357EA0211802282
B0947534629264N00814361EA0211802281
B0947544629268N00814365EA0211802281
B0947554629271N00814371EA0211802281
B0947564629272N00814377EA0211802281
B0947574629271N00814383EA0211902282
B0947584629270N00814387EA0211902282
B0947594629266N00814390EA0212002283
B0948004629263N00814391EA0212002283
B0948014629258N00814389EA0212102284
B0948024629254N00814386EA0212202285
B0948034629249N00814379EA0212302286
B0948044629246N00814371EA0212402287
B0948054629244N00814362EA0212402287
B0948064629244N00814353EA0212402287
B0948074629245N00814343EA0212702290
B0948084629247N00814333EA0213102294
B0948094629249N00814324EA0213202296
B0948104629253N00814317EA0213202295
B0948114629257N00814312EA0213202295
B0948124629262N00814312EA0213302296
B0948134629268N00814313EA0213402297
B0948144629274N00814317EA0213602299
B0948154629280N00814324EA0213802301
B0948164629283N00814332EA0214002303
B0948174629285N00814339EA0214202305
B0948184629287N00814345EA0214202305
B0948194629287N00814350EA0214102304
B0948204629289N00814356EA0214002303
B0948214629290N00814362EA0213902303
B0948224629291N00814369EA0213902302
B0948234629292N00814375EA0213902302
B0948244629293N00814381EA0213802301
B0948254629293N00814386EA0213602299
B0948264629294N00814392EA0213402298
B0948274629294N00814399EA0213302296
B0948284629294N00814405EA0213202295
B0948294629294N00814411EA0213102294
B0948304629294N00814417EA0213002293
B0948314629294N00814423EA0212702291
B0948324629294N00814430EA0212602289
B0948334629295N00814436EA0212402287
B0948344629296N00814443EA0212302286
B0948354629297N00814451EA0212202286
B0948364629297N00814458EA0212202285
B0948374629298N00814465EA0212202285
B0948384629299N00814472EA0212102284
B0948394629299N00814479EA0212002283
B0948404629300N00814486EA0212002283
B0948414629300N00814494EA0212102284
B0948424629301N00814501EA0212202285
B0948434629302N00814508EA0212302286
B0948444629303N00814515EA0212402287
B0948454629304N00814522EA0212302286
B0948464629305N00814529EA0212202286
B0948474629306N00814537EA0212402288
B0948484629307N00814545EA0212602289
B0948494629308N00814554EA0212702291
B0948504629310N00814561EA0213002293
B0948514629312N00814568EA0213002293
B0948524629312N00814574EA0213002293
B0948534629312N00814580EA0212802291
B0948544629312N00814586EA0212402287
B0948554629312N00814593EA0212202285
B0948564629314N00814601EA0212102284
B0948574629315N00814609EA0212002283
B0948584629317N00814618EA0212002283
B0948594629319N00814626EA0211802282
B0949004629321N00814633EA0211702281
B0949014629322N00814641EA0211702280
B0949024629324N00814648EA0211702280
B0949034629325N00814656EA0211602279
B0949044629326N00814664EA0211602279
B0949054629327N00814672EA0211502278
B0949064629329N00814680EA0211302276
B0949074629330N00814688EA0211102275
B0949084629330N00814696EA0211002273
B0949094629331N00814705EA0210902272
B0949104629332N00814714EA0210702270
B0949114629333N00814723EA0210502269
B0949124629334N00814732EA0210402267
B0949134629336N00814740EA0210202266
B0949144629337N00814748EA0210202265
B0949154629339N00814756EA0210102264
B0949164629341N00814764EA0210002263
B0949174629343N00814770EA0209802261
B0949184629346N00814777EA0209502258
B0949194629348N00814784EA0209202255
B0949204629350N00814792EA0209102254
B0949214629352N00814802EA0209002253
B0949224629353N00814811EA0209002253
B0949234629354N00814819EA0209002253
B0949244629356N00814827EA0208902252
B0949254629358N00814834EA0208902252
B0949264629361N00814842EA0208902252
B0949274629363N00814850EA0208802251
B0949284629366N00814856EA0208702250
B0949294629368N00814863EA0208502248
B0949304629371N00814870EA0208202245
B0949314629374N00814878EA0207902242
B0949324629377N00814886EA0207702240
B0949334629380N00814895EA0207602239
B0949344629382N00814904EA0207602239
B0949354629384N00814912EA0207502238
B0949364629387N00814920EA0207302236
B0949374629389N00814927EA0207102234
B0949384629391N00814934EA0206902232
B0949394629394N00814941EA0206702230
B0949404629397N00814949EA0206602229
B0949414629399N00814957EA0206502228
B0949424629402N00814964EA0206402227
B0949434629404N00814972EA0206202225
B0949444629405N00814979EA0206002223
B0949454629407N00814986EA0205802221
B0949464629409N00814994EA0205602219
B0949474629412N00815002EA0205502218
B0949484629415N00815010EA0205402217
B0949494629417N00815018EA0205302216
B0949504629420N00815025EA0205102214
B0949514629423N00815033EA0205002213
B0949524629425N00815040EA0204802211
B0949534629428N00815048EA0204702210
B0949544629431N00815055EA0204602210
B0949554629435N00815062EA0204502209
B0949564629438N00815069EA0204502208
B0949574629441N00815076EA0204402207
B0949584629445N00815083EA0204402207
B0949594629448N00815090EA0204302206
B0950004629451N00815096EA0204402207
B0950014629453N00815103EA0204402207
B0950024629455N00815109EA0204402207
B0950034629458N00815115EA0204402207
B0950044629460N00815122EA0204302206
B0950054629463N00815128EA0204102205
B0950064629466N00815135EA0204002203
B0950074629470N00815141EA0203802201
B0950084629472N00815147EA0203602199
B0950094629474N00815153EA0203302196
B0950104629476N00815161EA0203102194
B0950114629478N00815169EA0202902192
B0950124629480N00815178EA0202802191
B0950134629482N00815187EA0202602189
B0950144629485N00815195EA0202302186
B0950154629487N00815203EA0201902182
B0950164629489N00815210EA0201802181
B0950174629491N00815218EA0201602179
B0950184629493N00815227EA0201302177
B0950194629493N00815235EA0201202175
B0950204629494N00815244EA0201102175
B0950214629493N00815253EA0201102174
B0950224629493N00815261EA0201102174
B0950234629493N00815268EA0200902172
B0950244629492N00815276EA0200702170
B0950254629491N00815284EA0200502168
B0950264629490N00815292EA0200402167
B0950274629489N00815300EA0200302166
B0950284629490N00815308EA0200202165
B0950294629491N00815316EA0200002163
B0950304629493N00815324EA0199802161
B0950314629495N00815331EA0199602160
B0950324629497N00815339EA0199502158
B0950334629499N00815347EA0199402157
B0950344629501N00815356EA0199202155
B0950354629502N00815364EA0199102154
B0950364629504N00815372EA0198902153
B0950374629506N00815380EA0198802151
B0950384629508N00815387EA0198702150
B0950394629511N00815395EA0198502148
B0950404629514N00815402EA0198402147
B0950414629517N00815410EA0198202146
B0950424629520N00815417EA0198102145
B0950434629523N00815423EA0198002143
B0950444629527N00815430EA0197802141
B0950454629530N00815436EA0197702140
B0950464629534N00815443EA0197502138
B0950474629538N00815450EA0197302137
B0950484629542N00815458EA0197202135
B0950494629546N00815464EA0197102134
B0950504629550N00815471EA0197002133
B0950514629554N00815477EA0196902132
B0950524629558N00815483EA0196602129
B0950534629562N00815489EA0196502128
B0950544629566N00815496EA0196402127
B0950554629571N00815503EA0196302126
B0950564629575N00815509EA0196102124
B0950574629579N00815516EA0196002123
B0950584629583N00815523EA0195802122
B0950594629586N00815530EA0195702120
B0951004629590N00815537EA0195502118
B0951014629593N00815544EA0195402117
B0951024629597N00815551EA0195302116
B0951034629601N00815558EA0195202115
B0951044629604N00815565EA0195002113
B0951054629608N00815573EA0194802111
B0951064629611N00815580EA0194702110
B0951074629615N00815589EA0194602109
B0951084629618N00815597EA0194502108
B0951094629621N00815604EA0194402107
B0951104629624N00815612EA0194202105
B0951114629627N00815620EA0194102104
B0951124629630N00815628EA0193902103
B0951134629633N00815636EA0193902102
B0951144629636N00815643EA0193802101
B0951154629640N00815651EA0193702100
B0951164629642N00815658EA0193502098
B0951174629646N00815666EA0193402097
B0951184629650N00815673EA0193302096
B0951194629653N00815680EA0193202095
B0951204629657N00815688EA0193102094
B0951214629660N00815696EA0193002093
B0951224629663N00815703EA0192902092
B0951234629667N00815711EA0192802091
B0951244629670N00815718EA0192602089
B0951254629674N00815726EA0192602089
B0951264629677N00815733EA0192502088
B0951274629681N00815740EA0192402087
B0951284629685N00815747EA0192302086
B0951294629689N00815754EA0192102085
B0951304629692N00815761EA0192002083
B0951314629696N00815768EA0191902082
B0951324629700N00815775EA0191802081
B0951334629704N00815782EA0191702080
B0951344629708N00815789EA0191602079
B0951354629712N00815796EA0191502078
B0951364629716N00815803EA0191402077
B0951374629720N00815810EA0191202075
B0951384629723N00815818EA0191102074
B0951394629727N00815825EA0191002073
B0951404629731N00815832EA0190902072
B0951414629735N00815839EA0190802071
B0951424629739N00815846EA0190702070
B0951434629742N00815853EA0190602069
B0951444629746N00815860EA0190502068
B0951454629750N00815867EA0190402067
B0951464629753N00815874EA0190402067
B0951474629757N00815882EA0190302067
B0951484629761N00815889EA0190402067
B0951494629765N00815896EA0190302066
B0951504629768N00815902EA0190102064
B0951514629772N00815909EA0190002063
B0951524629775N00815916EA0189802061
B0951534629778N00815923EA0189702060
B0951544629781N00815930EA0189602059
B0951554629784N00815938EA0189502058
B0951564629787N00815945EA0189402057
B0951574629790N00815952EA0189302056
B0951584629793N00815959EA0189202055
B0951594629796N00815965EA0189002053
B0952004629799N00815972EA0188802051
B0952014629802N00815980EA0188702050
B0952024629806N00815988EA0188602049
B0952034629809N00815995EA0188502048
B0952044629812N00816003EA0188402047
B0952054629814N00816010EA0188302046
B0952064629817N00816017EA0188202045
B0952074629820N00816024EA0188102044
B0952084629823N00816031EA0188002043
B0952094629826N00816038EA0187802042
B0952104629828N00816045EA0187702040
B0952114629831N00816053EA0187602039
B0952124629834N00816060EA0187502038
B0952134629837N00816068EA0187402038
B0952144629840N00816075EA0187402037
B0952154629842N00816082EA0187302036
B0952164629845N00816090EA0187202035
B0952174629847N00816098EA0187102035
B0952184629850N00816106EA0187102034
B0952194629852N00816114EA0187002033
B0952204629854N00816122EA0187002033
B0952214629857N00816130EA0187002033
B0952224629859N00816137EA0186902032
B0952234629861N00816145EA0186902032
B0952244629864N00816153EA0186802031
B0952254629866N00816161EA0186702030
B0952264629869N00816168EA0186702030
B0952274629871N00816175EA0186602029
B0952284629873N00816182EA0186402028
B0952294629876N00816189EA0186302026
B0952304629878N00816196EA0186102025
B0952314629881N00816203EA0186002023
B0952324629883N00816210EA0185902022
B0952334629886N00816217EA0185702020
B0952344629888N00816224EA0185602020
B0952354629890N00816231EA0185602019
B0952364629892N00816238EA0185502018
B0952374629894N00816245EA0185402017
B0952384629897N00816252EA0185302016
B0952394629900N00816259EA0185202015
B0952404629902N00816266EA0185102014
B0952414629904N00816272EA0185002013
B0952424629907N00816279EA0184802011
B0952434629910N00816286EA0184602009
B0952444629913N00816292EA0184502008
B0952454629915N00816299EA0184302006
B0952464629917N00816306EA0184202005
B0952474629920N00816313EA0184002004
B0952484629922N00816320EA0183802001
B0952494629925N00816326EA0183601999
B0952504629928N00816334EA0183401997
B0952514629930N00816341EA0183301996
B0952524629933N00816348EA0183201995
B0952534629937N00816355EA0183001993
B0952544629940N00816361EA0183001993
B0952554629943N00816367EA0182901992
B0952564629947N00816374EA0183001994
B0952574629950N00816380EA0183001994
B0952584629954N00816385EA0183001993
B0952594629957N00816390EA0182801992
B0953004629960N00816393EA0182601989
B0953014629964N00816396EA0182301986
B0953024629968N00816400EA0182101984
B0953034629972N00816405EA0181901982
B0953044629977N00816410EA0181701980
B0953054629981N00816415EA0181701980
B0953064629986N00816419EA0181601979
B0953074629989N00816424EA0181401977
B0953084629993N00816429EA0181301976
B0953094629996N00816433EA0181301976
B0953104630000N00816439EA0181301976
B0953114630003N00816444EA0181301976
B0953124630006N00816448EA0181301976
B0953134630010N00816454EA0181401977
B0953144630014N00816459EA0181401977
B0953154630018N00816464EA0181301976
B0953164630022N00816468EA0181301976
B0953174630026N00816473EA0181201975
B0953184630030N00816479EA0181101975
B0953194630034N00816485EA0181101974
B0953204630037N00816491EA0181101974
B0953214630041N00816498EA0181101974
B0953224630044N00816505EA0181201975
B0953234630048N00816511EA0181101975
B0953244630052N00816517EA0181101974
B0953254630056N00816523EA0181201975
B0953264630058N00816529EA0181101974
B0953274630061N00816536EA0181001973
B0953284630063N00816542EA0180901972
B0953294630065N00816548EA0180901972
B0953304630068N00816555EA0180901972
B0953314630071N00816561EA0181001973
B0953324630075N00816568EA0181101974
B0953334630078N00816575EA0181101974
B0953344630081N00816580EA0181101974
B0953354630084N00816586EA0180901972
B0953364630087N00816591EA0180801971
B0953374630090N00816597EA0180701970
B0953384630093N00816605EA0180601970
B0953394630096N00816612EA0180501968
B0953404630099N00816618EA0180301966
B0953414630101N00816625EA0180101964
B0953424630104N00816632EA0179701960
B0953434630106N00816640EA0179501958
B0953444630108N00816648EA0179201955
B0953454630110N00816656EA0179001953
B0953464630112N00816665EA0178901952
B0953474630113N00816672EA0178801951
B0953484630114N00816680EA0178601949
B0953494630116N00816687EA0178401947
B0953504630117N00816695EA0178201945
B0953514630118N00816702EA0177901942
B0953524630120N00816710EA0177701940
B0953534630122N00816718EA0177501939
B0953544630124N00816725EA0177401937
B0953554630125N00816732EA0177101934
B0953564630127N00816739EA0176901932
B0953574630130N00816746EA0176701930
B0953584630132N00816754EA0176601929
B0953594630135N00816762EA0176401927
B0954004630137N00816769EA0176301926
B0954014630139N00816777EA0176101925
B0954024630141N00816784EA0176001923
B0954034630143N00816792EA0175901922
B0954044630145N00816800EA0175801921
B0954054630147N00816808EA0175701920
B0954064630149N00816815EA0175701920
B0954074630152N00816823EA0175601919
B0954084630154N00816830EA0175501918
B0954094630157N00816837EA0175401917
B0954104630159N00816845EA0175301916
B0954114630162N00816853EA0175201915
B0954124630164N00816860EA0175201915
B0954134630166N00816868EA0175201915
B0954144630168N00816875EA0175101914
B0954154630170N00816881EA0175001913
B0954164630171N00816887EA0175001913
B0954174630174N00816894EA0175101914
B0954184630176N00816900EA0175001913
B0954194630179N00816906EA0174901912
B0954204630180N00816910EA0174701910
B0954214630182N00816914EA0174501908
B0954224630183N00816920EA0174201905
B0954234630184N00816927EA0174201905
B0954244630186N00816934EA0174201905
B0954254630187N00816941EA0174201905
B0954264630187N00816947EA0174001903
B0954274630187N00816953EA0173901902
B0954284630188N00816959EA0173701900
B0954294630188N00816966EA0173501898
B0954304630189N00816973EA0173401898
B0954314630190N00816980EA0173301896
B0954324630192N00816987EA0173201895
B0954334630194N00816993EA0173001893
B0954344630195N00817000EA0172801892
B0954354630197N00817007EA0172701890
B0954364630199N00817014EA0172601889
B0954374630201N00817020EA0172501888
B0954384630202N00817027EA0172301886
B0954394630204N00817033EA0172201885
B0954404630206N00817040EA0172101884
B0954414630207N00817046EA0171901882
B0954424630209N00817053EA0171701880
B0954434630210N00817060EA0171601879
B0954444630212N00817066EA0171501878
B0954454630214N00817073EA0171401877
B0954464630216N00817080EA0171301876
B0954474630218N00817086EA0171101875
B0954484630220N00817092EA0171001873
B0954494630223N00817099EA0170901872
B0954504630226N00817105EA0170801872
B0954514630228N00817112EA0170701871
B0954524630232N00817118EA0170701870
B0954534630235N00817124EA0170601869
B0954544630237N00817130EA0170401867
B0954554630239N00817137EA0170201865
B0954564630241N00817145EA0170101864
B0954574630241N00817153EA0169901862
B0954584630238N00817160EA0169801861
B0954594630235N00817166EA0169701860
B0955004630231N00817172EA0169501859
B0955014630228N00817175EA0169401857
B0955024630222N00817177EA0169301856
B0955034630216N00817175EA0169101854
B0955044630209N00817171EA0168901852
B0955054630206N00817163EA0168801851
B0955064630203N00817155EA0168601849
B0955074630203N00817148EA0168401847
B0955084630204N00817139EA0168301847
B0955094630206N00817131EA0168201845
B0955104630209N00817125EA0168201845
B0955114630213N00817120EA0168301846
B0955124630218N00817118EA0168301846
B0955134630226N00817118EA0168301846
B0955144630232N00817119EA0168401847
B0955154630239N00817121EA0168301847
B0955164630244N00817126EA0168301846
B0955174630248N00817133EA0168301846
B0955184630250N00817141EA0168201846
B0955194630253N00817148EA0168101844
B0955204630255N00817156EA0168001843
B0955214630256N00817164EA0167701840
B0955224630256N00817171EA0167501838
B0955234630255N00817179EA0167401837
B0955244630254N00817186EA0167301836
B0955254630253N00817194EA0167201835
B0955264630254N00817201EA0167101834
B0955274630254N00817209EA0167001833
B0955284630254N00817216EA0166801832
B0955294630254N00817224EA0166701830
B0955304630253N00817231EA0166501828
B0955314630252N00817238EA0166301827
B0955324630249N00817244EA0166301826
B0955334630245N00817250EA0166101824
B0955344630242N00817253EA0166001823
B0955354630237N00817254EA0165901822
B0955364630228N00817248EA0165801821
B0955374630224N00817240EA0165601819
B0955384630221N00817232EA0165501818
B0955394630220N00817224EA0165401817
B0955404630219N00817215EA0165301816
B0955414630221N00817207EA0165201815
B0955424630225N00817201EA0165001813
B0955434630230N00817196EA0164901812
B0955444630236N00817192EA0164701810
B0955454630243N00817193EA0164601809
B0955464630249N00817195EA0164401807
B0955474630254N00817200EA0164201805
B0955484630258N00817207EA0164001804
B0955494630260N00817215EA0163901802
B0955504630261N00817223EA0163701800
B0955514630260N00817231EA0163501799
B0955524630257N00817237EA0163401797
B0955534630254N00817243EA0163301796
B0955544630250N00817247EA0163101794
B0955554630246N00817248EA0162901792
B0955564630241N00817247EA0162801791
B0955574630233N00817239EA0162801791
B0955584630229N00817231EA0162701790
B0955594630226N00817223EA0162801791
B0956004630223N00817215EA0162801791
B0956014630221N00817206EA0162801791
B0956024630223N00817198EA0162801791
B0956034630226N00817190EA0162801791
B0956044630230N00817185EA0162701790
B0956054630235N00817181EA0162401787
B0956064630241N00817179EA0162101784
B0956074630247N00817179EA0161901782
B0956084630254N00817181EA0161701780
B0956094630260N00817184EA0161601779
B0956104630264N00817192EA0161401777
B0956114630268N00817199EA0161201775
B0956124630270N00817206EA0161001774
B0956134630272N00817214EA0160801771
B0956144630272N00817221EA0160601769
B0956154630272N00817229EA0160301766
B0956164630272N00817237EA0160201765
B0956174630271N00817244EA0160001763
B0956184630267N00817251EA0159901762
B0956194630264N00817257EA0159801761
B0956204630261N00817262EA0159701760
B0956214630258N00817268EA0159501758
B0956224630255N00817273EA0159301756
B0956234630252N00817279EA0159101754
B0956244630247N00817284EA0159001753
B0956254630242N00817288EA0158901752
B0956264630236N00817291EA0159101754
B0956274630229N00817290EA0159201755
B0956284630223N00817285EA0159201755
B0956294630219N00817279EA0159101754
B0956304630216N00817272EA0159001753
B0956314630215N00817263EA0158801751
B0956324630214N00817255EA0158801751
B0956334630215N00817247EA0158701750
B0956344630218N00817242EA0158701750
B0956354630222N00817240EA0158601750
B0956364630226N00817241EA0158601749
B0956374630229N00817244EA0158501748
B0956384630233N00817249EA0158301747
B0956394630236N00817255EA0158201746
B0956404630237N00817262EA0158301746
B0956414630238N00817269EA0158301746
B0956424630238N00817276EA0158301746
B0956434630238N00817282EA0158201745
B0956444630238N00817288EA0158101744
B0956454630237N00817295EA0158101744
B0956464630236N00817303EA0158201745
B0956474630237N00817311EA0158201745
B0956484630237N00817317EA0158301746
B0956494630236N00817324EA0158201746
B0956504630235N00817329EA0158001744
B0956514630234N00817335EA0157801741
B0956524630233N00817340EA0157501738
B0956534630233N00817348EA0157301736
B0956544630234N00817356EA0157201735
B0956554630235N00817364EA0157101734
B0956564630237N00817370EA0157101734
B0956574630238N00817377EA0157001733
B0956584630238N00817382EA0156801732
B0956594630238N00817389EA0156601730
B0957004630238N00817396EA0156601729
B0957014630236N00817402EA0156601729
B0957024630234N00817408EA0156601729
B0957034630231N00817412EA0156501728
B0957044630228N00817415EA0156401727
B0957054630224N00817417EA0156201726
B0957064630219N00817417EA0156101724
B0957074630214N00817416EA0156001723
B0957084630208N00817411EA0155901722
B0957094630202N00817407EA0155801721
B0957104630197N00817403EA0155601719
B0957114630193N00817398EA0155501718
B0957124630188N00817393EA0155401717
B0957134630184N00817388EA0155301716
B0957144630180N00817382EA0155101714
B0957154630177N00817376EA0154901712
B0957164630176N00817368EA0154701710
B0957174630176N00817359EA0154501708
B0957184630177N00817350EA0154301707
B0957194630180N00817343EA0154201705
B0957204630184N00817338EA0153901702
B0957214630190N00817336EA0153801701
B0957224630195N00817338EA0153601700
B0957234630200N00817341EA0153501698
B0957244630203N00817347EA0153301696
B0957254630206N00817353EA0153001693
B0957264630207N00817359EA0152801691
B0957274630206N00817368EA0152701690
B0957284630204N00817375EA0152501689
B0957294630200N00817381EA0152401687
B0957304630196N00817386EA0152201685
B0957314630192N00817389EA0152001683
B0957324630187N00817386EA0151901682
B0957334630180N00817376EA0151601679
B0957344630176N00817366EA0151401677
B0957354630174N00817357EA0151201675
B0957364630174N00817348EA0151001673
B0957374630177N00817338EA0150801672
B0957384630181N00817332EA0150701670
B0957394630186N00817328EA0150601669
B0957404630190N00817326EA0150401668
B0957414630196N00817328EA0150301666
B0957424630200N00817331EA0150001663
B0957434630202N00817338EA0149801661
B0957444630204N00817344EA0149601659
B0957454630203N00817351EA0149501658
B0957464630202N00817357EA0149501658
B0957474630200N00817363EA0149301657
B0957484630198N00817369EA0149201655
B0957494630195N00817374EA0149001654
B0957504630194N00817380EA0148901652
B0957514630193N00817386EA0148701650
B0957524630192N00817392EA0148401648
B0957534630191N00817398EA0148301646
B0957544630190N00817404EA0148101644
B0957554630188N00817410EA0147901642
B0957564630186N00817416EA0147701640
B0957574630183N00817422EA0147501638
B0957584630180N00817427EA0147401637
B0957594630175N00817431EA0147201635
B0958004630168N00817431EA0147001633
B0958014630162N00817429EA0146801631
B0958024630157N00817427EA0146601629
B0958034630153N00817420EA0146401627
B0958044630150N00817413EA0146201625
B0958054630150N00817405EA0146001623
B0958064630151N00817396EA0145801621
B0958074630153N00817388EA0145601619
B0958084630157N00817381EA0145401617
B0958094630162N00817377EA0145201615
B0958104630167N00817373EA0145001613
B0958114630172N00817370EA0144801611
B0958124630179N00817372EA0144601609
B0958134630184N00817375EA0144401607
B0958144630188N00817380EA0144301606
B0958154630191N00817387EA0144201605
B0958164630193N00817394EA0144101604
B0958174630193N00817401EA0144001603
B0958184630190N00817406EA0143901602
B0958194630186N00817411EA0143701600
B0958204630182N00817414EA0143401597
B0958214630177N00817416EA0143201595
B0958224630172N00817416EA0142901592
B0958234630165N00817409EA0142701590
B0958244630162N00817401EA0142601589
B0958254630160N00817392EA0142401587
B0958264630160N00817384EA0142201585
B0958274630162N00817376EA0142001583
B0958284630166N00817370EA0141701580
B0958294630171N00817365EA0141501578
B0958304630178N00817363EA0141201575
B0958314630184N00817364EA0141001573
B0958324630190N00817366EA0140801571
B0958334630193N00817372EA0140701571
B0958344630195N00817379EA0140701571
B0958354630197N00817386EA0140701570
B0958364630196N00817393EA0140601569
B0958374630194N00817399EA0140501569
B0958384630190N00817402EA0140401567
B0958394630186N00817404EA0140201565
B0958404630182N00817408EA0140001564
B0958414630178N00817412EA0139901562
B0958424630175N00817417EA0139901563
B0958434630173N00817423EA0140001563
B0958444630172N00817429EA0140101564
B0958454630171N00817435EA0140201565
B0958464630171N00817440EA0140201565
B0958474630171N00817445EA0140201566
B0958484630170N00817451EA0140201566
B0958494630169N00817456EA0140201565
B0958504630168N00817462EA0140201565
B0958514630164N00817467EA0140201565
B0958524630160N00817471EA0140201565
B0958534630154N00817472EA0140101565
B0958544630149N00817472EA0140101564
B0958554630143N00817470EA0140001563
B0958564630139N00817465EA0140001563
B0958574630135N00817459EA0139901562
B0958584630131N00817453EA0139701560
B0958594630128N00817448EA0139601559
B0959004630125N00817442EA0139501558
B0959014630122N00817436EA0139401557
B0959024630121N00817429EA0139301556
B0959034630120N00817422EA0139201555
B0959044630118N00817414EA0139101554
B0959054630117N00817407EA0138901552
B0959064630116N00817400EA0138701550
B0959074630114N00817393EA0138401547
B0959084630113N00817385EA0138201545
B0959094630111N00817378EA0138001543
B0959104630109N00817370EA0137801541
B0959114630107N00817363EA0137501539
B0959124630104N00817355EA0137301536
B0959134630100N00817348EA0137201535
B0959144630096N00817342EA0137001533
B0959154630092N00817336EA0136801531
B0959164630087N00817331EA0136701530
B0959174630083N00817327EA0136701530
B0959184630078N00817323EA0136601530
B0959194630074N00817319EA0136501528
B0959204630071N00817312EA0136501528
B0959214630068N00817305EA0136501528
B0959224630065N00817299EA0136401527
B0959234630062N00817294EA0136201525
B0959244630058N00817290EA0136001524
B0959254630054N00817285EA0135901522
B0959264630051N00817279EA0135701521
B0959274630047N00817273EA0135701520
B0959284630044N00817266EA0135701520
B0959294630041N00817261EA0135701520
B0959304630036N00817257EA0135601519
B0959314630031N00817257EA0135601519
B0959324630025N00817256EA0135601519
B0959334630021N00817257EA0135601519
B0959344630016N00817259EA0135701520
B0959354630011N00817263EA0135801521
B0959364630007N00817267EA0135901522
B0959374630004N00817271EA0136001523
B0959384630001N00817275EA0136001523
B0959394630000N00817281EA0135901522
B0959404629999N00817289EA0135901522
B0959414629997N00817296EA0135901522
B0959424629997N00817304EA0135901522
B0959434629999N00817312EA0135801521
B0959444630000N00817319EA0135601520
B0959454630003N00817326EA0135601519
B0959464630006N00817333EA0135601519
B0959474630010N00817340EA0135601519
B0959484630013N00817345EA0135701520
B0959494630016N00817349EA0135601520
B0959504630020N00817353EA0135601519
B0959514630024N00817357EA0135501518
B0959524630028N00817361EA0135401517
B0959534630032N00817365EA0135401517
B0959544630036N00817370EA0135401517
B0959554630041N00817376EA0135501518
B0959564630044N00817380EA0135501518
B0959574630049N00817385EA0135601519
B0959584630053N00817389EA0135601519
B0959594630057N00817394EA0135601519
B1000004630062N00817399EA0135501518
B1000014630066N00817404EA0135501518
B1000024630070N00817411EA0135601519
B1000034630074N00817418EA0135601519
B1000044630075N00817426EA0135601519
B1000054630074N00817434EA0135501519
B1000064630072N00817440EA0135501518
B1000074630062N00817437EA0135401517
B1000084630058N00817430EA0135401517
B1000094630056N00817421EA0135301516
B1000104630055N00817412EA0135401517
B1000114630055N00817404EA0135301516
B1000124630062N00817399EA0135301516
B1000134630068N00817401EA0135201515
B1000144630071N00817409EA0135101514
B1000154630071N00817419EA0135001513
B1000164630068N00817425EA0134801512
B1000174630062N00817426EA0134901512
B1000184630058N00817421EA0134701510
B1000194630056N00817412EA0134601509
B1000204630058N00817404EA0134701510
B1000214630064N00817399EA0134801511
B1000224630070N00817399EA0134701511
B1000234630075N00817405EA0134601509
B1000244630076N00817414EA0134501508
B1000254630074N00817421EA0134501508
B1000264630071N00817425EA0134501508
B1000274630066N00817423EA0134401507
B1000284630062N00817416EA0134401507
B1000294630062N00817408EA0134301506
B1000304630062N00817400EA0134301506
B1000314630063N00817393EA0134401507
B1000324630066N00817387EA0134501508
B1000334630073N00817384EA0134501508
B1000344630080N00817383EA0134501508
B1000354630087N00817384EA0134401507
B1000364630091N00817389EA0134401507
B1000374630090N00817399EA0134401507
B1000384630089N00817406EA0134401507
B1000394630087N00817416EA0134301507
B1000404630085N00817424EA0134301506
B1000414630083N00817431EA0134301506
B1000424630080N00817438EA0134301506
B1000434630077N00817444EA0134301507
B1000444630074N00817450EA0134301506
B1000454630070N00817453EA0134301506
B1000464630065N00817455EA0134101504
B1000474630060N00817455EA0134001503
B1000484630055N00817452EA0134001503
B1000494630050N00817446EA0134001503
B1000504630048N00817437EA0134101504
B1000514630045N00817429EA0134101504
B1000524630044N00817421EA0134101504
B1000534630043N00817413EA0134101504
B1000544630042N00817406EA0134001503
B1000554630042N00817398EA0133901502
B1000564630041N00817390EA0133901502
B1000574630041N00817381EA0134001504
B1000584630041N00817373EA0134101504
B1000594630041N00817365EA0134101504
B1001004630040N00817358EA0134101504
B1001014630040N00817351EA0134101504
B1001024630039N00817345EA0134001504
B1001034630038N00817339EA0134001503
B1001044630038N00817334EA0134001503
B1001054630036N00817329EA0134101504
B1001064630034N00817323EA0134101504
B1001074630031N00817317EA0134001503
B1001084630028N00817312EA0133901503
B1001094630026N00817306EA0133801501
B1001104630023N00817300EA0133801501
B1001114630021N00817294EA0133801501
B1001124630018N00817287EA0133701501
B1001134630016N00817281EA0133701500
B1001144630013N00817275EA0133601499
B1001154630011N00817270EA0133501498
B1001164630008N00817264EA0133301496
B1001174630004N00817259EA0133101494
B1001184630001N00817255EA0133001493
B1001194629997N00817252EA0132801491
B1001204629993N00817250EA0132601489
B1001214629989N00817248EA0132301486
B1001224629985N00817246EA0132001483
B1001234629981N00817244EA0131801481
B1001244629976N00817241EA0131701480
B1001254629972N00817239EA0131601479
B1001264629967N00817235EA0131501478
B1001274629963N00817233EA0131401477
B1001284629959N00817230EA0131301476
B1001294629955N00817228EA0131101474
B1001304629950N00817226EA0131001473
B1001314629945N00817224EA0131001473
B1001324629941N00817224EA0131101474
B1001334629937N00817224EA0131001473
B1001344629934N00817226EA0130901472
B1001354629931N00817229EA0130901472
B1001364629928N00817231EA0130901472
B1001374629925N00817234EA0130901472
B1001384629922N00817238EA0130901472
B1001394629919N00817243EA0130701470
B1001404629918N00817248EA0130601469
B1001414629916N00817255EA0130501469
B1001424629916N00817261EA0130401467
B1001434629916N00817267EA0130201465
B1001444629916N00817273EA0130001463
B1001454629916N00817280EA0129801461
B1001464629916N00817287EA0129701460
B1001474629917N00817294EA0129601459
B1001484629917N00817301EA0129401457
B1001494629919N00817308EA0129301456
B1001504629919N00817314EA0129101454
B1001514629921N00817320EA0128801452
B1001524629923N00817326EA0128701450
B1001534629924N00817333EA0128501448
B1001544629926N00817340EA0128301447
B1001554629928N00817346EA0128201445
B1001564629930N00817353EA0128001443
B1001574629932N00817360EA0127801441
B1001584629934N00817367EA0127801441
B1001594629937N00817374EA0127801441
B1002004629939N00817380EA0127701440
B1002014629941N00817386EA0127501438
B1002024629943N00817392EA0127301436
B1002034629946N00817398EA0127101434
B1002044629948N00817405EA0127001433
B1002054629949N00817413EA0126901432
B1002064629951N00817420EA0126801431
B1002074629953N00817427EA0126701430
B1002084629955N00817433EA0126601430
B1002094629957N00817440EA0126501428
B1002104629960N00817446EA0126401427
B1002114629962N00817452EA0126401427
B1002124629964N00817459EA0126301426
B1002134629966N00817466EA0126201425
B1002144629967N00817473EA0126201425
B1002154629969N00817479EA0126101424
B1002164629971N00817485EA0126101424
B1002174629972N00817491EA0126001423
B1002184629974N00817497EA0126001423
B1002194629977N00817502EA0125901422
B1002204629979N00817506EA0125801421
B1002214629983N00817510EA0125701420
B1002224629987N00817512EA0125601419
B1002234629992N00817514EA0125401417
B1002244629996N00817514EA0125201416
B1002254630000N00817514EA0125101415
B1002264630005N00817511EA0125001413
B1002274630010N00817506EA0124901412
B1002284630015N00817501EA0124701410
B1002294630019N00817495EA0124501408
B1002304630023N00817490EA0124201405
B1002314630027N00817484EA0123801401
B1002324630030N00817477EA0123501398
B1002334630034N00817469EA0123301396
B1002344630037N00817461EA0123401397
B1002354630039N00817453EA0123401397
B1002364630040N00817445EA0123301396
B1002374630041N00817437EA0123401397
B1002384630041N00817431EA0123301397
B1002394630041N00817424EA0123201396
B1002404630041N00817417EA0123101394
B1002414630041N00817411EA0123101394
B1002424630041N00817404EA0123101394
B1002434630041N00817398EA0123001394
B1002444630041N00817392EA0123001393
B1002454630041N00817387EA0123101394
B1002464630041N00817383EA0123101394
B1002474630041N00817380EA0123101394
B1002484630041N00817377EA0123101394
B1002494630041N00817374EA0123201395
B1002504630041N00817372EA0123101394
B1002514630041N00817371EA0123101394
B1002524630041N00817371EA0123101394
B1002534630041N00817370EA0123101394
B1002544630042N00817369EA0123101394
B1002554630043N00817369EA0123101394
B1002564630043N00817368EA0123101394
B1002574630043N00817368EA0123101394
B1002584630043N00817368EA0123101394
B1002594630043N00817367EA0123101394
B1003004630043N00817367EA0123101394
B1003014630043N00817367EA0123101394
B1003024630043N00817367EA0123101394
B1003034630043N00817367EA0123101394
B1003044630043N00817367EA0123101395
B1003054630043N00817367EA0123101395
B1003064630043N00817368EA0123101394
B1003074630043N00817369EA0123101394
B1003084630043N00817369EA0123101394
B1003094630043N00817370EA0123101394
B1003104630043N00817371EA0123101394
B1003114630043N00817371EA0123101394
B1003124630043N00817371EA0123101394
B1003134630043N00817371EA0123101394
B1003144630043N00817371EA0123101394
B1003154630043N00817371EA0123101394
B1003164630043N00817371EA0123101395
B1003174630044N00817371EA0123201395
B1003184630044N00817370EA0123101395
B1003194630044N00817370EA0123201395
B1003204630044N00817370EA0123201395
B1003214630044N00817370EA0123201395
B1003224630044N00817370EA0123101395
B1003234630044N00817370EA0123101395
B1003244630044N00817370EA0123101395
B1003254630044N00817370EA0123201395
B1003264630044N00817371EA0123201395
B1003274630044N00817371EA0123101395
B1003284630044N00817371EA0123101395
B1003294630044N00817371EA0123101394
B1003304630044N00817372EA0123101395
B1003314630045N00817372EA0123101395
B1003324630045N00817372EA0123101394
B1003334630045N00817372EA0123101395
B1003344630045N00817372EA0123201395
B1003354630045N00817372EA0123201395
B1003364630045N00817373EA0123101394
B1003374630045N00817373EA0123101395
B1003384630045N00817373EA0123201395
B1003394630044N00817373EA0123201395
B1003404630044N00817373EA0123201395
B1003414630044N00817373EA0123201395
B1003424630044N00817373EA0123201395
B1003434630044N00817373EA0123201395
B1003444630044N00817373EA0123201395
B1003454630044N00817373EA0123201395
B1003464630044N00817373EA0123101395
B1003474630044N00817374EA0123201395
B1003484630044N00817373EA0123201395
B1003494630044N00817373EA0123101394
B1003504630044N00817373EA0123101394
B1003514630044N00817374EA0123201395
B1003524630044N00817375EA0123101395
B1003534630044N00817375EA0123101395
B1003544630044N00817375EA0123101395
B1003554630044N00817375EA0123101394
B1003564630044N00817375EA0123201395
B1003574630044N00817375EA0123101395
B1003584630044N00817374EA0123201395
B1003594630044N00817375EA0123201395
B1004004630044N00817374EA0123201395
B1004014630044N00817374EA0123201395
B1004024630044N00817374EA0123201395
B1004034630044N00817374EA0123201395
B1004044630044N00817374EA0123201395
B1004054630044N00817374EA0123201395
B1004064630044N00817374EA0123101394
B1004074630044N00817374EA0123201395
B1004084630044N00817374EA0123201395
B1004094630044N00817374EA0123101395
B1004104630044N00817374EA0123201395
B1004114630044N00817374EA0123201395
B1004124630044N00817374EA0123101395
B1004134630044N00817374EA0123101395
B1004144630044N00817374EA0123201395
B1004154630044N00817374EA0123201395
B1004164630044N00817374EA0123101395
B1004174630044N00817374EA0123101395
B1004184630044N00817374EA0123101395
B1004194630044N00817375EA0123201395
B1004204630043N00817375EA0123201395
B1004214630043N00817374EA0123201395
B1004224630043N00817374EA0123101395
B1004234630042N00817373EA0123101395
LXSX;GF:1.4
G2663E0FF67AD7E848C8914749DABE2D0
