AXSX003 SKYTRAXX V3.0.10a SN:00000380
HOPLTPILOT:Sepp Bucher
HOGTYGLIDERTYPE:Sigma10
HOCIDCOMPETITIONID:0000
HODTM100GPSDATUM:WGS-84
HOCCLCOMPETITION CLASS:Paraglider (Standard)
HPSITSITE:Sedgeview
HFDTE211217
B1145533400361S02247587EA0015000118
B1145543400360S02247581EA0015200120
B1145553400358S02247575EA0015400122
B1145563400356S02247571EA0015400123
B1145573400352S02247566EA0015400136
B1145583400350S02247562EA0015300136
B1145593400359S02247517EA0015300136
B1146003400360S02247499EA0015600138
B1146013400360S02247485EA0015800140
B1146023400356S02247475EA0015900141
B1146033400353S02247469EA0016100142
B1146043400351S02247463EA0016200143
B1146053400349S02247458EA0016400145
B1146063400346S02247452EA0016500145
B1146073400344S02247447EA0016600147
B1146083400343S02247442EA0016700148
B1146093400341S02247437EA0016700148
B1146103400340S02247431EA0016800149
B1146113400337S02247426EA0016800149
B1146123400334S02247421EA0016900150
B1146133400332S02247417EA0016800149
B1146143400330S02247412EA0016800149
B1146153400328S02247407EA0016800149
B1146163400326S02247401EA0016800149
B1146173400323S02247396EA0016900150
B1146183400320S02247391EA0017000151
B1146193400317S02247385EA0016900150
B1146203400315S02247380EA0016900150
B1146213400313S02247374EA0017000151
B1146223400311S02247368EA0017100152
B1146233400309S02247363EA0017300154
B1146243400308S02247358EA0017300154
B1146253400308S02247354EA0017200153
B1146263400309S02247351EA0017300154
B1146273400312S02247348EA0017300154
B1146283400315S02247347EA0017400155
B1146293400318S02247349EA0017500156
B1146303400321S02247351EA0017500156
B1146313400323S02247355EA0017600157
B1146323400325S02247360EA0017600157
B1146333400327S02247365EA0017500156
B1146343400329S02247371EA0017500156
B1146353400330S02247377EA0017500156
B1146363400332S02247383EA0017500156
B1146373400333S02247388EA0017400155
B1146383400334S02247394EA0017400155
B1146393400336S02247399EA0017300154
B1146403400337S02247405EA0017300154
B1146413400339S02247410EA0017300154
B1146423400341S02247415EA0017300154
B1146433400344S02247419EA0017200153
B1146443400347S02247423EA0017200153
B1146453400349S02247426EA0017200153
B1146463400352S02247430EA0017200153
B1146473400355S02247434EA0017100152
B1146483400357S02247438EA0017100152
B1146493400359S02247442EA0017200153
B1146503400361S02247446EA0017300154
B1146513400363S02247450EA0017500156
B1146523400366S02247454EA0017600157
B1146533400368S02247458EA0017900160
B1146543400371S02247461EA0018100162
B1146553400373S02247465EA0018200163
B1146563400375S02247469EA0018400165
B1146573400376S02247472EA0018500166
B1146583400377S02247477EA0018500166
B1146593400377S02247481EA0018600167
B1147003400375S02247487EA0018600167
B1147013400373S02247493EA0018700168
B1147023400371S02247499EA0018700168
B1147033400368S02247504EA0018700168
B1147043400365S02247509EA0018500166
B1147053400363S02247515EA0018400165
B1147063400363S02247521EA0018400165
B1147073400363S02247527EA0018500166
B1147083400364S02247532EA0018500166
B1147093400365S02247535EA0018500166
B1147103400367S02247538EA0018500166
B1147113400368S02247538EA0018300164
B1147123400370S02247536EA0018300164
B1147133400371S02247532EA0018300164
B1147143400372S02247527EA0018400165
B1147153400373S02247522EA0018500166
B1147163400373S02247517EA0018600167
B1147173400373S02247512EA0018700168
B1147183400371S02247507EA0018800169
B1147193400368S02247502EA0018800169
B1147203400365S02247497EA0018800169
B1147213400362S02247491EA0018900170
B1147223400359S02247485EA0019000171
B1147233400358S02247479EA0019100172
B1147243400356S02247474EA0019100172
B1147253400354S02247469EA0019200173
B1147263400353S02247465EA0019200173
B1147273400352S02247461EA0019200173
B1147283400352S02247458EA0019100172
B1147293400352S02247455EA0019000171
B1147303400353S02247452EA0018900170
B1147313400355S02247451EA0018900170
B1147323400358S02247454EA0018900170
B1147333400361S02247457EA0018900170
B1147343400363S02247460EA0019000171
B1147353400364S02247465EA0019000171
B1147363400365S02247470EA0019000171
B1147373400365S02247475EA0019000171
B1147383400366S02247481EA0018900170
B1147393400367S02247486EA0018900170
B1147403400368S02247493EA0019000171
B1147413400370S02247499EA0019000171
B1147423400371S02247505EA0019000171
B1147433400372S02247511EA0019000171
B1147443400373S02247516EA0018900170
B1147453400374S02247521EA0018900170
B1147463400375S02247527EA0018900170
B1147473400377S02247533EA0019100172
B1147483400378S02247539EA0019300174
B1147493400379S02247544EA0019400175
B1147503400379S02247548EA0019300174
B1147513400379S02247551EA0019100172
B1147523400380S02247554EA0018900170
B1147533400381S02247559EA0018700168
B1147543400382S02247565EA0018700168
B1147553400385S02247571EA0018900170
B1147563400387S02247576EA0019100172
B1147573400389S02247581EA0019200173
B1147583400390S02247586EA0019200173
B1147593400391S02247590EA0019300174
B1148003400392S02247595EA0019300174
B1148013400393S02247600EA0019300174
B1148023400393S02247605EA0019300174
B1148033400394S02247611EA0019500176
B1148043400395S02247616EA0019500176
B1148053400395S02247622EA0019600177
B1148063400396S02247626EA0019600177
B1148073400397S02247631EA0019600177
B1148083400398S02247636EA0019600177
B1148093400398S02247642EA0019600177
B1148103400399S02247647EA0019700178
B1148113400400S02247653EA0019700178
B1148123400402S02247658EA0019700178
B1148133400403S02247663EA0019700178
B1148143400405S02247668EA0019700178
B1148153400406S02247673EA0019800179
B1148163400407S02247678EA0019800179
B1148173400409S02247683EA0019800179
B1148183400409S02247688EA0019800179
B1148193400410S02247694EA0019900180
B1148203400412S02247699EA0019900180
B1148213400413S02247703EA0019900180
B1148223400414S02247708EA0019900180
B1148233400415S02247713EA0019900180
B1148243400417S02247718EA0019800179
B1148253400417S02247722EA0019800179
B1148263400419S02247727EA0019800179
B1148273400420S02247732EA0019800179
B1148283400421S02247737EA0019700178
B1148293400423S02247742EA0019800179
B1148303400425S02247747EA0019900180
B1148313400426S02247752EA0019900180
B1148323400428S02247756EA0019900180
B1148333400429S02247761EA0019900180
B1148343400431S02247765EA0019800179
B1148353400432S02247769EA0019600177
B1148363400433S02247773EA0019600177
B1148373400435S02247778EA0019500176
B1148383400436S02247783EA0019600177
B1148393400437S02247789EA0019800179
B1148403400438S02247794EA0020000181
B1148413400439S02247799EA0020100182
B1148423400442S02247804EA0020300184
B1148433400443S02247809EA0020500186
B1148443400444S02247812EA0020700188
B1148453400445S02247815EA0020900190
B1148463400446S02247818EA0020900190
B1148473400447S02247820EA0020900190
B1148483400448S02247822EA0020900190
B1148493400450S02247823EA0020800189
B1148503400452S02247821EA0020800189
B1148513400453S02247818EA0021100192
B1148523400453S02247814EA0021400195
B1148533400451S02247810EA0021600197
B1148543400449S02247806EA0021800199
B1148553400447S02247802EA0021900200
B1148563400445S02247799EA0021900200
B1148573400444S02247795EA0021900200
B1148583400444S02247791EA0021900200
B1148593400444S02247786EA0022000201
B1149003400445S02247783EA0022100202
B1149013400447S02247781EA0022300204
B1149023400450S02247780EA0022400205
B1149033400453S02247781EA0022500206
B1149043400456S02247782EA0022700207
B1149053400458S02247784EA0022800209
B1149063400460S02247788EA0022800209
B1149073400460S02247793EA0022800209
B1149083400459S02247799EA0022900210
B1149093400456S02247805EA0023100212
B1149103400454S02247812EA0023300214
B1149113400452S02247818EA0023400215
B1149123400451S02247824EA0023400215
B1149133400451S02247829EA0023400215
B1149143400452S02247834EA0023400215
B1149153400454S02247836EA0023300214
B1149163400457S02247837EA0023200213
B1149173400460S02247836EA0023200213
B1149183400462S02247833EA0023300214
B1149193400462S02247831EA0023200213
B1149203400463S02247827EA0023200213
B1149213400462S02247822EA0023200213
B1149223400460S02247818EA0023200213
B1149233400458S02247814EA0023200213
B1149243400455S02247809EA0023200213
B1149253400452S02247803EA0023200213
B1149263400448S02247798EA0023200213
B1149273400443S02247794EA0023400215
B1149283400439S02247788EA0023300214
B1149293400435S02247783EA0023100212
B1149303400433S02247777EA0023100212
B1149313400433S02247772EA0023200213
B1149323400433S02247767EA0023200213
B1149333400433S02247763EA0023100212
B1149343400434S02247761EA0023000211
B1149353400436S02247761EA0022900210
B1149363400441S02247765EA0022800209
B1149373400444S02247769EA0022800209
B1149383400446S02247774EA0022800209
B1149393400447S02247781EA0022800209
B1149403400447S02247788EA0022700208
B1149413400447S02247794EA0022600207
B1149423400447S02247800EA0022500206
B1149433400447S02247807EA0022400204
B1149443400447S02247814EA0022300204
B1149453400447S02247820EA0022300204
B1149463400448S02247827EA0022300204
B1149473400448S02247833EA0022300204
B1149483400448S02247838EA0022200203
B1149493400450S02247845EA0022200203
B1149503400451S02247851EA0022100202
B1149513400452S02247857EA0022200203
B1149523400453S02247861EA0022300204
B1149533400455S02247866EA0022300204
B1149543400457S02247870EA0022400205
B1149553400459S02247875EA0022600207
B1149563400461S02247880EA0022800209
B1149573400463S02247884EA0023000211
B1149583400465S02247889EA0023100212
B1149593400466S02247894EA0023100212
B1150003400467S02247898EA0023200213
B1150013400468S02247904EA0023200213
B1150023400469S02247908EA0023100212
B1150033400470S02247912EA0022900210
B1150043400472S02247915EA0022800209
B1150053400474S02247915EA0022600207
B1150063400476S02247914EA0022500206
B1150073400477S02247911EA0022400205
B1150083400477S02247904EA0022600207
B1150093400476S02247898EA0022700208
B1150103400475S02247893EA0022700208
B1150113400475S02247889EA0022700208
B1150123400475S02247885EA0022700208
B1150133400475S02247881EA0022500206
B1150143400475S02247877EA0022300204
B1150153400475S02247872EA0022200203
B1150163400474S02247866EA0022200203
B1150173400474S02247860EA0022300204
B1150183400473S02247854EA0022500206
B1150193400472S02247849EA0022600207
B1150203400472S02247845EA0022500206
B1150213400470S02247841EA0022400205
B1150223400470S02247838EA0022200203
B1150233400469S02247833EA0022200203
B1150243400469S02247828EA0022300204
B1150253400469S02247822EA0022300204
B1150263400468S02247817EA0022400205
B1150273400468S02247813EA0022300204
B1150283400468S02247809EA0022100202
B1150293400468S02247805EA0022000201
B1150303400468S02247800EA0022000201
B1150313400468S02247794EA0022000201
B1150323400467S02247787EA0022100202
B1150333400466S02247782EA0022000201
B1150343400466S02247777EA0021900200
B1150353400465S02247772EA0021700198
B1150363400465S02247767EA0021600197
B1150373400465S02247762EA0021500196
B1150383400465S02247756EA0021600197
B1150393400467S02247752EA0021600197
B1150403400469S02247749EA0021700198
B1150413400472S02247747EA0021700198
B1150423400475S02247746EA0021700198
B1150433400477S02247744EA0021700198
B1150443400481S02247744EA0021600197
B1150453400485S02247746EA0021700198
B1150463400488S02247747EA0021800199
B1150473400492S02247750EA0021900200
B1150483400495S02247753EA0022000201
B1150493400497S02247757EA0021900200
B1150503400498S02247762EA0021800199
B1150513400499S02247768EA0021800199
B1150523400499S02247774EA0021800199
B1150533400500S02247780EA0021700198
B1150543400501S02247786EA0021600197
B1150553400501S02247792EA0021500196
B1150563400502S02247798EA0021400195
B1150573400501S02247805EA0021300194
B1150583400501S02247812EA0021200193
B1150593400501S02247819EA0021200193
B1151003400501S02247826EA0021100192
B1151013400501S02247833EA0021100192
B1151023400501S02247839EA0021000191
B1151033400501S02247846EA0020900190
B1151043400499S02247853EA0020800189
B1151053400499S02247860EA0020600187
B1151063400498S02247867EA0020500186
B1151073400498S02247874EA0020500186
B1151083400498S02247881EA0020600186
B1151093400497S02247888EA0020700188
B1151103400497S02247894EA0021000191
B1151113400496S02247900EA0021200193
B1151123400496S02247905EA0021400195
B1151133400496S02247910EA0021500196
B1151143400495S02247916EA0021600197
B1151153400494S02247921EA0021700198
B1151163400494S02247927EA0021700198
B1151173400495S02247933EA0021600197
B1151183400497S02247937EA0021500196
B1151193400499S02247939EA0021400195
B1151203400502S02247939EA0021300194
B1151213400504S02247937EA0021200193
B1151223400506S02247934EA0021100192
B1151233400507S02247931EA0020900190
B1151243400506S02247927EA0020700188
B1151253400504S02247922EA0020700188
B1151263400500S02247917EA0020700188
B1151273400496S02247912EA0020800189
B1151283400492S02247908EA0020900190
B1151293400489S02247904EA0021000191
B1151303400486S02247899EA0021200193
B1151313400483S02247894EA0021400195
B1151323400481S02247889EA0021400195
B1151333400480S02247885EA0021300194
B1151343400479S02247882EA0021000191
B1151353400477S02247880EA0020700188
B1151363400477S02247878EA0020400185
B1151373400477S02247876EA0020300184
B1151383400482S02247878EA0020400185
B1151393400486S02247881EA0020400185
B1151403400488S02247884EA0020400185
B1151413400490S02247889EA0020400185
B1151423400490S02247893EA0020300184
B1151433400490S02247899EA0020200183
B1151443400489S02247906EA0020100182
B1151453400489S02247913EA0020000181
B1151463400489S02247919EA0020000181
B1151473400490S02247926EA0020000181
B1151483400490S02247932EA0019900180
B1151493400491S02247937EA0019800179
B1151503400492S02247943EA0019700178
B1151513400493S02247949EA0019700178
B1151523400494S02247954EA0019600177
B1151533400496S02247959EA0019300174
B1151543400499S02247962EA0019100172
B1151553400501S02247963EA0019100172
B1151563400504S02247962EA0019100172
B1151573400506S02247958EA0019100172
B1151583400507S02247954EA0019100172
B1151593400507S02247949EA0019100172
B1152003400506S02247945EA0019100172
B1152013400504S02247939EA0019000171
B1152023400503S02247934EA0018900170
B1152033400501S02247928EA0018900170
B1152043400500S02247923EA0018900170
B1152053400498S02247917EA0019000171
B1152063400497S02247912EA0019000171
B1152073400496S02247906EA0019000171
B1152083400494S02247900EA0018900170
B1152093400492S02247894EA0018900170
B1152103400490S02247888EA0019000171
B1152113400488S02247882EA0018900170
B1152123400486S02247877EA0018900170
B1152133400484S02247872EA0018800169
B1152143400482S02247866EA0018700168
B1152153400480S02247860EA0018700168
B1152163400477S02247854EA0018700168
B1152173400476S02247848EA0018600167
B1152183400473S02247842EA0018500166
B1152193400471S02247835EA0018500166
B1152203400469S02247829EA0018500166
B1152213400467S02247822EA0018500166
B1152223400465S02247815EA0018600167
B1152233400463S02247809EA0018600167
B1152243400461S02247803EA0018700168
B1152253400459S02247796EA0018800169
B1152263400457S02247790EA0018700168
B1152273400455S02247785EA0018700168
B1152283400454S02247779EA0018700168
B1152293400453S02247773EA0018700168
B1152303400452S02247767EA0018800169
B1152313400450S02247761EA0018800169
B1152323400448S02247754EA0018900170
B1152333400445S02247748EA0019000171
B1152343400442S02247742EA0019100172
B1152353400439S02247737EA0019100172
B1152363400436S02247732EA0019100172
B1152373400434S02247727EA0019100172
B1152383400432S02247721EA0019100172
B1152393400431S02247714EA0019200173
B1152403400430S02247708EA0019200173
B1152413400429S02247702EA0019200173
B1152423400428S02247697EA0019300174
B1152433400427S02247691EA0019300174
B1152443400425S02247686EA0019400174
B1152453400424S02247681EA0019300174
B1152463400422S02247677EA0019300174
B1152473400421S02247671EA0019300174
B1152483400420S02247666EA0019300174
B1152493400418S02247659EA0019400175
B1152503400417S02247653EA0019700178
B1152513400415S02247646EA0019800179
B1152523400412S02247640EA0020000181
B1152533400409S02247635EA0020000181
B1152543400406S02247630EA0020100181
B1152553400404S02247626EA0020100182
B1152563400402S02247621EA0020200183
B1152573400401S02247615EA0020300184
B1152583400401S02247611EA0020400185
B1152593400401S02247607EA0020500186
B1153003400402S02247604EA0020500186
B1153013400403S02247601EA0020600187
B1153023400404S02247598EA0020700188
B1153033400406S02247596EA0020700188
B1153043400408S02247596EA0020600187
B1153053400411S02247597EA0020500186
B1153063400414S02247599EA0020600187
B1153073400416S02247602EA0020700188
B1153083400418S02247605EA0020800189
B1153093400418S02247609EA0020800189
B1153103400418S02247614EA0020700188
B1153113400418S02247619EA0020600187
B1153123400417S02247626EA0020500186
B1153133400415S02247632EA0020400185
B1153143400413S02247638EA0020300184
B1153153400412S02247644EA0020300184
B1153163400411S02247651EA0020400185
B1153173400410S02247657EA0020500185
B1153183400410S02247664EA0020700188
B1153193400411S02247669EA0020800188
B1153203400412S02247673EA0020800189
B1153213400413S02247677EA0020800189
B1153223400416S02247678EA0020700188
B1153233400417S02247677EA0020600187
B1153243400419S02247673EA0020500186
B1153253400420S02247670EA0020500186
B1153263400420S02247666EA0020400185
B1153273400420S02247662EA0020300184
B1153283400419S02247658EA0020100182
B1153293400418S02247654EA0020000181
B1153303400415S02247649EA0019900180
B1153313400413S02247644EA0019900180
B1153323400410S02247639EA0019900180
B1153333400406S02247634EA0019800179
B1153343400403S02247629EA0019700178
B1153353400400S02247624EA0019600177
B1153363400398S02247618EA0019500176
B1153373400396S02247612EA0019500176
B1153383400395S02247607EA0019500176
B1153393400394S02247603EA0019400175
B1153403400394S02247598EA0019400175
B1153413400394S02247594EA0019300174
B1153423400395S02247591EA0019300174
B1153433400395S02247587EA0019200173
B1153443400396S02247584EA0019100172
B1153453400398S02247582EA0019100172
B1153463400400S02247579EA0019100172
B1153473400402S02247577EA0019000171
B1153483400404S02247574EA0019100172
B1153493400406S02247571EA0019100172
B1153503400409S02247569EA0019100172
B1153513400411S02247567EA0019100172
B1153523400413S02247566EA0019100172
B1153533400416S02247565EA0019000171
B1153543400419S02247565EA0019000171
B1153553400422S02247564EA0018900170
B1153563400425S02247563EA0019000171
B1153573400428S02247563EA0019000171
B1153583400431S02247562EA0019100172
B1153593400433S02247559EA0019000171
B1154003400435S02247557EA0019000171
B1154013400436S02247554EA0019000171
B1154023400438S02247550EA0019100172
B1154033400439S02247546EA0019200173
B1154043400439S02247541EA0019300174
B1154053400437S02247535EA0019400175
B1154063400433S02247530EA0019500176
B1154073400428S02247526EA0019700178
B1154083400423S02247523EA0019800179
B1154093400417S02247521EA0019900180
B1154103400411S02247521EA0020000181
B1154113400405S02247523EA0020000181
B1154123400400S02247526EA0020200183
B1154133400396S02247531EA0020300184
B1154143400393S02247538EA0020500186
B1154153400392S02247544EA0020600187
B1154163400393S02247550EA0020800189
B1154173400396S02247554EA0020900190
B1154183400398S02247557EA0021000191
B1154193400401S02247559EA0021100192
B1154203400404S02247561EA0021100192
B1154213400406S02247562EA0021100192
B1154223400409S02247562EA0021100192
B1154233400412S02247562EA0021000191
B1154243400415S02247561EA0021000191
B1154253400417S02247557EA0021100192
B1154263400419S02247551EA0021200193
B1154273400419S02247546EA0021300194
B1154283400417S02247540EA0021300194
B1154293400414S02247534EA0021400195
B1154303400410S02247529EA0021300194
B1154313400404S02247525EA0021300194
B1154323400398S02247521EA0021300194
B1154333400391S02247520EA0021300194
B1154343400385S02247520EA0021400195
B1154353400378S02247524EA0021500196
B1154363400372S02247528EA0021600197
B1154373400368S02247533EA0021700198
B1154383400365S02247539EA0021800199
B1154393400363S02247545EA0021900200
B1154403400363S02247551EA0022000201
B1154413400363S02247555EA0022200203
B1154423400365S02247559EA0022300204
B1154433400367S02247562EA0022400205
B1154443400370S02247563EA0022500206
B1154453400373S02247564EA0022600207
B1154463400375S02247564EA0022700208
B1154473400377S02247563EA0022800209
B1154483400379S02247562EA0022800209
B1154493400381S02247559EA0022800209
B1154503400382S02247554EA0022700208
B1154513400381S02247547EA0022600207
B1154523400378S02247541EA0022500206
B1154533400372S02247535EA0022300204
B1154543400366S02247530EA0022200203
B1154553400358S02247529EA0022100202
B1154563400350S02247531EA0021900200
B1154573400343S02247535EA0021800199
B1154583400338S02247540EA0021800199
B1154593400335S02247549EA0022000201
B1155003400334S02247557EA0022200203
B1155013400335S02247563EA0022500205
B1155023400336S02247568EA0022600207
B1155033400338S02247573EA0022700208
B1155043400340S02247576EA0022900210
B1155053400341S02247579EA0023000211
B1155063400343S02247581EA0023100212
B1155073400345S02247583EA0023300214
B1155083400348S02247584EA0023300214
B1155093400350S02247584EA0023300214
B1155103400352S02247584EA0023300214
B1155113400354S02247584EA0023400215
B1155123400356S02247582EA0023400215
B1155133400359S02247580EA0023500216
B1155143400360S02247579EA0023500216
B1155153400363S02247577EA0023600217
B1155163400365S02247575EA0023700218
B1155173400367S02247573EA0023900220
B1155183400370S02247571EA0024100222
B1155193400372S02247570EA0024200223
B1155203400374S02247569EA0024300224
B1155213400377S02247568EA0024500226
B1155223400380S02247567EA0024600227
B1155233400383S02247567EA0024700228
B1155243400386S02247566EA0025000231
B1155253400390S02247566EA0025300234
B1155263400392S02247565EA0025400235
B1155273400394S02247564EA0025400235
B1155283400396S02247564EA0025400235
B1155293400398S02247564EA0025300234
B1155303400400S02247563EA0025200233
B1155313400402S02247561EA0025100232
B1155323400403S02247557EA0024900230
B1155333400403S02247552EA0024900230
B1155343400400S02247544EA0024900230
B1155353400394S02247538EA0025000231
B1155363400387S02247534EA0025000231
B1155373400379S02247532EA0024900230
B1155383400371S02247531EA0024800229
B1155393400363S02247533EA0024900230
B1155403400355S02247535EA0025000231
B1155413400348S02247538EA0025200233
B1155423400343S02247543EA0025200233
B1155433400339S02247549EA0025300234
B1155443400340S02247555EA0025400235
B1155453400341S02247560EA0025400235
B1155463400342S02247563EA0025400235
B1155473400343S02247566EA0025300234
B1155483400345S02247567EA0025100232
B1155493400348S02247569EA0025000231
B1155503400351S02247570EA0025000231
B1155513400354S02247570EA0025000231
B1155523400356S02247571EA0025000231
B1155533400359S02247571EA0024900230
B1155543400362S02247571EA0024900230
B1155553400364S02247572EA0024900230
B1155563400366S02247573EA0024900230
B1155573400368S02247573EA0024800229
B1155583400370S02247574EA0024700228
B1155593400372S02247574EA0024500226
B1156003400374S02247573EA0024400225
B1156013400377S02247572EA0024300224
B1156023400379S02247570EA0024300224
B1156033400381S02247568EA0024200223
B1156043400384S02247565EA0024200223
B1156053400386S02247562EA0024100222
B1156063400388S02247559EA0024000221
B1156073400391S02247556EA0024000221
B1156083400393S02247554EA0024000221
B1156093400396S02247552EA0023900220
B1156103400398S02247551EA0023800219
B1156113400401S02247551EA0023600217
B1156123400404S02247551EA0023600217
B1156133400406S02247551EA0023500216
B1156143400409S02247551EA0023500216
B1156153400412S02247553EA0023500216
B1156163400414S02247554EA0023500216
B1156173400416S02247555EA0023400215
B1156183400418S02247557EA0023400215
B1156193400420S02247561EA0023200213
B1156203400421S02247564EA0023100212
B1156213400422S02247568EA0023100212
B1156223400424S02247573EA0023100212
B1156233400425S02247577EA0023100212
B1156243400427S02247581EA0023000211
B1156253400428S02247585EA0023200213
B1156263400430S02247590EA0023200213
B1156273400432S02247594EA0023200213
B1156283400433S02247598EA0023200213
B1156293400434S02247602EA0023300214
B1156303400436S02247605EA0023200213
B1156313400437S02247609EA0023000211
B1156323400439S02247613EA0023000211
B1156333400441S02247617EA0023100212
B1156343400443S02247621EA0023100212
B1156353400445S02247624EA0023100212
B1156363400447S02247626EA0023100212
B1156373400448S02247630EA0023000211
B1156383400450S02247633EA0023000211
B1156393400452S02247637EA0023000211
B1156403400454S02247640EA0023000211
B1156413400456S02247644EA0022900210
B1156423400458S02247647EA0022800209
B1156433400460S02247652EA0023000211
B1156443400461S02247657EA0023200213
B1156453400464S02247662EA0023300214
B1156463400466S02247666EA0023500216
B1156473400468S02247670EA0023700218
B1156483400470S02247674EA0023800219
B1156493400472S02247677EA0023800219
B1156503400475S02247681EA0023900220
B1156513400476S02247685EA0024000221
B1156523400478S02247688EA0024200223
B1156533400480S02247692EA0024300224
B1156543400481S02247695EA0024300224
B1156553400484S02247697EA0024400225
B1156563400486S02247699EA0024300224
B1156573400488S02247699EA0024200223
B1156583400491S02247697EA0024100222
B1156593400493S02247694EA0024000221
B1157003400494S02247689EA0024000221
B1157013400494S02247684EA0024000221
B1157023400493S02247677EA0023900220
B1157033400490S02247672EA0023900220
B1157043400486S02247667EA0023800219
B1157053400480S02247662EA0023800219
B1157063400474S02247658EA0023700218
B1157073400468S02247656EA0023700218
B1157083400461S02247657EA0023700218
B1157093400454S02247660EA0023700218
B1157103400448S02247664EA0023700218
B1157113400443S02247669EA0023800219
B1157123400439S02247674EA0023900220
B1157133400438S02247681EA0023900220
B1157143400436S02247688EA0024000221
B1157153400435S02247694EA0024100222
B1157163400434S02247700EA0024100222
B1157173400432S02247706EA0024100222
B1157183400432S02247712EA0024100222
B1157193400432S02247718EA0024100222
B1157203400432S02247725EA0024200223
B1157213400433S02247730EA0024200223
B1157223400434S02247735EA0024000221
B1157233400435S02247740EA0023900220
B1157243400436S02247744EA0023600217
B1157253400437S02247750EA0023400215
B1157263400437S02247756EA0023200213
B1157273400438S02247761EA0023200213
B1157283400439S02247767EA0023200213
B1157293400440S02247771EA0023200213
B1157303400442S02247776EA0023100212
B1157313400442S02247781EA0023000211
B1157323400443S02247785EA0023000211
B1157333400443S02247790EA0022900210
B1157343400444S02247794EA0022700208
B1157353400445S02247798EA0022500206
B1157363400447S02247801EA0022300204
B1157373400449S02247803EA0022300204
B1157383400451S02247802EA0022300204
B1157393400454S02247798EA0022200203
B1157403400455S02247792EA0022300204
B1157413400457S02247786EA0022200203
B1157423400458S02247780EA0022100202
B1157433400459S02247775EA0022000201
B1157443400460S02247769EA0021900200
B1157453400460S02247763EA0022000201
B1157463400460S02247756EA0022000201
B1157473400459S02247750EA0022000201
B1157483400458S02247744EA0021900200
B1157493400458S02247739EA0021700198
B1157503400457S02247733EA0021600197
B1157513400457S02247726EA0021500196
B1157523400456S02247719EA0021500196
B1157533400455S02247712EA0021600197
B1157543400453S02247706EA0021700198
B1157553400452S02247700EA0021700198
B1157563400450S02247694EA0021600197
B1157573400447S02247689EA0021600197
B1157583400443S02247683EA0021600197
B1157593400440S02247677EA0021600197
B1158003400437S02247670EA0021500196
B1158013400436S02247664EA0021500196
B1158023400434S02247657EA0021400195
B1158033400433S02247650EA0021400195
B1158043400432S02247643EA0021400195
B1158053400431S02247635EA0021300194
B1158063400429S02247628EA0021400195
B1158073400428S02247622EA0021400195
B1158083400427S02247617EA0021400195
B1158093400427S02247612EA0021400195
B1158103400427S02247606EA0021300194
B1158113400428S02247600EA0021400195
B1158123400429S02247594EA0021600197
B1158133400431S02247589EA0021700198
B1158143400433S02247584EA0021900200
B1158153400435S02247579EA0022000201
B1158163400438S02247575EA0022100202
B1158173400442S02247571EA0022200203
B1158183400445S02247567EA0022400205
B1158193400448S02247564EA0022400205
B1158203400451S02247561EA0022500206
B1158213400455S02247559EA0022700207
B1158223400458S02247557EA0022800209
B1158233400461S02247555EA0022900210
B1158243400464S02247555EA0023000211
B1158253400467S02247554EA0023100212
B1158263400470S02247554EA0023300214
B1158273400474S02247554EA0023500216
B1158283400477S02247555EA0023700218
B1158293400479S02247555EA0023700218
B1158303400482S02247559EA0023900220
B1158313400484S02247562EA0024100222
B1158323400482S02247569EA0024200223
B1158333400479S02247576EA0024200223
B1158343400474S02247582EA0024300224
B1158353400468S02247586EA0024400225
B1158363400461S02247589EA0024600227
B1158373400453S02247587EA0024900230
B1158383400447S02247585EA0025200233
B1158393400441S02247582EA0025300234
B1158403400437S02247577EA0025400235
B1158413400434S02247571EA0025400235
B1158423400433S02247564EA0025500236
B1158433400433S02247557EA0025700238
B1158443400434S02247551EA0025800239
B1158453400436S02247547EA0025900240
B1158463400438S02247543EA0026000241
B1158473400440S02247539EA0026100242
B1158483400443S02247535EA0026200243
B1158493400447S02247532EA0026500246
B1158503400450S02247530EA0026700248
B1158513400453S02247528EA0026700248
B1158523400455S02247528EA0026600247
B1158533400457S02247528EA0026400245
B1158543400459S02247530EA0026200243
B1158553400461S02247532EA0026100242
B1158563400463S02247536EA0026000241
B1158573400465S02247541EA0025900240
B1158583400465S02247548EA0025900240
B1158593400463S02247555EA0026000241
B1159003400459S02247562EA0026100242
B1159013400454S02247568EA0026200243
B1159023400450S02247573EA0026200243
B1159033400444S02247577EA0026100242
B1159043400437S02247580EA0026200243
B1159053400429S02247582EA0026300244
B1159063400421S02247582EA0026300244
B1159073400413S02247581EA0026400245
B1159083400405S02247578EA0026500246
B1159093400398S02247575EA0026600247
B1159103400392S02247571EA0026700248
B1159113400386S02247566EA0026800249
B1159123400380S02247561EA0027100252
B1159133400376S02247555EA0027300254
B1159143400372S02247550EA0027400255
B1159153400370S02247544EA0027500256
B1159163400370S02247538EA0027600257
B1159173400370S02247532EA0027800259
B1159183400370S02247526EA0028000261
B1159193400371S02247521EA0028100262
B1159203400372S02247517EA0028100262
B1159213400374S02247515EA0028000261
B1159223400377S02247514EA0028000261
B1159233400380S02247514EA0027900260
B1159243400382S02247517EA0027800259
B1159253400385S02247521EA0027700258
B1159263400387S02247525EA0027700258
B1159273400387S02247532EA0027800259
B1159283400388S02247538EA0028000261
B1159293400387S02247544EA0028100262
B1159303400386S02247550EA0028100262
B1159313400383S02247556EA0028000261
B1159323400379S02247561EA0028000261
B1159333400373S02247565EA0028100262
B1159343400366S02247569EA0028100262
B1159353400359S02247569EA0028100262
B1159363400350S02247567EA0028200263
B1159373400343S02247565EA0028400265
B1159383400336S02247562EA0028500266
B1159393400329S02247559EA0028500266
B1159403400323S02247554EA0028400265
B1159413400318S02247549EA0028200263
B1159423400316S02247542EA0028200263
B1159433400315S02247535EA0028300264
B1159443400315S02247529EA0028400265
B1159453400315S02247525EA0028500266
B1159463400316S02247522EA0028500266
B1159473400316S02247520EA0028400265
B1159483400316S02247518EA0028300264
B1159493400316S02247516EA0028100262
B1159503400316S02247514EA0028000261
B1159513400317S02247512EA0027800259
B1159523400319S02247510EA0027600257
B1159533400321S02247508EA0027500256
B1159543400323S02247506EA0027400255
B1159553400326S02247504EA0027400255
B1159563400328S02247501EA0027400255
B1159573400330S02247498EA0027300254
B1159583400333S02247495EA0027200253
B1159593400336S02247493EA0027000251
B1200003400339S02247490EA0026900250
B1200013400343S02247488EA0027000251
B1200023400347S02247485EA0027000251
B1200033400349S02247483EA0026900250
B1200043400353S02247481EA0026900250
B1200053400356S02247480EA0026900250
B1200063400360S02247479EA0026900250
B1200073400363S02247477EA0027000251
B1200083400367S02247474EA0027200252
B1200093400370S02247472EA0027300254
B1200103400373S02247470EA0027300254
B1200113400376S02247468EA0027200253
B1200123400379S02247467EA0027200253
B1200133400382S02247466EA0027200253
B1200143400385S02247465EA0027200253
B1200153400388S02247462EA0027400255
B1200163400392S02247460EA0027600257
B1200173400394S02247458EA0027700258
B1200183400396S02247457EA0027800259
B1200193400398S02247455EA0027800259
B1200203400399S02247454EA0027700258
B1200213400400S02247451EA0027500256
B1200223400402S02247448EA0027400255
B1200233400404S02247446EA0027500256
B1200243400407S02247443EA0027500256
B1200253400409S02247441EA0027500256
B1200263400412S02247438EA0027600257
B1200273400415S02247435EA0027600257
B1200283400418S02247433EA0027700258
B1200293400421S02247430EA0027700258
B1200303400424S02247428EA0028000261
B1200313400425S02247426EA0028100262
B1200323400427S02247424EA0028000261
B1200333400429S02247424EA0027900260
B1200343400432S02247425EA0027800259
B1200353400435S02247427EA0027800259
B1200363400438S02247430EA0027900260
B1200373400440S02247433EA0028000261
B1200383400442S02247436EA0028000261
B1200393400444S02247440EA0028000261
B1200403400445S02247445EA0028000261
B1200413400446S02247450EA0028000261
B1200423400444S02247457EA0028000261
B1200433400442S02247463EA0028100262
B1200443400439S02247470EA0028100262
B1200453400434S02247475EA0028200263
B1200463400429S02247480EA0028200263
B1200473400424S02247484EA0028300264
B1200483400417S02247485EA0028200263
B1200493400410S02247486EA0028000261
B1200503400402S02247486EA0027800259
B1200513400396S02247483EA0027700258
B1200523400390S02247480EA0027600257
B1200533400385S02247476EA0027500256
B1200543400381S02247471EA0027500255
B1200553400378S02247466EA0027400255
B1200563400376S02247460EA0027500256
B1200573400374S02247455EA0027600257
B1200583400374S02247450EA0027800259
B1200593400373S02247446EA0027900260
B1201003400372S02247443EA0027800259
B1201013400371S02247439EA0027600257
B1201023400371S02247435EA0027500256
B1201033400372S02247429EA0027400255
B1201043400373S02247424EA0027500256
B1201053400374S02247418EA0027700258
B1201063400374S02247413EA0027800259
B1201073400374S02247409EA0027700258
B1201083400373S02247405EA0027600257
B1201093400372S02247400EA0027400255
B1201103400371S02247394EA0027300254
B1201113400371S02247387EA0027300254
B1201123400370S02247381EA0027400255
B1201133400368S02247376EA0027500256
B1201143400367S02247371EA0027400255
B1201153400366S02247366EA0027400255
B1201163400366S02247362EA0027300254
B1201173400365S02247357EA0027300254
B1201183400364S02247352EA0027300254
B1201193400363S02247346EA0027300254
B1201203400361S02247341EA0027200253
B1201213400360S02247336EA0027200253
B1201223400359S02247331EA0027100252
B1201233400358S02247325EA0027100252
B1201243400356S02247319EA0027100252
B1201253400355S02247314EA0027100252
B1201263400354S02247308EA0027100252
B1201273400353S02247303EA0027000251
B1201283400352S02247298EA0026900250
B1201293400352S02247293EA0026900250
B1201303400352S02247288EA0026800249
B1201313400352S02247282EA0026800249
B1201323400353S02247277EA0026800249
B1201333400353S02247272EA0026800249
B1201343400354S02247268EA0026700248
B1201353400355S02247264EA0026600247
B1201363400357S02247262EA0026600247
B1201373400360S02247260EA0026600247
B1201383400363S02247260EA0026600247
B1201393400366S02247260EA0026600247
B1201403400369S02247262EA0026500246
B1201413400372S02247264EA0026400245
B1201423400375S02247266EA0026300244
B1201433400377S02247270EA0026300244
B1201443400380S02247274EA0026400245
B1201453400381S02247278EA0026300244
B1201463400382S02247283EA0026200243
B1201473400384S02247289EA0026200243
B1201483400385S02247294EA0026300244
B1201493400385S02247300EA0026300244
B1201503400385S02247305EA0026300244
B1201513400385S02247310EA0026400245
B1201523400383S02247315EA0026400245
B1201533400380S02247320EA0026300244
B1201543400377S02247325EA0026300244
B1201553400372S02247330EA0026300244
B1201563400367S02247334EA0026300244
B1201573400363S02247339EA0026400245
B1201583400361S02247344EA0026500246
B1201593400360S02247350EA0026600247
B1202003400359S02247354EA0026800249
B1202013400358S02247359EA0026900250
B1202023400358S02247364EA0027000251
B1202033400357S02247369EA0027000251
B1202043400356S02247374EA0027000251
B1202053400355S02247379EA0026900250
B1202063400355S02247383EA0026800249
B1202073400356S02247386EA0026700248
B1202083400358S02247389EA0026600247
B1202093400359S02247389EA0026600247
B1202103400361S02247388EA0026500246
B1202113400363S02247384EA0026500246
B1202123400365S02247379EA0026400245
B1202133400366S02247374EA0026400245
B1202143400366S02247369EA0026300244
B1202153400365S02247363EA0026200243
B1202163400361S02247357EA0026100242
B1202173400357S02247351EA0026000241
B1202183400351S02247346EA0025900240
B1202193400344S02247342EA0025800239
B1202203400337S02247339EA0025800239
B1202213400328S02247340EA0025800239
B1202223400320S02247342EA0026000241
B1202233400314S02247344EA0026100242
B1202243400309S02247349EA0026200242
B1202253400306S02247355EA0026100242
B1202263400303S02247359EA0026100242
B1202273400301S02247364EA0026000241
B1202283400301S02247367EA0025900240
B1202293400301S02247371EA0025800239
B1202303400302S02247374EA0025700238
B1202313400304S02247377EA0025600237
B1202323400307S02247379EA0025500236
B1202333400310S02247381EA0025400235
B1202343400314S02247382EA0025400235
B1202353400317S02247384EA0025500236
B1202363400320S02247386EA0025500236
B1202373400323S02247388EA0025500236
B1202383400327S02247388EA0025500236
B1202393400331S02247387EA0025400235
B1202403400334S02247387EA0025400235
B1202413400337S02247386EA0025400235
B1202423400341S02247386EA0025400235
B1202433400344S02247386EA0025400235
B1202443400347S02247386EA0025400235
B1202453400349S02247386EA0025400235
B1202463400352S02247386EA0025300234
B1202473400354S02247387EA0025100232
B1202483400356S02247387EA0025000231
B1202493400359S02247386EA0024900230
B1202503400362S02247385EA0024900230
B1202513400365S02247383EA0024900230
B1202523400367S02247381EA0024900230
B1202533400370S02247377EA0024900230
B1202543400373S02247374EA0025000231
B1202553400375S02247371EA0025100232
B1202563400378S02247367EA0025100232
B1202573400380S02247363EA0025200233
B1202583400382S02247360EA0025100232
B1202593400384S02247356EA0025100232
B1203003400386S02247352EA0025100232
B1203013400389S02247349EA0025200233
B1203023400392S02247345EA0025200233
B1203033400395S02247343EA0025100232
B1203043400397S02247341EA0025000231
B1203053400400S02247338EA0024900230
B1203063400402S02247336EA0024800229
B1203073400406S02247335EA0024800229
B1203083400409S02247334EA0024800229
B1203093400412S02247334EA0024900230
B1203103400415S02247335EA0025000231
B1203113400417S02247336EA0025100232
B1203123400419S02247337EA0025100232
B1203133400421S02247337EA0025000231
B1203143400422S02247339EA0024800229
B1203153400424S02247341EA0024700228
B1203163400426S02247344EA0024800228
B1203173400427S02247349EA0024900229
B1203183400427S02247354EA0025000231
B1203193400426S02247358EA0025100232
B1203203400425S02247362EA0025000231
B1203213400421S02247366EA0024800229
B1203223400417S02247371EA0024800229
B1203233400412S02247376EA0024700228
B1203243400407S02247379EA0024600227
B1203253400399S02247380EA0024600227
B1203263400392S02247379EA0024600227
B1203273400385S02247377EA0024600227
B1203283400378S02247374EA0024500226
B1203293400371S02247371EA0024300224
B1203303400365S02247365EA0024200223
B1203313400358S02247360EA0024300224
B1203323400354S02247352EA0024500225
B1203333400351S02247344EA0024500226
B1203343400348S02247338EA0024400225
B1203353400346S02247332EA0024400225
B1203363400344S02247326EA0024300224
B1203373400344S02247320EA0024200223
B1203383400344S02247313EA0024100222
B1203393400345S02247306EA0024100222
B1203403400346S02247300EA0024100222
B1203413400347S02247294EA0024100222
B1203423400347S02247289EA0023900220
B1203433400349S02247284EA0023800219
B1203443400350S02247279EA0023700218
B1203453400352S02247275EA0023600217
B1203463400355S02247272EA0023600217
B1203473400360S02247272EA0023600217
B1203483400363S02247271EA0023700218
B1203493400367S02247271EA0023600217
B1203503400369S02247271EA0023600217
B1203513400373S02247271EA0023600217
B1203523400375S02247272EA0023500216
B1203533400378S02247273EA0023300214
B1203543400381S02247274EA0023300214
B1203553400385S02247275EA0023300214
B1203563400388S02247275EA0023400215
B1203573400390S02247276EA0023400215
B1203583400393S02247278EA0023300214
B1203593400395S02247279EA0023200212
B1204003400398S02247281EA0023100212
B1204013400400S02247283EA0023100212
B1204023400403S02247285EA0023100212
B1204033400405S02247287EA0023100212
B1204043400408S02247289EA0023000211
B1204053400410S02247290EA0022900210
B1204063400413S02247290EA0022900210
B1204073400417S02247291EA0022900210
B1204083400420S02247293EA0022900210
B1204093400423S02247294EA0023000211
B1204103400426S02247295EA0023100212
B1204113400429S02247296EA0023100212
B1204123400431S02247297EA0023000211
B1204133400434S02247297EA0022900210
B1204143400436S02247299EA0022900210
B1204153400438S02247300EA0022900210
B1204163400440S02247302EA0022800209
B1204173400442S02247303EA0022700208
B1204183400444S02247304EA0022700208
B1204193400446S02247305EA0022500206
B1204203400448S02247307EA0022400205
B1204213400451S02247308EA0022200203
B1204223400454S02247309EA0022100202
B1204233400457S02247310EA0022000201
B1204243400460S02247311EA0021900200
B1204253400463S02247312EA0021700198
B1204263400466S02247313EA0021600197
B1204273400469S02247315EA0021500196
B1204283400473S02247317EA0021500196
B1204293400475S02247321EA0021400195
B1204303400476S02247324EA0021200193
B1204313400477S02247328EA0021100192
B1204323400477S02247333EA0020800189
B1204333400477S02247338EA0020700188
B1204343400475S02247344EA0020600187
B1204353400473S02247350EA0020700188
B1204363400472S02247355EA0020800189
B1204373400470S02247359EA0020900190
B1204383400468S02247364EA0021000191
B1204393400467S02247368EA0021000191
B1204403400466S02247372EA0020900190
B1204413400465S02247377EA0020800189
B1204423400464S02247382EA0020700188
B1204433400462S02247388EA0020800189
B1204443400461S02247393EA0020900190
B1204453400458S02247398EA0021100192
B1204463400455S02247402EA0021200193
B1204473400453S02247406EA0021200193
B1204483400449S02247411EA0021200193
B1204493400445S02247415EA0021200193
B1204503400440S02247420EA0021300194
B1204513400435S02247424EA0021300194
B1204523400429S02247428EA0021300194
B1204533400423S02247432EA0021300194
B1204543400415S02247434EA0021300194
B1204553400408S02247434EA0021300194
B1204563400401S02247435EA0021300194
B1204573400394S02247434EA0021300194
B1204583400387S02247433EA0021300194
B1204593400380S02247430EA0021200193
B1205003400374S02247427EA0021200193
B1205013400368S02247422EA0021200193
B1205023400364S02247415EA0021200193
B1205033400362S02247407EA0021100192
B1205043400361S02247400EA0021200193
B1205053400362S02247393EA0021300194
B1205063400363S02247387EA0021500196
B1205073400363S02247382EA0021500196
B1205083400364S02247377EA0021500196
B1205093400364S02247373EA0021500196
B1205103400365S02247368EA0021500196
B1205113400366S02247362EA0021600197
B1205123400367S02247357EA0021600197
B1205133400369S02247353EA0021700198
B1205143400371S02247348EA0021900199
B1205153400374S02247346EA0022000201
B1205163400377S02247345EA0022000201
B1205173400381S02247345EA0022000201
B1205183400384S02247346EA0022100202
B1205193400386S02247349EA0022100202
B1205203400384S02247358EA0022100202
B1205213400382S02247364EA0022200203
B1205223400380S02247369EA0022300204
B1205233400378S02247374EA0022300204
B1205243400376S02247379EA0022300204
B1205253400373S02247384EA0022300204
B1205263400368S02247390EA0022300203
B1205273400362S02247394EA0022200203
B1205283400352S02247394EA0022200203
B1205293400343S02247392EA0022300204
B1205303400336S02247389EA0022400205
B1205313400329S02247384EA0022500206
B1205323400323S02247380EA0022500206
B1205333400319S02247375EA0022500206
B1205343400315S02247369EA0022400205
B1205353400313S02247362EA0022400205
B1205363400313S02247355EA0022400205
B1205373400313S02247349EA0022500206
B1205383400314S02247344EA0022500206
B1205393400315S02247340EA0022600207
B1205403400316S02247336EA0022600207
B1205413400318S02247333EA0022600207
B1205423400321S02247330EA0022700208
B1205433400324S02247328EA0022900210
B1205443400326S02247326EA0023100212
B1205453400329S02247324EA0023300214
B1205463400330S02247323EA0023400215
B1205473400331S02247321EA0023300214
B1205483400332S02247318EA0023300214
B1205493400332S02247313EA0023200213
B1205503400330S02247307EA0023300214
B1205513400326S02247301EA0023400215
B1205523400321S02247295EA0023500216
B1205533400314S02247291EA0023600217
B1205543400307S02247288EA0023700218
B1205553400301S02247287EA0023700218
B1205563400293S02247290EA0023800219
B1205573400287S02247292EA0023900220
B1205583400282S02247295EA0023900220
B1205593400278S02247300EA0023900220
B1206003400275S02247305EA0023900220
B1206013400274S02247310EA0023900220
B1206023400274S02247314EA0023900220
B1206033400274S02247317EA0023900220
B1206043400275S02247320EA0023900220
B1206053400276S02247322EA0023900220
B1206063400278S02247324EA0023900220
B1206073400280S02247326EA0023900220
B1206083400283S02247327EA0024000221
B1206093400285S02247329EA0024000221
B1206103400287S02247330EA0023800219
B1206113400289S02247331EA0023600217
B1206123400291S02247333EA0023600217
B1206133400293S02247334EA0023600217
B1206143400295S02247336EA0023600217
B1206153400298S02247337EA0023700218
B1206163400300S02247337EA0023700218
B1206173400302S02247335EA0023600217
B1206183400303S02247333EA0023500216
B1206193400306S02247329EA0023400215
B1206203400308S02247325EA0023300214
B1206213400310S02247322EA0023400215
B1206223400312S02247319EA0023400215
B1206233400315S02247317EA0023400215
B1206243400317S02247316EA0023400215
B1206253400319S02247316EA0023400215
B1206263400320S02247317EA0023400215
B1206273400322S02247319EA0023400215
B1206283400324S02247321EA0023400215
B1206293400326S02247323EA0023500216
B1206303400328S02247325EA0023700218
B1206313400330S02247327EA0023900220
B1206323400332S02247329EA0024000221
B1206333400334S02247330EA0024200223
B1206343400336S02247331EA0024300224
B1206353400338S02247332EA0024400225
B1206363400340S02247331EA0024600227
B1206373400343S02247329EA0024800229
B1206383400344S02247324EA0025000231
B1206393400343S02247318EA0025100232
B1206403400340S02247313EA0025200233
B1206413400334S02247308EA0025300234
B1206423400327S02247305EA0025500236
B1206433400320S02247305EA0025500236
B1206443400312S02247307EA0025500236
B1206453400307S02247311EA0025400235
B1206463400303S02247316EA0025600236
B1206473400300S02247322EA0025700238
B1206483400299S02247327EA0025800239
B1206493400299S02247332EA0026000241
B1206503400298S02247337EA0026200243
B1206513400298S02247342EA0026300244
B1206523400298S02247346EA0026400245
B1206533400298S02247351EA0026500246
B1206543400298S02247354EA0026600247
B1206553400300S02247356EA0026700248
B1206563400302S02247358EA0026800249
B1206573400303S02247360EA0026900250
B1206583400305S02247361EA0026900249
B1206593400307S02247362EA0026800249
B1207003400309S02247363EA0027000251
B1207013400312S02247364EA0027100252
B1207023400314S02247364EA0027300254
B1207033400316S02247364EA0027400255
B1207043400318S02247364EA0027500256
B1207053400319S02247364EA0027400255
B1207063400321S02247364EA0027400255
B1207073400323S02247364EA0027400255
B1207083400325S02247364EA0027500256
B1207093400327S02247362EA0027400255
B1207103400330S02247361EA0027400255
B1207113400332S02247359EA0027300254
B1207123400334S02247357EA0027300254
B1207133400336S02247355EA0027300254
B1207143400338S02247352EA0027400255
B1207153400341S02247349EA0027500256
B1207163400343S02247346EA0027500256
B1207173400344S02247343EA0027500256
B1207183400344S02247339EA0027400255
B1207193400344S02247335EA0027400255
B1207203400341S02247329EA0027400255
B1207213400337S02247323EA0027500256
B1207223400333S02247318EA0027500256
B1207233400327S02247314EA0027600257
B1207243400321S02247313EA0027700258
B1207253400315S02247316EA0027800259
B1207263400309S02247319EA0027700258
B1207273400304S02247322EA0027600257
B1207283400299S02247326EA0027400255
B1207293400295S02247334EA0027400255
B1207303400293S02247342EA0027400255
B1207313400291S02247349EA0027400255
B1207323400291S02247356EA0027400255
B1207333400291S02247361EA0027400255
B1207343400292S02247366EA0027200253
B1207353400293S02247370EA0027100252
B1207363400294S02247374EA0027000251
B1207373400295S02247377EA0026900250
B1207383400297S02247379EA0026800249
B1207393400299S02247381EA0026700248
B1207403400301S02247382EA0026600247
B1207413400303S02247382EA0026600247
B1207423400305S02247383EA0026400245
B1207433400307S02247383EA0026400245
B1207443400310S02247382EA0026300244
B1207453400312S02247381EA0026200243
B1207463400315S02247381EA0026100242
B1207473400317S02247379EA0026000241
B1207483400320S02247378EA0025900240
B1207493400322S02247377EA0025700238
B1207503400324S02247375EA0025500236
B1207513400326S02247372EA0025400235
B1207523400327S02247368EA0025300234
B1207533400329S02247364EA0025200233
B1207543400330S02247359EA0025000231
B1207553400331S02247354EA0024800229
B1207563400332S02247350EA0024700228
B1207573400333S02247344EA0024600227
B1207583400334S02247340EA0024600227
B1207593400335S02247336EA0024600227
B1208003400336S02247332EA0024500226
B1208013400337S02247327EA0024400225
B1208023400337S02247322EA0024300224
B1208033400337S02247317EA0024400225
B1208043400336S02247311EA0024600227
B1208053400335S02247306EA0024600227
B1208063400334S02247301EA0024500226
B1208073400333S02247296EA0024500226
B1208083400332S02247291EA0024600227
B1208093400331S02247286EA0024600227
B1208103400331S02247280EA0024700228
B1208113400329S02247274EA0024800229
B1208123400327S02247268EA0024900230
B1208133400325S02247262EA0025100232
B1208143400322S02247256EA0025200233
B1208153400318S02247251EA0025400235
B1208163400314S02247246EA0025700238
B1208173400310S02247240EA0025800239
B1208183400306S02247235EA0025800239
B1208193400304S02247229EA0025700238
B1208203400303S02247222EA0025800239
B1208213400303S02247217EA0025800239
B1208223400304S02247212EA0025800239
B1208233400304S02247207EA0025600237
B1208243400305S02247203EA0025500236
B1208253400308S02247200EA0025600237
B1208263400311S02247199EA0025600237
B1208273400314S02247200EA0025700238
B1208283400317S02247201EA0025900240
B1208293400320S02247203EA0026000241
B1208303400321S02247205EA0026000241
B1208313400321S02247208EA0026100242
B1208323400321S02247212EA0026200243
B1208333400320S02247216EA0026300244
B1208343400318S02247220EA0026500246
B1208353400316S02247225EA0026600247
B1208363400313S02247229EA0026600247
B1208373400309S02247233EA0026700248
B1208383400306S02247238EA0026800249
B1208393400302S02247243EA0027100252
B1208403400298S02247248EA0027200253
B1208413400293S02247253EA0027200253
B1208423400285S02247255EA0027400255
B1208433400278S02247256EA0027500256
B1208443400270S02247256EA0027600257
B1208453400263S02247255EA0027600257
B1208463400256S02247253EA0027700258
B1208473400249S02247250EA0027700258
B1208483400244S02247246EA0027700258
B1208493400239S02247241EA0027700258
B1208503400236S02247235EA0027800259
B1208513400235S02247229EA0027900260
B1208523400234S02247223EA0027900260
B1208533400234S02247219EA0028000261
B1208543400236S02247214EA0028200263
B1208553400238S02247211EA0028400265
B1208563400241S02247210EA0028400265
B1208573400244S02247210EA0028400265
B1208583400247S02247210EA0028500265
B1208593400249S02247211EA0028600267
B1209003400252S02247212EA0028700268
B1209013400254S02247214EA0028700268
B1209023400256S02247217EA0028700268
B1209033400256S02247221EA0028800269
B1209043400253S02247229EA0028900270
B1209053400250S02247236EA0029000271
B1209063400246S02247242EA0029200273
B1209073400241S02247248EA0029300274
B1209083400233S02247250EA0029400275
B1209093400225S02247252EA0029500276
B1209103400217S02247251EA0029600277
B1209113400209S02247249EA0029600277
B1209123400204S02247244EA0029600277
B1209133400199S02247240EA0029500276
B1209143400196S02247235EA0029400275
B1209153400194S02247231EA0029400275
B1209163400195S02247227EA0029500275
B1209173400195S02247223EA0029500276
B1209183400196S02247220EA0029600277
B1209193400198S02247218EA0029500276
B1209203400199S02247216EA0029600277
B1209213400201S02247214EA0029600276
B1209223400204S02247213EA0029700278
B1209233400207S02247212EA0029900280
B1209243400210S02247210EA0030000281
B1209253400214S02247210EA0030000281
B1209263400217S02247208EA0029900280
B1209273400219S02247207EA0029800279
B1209283400221S02247205EA0029800279
B1209293400225S02247204EA0029900280
B1209303400228S02247203EA0030000281
B1209313400232S02247203EA0030100282
B1209323400234S02247203EA0030000281
B1209333400235S02247204EA0029800279
B1209343400236S02247206EA0029500276
B1209353400237S02247208EA0029500276
B1209363400239S02247211EA0029600277
B1209373400242S02247214EA0029900280
B1209383400245S02247217EA0030100282
B1209393400247S02247219EA0030200283
B1209403400247S02247219EA0030100282
B1209413400248S02247220EA0029800279
B1209423400249S02247220EA0029700278
B1209433400250S02247219EA0029500276
B1209443400252S02247217EA0029600277
B1209453400254S02247216EA0029600277
B1209463400256S02247215EA0029600277
B1209473400257S02247215EA0029400275
B1209483400257S02247215EA0029300274
B1209493400259S02247217EA0029100272
B1209503400260S02247219EA0029100272
B1209513400262S02247223EA0029300274
B1209523400264S02247227EA0029500276
B1209533400266S02247231EA0029800279
B1209543400268S02247235EA0030100282
B1209553400270S02247237EA0030200283
B1209563400270S02247239EA0030200283
B1209573400271S02247241EA0030300284
B1209583400272S02247243EA0030300284
B1209593400273S02247247EA0030300284
B1210003400273S02247252EA0030200283
B1210013400271S02247260EA0030100282
B1210023400268S02247266EA0030100282
B1210033400264S02247273EA0030200282
B1210043400259S02247277EA0030000281
B1210053400253S02247280EA0029900280
B1210063400246S02247282EA0029700278
B1210073400238S02247284EA0029500276
B1210083400231S02247284EA0029400275
B1210093400222S02247283EA0029300274
B1210103400214S02247281EA0029200273
B1210113400206S02247278EA0029200273
B1210123400199S02247273EA0029200273
B1210133400194S02247267EA0029100272
B1210143400190S02247260EA0028900270
B1210153400187S02247254EA0028800269
B1210163400184S02247248EA0028700268
B1210173400183S02247242EA0028700267
B1210183400182S02247236EA0028600267
B1210193400182S02247231EA0028700268
B1210203400183S02247226EA0028700268
B1210213400184S02247221EA0028700268
B1210223400185S02247217EA0028600267
B1210233400186S02247214EA0028600267
B1210243400188S02247210EA0028700267
B1210253400190S02247207EA0028700268
B1210263400193S02247204EA0028700268
B1210273400195S02247202EA0028800269
B1210283400198S02247200EA0028800269
B1210293400201S02247198EA0028800269
B1210303400204S02247196EA0028800269
B1210313400206S02247196EA0028800269
B1210323400209S02247196EA0028900270
B1210333400211S02247196EA0029000271
B1210343400214S02247196EA0029000271
B1210353400216S02247195EA0029000271
B1210363400219S02247195EA0028900270
B1210373400220S02247194EA0028700268
B1210383400223S02247193EA0028700268
B1210393400226S02247192EA0028600267
B1210403400229S02247191EA0028600267
B1210413400231S02247191EA0028600267
B1210423400234S02247190EA0028600267
B1210433400237S02247190EA0028700268
B1210443400241S02247190EA0028700268
B1210453400243S02247190EA0028700268
B1210463400247S02247191EA0028800269
B1210473400250S02247192EA0028900270
B1210483400253S02247192EA0028900270
B1210493400256S02247193EA0028900270
B1210503400259S02247193EA0028900270
B1210513400262S02247193EA0029000271
B1210523400265S02247192EA0029000271
B1210533400268S02247192EA0029100272
B1210543400271S02247192EA0029000271
B1210553400274S02247193EA0029000271
B1210563400277S02247195EA0028900270
B1210573400279S02247196EA0028900270
B1210583400282S02247197EA0028800269
B1210593400285S02247197EA0028600267
B1211003400287S02247197EA0028400265
B1211013400289S02247196EA0028300264
B1211023400290S02247193EA0028200263
B1211033400291S02247189EA0028100262
B1211043400292S02247184EA0028200263
B1211053400291S02247179EA0028200263
B1211063400291S02247174EA0028200263
B1211073400290S02247169EA0028000261
B1211083400289S02247164EA0027900260
B1211093400286S02247159EA0027700258
B1211103400283S02247154EA0027500256
B1211113400279S02247148EA0027400255
B1211123400273S02247144EA0027300254
B1211133400267S02247139EA0027200253
B1211143400261S02247135EA0027100252
B1211153400254S02247133EA0027000251
B1211163400247S02247134EA0026800249
B1211173400240S02247135EA0026600247
B1211183400234S02247140EA0026500246
B1211193400230S02247146EA0026400245
B1211203400228S02247152EA0026200243
B1211213400227S02247157EA0026200243
B1211223400228S02247162EA0026100242
B1211233400229S02247165EA0026000241
B1211243400230S02247168EA0025800239
B1211253400231S02247171EA0025600237
B1211263400232S02247173EA0025300234
B1211273400234S02247176EA0025200233
B1211283400237S02247178EA0025200233
B1211293400240S02247180EA0025200233
B1211303400243S02247181EA0025200233
B1211313400246S02247182EA0025100232
B1211323400248S02247183EA0024900230
B1211333400250S02247185EA0024700228
B1211343400252S02247186EA0024600227
B1211353400255S02247187EA0024600227
B1211363400258S02247188EA0024500226
B1211373400260S02247187EA0024500226
B1211383400263S02247187EA0024400225
B1211393400264S02247187EA0024300224
B1211403400266S02247187EA0024100222
B1211413400268S02247186EA0023900220
B1211423400270S02247184EA0023800219
B1211433400272S02247183EA0023800219
B1211443400274S02247181EA0023600217
B1211453400276S02247180EA0023500216
B1211463400278S02247178EA0023400215
B1211473400280S02247177EA0023300214
B1211483400282S02247175EA0023300214
B1211493400283S02247173EA0023200213
B1211503400283S02247168EA0023000211
B1211513400282S02247160EA0023000211
B1211523400281S02247153EA0023000211
B1211533400277S02247145EA0023100212
B1211543400272S02247138EA0023100212
B1211553400267S02247132EA0023100212
B1211563400263S02247126EA0023000211
B1211573400258S02247119EA0022900210
B1211583400254S02247112EA0022900210
B1211593400250S02247104EA0023100212
B1212003400247S02247097EA0023200213
B1212013400246S02247090EA0023200213
B1212023400245S02247085EA0023300214
B1212033400245S02247080EA0023300214
B1212043400246S02247075EA0023400215
B1212053400246S02247071EA0023400215
B1212063400248S02247068EA0023300214
B1212073400250S02247065EA0023300214
B1212083400252S02247063EA0023400215
B1212093400256S02247063EA0023600217
B1212103400258S02247063EA0023700218
B1212113400260S02247063EA0023800219
B1212123400262S02247063EA0023800219
B1212133400264S02247064EA0023700218
B1212143400266S02247066EA0023600217
B1212153400268S02247069EA0023600217
B1212163400270S02247072EA0023500216
B1212173400270S02247076EA0023500216
B1212183400268S02247081EA0023400215
B1212193400265S02247087EA0023500216
B1212203400262S02247092EA0023500216
B1212213400256S02247097EA0023400215
B1212223400250S02247100EA0023300214
B1212233400243S02247102EA0023300214
B1212243400235S02247101EA0023200213
B1212253400228S02247099EA0023000211
B1212263400222S02247094EA0022800209
B1212273400216S02247087EA0022700208
B1212283400212S02247080EA0022700208
B1212293400210S02247072EA0022700208
B1212303400209S02247066EA0022600207
B1212313400210S02247061EA0022600207
B1212323400212S02247057EA0022500206
B1212333400213S02247055EA0022400205
B1212343400215S02247054EA0022200203
B1212353400217S02247055EA0022100202
B1212363400218S02247056EA0021900200
B1212373400220S02247059EA0021900200
B1212383400223S02247061EA0021900200
B1212393400225S02247064EA0022000201
B1212403400227S02247067EA0022100202
B1212413400228S02247070EA0022000201
B1212423400230S02247074EA0021900200
B1212433400231S02247079EA0021900200
B1212443400232S02247084EA0022000201
B1212453400233S02247088EA0022100202
B1212463400234S02247092EA0022200203
B1212473400235S02247095EA0022200203
B1212483400237S02247098EA0022200203
B1212493400238S02247102EA0022200203
B1212503400239S02247105EA0022200203
B1212513400241S02247108EA0022300204
B1212523400242S02247111EA0022300204
B1212533400243S02247115EA0022300204
B1212543400243S02247117EA0022200203
B1212553400243S02247120EA0022100202
B1212563400244S02247122EA0022100202
B1212573400244S02247125EA0022000201
B1212583400246S02247127EA0022000201
B1212593400248S02247129EA0022000201
B1213003400250S02247129EA0022100202
B1213013400252S02247126EA0022300204
B1213023400253S02247123EA0022300204
B1213033400253S02247120EA0022300204
B1213043400253S02247117EA0022100202
B1213053400253S02247112EA0022000201
B1213063400253S02247105EA0022000201
B1213073400252S02247099EA0022100202
B1213083400252S02247091EA0022100202
B1213093400251S02247084EA0022200203
B1213103400249S02247077EA0022100202
B1213113400248S02247071EA0022000201
B1213123400246S02247065EA0021900200
B1213133400245S02247058EA0021900200
B1213143400245S02247050EA0022000201
B1213153400244S02247042EA0022100202
B1213163400244S02247035EA0022200203
B1213173400245S02247029EA0022400205
B1213183400246S02247023EA0022500206
B1213193400247S02247019EA0022600207
B1213203400249S02247014EA0022700208
B1213213400251S02247011EA0022700208
B1213223400253S02247008EA0022800208
B1213233400256S02247007EA0022900210
B1213243400259S02247006EA0023000211
B1213253400261S02247006EA0023000211
B1213263400263S02247006EA0023000211
B1213273400265S02247007EA0022900210
B1213283400267S02247009EA0022800209
B1213293400268S02247012EA0022800209
B1213303400269S02247016EA0022800209
B1213313400269S02247020EA0022700208
B1213323400269S02247024EA0022600207
B1213333400270S02247029EA0022600207
B1213343400270S02247033EA0022600207
B1213353400271S02247038EA0022400205
B1213363400270S02247043EA0022300204
B1213373400270S02247048EA0022100202
B1213383400269S02247052EA0021900200
B1213393400270S02247057EA0021700198
B1213403400271S02247061EA0021600197
B1213413400273S02247066EA0021700198
B1213423400274S02247071EA0021800199
B1213433400275S02247076EA0022000201
B1213443400276S02247080EA0021900200
B1213453400277S02247083EA0021800199
B1213463400278S02247086EA0021600197
B1213473400279S02247089EA0021500196
B1213483400280S02247093EA0021500196
B1213493400281S02247097EA0021500196
B1213503400282S02247102EA0021500196
B1213513400283S02247106EA0021500196
B1213523400283S02247110EA0021400195
B1213533400284S02247115EA0021400195
B1213543400284S02247119EA0021500195
B1213553400285S02247122EA0021400195
B1213563400285S02247126EA0021300194
B1213573400286S02247129EA0021200193
B1213583400287S02247132EA0021000191
B1213593400288S02247135EA0020800189
B1214003400289S02247138EA0020800189
B1214013400290S02247142EA0020800189
B1214023400291S02247146EA0020800189
B1214033400292S02247149EA0020700188
B1214043400292S02247152EA0020600187
B1214053400293S02247155EA0020400185
B1214063400293S02247158EA0020200183
B1214073400294S02247163EA0020000181
B1214083400294S02247168EA0020000181
B1214093400294S02247171EA0020000181
B1214103400295S02247175EA0020000181
B1214113400295S02247177EA0019800179
B1214123400295S02247180EA0019500176
B1214133400294S02247184EA0019300174
B1214143400294S02247188EA0019200173
B1214153400295S02247192EA0019200173
B1214163400296S02247196EA0019200173
B1214173400297S02247200EA0019100172
B1214183400297S02247204EA0019000171
B1214193400298S02247208EA0018800169
B1214203400298S02247212EA0018800169
B1214213400298S02247216EA0018700168
B1214223400299S02247220EA0018800169
B1214233400300S02247224EA0018700168
B1214243400301S02247228EA0018600167
B1214253400301S02247232EA0018700168
B1214263400301S02247235EA0018600167
B1214273400302S02247239EA0018600167
B1214283400303S02247242EA0018600167
B1214293400304S02247245EA0018500166
B1214303400305S02247249EA0018400165
B1214313400306S02247252EA0018400165
B1214323400307S02247256EA0018400165
B1214333400308S02247260EA0018300164
B1214343400308S02247264EA0018300164
B1214353400308S02247268EA0018300164
B1214363400309S02247272EA0018300164
B1214373400310S02247276EA0018400165
B1214383400311S02247280EA0018400165
B1214393400312S02247283EA0018400165
B1214403400312S02247286EA0018300164
B1214413400314S02247290EA0018200163
B1214423400315S02247293EA0018200163
B1214433400316S02247296EA0018200163
B1214443400317S02247300EA0018200163
B1214453400317S02247303EA0018300164
B1214463400318S02247306EA0018400165
B1214473400319S02247309EA0018600167
B1214483400319S02247311EA0018700168
B1214493400320S02247313EA0018600167
B1214503400320S02247314EA0018500166
B1214513400319S02247317EA0018300164
B1214523400320S02247319EA0018200163
B1214533400321S02247322EA0018100162
B1214543400322S02247324EA0018100162
B1214553400323S02247326EA0018100162
B1214563400324S02247329EA0018000161
B1214573400325S02247331EA0017900160
B1214583400326S02247333EA0017700158
B1214593400327S02247337EA0017700158
B1215003400328S02247340EA0017800159
B1215013400329S02247342EA0017800159
B1215023400329S02247344EA0017800159
B1215033400329S02247347EA0017800159
B1215043400329S02247350EA0017900160
B1215053400329S02247354EA0017900160
B1215063400328S02247358EA0017900160
B1215073400327S02247362EA0017900160
B1215083400326S02247365EA0017900160
B1215093400326S02247369EA0017900160
B1215103400327S02247373EA0017900160
B1215113400327S02247377EA0018000161
B1215123400328S02247381EA0018000161
B1215133400328S02247384EA0018000161
B1215143400328S02247388EA0017900160
B1215153400329S02247392EA0017900160
B1215163400329S02247395EA0017900160
B1215173400330S02247399EA0017900160
B1215183400331S02247402EA0017900160
B1215193400332S02247405EA0017900160
B1215203400332S02247407EA0018000161
B1215213400333S02247410EA0018000161
B1215223400334S02247414EA0018000161
B1215233400334S02247417EA0018100162
B1215243400336S02247420EA0018200163
B1215253400336S02247423EA0018300164
B1215263400337S02247424EA0018200163
B1215273400338S02247426EA0018200163
B1215283400339S02247428EA0018200163
B1215293400340S02247431EA0018100162
B1215303400340S02247435EA0018200163
B1215313400340S02247439EA0018200163
B1215323400340S02247442EA0018300164
B1215333400341S02247445EA0018300164
B1215343400341S02247448EA0018400165
B1215353400342S02247451EA0018300164
B1215363400341S02247455EA0018300164
B1215373400341S02247459EA0018300164
B1215383400341S02247462EA0018400165
B1215393400341S02247466EA0018300164
B1215403400341S02247469EA0018300164
B1215413400341S02247472EA0018200163
B1215423400341S02247476EA0018200163
B1215433400341S02247479EA0018300164
B1215443400341S02247483EA0018300164
B1215453400341S02247486EA0018400165
B1215463400341S02247489EA0018300164
B1215473400340S02247491EA0018200163
B1215483400340S02247494EA0018100162
B1215493400340S02247498EA0018100162
B1215503400339S02247502EA0018100162
B1215513400339S02247507EA0018200163
B1215523400339S02247511EA0018400165
B1215533400338S02247514EA0018400165
B1215543400337S02247517EA0018300164
B1215553400336S02247519EA0018100162
B1215563400335S02247523EA0018000161
B1215573400334S02247527EA0018000161
B1215583400333S02247531EA0018000161
B1215593400333S02247535EA0017900160
B1216003400332S02247538EA0017700158
B1216013400332S02247541EA0017500156
B1216023400332S02247545EA0017400155
B1216033400333S02247549EA0017500156
B1216043400333S02247554EA0017800159
B1216053400334S02247558EA0018000161
B1216063400334S02247561EA0018000161
B1216073400333S02247564EA0017800159
B1216083400332S02247567EA0017700158
B1216093400331S02247572EA0017700158
B1216103400331S02247576EA0017600157
B1216113400331S02247582EA0017400155
B1216123400332S02247586EA0017300154
B1216133400332S02247591EA0017200153
B1216143400332S02247595EA0017300154
B1216153400331S02247599EA0017200153
B1216163400330S02247601EA0017000151
B1216173400329S02247604EA0016800149
B1216183400329S02247605EA0016700148
B1216193400331S02247606EA0016800149
B1216203400332S02247607EA0017000151
B1216213400333S02247608EA0017000151
B1216223400334S02247608EA0016700148
B1216233400334S02247609EA0016400145
B1216243400335S02247609EA0016200143
B1216253400337S02247610EA0016200143
B1216263400338S02247612EA0016400145
B1216273400339S02247614EA0016500146
B1216283400338S02247616EA0016300144
B1216293400338S02247618EA0015900140
B1216303400337S02247619EA0015700138
B1216313400337S02247620EA0015700138
B1216323400338S02247621EA0015800139
B1216333400338S02247621EA0015600137
B1216343400338S02247621EA0015500136
B1216353400338S02247621EA0015300134
B1216363400337S02247621EA0015100132
B1216373400337S02247621EA0015000131
B1216383400337S02247621EA0015000131
B1216393400337S02247621EA0014900130
B1216403400337S02247621EA0015000131
B1216413400338S02247620EA0015100131
B1216423400340S02247619EA0015000131
B1216433400341S02247619EA0015000131
B1216443400341S02247619EA0015000131
B1216453400341S02247618EA0015100132
B1216463400341S02247618EA0015000131
B1216473400342S02247618EA0015000131
B1216483400342S02247619EA0015000131
B1216493400343S02247619EA0015000131
B1216503400343S02247620EA0015000131
B1216513400343S02247620EA0015000131
B1216523400344S02247620EA0015100132
B1216533400344S02247620EA0015000131
B1216543400344S02247619EA0015000131
B1216553400344S02247620EA0015100132
B1216563400344S02247620EA0015100132
B1216573400344S02247620EA0015100132
B1216583400344S02247620EA0015100132
B1216593400344S02247621EA0015000131
B1217003400344S02247621EA0015000131
B1217013400345S02247621EA0015000131
B1217023400345S02247619EA0015000131
B1217033400344S02247619EA0015000131
B1217043400344S02247618EA0015000131
B1217053400343S02247619EA0014900130
B1217063400343S02247619EA0014900130
B1217073400342S02247618EA0014900130
B1217083400341S02247617EA0014900130
B1217093400340S02247616EA0014900130
B1217103400339S02247615EA0014900130
B1217113400339S02247614EA0014900130
B1217123400338S02247613EA0014900130
B1217133400337S02247614EA0014900130
B1217143400337S02247613EA0014900130
B1217153400336S02247613EA0014900130
B1217163400336S02247614EA0014900130
B1217173400336S02247614EA0014900130
B1217183400336S02247615EA0014900130
B1217193400336S02247615EA0014900130
B1217203400336S02247615EA0014900130
B1217213400336S02247616EA0014900130
B1217223400336S02247616EA0014900130
B1217233400336S02247616EA0014900130
B1217243400337S02247615EA0014900130
B1217253400337S02247616EA0015000131
B1217263400337S02247616EA0015000131
B1217273400338S02247616EA0014900130
B1217283400339S02247616EA0015000131
B1217293400340S02247616EA0015000131
B1217303400340S02247616EA0015000131
B1217313400340S02247617EA0014900130
B1217323400341S02247617EA0015000131
B1217333400341S02247618EA0015000131
B1217343400342S02247618EA0015000131
B1217353400342S02247619EA0015000131
B1217363400342S02247620EA0015000131
B1217373400342S02247621EA0015000131
B1217383400343S02247621EA0015000131
B1217393400344S02247621EA0015100132
B1217403400344S02247622EA0015100132
B1217413400344S02247623EA0015100132
B1217423400344S02247623EA0015100132
B1217433400344S02247624EA0015000131
B1217443400344S02247624EA0015100132
B1217453400344S02247625EA0015100132
B1217463400345S02247626EA0015100132
B1217473400345S02247627EA0015100132
B1217483400345S02247628EA0015100132
B1217493400345S02247629EA0015100132
B1217503400346S02247630EA0015100132
B1217513400346S02247631EA0015100132
B1217523400347S02247631EA0015100132
B1217533400349S02247632EA0015100132
B1217543400350S02247633EA0015100132
B1217553400351S02247634EA0015200133
B1217563400351S02247634EA0015100132
B1217573400351S02247635EA0015100132
B1217583400352S02247635EA0015100132
B1217593400352S02247635EA0015200133
B1218003400353S02247635EA0015100132
B1218013400353S02247636EA0015100132
B1218023400353S02247636EA0015100132
B1218033400354S02247636EA0015100132
B1218043400354S02247637EA0015100132
B1218053400354S02247637EA0015100132
B1218063400354S02247637EA0015100132
B1218073400354S02247638EA0015100132
B1218083400354S02247638EA0015100132
B1218093400354S02247638EA0015100132
B1218103400354S02247637EA0015100132
B1218113400354S02247637EA0015100132
B1218123400354S02247637EA0015100132
B1218133400353S02247636EA0015100132
B1218143400353S02247635EA0015100132
B1218153400353S02247635EA0015100132
B1218163400354S02247635EA0015100132
B1218173400354S02247635EA0015100132
B1218183400355S02247635EA0015100132
B1218193400355S02247635EA0015100132
B1218203400355S02247635EA0015100132
B1218213400355S02247635EA0015100132
B1218223400355S02247634EA0015100132
B1218233400354S02247635EA0015100132
B1218243400354S02247635EA0015100132
B1218253400354S02247635EA0015100132
B1218263400354S02247635EA0015100132
B1218273400354S02247635EA0015100132
B1218283400354S02247635EA0015100132
B1218293400354S02247635EA0015100132
B1218303400354S02247634EA0015100132
B1218313400354S02247634EA0015100132
B1218323400354S02247634EA0015100132
B1218333400354S02247634EA0015200132
B1218343400355S02247634EA0015100132
B1218353400355S02247634EA0015200132
B1218363400355S02247634EA0015100132
B1218373400355S02247634EA0015100132
B1218383400355S02247633EA0015100132
B1218393400355S02247633EA0015100132
B1218403400356S02247633EA0015100132
B1218413400356S02247633EA0015100132
B1218423400356S02247632EA0015100132
B1218433400357S02247632EA0015100132
B1218443400357S02247632EA0015100132
B1218453400358S02247632EA0015100132
B1218463400357S02247632EA0015100132
B1218473400357S02247632EA0015100132
B1218483400356S02247632EA0015100132
B1218493400356S02247632EA0015200133
B1218503400356S02247632EA0015200133
B1218513400356S02247632EA0015100132
B1218523400356S02247632EA0015100132
B1218533400356S02247632EA0015100132
B1218543400356S02247632EA0015100132
B1218553400356S02247632EA0015100132
B1218563400356S02247633EA0015100132
B1218573400356S02247633EA0015100132
B1218583400355S02247633EA0015100132
B1218593400355S02247633EA0015100132
B1219003400355S02247633EA0015200133
B1219013400355S02247633EA0015200133
B1219023400356S02247633EA0015200133
B1219033400356S02247633EA0015200133
B1219043400356S02247633EA0015200133
B1219053400356S02247633EA0015200133
B1219063400355S02247634EA0015200133
B1219073400355S02247634EA0015200133
B1219083400354S02247634EA0015200133
B1219093400355S02247634EA0015200133
LXSX;GF:1.3
G2242F8731FEABBE5121B65437E19596B
