AXSX003 SKYTRAXX V3.0.14 SN:00000380
HFPLTPILOT:Sepp Bucher
HFGTYGLIDERTYPE:Sigma10
HFDTM100GPSDATUM:WGS-84
HFCIDCOMPETITIONID:0000
HFCCLCOMPETITION CLASS:Paraglider (Standard)
HFSITSITE:UNKNOWN
HFDTE240619
C240619095332000000000102XC24.tsk
C5434954N02403160ETAKEOFF
C5435741N02404684ESTART
C5418610N02308154ETURN
C5407126N02254583ETURN
C5350200N02222153EFINISH
C5350200N02222153ELANDING
B1010415434954N02403160EA-002200101
B1010425434954N02403160EA-002300101
B1010435434954N02403160EA-002200101
B1010445434954N02403160EA-002200101
B1010455434954N02403160EA-002300101
B1010465434955N02403160EA-002300101
B1010475434955N02403160EA-002200102
B1010485434955N02403160EA-002200101
B1010495434955N02403160EA-002300101
B1010505434956N02403160EA-002300101
B1010515434957N02403160EA-002300101
B1010525434958N02403160EA-002300100
B1010535434961N02403161EA-002200101
B1010545434963N02403162EA-002100103
B1010555434965N02403163EA-002000104
B1010565434967N02403163EA-001700107
B1010575434970N02403162EA-001400110
B1010585434973N02403161EA-001300112
B1010595434976N02403161EA-001100113
B1011005434978N02403162EA-000900115
B1011015434982N02403163EA-000700118
B1011025434985N02403164EA-000200122
B1011035434987N02403165EA0000200127
B1011045434989N02403165EA0000600131
B1011055434991N02403165EA0000900133
B1011065434993N02403165EA0001000134
B1011075434996N02403165EA0001100136
B1011085434999N02403165EA0001300138
B1011095435003N02403165EA0001700141
B1011105435006N02403165EA0002200146
B1011115435008N02403165EA0002600150
B1011125435011N02403164EA0002800153
B1011135435014N02403163EA0003000154
B1011145435018N02403163EA0003200157
B1011155435021N02403162EA0003700162
B1011165435024N02403162EA0004200167
B1011175435027N02403160EA0004500170
B1011185435029N02403158EA0004800173
B1011195435032N02403156EA0005000174
B1011205435035N02403155EA0005100175
B1011215435038N02403153EA0005300177
B1011225435042N02403153EA0005600180
B1011235435044N02403152EA0005900183
B1011245435048N02403152EA0006200186
B1011255435051N02403152EA0006600190
B1011265435054N02403151EA0007000194
B1011275435057N02403151EA0007100195
B1011285435060N02403150EA0007300197
B1011295435064N02403150EA0007500199
B1011305435067N02403151EA0007700202
B1011315435070N02403153EA0008100205
B1011325435073N02403153EA0008300207
B1011335435077N02403154EA0008500209
B1011345435080N02403154EA0008800213
B1011355435083N02403154EA0009200217
B1011365435087N02403154EA0009500219
B1011375435091N02403154EA0009800222
B1011385435096N02403154EA0010000225
B1011395435100N02403155EA0010500229
B1011405435104N02403157EA0011000234
B1011415435108N02403158EA0011300237
B1011425435112N02403159EA0011600240
B1011435435116N02403161EA0012000245
B1011445435120N02403162EA0012400248
B1011455435124N02403163EA0012700251
B1011465435128N02403164EA0013000254
B1011475435133N02403165EA0013200257
B1011485435137N02403167EA0013700261
B1011495435142N02403169EA0014100265
B1011505435145N02403172EA0014300268
B1011515435149N02403175EA0014600271
B1011525435153N02403178EA0015000274
B1011535435157N02403180EA0015200277
B1011545435162N02403182EA0015400278
B1011555435166N02403185EA0015700281
B1011565435170N02403187EA0016000284
B1011575435174N02403188EA0016200286
B1011585435179N02403190EA0016400288
B1011595435183N02403192EA0016700292
B1012005435188N02403194EA0017100295
B1012015435192N02403196EA0017400299
B1012025435197N02403198EA0017800302
B1012035435201N02403200EA0018000304
B1012045435206N02403203EA0018200307
B1012055435211N02403205EA0018500309
B1012065435215N02403208EA0018900314
B1012075435219N02403211EA0019200316
B1012085435223N02403214EA0019400318
B1012095435227N02403217EA0019500320
B1012105435230N02403221EA0019800322
B1012115435234N02403225EA0019900324
B1012125435238N02403228EA0020000325
B1012135435243N02403232EA0020300327
B1012145435247N02403237EA0020600330
B1012155435250N02403241EA0020800333
B1012165435254N02403246EA0021000334
B1012175435258N02403251EA0021100335
B1012185435262N02403256EA0021400338
B1012195435266N02403261EA0021700341
B1012205435270N02403265EA0021900343
B1012215435274N02403269EA0022100345
B1012225435278N02403274EA0022300348
B1012235435282N02403279EA0022700351
B1012245435286N02403283EA0023000355
B1012255435289N02403287EA0023300357
B1012265435292N02403292EA0023500360
B1012275435295N02403296EA0023700361
B1012285435299N02403301EA0023800362
B1012295435303N02403306EA0024000364
B1012305435307N02403311EA0024300367
B1012315435310N02403316EA0024600370
B1012325435313N02403321EA0024700372
B1012335435317N02403325EA0024800373
B1012345435321N02403328EA0025100375
B1012355435324N02403331EA0025300377
B1012365435329N02403335EA0025400378
B1012375435332N02403338EA0025500380
B1012385435337N02403342EA0025600381
B1012395435342N02403345EA0025700381
B1012405435347N02403349EA0026000385
B1012415435351N02403353EA0026300388
B1012425435355N02403357EA0026600390
B1012435435360N02403362EA0026700392
B1012445435364N02403366EA0026900393
B1012455435369N02403370EA0027000394
B1012465435373N02403374EA0027100396
B1012475435378N02403378EA0027500399
B1012485435382N02403382EA0027700402
B1012495435387N02403386EA0027900404
B1012505435392N02403390EA0028000405
B1012515435396N02403395EA0028300407
B1012525435401N02403399EA0028600410
B1012535435405N02403403EA0028900413
B1012545435410N02403406EA0029200416
B1012555435415N02403410EA0029300418
B1012565435419N02403414EA0029500420
B1012575435423N02403417EA0029800422
B1012585435428N02403420EA0030100425
B1012595435432N02403423EA0030200427
B1013005435436N02403426EA0030300428
B1013015435441N02403428EA0030600430
B1013025435445N02403430EA0030700431
B1013035435450N02403432EA0030700432
B1013045435454N02403434EA0030800433
B1013055435459N02403435EA0031000435
B1013065435463N02403437EA0031100435
B1013075435467N02403439EA0031200436
B1013085435471N02403440EA0031200437
B1013095435475N02403442EA0031300437
B1013105435479N02403444EA0031300437
B1013115435483N02403448EA0031200436
B1013125435488N02403450EA0031300437
B1013135435492N02403453EA0031500439
B1013145435496N02403455EA0031700441
B1013155435500N02403457EA0031600441
B1013165435505N02403460EA0031600441
B1013175435510N02403461EA0031900444
B1013185435515N02403462EA0032200447
B1013195435519N02403464EA0032300448
B1013205435523N02403465EA0032400448
B1013215435527N02403466EA0032500449
B1013225435532N02403468EA0032600450
B1013235435536N02403470EA0032600451
B1013245435540N02403473EA0032800452
B1013255435544N02403475EA0033000454
B1013265435547N02403478EA0033200456
B1013275435550N02403482EA0033200456
B1013285435553N02403487EA0033200457
B1013295435556N02403491EA0033300458
B1013305435559N02403497EA0033500460
B1013315435562N02403502EA0033600461
B1013325435564N02403508EA0033900463
B1013335435566N02403513EA0034100466
B1013345435568N02403520EA0034300467
B1013355435570N02403526EA0034400469
B1013365435572N02403533EA0034800473
B1013375435573N02403540EA0035000474
B1013385435574N02403547EA0035200476
B1013395435576N02403554EA0035400478
B1013405435577N02403562EA0035400478
B1013415435578N02403570EA0035700481
B1013425435579N02403577EA0036000485
B1013435435581N02403585EA0036200487
B1013445435582N02403593EA0036500489
B1013455435583N02403601EA0036700492
B1013465435584N02403610EA0037100495
B1013475435584N02403619EA0037400498
B1013485435584N02403627EA0037700501
B1013495435585N02403635EA0038000505
B1013505435585N02403644EA0038400509
B1013515435586N02403653EA0038800512
B1013525435586N02403661EA0039200516
B1013535435586N02403669EA0039700521
B1013545435587N02403677EA0040000524
B1013555435587N02403685EA0040200526
B1013565435586N02403693EA0040600530
B1013575435586N02403701EA0041000534
B1013585435585N02403708EA0041200537
B1013595435585N02403716EA0041500540
B1014005435584N02403724EA0041800543
B1014015435584N02403731EA0042100545
B1014025435583N02403739EA0042300548
B1014035435582N02403748EA0042600550
B1014045435581N02403756EA0042900553
B1014055435581N02403764EA0043200556
B1014065435581N02403771EA0043400559
B1014075435582N02403780EA0043600560
B1014085435582N02403789EA0044000565
B1014095435582N02403797EA0044600570
B1014105435582N02403805EA0044900574
B1014115435581N02403812EA0045300578
B1014125435580N02403820EA0045600580
B1014135435579N02403829EA0045800583
B1014145435579N02403838EA0046100586
B1014155435577N02403846EA0046600591
B1014165435576N02403854EA0047100595
B1014175435575N02403862EA0047400598
B1014185435574N02403870EA0047600600
B1014195435573N02403877EA0048100606
B1014205435572N02403884EA0048500609
B1014215435571N02403892EA0048600611
B1014225435571N02403899EA0049000614
B1014235435571N02403906EA0049400618
B1014245435571N02403913EA0049600620
B1014255435570N02403920EA0049800622
B1014265435570N02403928EA0050200626
B1014275435569N02403936EA0050400629
B1014285435567N02403944EA0050900633
B1014295435566N02403951EA0051300637
B1014305435565N02403958EA0051600641
B1014315435565N02403964EA0052000644
B1014325435564N02403971EA0052200647
B1014335435564N02403979EA0052400648
B1014345435565N02403987EA0052700651
B1014355435566N02403995EA0053200656
B1014365435567N02404003EA0053500660
B1014375435568N02404009EA0053800663
B1014385435568N02404013EA0054000664
B1014395435568N02404016EA0054000664
B1014405435567N02404020EA0053700662
B1014415435568N02404024EA0053400658
B1014425435569N02404030EA0053000655
B1014435435571N02404035EA0052900653
B1014445435572N02404040EA0053100655
B1014455435573N02404042EA0053200656
B1014465435574N02404042EA0053100656
B1014475435577N02404041EA0052900653
B1014485435579N02404040EA0052700651
B1014495435583N02404038EA0052500650
B1014505435586N02404034EA0052500649
B1014515435590N02404028EA0052500649
B1014525435592N02404020EA0052500649
B1014535435594N02404011EA0052400649
B1014545435596N02404002EA0052300647
B1014555435598N02403992EA0052200646
B1014565435599N02403981EA0052000645
B1014575435600N02403969EA0051900643
B1014585435601N02403956EA0051800642
B1014595435602N02403943EA0051700641
B1015005435602N02403930EA0051700641
B1015015435603N02403918EA0051700641
B1015025435603N02403906EA0051600641
B1015035435603N02403893EA0051600641
B1015045435603N02403880EA0051500639
B1015055435603N02403867EA0051500639
B1015065435603N02403855EA0051500639
B1015075435603N02403843EA0051400638
B1015085435603N02403832EA0051200636
B1015095435603N02403819EA0051000634
B1015105435603N02403805EA0050800633
B1015115435602N02403791EA0050800632
B1015125435602N02403778EA0050800633
B1015135435602N02403766EA0051000635
B1015145435601N02403756EA0051100635
B1015155435600N02403746EA0051000634
B1015165435599N02403735EA0050800632
B1015175435598N02403724EA0050600630
B1015185435597N02403712EA0050400628
B1015195435596N02403699EA0050200627
B1015205435595N02403686EA0050100626
B1015215435594N02403673EA0050200626
B1015225435593N02403660EA0050200627
B1015235435592N02403649EA0050400628
B1015245435591N02403637EA0050300628
B1015255435589N02403625EA0050300627
B1015265435587N02403614EA0050200627
B1015275435586N02403603EA0050200627
B1015285435584N02403591EA0050100626
B1015295435582N02403579EA0050100625
B1015305435582N02403567EA0050100625
B1015315435580N02403554EA0050100625
B1015325435578N02403543EA0050200626
B1015335435576N02403533EA0050300627
B1015345435574N02403523EA0050300628
B1015355435572N02403513EA0050300627
B1015365435570N02403503EA0050100626
B1015375435568N02403493EA0050000624
B1015385435565N02403482EA0049800623
B1015395435563N02403471EA0049800622
B1015405435561N02403460EA0049700622
B1015415435560N02403448EA0049700621
B1015425435558N02403437EA0049700621
B1015435435557N02403426EA0049700621
B1015445435555N02403416EA0049700622
B1015455435553N02403406EA0049700622
B1015465435551N02403396EA0049700621
B1015475435549N02403385EA0049600620
B1015485435547N02403374EA0049500619
B1015495435545N02403363EA0049500619
B1015505435543N02403351EA0049500619
B1015515435541N02403340EA0049500620
B1015525435538N02403329EA0049500619
B1015535435537N02403319EA0049400618
B1015545435535N02403308EA0049300617
B1015555435532N02403298EA0049100615
B1015565435530N02403287EA0048800612
B1015575435527N02403276EA0048500609
B1015585435525N02403264EA0048300608
B1015595435522N02403252EA0048200607
B1016005435519N02403241EA0048100606
B1016015435516N02403230EA0048000604
B1016025435514N02403220EA0047800602
B1016035435511N02403209EA0047600600
B1016045435509N02403197EA0047300597
B1016055435507N02403186EA0047100595
B1016065435504N02403175EA0046900593
B1016075435501N02403164EA0046600591
B1016085435498N02403153EA0046300588
B1016095435496N02403141EA0046000584
B1016105435494N02403130EA0045700581
B1016115435491N02403118EA0045300577
B1016125435489N02403106EA0045000574
B1016135435487N02403093EA0044800573
B1016145435484N02403080EA0044700571
B1016155435480N02403067EA0044500569
B1016165435476N02403055EA0044300567
B1016175435472N02403043EA0044100565
B1016185435468N02403030EA0043900563
B1016195435464N02403017EA0043700562
B1016205435460N02403005EA0043600560
B1016215435454N02402993EA0043600560
B1016225435450N02402983EA0043600561
B1016235435446N02402974EA0043500559
B1016245435441N02402964EA0043200556
B1016255435435N02402953EA0043000554
B1016265435430N02402942EA0042900553
B1016275435425N02402931EA0043200556
B1016285435421N02402922EA0043400558
B1016295435417N02402915EA0043500559
B1016305435413N02402910EA0043400558
B1016315435409N02402903EA0043200557
B1016325435404N02402896EA0043100556
B1016335435399N02402888EA0043000554
B1016345435395N02402880EA0042800553
B1016355435389N02402872EA0042700551
B1016365435384N02402864EA0042700552
B1016375435379N02402857EA0042800553
B1016385435375N02402851EA0042900554
B1016395435371N02402845EA0042900553
B1016405435367N02402840EA0042800552
B1016415435362N02402836EA0042600550
B1016425435357N02402831EA0042500549
B1016435435351N02402827EA0042600550
B1016445435347N02402821EA0042600550
B1016455435343N02402814EA0042600550
B1016465435340N02402807EA0042600550
B1016475435338N02402799EA0042600550
B1016485435336N02402790EA0042500550
B1016495435335N02402781EA0042400548
B1016505435334N02402771EA0042300547
B1016515435335N02402761EA0042300547
B1016525435336N02402752EA0042200546
B1016535435339N02402743EA0042100546
B1016545435343N02402735EA0042200546
B1016555435347N02402728EA0042400548
B1016565435351N02402724EA0042500549
B1016575435355N02402721EA0042500550
B1016585435359N02402719EA0042500549
B1016595435363N02402719EA0042500549
B1017005435366N02402720EA0042400549
B1017015435370N02402723EA0042400548
B1017025435372N02402726EA0042500549
B1017035435373N02402731EA0042600550
B1017045435373N02402735EA0042600551
B1017055435373N02402739EA0042600551
B1017065435371N02402742EA0042600550
B1017075435369N02402746EA0042500549
B1017085435365N02402750EA0042400548
B1017095435361N02402752EA0042300548
B1017105435357N02402753EA0042300547
B1017115435351N02402752EA0042300548
B1017125435346N02402750EA0042300548
B1017135435341N02402747EA0042300547
B1017145435335N02402744EA0042300547
B1017155435329N02402740EA0042300548
B1017165435324N02402735EA0042400548
B1017175435320N02402729EA0042400549
B1017185435316N02402721EA0042400549
B1017195435313N02402714EA0042300548
B1017205435310N02402706EA0042300547
B1017215435307N02402698EA0042200547
B1017225435304N02402689EA0042200546
B1017235435301N02402679EA0042200546
B1017245435299N02402670EA0042100546
B1017255435297N02402661EA0042100546
B1017265435295N02402652EA0042000545
B1017275435293N02402643EA0041900544
B1017285435291N02402635EA0041800542
B1017295435288N02402626EA0041500540
B1017305435284N02402618EA0041300538
B1017315435280N02402610EA0041200536
B1017325435276N02402603EA0041100535
B1017335435272N02402595EA0040900533
B1017345435267N02402588EA0040600531
B1017355435264N02402580EA0040500529
B1017365435259N02402572EA0040300528
B1017375435255N02402563EA0040200526
B1017385435251N02402555EA0040100525
B1017395435246N02402548EA0039900523
B1017405435241N02402542EA0039700521
B1017415435236N02402534EA0039600521
B1017425435232N02402527EA0039600521
B1017435435229N02402521EA0039500519
B1017445435224N02402514EA0039300517
B1017455435218N02402508EA0039000515
B1017465435213N02402502EA0038900513
B1017475435208N02402496EA0038800513
B1017485435204N02402490EA0038700512
B1017495435199N02402486EA0038600510
B1017505435194N02402481EA0038300508
B1017515435189N02402475EA0038100505
B1017525435185N02402469EA0037900503
B1017535435180N02402462EA0037900503
B1017545435175N02402457EA0037900503
B1017555435170N02402452EA0037800502
B1017565435166N02402448EA0037600500
B1017575435161N02402443EA0037400498
B1017585435157N02402437EA0037000494
B1017595435152N02402432EA0036600491
B1018005435146N02402426EA0036300488
B1018015435141N02402422EA0036000485
B1018025435135N02402417EA0035700481
B1018035435129N02402411EA0035300477
B1018045435124N02402405EA0035000474
B1018055435118N02402398EA0034700472
B1018065435112N02402392EA0034500469
B1018075435106N02402386EA0034300467
B1018085435101N02402381EA0034000464
B1018095435095N02402376EA0033700461
B1018105435089N02402370EA0033400458
B1018115435083N02402365EA0033000455
B1018125435078N02402359EA0032600451
B1018135435072N02402353EA0032300448
B1018145435066N02402347EA0032100446
B1018155435060N02402341EA0031900444
B1018165435054N02402335EA0031600441
B1018175435048N02402330EA0031200437
B1018185435042N02402324EA0031000434
B1018195435037N02402317EA0030600430
B1018205435030N02402310EA0030300427
B1018215435024N02402304EA0030000425
B1018225435018N02402297EA0029800423
B1018235435012N02402291EA0029600420
B1018245435007N02402285EA0029400418
B1018255435002N02402279EA0029100415
B1018265434997N02402272EA0028700411
B1018275434992N02402265EA0028300407
B1018285434986N02402258EA0027900403
B1018295434981N02402251EA0027500400
B1018305434975N02402244EA0027300397
B1018315434969N02402237EA0026900393
B1018325434962N02402231EA0026600390
B1018335434956N02402225EA0026300387
B1018345434950N02402218EA0025900384
B1018355434944N02402211EA0025600380
B1018365434937N02402204EA0025200376
B1018375434931N02402197EA0024800372
B1018385434925N02402190EA0024500369
B1018395434918N02402183EA0024100365
B1018405434911N02402177EA0023800362
B1018415434904N02402170EA0023400359
B1018425434897N02402164EA0023100355
B1018435434890N02402158EA0022900353
B1018445434882N02402153EA0022600351
B1018455434874N02402148EA0022500349
B1018465434867N02402143EA0022400348
B1018475434860N02402138EA0022300347
B1018485434854N02402133EA0022300347
B1018495434848N02402129EA0022100346
B1018505434842N02402124EA0022000344
B1018515434835N02402119EA0021900343
B1018525434830N02402115EA0021600341
B1018535434824N02402110EA0021500339
B1018545434818N02402105EA0021300337
B1018555434812N02402101EA0021100336
B1018565434807N02402096EA0021000335
B1018575434801N02402090EA0021000334
B1018585434796N02402084EA0021000335
B1018595434791N02402080EA0021100335
B1019005434787N02402076EA0021100335
B1019015434782N02402072EA0021000334
B1019025434778N02402070EA0020900334
B1019035434773N02402067EA0020700332
B1019045434768N02402064EA0020600330
B1019055434763N02402061EA0020400328
B1019065434757N02402057EA0020200327
B1019075434751N02402051EA0020100326
B1019085434746N02402046EA0020200326
B1019095434741N02402042EA0020200327
B1019105434736N02402038EA0020200326
B1019115434731N02402034EA0020100325
B1019125434727N02402030EA0020000324
B1019135434722N02402025EA0019800323
B1019145434717N02402020EA0019700322
B1019155434712N02402016EA0019700321
B1019165434707N02402012EA0019600320
B1019175434703N02402009EA0019400318
B1019185434697N02402005EA0019200316
B1019195434692N02402003EA0019000314
B1019205434687N02402001EA0018900313
B1019215434682N02401999EA0018700312
B1019225434677N02401997EA0018600311
B1019235434672N02401995EA0018500309
B1019245434666N02401993EA0018300307
B1019255434661N02401992EA0018100305
B1019265434656N02401992EA0017900304
B1019275434650N02401992EA0017800302
B1019285434644N02401992EA0017700301
B1019295434639N02401992EA0017500299
B1019305434633N02401992EA0017300297
B1019315434626N02401992EA0017200296
B1019325434621N02401991EA0017100296
B1019335434615N02401990EA0017000294
B1019345434609N02401989EA0016800292
B1019355434604N02401988EA0016500289
B1019365434597N02401987EA0016300287
B1019375434590N02401987EA0016100286
B1019385434584N02401988EA0016000284
B1019395434578N02401991EA0015800283
B1019405434572N02401994EA0015900283
B1019415434568N02401997EA0015800283
B1019425434564N02401999EA0015600281
B1019435434560N02402001EA0015300277
B1019445434556N02402002EA0014800272
B1019455434551N02402004EA0014300267
B1019465434545N02402007EA0013800263
B1019475434539N02402012EA0013600261
B1019485434534N02402017EA0013400259
B1019495434529N02402021EA0013200256
B1019505434523N02402025EA0013000254
B1019515434518N02402028EA0012800252
B1019525434513N02402032EA0012500249
B1019535434507N02402035EA0012200246
B1019545434501N02402038EA0012000244
B1019555434495N02402041EA0011800242
B1019565434489N02402044EA0011600240
B1019575434483N02402047EA0011400238
B1019585434477N02402051EA0011100235
B1019595434471N02402053EA0010900234
B1020005434465N02402056EA0010800232
B1020015434460N02402059EA0010600230
B1020025434454N02402061EA0010400229
B1020035434447N02402063EA0010200227
B1020045434441N02402064EA0010100225
B1020055434435N02402066EA0009900224
B1020065434429N02402068EA0009800222
B1020075434423N02402069EA0009600221
B1020085434418N02402070EA0009500219
B1020095434412N02402071EA0009300217
B1020105434406N02402072EA0009100215
B1020115434400N02402073EA0008800213
B1020125434394N02402074EA0008600210
B1020135434388N02402076EA0008400208
B1020145434381N02402078EA0008200206
B1020155434376N02402081EA0008000205
B1020165434369N02402083EA0007900203
B1020175434363N02402085EA0007700202
B1020185434357N02402087EA0007600200
B1020195434351N02402090EA0007500199
B1020205434345N02402093EA0007400198
B1020215434338N02402095EA0007300197
B1020225434333N02402097EA0007200196
B1020235434326N02402098EA0007100195
B1020245434320N02402100EA0007000194
B1020255434314N02402102EA0006800192
B1020265434308N02402104EA0006600190
B1020275434302N02402106EA0006400189
B1020285434296N02402109EA0006300187
B1020295434291N02402113EA0006100186
B1020305434286N02402117EA0006000184
B1020315434282N02402122EA0005900183
B1020325434278N02402128EA0005800182
B1020335434275N02402133EA0005700181
B1020345434273N02402138EA0005600180
B1020355434273N02402144EA0005500179
B1020365434272N02402149EA0005300178
B1020375434273N02402154EA0005200177
B1020385434273N02402157EA0005200176
B1020395434274N02402160EA0005100175
B1020405434275N02402162EA0004900173
B1020415434277N02402164EA0004700171
B1020425434279N02402165EA0004600170
B1020435434282N02402165EA0004400168
B1020445434284N02402166EA0004200166
B1020455434286N02402168EA0004000165
B1020465434289N02402169EA0003900163
B1020475434291N02402172EA0003700162
B1020485434292N02402175EA0003600160
B1020495434295N02402178EA0003400159
B1020505434296N02402182EA0003300158
B1020515434297N02402186EA0003200156
B1020525434298N02402190EA0003000155
B1020535434299N02402193EA0002900153
B1020545434301N02402196EA0002700151
B1020555434303N02402199EA0002400149
B1020565434305N02402201EA0002200146
B1020575434308N02402203EA0002100145
B1020585434310N02402205EA0002000144
B1020595434312N02402207EA0001800143
B1021005434314N02402208EA0001700141
B1021015434317N02402210EA0001600141
B1021025434320N02402212EA0001500140
B1021035434324N02402213EA0001400138
B1021045434328N02402212EA0001300138
B1021055434332N02402210EA0001200137
B1021065434335N02402207EA0001000135
B1021075434339N02402203EA0000900133
B1021085434342N02402200EA0000600131
B1021095434346N02402198EA0000400129
B1021105434349N02402196EA0000300127
B1021115434352N02402195EA0000100126
B1021125434355N02402195EA-000100123
B1021135434358N02402195EA-000300122
B1021145434361N02402195EA-000400120
B1021155434364N02402196EA-000600119
B1021165434368N02402196EA-000700117
B1021175434370N02402197EA-000900115
B1021185434373N02402199EA-001000115
B1021195434376N02402200EA-001100114
B1021205434378N02402203EA-001200112
B1021215434381N02402207EA-001400110
B1021225434383N02402211EA-001500110
B1021235434386N02402213EA-001500110
B1021245434389N02402215EA-001500109
B1021255434391N02402217EA-001600108
B1021265434393N02402219EA-001800106
B1021275434395N02402220EA-002000105
B1021285434396N02402222EA-001800106
B1021295434397N02402223EA-001800107
B1021305434396N02402223EA-001800106
B1021315434396N02402223EA-001800106
B1021325434397N02402223EA-001800106
B1021335434397N02402224EA-001800106
B1021345434396N02402223EA-001800106
B1021355434397N02402223EA-001800106
B1021365434397N02402223EA-001800106
B1021375434397N02402223EA-001800106
B1021385434397N02402223EA-001800106
B1021395434397N02402223EA-001800106
B1021405434397N02402222EA-001800106
B1021415434397N02402222EA-001800106
B1021425434397N02402222EA-001800106
B1021435434397N02402222EA-001800106
B1021445434397N02402222EA-001800106
B1021455434397N02402223EA-001800106
B1021465434397N02402222EA-001800106
B1021475434397N02402222EA-001800106
B1021485434397N02402222EA-001800106
B1021495434397N02402222EA-001800106
B1021505434397N02402222EA-001800106
B1021515434397N02402222EA-001800106
B1021525434397N02402222EA-001800106
B1021535434397N02402222EA-001800106
B1021545434397N02402222EA-001800106
B1021555434398N02402222EA-001800106
B1021565434398N02402222EA-001800106
B1021575434398N02402222EA-001800106
B1021585434398N02402222EA-001800106
B1021595434398N02402222EA-001800106
B1022005434398N02402222EA-001800106
B1022015434398N02402222EA-001800106
B1022025434398N02402222EA-001800106
B1022035434398N02402221EA-001800106
B1022045434398N02402222EA-001800106
B1022055434398N02402221EA-001800106
B1022065434398N02402221EA-001800106
B1022075434398N02402220EA-001800106
B1022085434398N02402220EA-001800106
B1022095434397N02402220EA-001800106
B1022105434397N02402220EA-001800106
B1022115434397N02402220EA-001800106
B1022125434397N02402220EA-001800106
B1022135434397N02402220EA-001800106
B1022145434397N02402220EA-001800106
B1022155434397N02402220EA-001800106
B1022165434397N02402220EA-001800106
B1022175434397N02402220EA-001800106
B1022185434397N02402220EA-001800106
B1022195434397N02402220EA-001800106
B1022205434397N02402220EA-001800106
B1022215434397N02402220EA-001800106
B1022225434397N02402220EA-001800106
B1022235434397N02402219EA-001800106
B1022245434397N02402220EA-001800106
B1022255434397N02402219EA-001800106
B1022265434397N02402219EA-001800106
B1022275434397N02402219EA-001800106
B1022285434397N02402219EA-001800106
B1022295434397N02402219EA-001800106
B1022305434397N02402219EA-001800106
B1022315434397N02402219EA-001800106
B1022325434397N02402219EA-001800106
B1022335434397N02402219EA-001800106
B1022345434397N02402219EA-001800106
B1022355434396N02402219EA-001800106
B1022365434397N02402219EA-001800106
B1022375434397N02402219EA-001800106
B1022385434397N02402219EA-001800106
B1022395434396N02402218EA-001800106
B1022405434396N02402218EA-001800106
B1022415434396N02402217EA-001800106
B1022425434396N02402217EA-001800106
B1022435434396N02402217EA-001800106
B1022445434396N02402216EA-001800106
B1022455434397N02402215EA-001800106
B1022465434396N02402215EA-001800106
B1022475434397N02402214EA-001800106
B1022485434397N02402214EA-001800106
B1022495434397N02402214EA-001800106
B1022505434397N02402214EA-001800106
B1022515434397N02402214EA-001800106
B1022525434397N02402213EA-001800106
B1022535434397N02402213EA-001800107
B1022545434397N02402213EA-001800107
B1022555434397N02402212EA-001800106
B1022565434397N02402212EA-001800106
B1022575434397N02402212EA-001800106
B1022585434397N02402212EA-001800106
B1022595434397N02402211EA-001800106
B1023005434397N02402210EA-001800107
B1023015434397N02402209EA-001800106
B1023025434397N02402208EA-001800106
B1023035434396N02402207EA-001800106
B1023045434396N02402205EA-001800106
B1023055434395N02402205EA-001800106
B1023065434395N02402204EA-001800106
B1023075434395N02402203EA-001800106
B1023085434395N02402202EA-001800106
B1023095434395N02402201EA-001800106
B1023105434395N02402200EA-001800106
B1023115434395N02402199EA-001800106
B1023125434395N02402198EA-001800106
B1023135434395N02402197EA-001800106
B1023145434395N02402196EA-001800106
B1023155434395N02402195EA-001800106
B1023165434395N02402194EA-001800106
B1023175434394N02402193EA-001800106
B1023185434394N02402192EA-001800106
B1023195434394N02402191EA-001800106
B1023205434394N02402190EA-001800106
B1023215434393N02402189EA-001800106
B1023225434393N02402188EA-001800106
B1023235434392N02402187EA-001800106
B1023245434392N02402186EA-001800106
B1023255434392N02402185EA-001800106
B1023265434392N02402184EA-001800106
B1023275434392N02402184EA-001800106
B1023285434392N02402183EA-001800106
B1023295434392N02402183EA-001800106
LXSX;GF:1.3
G0F7377A0828CAD0ADC41E3CE2B4D7435
