AXSX003 SKYTRAXX V3.0.14 SN:00000380
HFPLTPILOT:Sepp Bucher
HFGTYGLIDERTYPE:Advance Sigma10
HFDTM100GPSDATUM:WGS-84
HFCIDCOMPETITIONID:0000
HFCCLCOMPETITION CLASS:Paraglider (Standard)
HFSITSITE:UNKNOWN
HFDTE071019
B1543134426600N00622290EA0124001239
B1543144426600N00622290EA0124001239
B1543154426600N00622290EA0124001239
B1543164426600N00622289EA0124001239
B1543174426600N00622289EA0123901238
B1543184426599N00622290EA0124001239
B1543194426598N00622290EA0123901239
B1543204426598N00622289EA0123801237
B1543214426598N00622288EA0123801237
B1543224426598N00622288EA0123701237
B1543234426599N00622287EA0123701237
B1543244426600N00622286EA0123601236
B1543254426600N00622285EA0123401235
B1543264426600N00622282EA0123201233
B1543274426599N00622278EA0123201238
B1543284426600N00622274EA0123101241
B1543294426602N00622269EA0122901238
B1543304426605N00622265EA0122801238
B1543314426608N00622261EA0123001240
B1543324426609N00622258EA0123201242
B1543334426611N00622256EA0123301242
B1543344426613N00622254EA0123101241
B1543354426615N00622251EA0123001239
B1543364426618N00622250EA0122901239
B1543374426621N00622248EA0122901239
B1543384426624N00622248EA0123001239
B1543394426627N00622248EA0123001240
B1543404426630N00622247EA0123001240
B1543414426633N00622245EA0123001240
B1543424426636N00622244EA0122901239
B1543434426640N00622243EA0122901239
B1543444426643N00622244EA0123001240
B1543454426646N00622245EA0123101241
B1543464426649N00622246EA0123201242
B1543474426652N00622246EA0123201242
B1543484426655N00622246EA0123201242
B1543494426659N00622247EA0123201242
B1543504426662N00622248EA0123201242
B1543514426665N00622250EA0123201242
B1543524426669N00622252EA0123401243
B1543534426672N00622253EA0123401244
B1543544426675N00622254EA0123401244
B1543554426679N00622255EA0123401243
B1543564426683N00622258EA0123301243
B1543574426687N00622260EA0123401243
B1543584426692N00622263EA0123501244
B1543594426695N00622265EA0123601246
B1544004426699N00622267EA0123701247
B1544014426703N00622269EA0123701247
B1544024426706N00622271EA0123701247
B1544034426711N00622273EA0123701247
B1544044426715N00622274EA0123701247
B1544054426719N00622276EA0123801248
B1544064426723N00622277EA0123901249
B1544074426727N00622278EA0124001250
B1544084426730N00622278EA0124001249
B1544094426735N00622280EA0123901249
B1544104426739N00622282EA0124001250
B1544114426743N00622284EA0124001250
B1544124426748N00622286EA0124101251
B1544134426752N00622288EA0124201251
B1544144426756N00622291EA0124101250
B1544154426761N00622294EA0124101251
B1544164426765N00622296EA0124201252
B1544174426770N00622298EA0124201252
B1544184426774N00622301EA0124301253
B1544194426778N00622304EA0124501255
B1544204426782N00622307EA0124601256
B1544214426786N00622309EA0124501255
B1544224426790N00622310EA0124501254
B1544234426795N00622312EA0124401254
B1544244426799N00622314EA0124501254
B1544254426804N00622315EA0124601255
B1544264426808N00622317EA0124601256
B1544274426812N00622318EA0124701257
B1544284426816N00622319EA0124801257
B1544294426821N00622320EA0124901258
B1544304426825N00622322EA0124901258
B1544314426830N00622324EA0124701257
B1544324426835N00622326EA0124801257
B1544334426840N00622328EA0124901258
B1544344426845N00622329EA0125001260
B1544354426849N00622331EA0125201261
B1544364426853N00622332EA0125201262
B1544374426857N00622333EA0125201262
B1544384426861N00622334EA0125301262
B1544394426866N00622335EA0125301263
B1544404426870N00622336EA0125401264
B1544414426875N00622337EA0125601265
B1544424426878N00622339EA0125801267
B1544434426881N00622340EA0125901269
B1544444426885N00622341EA0125901269
B1544454426889N00622342EA0126001269
B1544464426892N00622342EA0126101271
B1544474426897N00622343EA0126301273
B1544484426900N00622345EA0126401274
B1544494426904N00622346EA0126601275
B1544504426907N00622347EA0126601276
B1544514426911N00622347EA0126601276
B1544524426915N00622349EA0126701276
B1544534426919N00622350EA0126701277
B1544544426923N00622351EA0126801278
B1544554426926N00622351EA0127001279
B1544564426930N00622351EA0127101281
B1544574426933N00622350EA0127301283
B1544584426936N00622347EA0127401284
B1544594426937N00622344EA0127501285
B1545004426936N00622339EA0127601285
B1545014426935N00622334EA0127701286
B1545024426931N00622330EA0127801287
B1545034426926N00622328EA0127901288
B1545044426920N00622327EA0128001289
B1545054426915N00622327EA0128101290
B1545064426909N00622328EA0128101290
B1545074426903N00622330EA0128101291
B1545084426896N00622332EA0128201292
B1545094426889N00622334EA0128301293
B1545104426882N00622336EA0128401294
B1545114426876N00622338EA0128601295
B1545124426870N00622340EA0128601296
B1545134426864N00622342EA0128701296
B1545144426857N00622345EA0128601296
B1545154426851N00622347EA0128601296
B1545164426844N00622349EA0128701297
B1545174426837N00622351EA0128801298
B1545184426831N00622352EA0129001299
B1545194426825N00622352EA0129101301
B1545204426819N00622352EA0129201302
B1545214426813N00622352EA0129301302
B1545224426807N00622352EA0129301303
B1545234426800N00622352EA0129401303
B1545244426795N00622352EA0129401304
B1545254426789N00622350EA0129501305
B1545264426783N00622348EA0129601306
B1545274426777N00622347EA0129701307
B1545284426771N00622345EA0129801308
B1545294426767N00622342EA0129901309
B1545304426763N00622340EA0130001310
B1545314426760N00622336EA0130001309
B1545324426758N00622332EA0129801308
B1545334426758N00622327EA0129801307
B1545344426759N00622322EA0129701307
B1545354426762N00622319EA0129701307
B1545364426766N00622318EA0129701307
B1545374426770N00622319EA0129701307
B1545384426773N00622320EA0129801308
B1545394426777N00622322EA0129901309
B1545404426781N00622324EA0129901309
B1545414426785N00622326EA0129901309
B1545424426789N00622327EA0129901309
B1545434426793N00622329EA0130001310
B1545444426797N00622332EA0130101311
B1545454426801N00622334EA0130301312
B1545464426805N00622336EA0130301312
B1545474426809N00622338EA0130201312
B1545484426813N00622339EA0130301312
B1545494426817N00622341EA0130301313
B1545504426821N00622342EA0130501315
B1545514426825N00622343EA0130601315
B1545524426829N00622344EA0130601316
B1545534426832N00622345EA0130601316
B1545544426836N00622345EA0130601316
B1545554426840N00622345EA0130601316
B1545564426844N00622346EA0130701316
B1545574426848N00622347EA0130801317
B1545584426852N00622348EA0130901319
B1545594426855N00622349EA0131001320
B1546004426859N00622350EA0131101321
B1546014426862N00622350EA0131101321
B1546024426866N00622350EA0131201321
B1546034426869N00622349EA0131201322
B1546044426873N00622349EA0131301323
B1546054426876N00622348EA0131301323
B1546064426880N00622346EA0131301323
B1546074426883N00622344EA0131401323
B1546084426886N00622342EA0131401324
B1546094426890N00622341EA0131501324
B1546104426893N00622340EA0131501325
B1546114426897N00622340EA0131501325
B1546124426901N00622341EA0131501325
B1546134426905N00622342EA0131401324
B1546144426910N00622345EA0131401324
B1546154426914N00622348EA0131501325
B1546164426917N00622349EA0131601326
B1546174426921N00622350EA0131601326
B1546184426925N00622351EA0131601326
B1546194426929N00622352EA0131601326
B1546204426933N00622353EA0131601326
B1546214426938N00622353EA0131701327
B1546224426941N00622353EA0131801327
B1546234426945N00622354EA0131801328
B1546244426949N00622356EA0131801328
B1546254426953N00622357EA0131901328
B1546264426957N00622357EA0131901328
B1546274426961N00622358EA0131901329
B1546284426966N00622360EA0132001329
B1546294426970N00622362EA0132001330
B1546304426974N00622362EA0132001330
B1546314426976N00622360EA0131901329
B1546324426979N00622355EA0131801328
B1546334426979N00622350EA0131801328
B1546344426977N00622345EA0131901329
B1546354426976N00622342EA0132101331
B1546364426974N00622338EA0132201332
B1546374426973N00622334EA0132201331
B1546384426971N00622330EA0132101330
B1546394426968N00622326EA0132001329
B1546404426963N00622324EA0131901328
B1546414426956N00622324EA0131901329
B1546424426950N00622324EA0132101331
B1546434426945N00622325EA0132301332
B1546444426941N00622326EA0132301332
B1546454426935N00622326EA0132201332
B1546464426929N00622326EA0132101331
B1546474426923N00622326EA0132101330
B1546484426917N00622325EA0132101331
B1546494426911N00622326EA0132401333
B1546504426906N00622327EA0132501334
B1546514426900N00622328EA0132401334
B1546524426894N00622328EA0132301333
B1546534426888N00622328EA0132301333
B1546544426881N00622328EA0132401334
B1546554426876N00622329EA0132501335
B1546564426870N00622330EA0132601336
B1546574426864N00622330EA0132501335
B1546584426859N00622330EA0132601335
B1546594426853N00622329EA0132601335
B1547004426847N00622330EA0132601336
B1547014426841N00622330EA0132701337
B1547024426835N00622329EA0132701337
B1547034426830N00622329EA0132801338
B1547044426824N00622330EA0132801338
B1547054426818N00622330EA0132901339
B1547064426812N00622331EA0132901339
B1547074426806N00622332EA0132901339
B1547084426800N00622332EA0132901338
B1547094426795N00622332EA0132901338
B1547104426789N00622332EA0132901339
B1547114426782N00622333EA0133001339
B1547124426776N00622333EA0132901338
B1547134426770N00622333EA0132901338
B1547144426765N00622333EA0132901339
B1547154426759N00622334EA0132901339
B1547164426753N00622335EA0132901339
B1547174426747N00622335EA0132801338
B1547184426741N00622336EA0132801338
B1547194426734N00622336EA0132801338
B1547204426728N00622337EA0132801338
B1547214426722N00622337EA0132801338
B1547224426716N00622337EA0132801338
B1547234426710N00622338EA0132801338
B1547244426704N00622339EA0132801338
B1547254426698N00622339EA0132701336
B1547264426692N00622339EA0132501335
B1547274426686N00622339EA0132501335
B1547284426680N00622339EA0132401334
B1547294426674N00622339EA0132301333
B1547304426668N00622340EA0132201332
B1547314426663N00622340EA0132101330
B1547324426657N00622340EA0131901329
B1547334426650N00622340EA0131801328
B1547344426644N00622340EA0131801327
B1547354426638N00622341EA0131901328
B1547364426632N00622341EA0131801328
B1547374426627N00622342EA0131701326
B1547384426621N00622341EA0131501325
B1547394426614N00622341EA0131401324
B1547404426608N00622340EA0131401323
B1547414426602N00622339EA0131301323
B1547424426595N00622339EA0131401324
B1547434426590N00622340EA0131401324
B1547444426584N00622340EA0131301322
B1547454426579N00622340EA0131101321
B1547464426572N00622341EA0130901318
B1547474426566N00622342EA0130701317
B1547484426560N00622344EA0130601316
B1547494426553N00622346EA0130501315
B1547504426547N00622348EA0130501315
B1547514426540N00622349EA0130501315
B1547524426535N00622350EA0130401314
B1547534426529N00622350EA0130301312
B1547544426522N00622350EA0130301313
B1547554426517N00622349EA0130201312
B1547564426511N00622349EA0130101311
B1547574426505N00622349EA0130001310
B1547584426499N00622349EA0129801308
B1547594426493N00622348EA0129601306
B1548004426487N00622346EA0129501305
B1548014426481N00622343EA0129401304
B1548024426477N00622339EA0129501305
B1548034426473N00622335EA0129401304
B1548044426471N00622330EA0129201302
B1548054426470N00622325EA0129101301
B1548064426469N00622320EA0129001300
B1548074426468N00622314EA0129001300
B1548084426469N00622310EA0129001300
B1548094426470N00622305EA0128801298
B1548104426472N00622302EA0128701296
B1548114426476N00622298EA0128601295
B1548124426480N00622296EA0128601295
B1548134426483N00622295EA0128501295
B1548144426487N00622294EA0128601295
B1548154426490N00622292EA0128601295
B1548164426494N00622291EA0128401293
B1548174426498N00622290EA0128101291
B1548184426502N00622289EA0128001290
B1548194426505N00622288EA0128101291
B1548204426509N00622286EA0128101291
B1548214426512N00622285EA0128001290
B1548224426515N00622284EA0127901288
B1548234426519N00622283EA0127701287
B1548244426523N00622283EA0127601286
B1548254426527N00622282EA0127601285
B1548264426532N00622282EA0127601285
B1548274426536N00622283EA0127401283
B1548284426539N00622284EA0127201282
B1548294426543N00622283EA0127201281
B1548304426546N00622280EA0126801278
B1548314426550N00622277EA0126601276
B1548324426554N00622274EA0126701277
B1548334426557N00622272EA0126801277
B1548344426561N00622271EA0126801278
B1548354426564N00622270EA0126801278
B1548364426568N00622269EA0126801277
B1548374426572N00622267EA0127001280
B1548384426575N00622267EA0127101280
B1548394426578N00622266EA0127201281
B1548404426581N00622266EA0127201282
B1548414426583N00622266EA0126901279
B1548424426586N00622265EA0126701277
B1548434426590N00622262EA0126601275
B1548444426594N00622260EA0126601276
B1548454426598N00622258EA0126701276
B1548464426601N00622257EA0126901278
B1548474426604N00622258EA0126901279
B1548484426607N00622257EA0126801277
B1548494426610N00622256EA0126501275
B1548504426613N00622254EA0126301273
B1548514426617N00622251EA0126401273
B1548524426621N00622249EA0126301273
B1548534426624N00622249EA0126301273
B1548544426627N00622248EA0126301273
B1548554426630N00622248EA0126201272
B1548564426633N00622247EA0126001270
B1548574426636N00622246EA0125801268
B1548584426640N00622245EA0125601266
B1548594426645N00622245EA0125501265
B1549004426648N00622244EA0125401264
B1549014426652N00622244EA0125501264
B1549024426656N00622244EA0125501264
B1549034426660N00622243EA0125301263
B1549044426664N00622242EA0125201262
B1549054426668N00622242EA0125301262
B1549064426673N00622243EA0125201262
B1549074426677N00622244EA0125201262
B1549084426681N00622245EA0125301263
B1549094426685N00622246EA0125201262
B1549104426690N00622246EA0125201261
B1549114426694N00622247EA0125301263
B1549124426699N00622249EA0125301263
B1549134426703N00622252EA0125301263
B1549144426707N00622255EA0125301263
B1549154426711N00622256EA0125401263
B1549164426715N00622257EA0125301263
B1549174426719N00622257EA0125301262
B1549184426724N00622258EA0125301263
B1549194426727N00622260EA0125401264
B1549204426731N00622261EA0125501265
B1549214426735N00622262EA0125501264
B1549224426739N00622263EA0125501265
B1549234426743N00622263EA0125501264
B1549244426747N00622265EA0125501264
B1549254426751N00622266EA0125501265
B1549264426755N00622267EA0125601266
B1549274426759N00622268EA0125601266
B1549284426763N00622270EA0125501264
B1549294426768N00622272EA0125401263
B1549304426773N00622275EA0125401263
B1549314426778N00622276EA0125401264
B1549324426782N00622279EA0125601265
B1549334426787N00622281EA0125701266
B1549344426791N00622283EA0125701266
B1549354426795N00622285EA0125701266
B1549364426799N00622287EA0125701266
B1549374426804N00622289EA0125601266
B1549384426809N00622291EA0125501265
B1549394426814N00622293EA0125601266
B1549404426818N00622294EA0125801267
B1549414426822N00622295EA0125701267
B1549424426827N00622297EA0125701267
B1549434426831N00622299EA0125601266
B1549444426835N00622300EA0125701267
B1549454426840N00622300EA0125901269
B1549464426844N00622300EA0126001269
B1549474426848N00622300EA0126001270
B1549484426852N00622300EA0126101271
B1549494426856N00622301EA0126101271
B1549504426860N00622302EA0126201271
B1549514426865N00622302EA0126201272
B1549524426869N00622303EA0126201271
B1549534426873N00622304EA0126201272
B1549544426879N00622305EA0126301272
B1549554426883N00622306EA0126301272
B1549564426888N00622307EA0126301273
B1549574426892N00622308EA0126301273
B1549584426897N00622309EA0126401274
B1549594426900N00622309EA0126501274
B1550004426905N00622309EA0126501274
B1550014426909N00622309EA0126501274
B1550024426914N00622309EA0126501275
B1550034426918N00622309EA0126601276
B1550044426922N00622309EA0126701276
B1550054426926N00622310EA0126801278
B1550064426931N00622311EA0126901279
B1550074426935N00622313EA0127001279
B1550084426939N00622315EA0127101280
B1550094426943N00622316EA0127201282
B1550104426947N00622318EA0127301282
B1550114426951N00622319EA0127301283
B1550124426956N00622319EA0127301282
B1550134426960N00622318EA0127201282
B1550144426963N00622317EA0127401283
B1550154426967N00622315EA0127501285
B1550164426970N00622313EA0127601286
B1550174426973N00622310EA0127701287
B1550184426974N00622306EA0127801287
B1550194426974N00622301EA0127701286
B1550204426972N00622295EA0127601285
B1550214426968N00622290EA0127701287
B1550224426964N00622286EA0127801288
B1550234426958N00622284EA0127901289
B1550244426953N00622284EA0128001290
B1550254426947N00622284EA0128101290
B1550264426941N00622284EA0128201291
B1550274426936N00622284EA0128201292
B1550284426929N00622284EA0128201292
B1550294426923N00622284EA0128301292
B1550304426917N00622284EA0128401293
B1550314426911N00622283EA0128501295
B1550324426905N00622283EA0128601295
B1550334426899N00622282EA0128601295
B1550344426894N00622282EA0128601296
B1550354426888N00622282EA0128601296
B1550364426881N00622283EA0128701297
B1550374426876N00622284EA0128801297
B1550384426869N00622284EA0128801297
B1550394426863N00622284EA0128801298
B1550404426857N00622283EA0128901298
B1550414426851N00622283EA0128901299
B1550424426846N00622282EA0129001300
B1550434426840N00622281EA0129201302
B1550444426835N00622280EA0129201301
B1550454426829N00622280EA0129201301
B1550464426823N00622280EA0129101301
B1550474426817N00622280EA0129101301
B1550484426811N00622279EA0129101301
B1550494426806N00622279EA0129201301
B1550504426800N00622279EA0129201302
B1550514426795N00622279EA0129301302
B1550524426789N00622279EA0129201302
B1550534426784N00622279EA0129101301
B1550544426778N00622279EA0129101301
B1550554426772N00622280EA0129101301
B1550564426766N00622280EA0129301302
B1550574426761N00622280EA0129401303
B1550584426755N00622279EA0129301303
B1550594426751N00622278EA0129201302
B1551004426745N00622277EA0129101301
B1551014426738N00622277EA0129101301
B1551024426732N00622277EA0129101301
B1551034426726N00622277EA0129201302
B1551044426720N00622276EA0129301303
B1551054426714N00622276EA0129301302
B1551064426708N00622276EA0129301303
B1551074426701N00622276EA0129501305
B1551084426695N00622276EA0129501305
B1551094426689N00622276EA0129501305
B1551104426684N00622275EA0129601306
B1551114426677N00622275EA0129601306
B1551124426670N00622276EA0129601306
B1551134426664N00622276EA0129701307
B1551144426658N00622277EA0129801307
B1551154426651N00622278EA0129901308
B1551164426645N00622280EA0129901309
B1551174426639N00622282EA0129801308
B1551184426632N00622283EA0129601305
B1551194426626N00622284EA0129401304
B1551204426619N00622285EA0129501304
B1551214426612N00622287EA0129401304
B1551224426605N00622290EA0129401304
B1551234426599N00622292EA0129301303
B1551244426592N00622294EA0129201302
B1551254426586N00622294EA0129201302
B1551264426580N00622295EA0129301303
B1551274426574N00622297EA0129301303
B1551284426568N00622298EA0129201302
B1551294426562N00622299EA0129001300
B1551304426556N00622297EA0128801298
B1551314426551N00622293EA0128601296
B1551324426547N00622288EA0128601295
B1551334426545N00622283EA0128501295
B1551344426544N00622278EA0128501295
B1551354426543N00622273EA0128401294
B1551364426543N00622268EA0128301293
B1551374426542N00622263EA0128201292
B1551384426542N00622257EA0128301292
B1551394426542N00622252EA0128301293
B1551404426541N00622247EA0128301293
B1551414426540N00622243EA0128301293
B1551424426540N00622238EA0128301292
B1551434426539N00622233EA0128101291
B1551444426538N00622227EA0127901289
B1551454426537N00622221EA0127901289
B1551464426536N00622216EA0127901289
B1551474426534N00622210EA0128001289
B1551484426532N00622205EA0127901289
B1551494426532N00622199EA0127701287
B1551504426534N00622194EA0127501285
B1551514426537N00622188EA0127401283
B1551524426540N00622184EA0127301283
B1551534426544N00622182EA0127401283
B1551544426548N00622182EA0127301282
B1551554426553N00622185EA0127101281
B1551564426557N00622190EA0127101280
B1551574426560N00622194EA0127101280
B1551584426564N00622197EA0127101280
B1551594426567N00622200EA0127001280
B1552004426571N00622203EA0126901278
B1552014426575N00622206EA0126801277
B1552024426579N00622209EA0126701277
B1552034426583N00622212EA0126701277
B1552044426587N00622215EA0126701277
B1552054426591N00622218EA0126701277
B1552064426595N00622220EA0126701276
B1552074426599N00622222EA0126601275
B1552084426602N00622223EA0126501275
B1552094426607N00622225EA0126601275
B1552104426611N00622227EA0126501275
B1552114426615N00622229EA0126401274
B1552124426619N00622231EA0126401274
B1552134426623N00622233EA0126401274
B1552144426627N00622236EA0126401274
B1552154426632N00622239EA0126401274
B1552164426636N00622242EA0126401274
B1552174426640N00622245EA0126501275
B1552184426643N00622248EA0126501274
B1552194426647N00622250EA0126401274
B1552204426651N00622252EA0126401274
B1552214426655N00622254EA0126501274
B1552224426659N00622256EA0126501275
B1552234426663N00622258EA0126401274
B1552244426667N00622259EA0126401274
B1552254426671N00622261EA0126301273
B1552264426676N00622263EA0126301272
B1552274426680N00622266EA0126401273
B1552284426684N00622269EA0126401274
B1552294426687N00622271EA0126401274
B1552304426692N00622273EA0126301273
B1552314426695N00622274EA0126301273
B1552324426700N00622276EA0126201272
B1552334426704N00622278EA0126201272
B1552344426708N00622280EA0126301273
B1552354426712N00622281EA0126301273
B1552364426717N00622283EA0126401274
B1552374426721N00622285EA0126401273
B1552384426725N00622288EA0126301272
B1552394426730N00622290EA0126301273
B1552404426734N00622293EA0126301273
B1552414426738N00622295EA0126301272
B1552424426743N00622297EA0126301272
B1552434426747N00622299EA0126301273
B1552444426751N00622301EA0126401274
B1552454426755N00622303EA0126501274
B1552464426759N00622306EA0126401274
B1552474426764N00622308EA0126501274
B1552484426768N00622310EA0126501275
B1552494426773N00622313EA0126701276
B1552504426776N00622317EA0126601276
B1552514426780N00622323EA0126601275
B1552524426784N00622328EA0126601275
B1552534426788N00622332EA0126601276
B1552544426792N00622335EA0126701277
B1552554426797N00622337EA0126801278
B1552564426801N00622339EA0126901278
B1552574426805N00622341EA0127001280
B1552584426809N00622344EA0127101280
B1552594426813N00622346EA0127101281
B1553004426817N00622348EA0127101281
B1553014426821N00622350EA0127101281
B1553024426826N00622351EA0127201281
B1553034426830N00622352EA0127201282
B1553044426833N00622353EA0127301283
B1553054426837N00622353EA0127401284
B1553064426842N00622353EA0127401284
B1553074426846N00622353EA0127501285
B1553084426851N00622355EA0127501285
B1553094426854N00622356EA0127701286
B1553104426859N00622358EA0127801288
B1553114426863N00622360EA0128001289
B1553124426867N00622361EA0128101290
B1553134426871N00622363EA0128101291
B1553144426875N00622365EA0128201292
B1553154426879N00622365EA0128201292
B1553164426883N00622366EA0128301293
B1553174426886N00622365EA0128301293
B1553184426890N00622364EA0128301293
B1553194426894N00622363EA0128401293
B1553204426898N00622362EA0128301293
B1553214426901N00622362EA0128301293
B1553224426905N00622361EA0128401293
B1553234426909N00622360EA0128401294
B1553244426913N00622359EA0128501295
B1553254426917N00622359EA0128501295
B1553264426921N00622360EA0128601296
B1553274426925N00622360EA0128701297
B1553284426929N00622360EA0128901298
B1553294426931N00622357EA0128901299
B1553304426933N00622354EA0128901299
B1553314426934N00622349EA0128901299
B1553324426934N00622344EA0129001300
B1553334426932N00622339EA0129101301
B1553344426929N00622335EA0129201301
B1553354426925N00622331EA0129201302
B1553364426920N00622328EA0129301302
B1553374426914N00622326EA0129301303
B1553384426909N00622326EA0129301303
B1553394426902N00622326EA0129301303
B1553404426896N00622327EA0129401304
B1553414426890N00622329EA0129401304
B1553424426883N00622330EA0129501305
B1553434426877N00622332EA0129701306
B1553444426871N00622334EA0129801308
B1553454426865N00622335EA0129801308
B1553464426859N00622335EA0129701307
B1553474426853N00622334EA0129801307
B1553484426847N00622333EA0129801308
B1553494426841N00622331EA0130001309
B1553504426836N00622330EA0130101311
B1553514426831N00622329EA0130201311
B1553524426826N00622327EA0130101311
B1553534426821N00622325EA0130001310
B1553544426815N00622323EA0130101311
B1553554426810N00622321EA0130201312
B1553564426804N00622319EA0130301313
B1553574426799N00622316EA0130301313
B1553584426795N00622314EA0130401314
B1553594426789N00622312EA0130501314
B1554004426784N00622310EA0130401314
B1554014426778N00622309EA0130501315
B1554024426773N00622307EA0130601316
B1554034426769N00622306EA0130701316
B1554044426764N00622305EA0130801317
B1554054426758N00622304EA0130801318
B1554064426753N00622303EA0130701317
B1554074426747N00622302EA0130801317
B1554084426741N00622300EA0130901319
B1554094426736N00622300EA0131201321
B1554104426731N00622302EA0131201322
B1554114426726N00622303EA0131101321
B1554124426719N00622305EA0130901318
B1554134426713N00622306EA0130801318
B1554144426707N00622308EA0130901319
B1554154426700N00622310EA0131001319
B1554164426694N00622312EA0131001320
B1554174426688N00622314EA0130901319
B1554184426682N00622315EA0130901318
B1554194426675N00622316EA0130801317
B1554204426669N00622317EA0130701316
B1554214426662N00622318EA0130701316
B1554224426656N00622318EA0130601316
B1554234426650N00622317EA0130701317
B1554244426645N00622316EA0130701317
B1554254426639N00622315EA0130601316
B1554264426633N00622314EA0130601316
B1554274426627N00622314EA0130501315
B1554284426621N00622313EA0130501314
B1554294426616N00622313EA0130401314
B1554304426610N00622313EA0130301312
B1554314426604N00622313EA0130101311
B1554324426598N00622313EA0130001310
B1554334426592N00622313EA0130001310
B1554344426586N00622312EA0129901309
B1554354426579N00622311EA0129901308
B1554364426573N00622309EA0130001309
B1554374426567N00622308EA0130101311
B1554384426562N00622307EA0130101311
B1554394426556N00622306EA0130101310
B1554404426550N00622305EA0130001310
B1554414426544N00622305EA0130001309
B1554424426538N00622305EA0130001309
B1554434426531N00622305EA0129901309
B1554444426525N00622306EA0129901309
B1554454426520N00622307EA0129901308
B1554464426514N00622308EA0129701307
B1554474426508N00622310EA0129601305
B1554484426502N00622311EA0129501304
B1554494426495N00622312EA0129501304
B1554504426488N00622312EA0129501305
B1554514426482N00622313EA0129601306
B1554524426477N00622314EA0129601306
B1554534426471N00622314EA0129601306
B1554544426466N00622312EA0129501304
B1554554426461N00622309EA0129301302
B1554564426457N00622304EA0129101301
B1554574426455N00622298EA0129101301
B1554584426455N00622293EA0129101300
B1554594426456N00622289EA0128901299
B1555004426459N00622286EA0128901299
B1555014426463N00622285EA0128901298
B1555024426467N00622285EA0128801298
B1555034426471N00622287EA0128701297
B1555044426475N00622289EA0128601295
B1555054426479N00622291EA0128401294
B1555064426484N00622292EA0128301293
B1555074426489N00622292EA0128201291
B1555084426493N00622291EA0128101291
B1555094426497N00622291EA0128201292
B1555104426501N00622292EA0128301292
B1555114426505N00622292EA0128201292
B1555124426509N00622291EA0128101290
B1555134426513N00622291EA0128001289
B1555144426517N00622290EA0127901289
B1555154426521N00622289EA0127901289
B1555164426525N00622288EA0127901289
B1555174426529N00622287EA0127901288
B1555184426533N00622286EA0127801288
B1555194426538N00622285EA0127801288
B1555204426542N00622285EA0127801288
B1555214426545N00622285EA0127801287
B1555224426549N00622284EA0127801287
B1555234426553N00622284EA0127701287
B1555244426557N00622284EA0127701286
B1555254426561N00622283EA0127601286
B1555264426564N00622282EA0127601285
B1555274426568N00622282EA0127501285
B1555284426573N00622281EA0127501285
B1555294426577N00622281EA0127401284
B1555304426582N00622281EA0127401284
B1555314426586N00622282EA0127301283
B1555324426590N00622282EA0127301283
B1555334426594N00622282EA0127201282
B1555344426598N00622282EA0127201281
B1555354426602N00622281EA0127101280
B1555364426605N00622280EA0127001279
B1555374426610N00622280EA0126901279
B1555384426614N00622279EA0126901279
B1555394426618N00622279EA0126801278
B1555404426622N00622278EA0126801278
B1555414426627N00622278EA0126801278
B1555424426631N00622278EA0126901278
B1555434426635N00622279EA0126901279
B1555444426638N00622280EA0126901279
B1555454426642N00622282EA0126801277
B1555464426645N00622282EA0126501275
B1555474426649N00622281EA0126301273
B1555484426653N00622280EA0126201272
B1555494426658N00622280EA0126201272
B1555504426663N00622280EA0126401273
B1555514426667N00622280EA0126501275
B1555524426671N00622280EA0126601276
B1555534426675N00622282EA0126701277
B1555544426679N00622284EA0126701277
B1555554426683N00622286EA0126701276
B1555564426687N00622289EA0126601276
B1555574426692N00622291EA0126701277
B1555584426697N00622293EA0126901278
B1555594426700N00622294EA0127001279
B1556004426704N00622296EA0127201281
B1556014426708N00622298EA0127201282
B1556024426711N00622300EA0127201282
B1556034426715N00622302EA0127301283
B1556044426719N00622304EA0127301283
B1556054426722N00622306EA0127401283
B1556064426726N00622308EA0127401283
B1556074426730N00622311EA0127201282
B1556084426733N00622314EA0127201281
B1556094426737N00622317EA0127101281
B1556104426741N00622320EA0127001280
B1556114426745N00622323EA0126901279
B1556124426749N00622325EA0126901278
B1556134426754N00622328EA0126901278
B1556144426758N00622330EA0126801278
B1556154426763N00622332EA0126801277
B1556164426768N00622333EA0126701277
B1556174426772N00622336EA0126801278
B1556184426776N00622338EA0126901278
B1556194426780N00622341EA0126901279
B1556204426784N00622342EA0127001279
B1556214426788N00622344EA0127001280
B1556224426792N00622345EA0127101280
B1556234426796N00622346EA0127201282
B1556244426800N00622348EA0127401284
B1556254426803N00622350EA0127601285
B1556264426806N00622352EA0127601286
B1556274426810N00622353EA0127601286
B1556284426814N00622355EA0127601286
B1556294426818N00622357EA0127701286
B1556304426822N00622359EA0127801287
B1556314426826N00622361EA0127901288
B1556324426830N00622363EA0128001289
B1556334426833N00622364EA0128101290
B1556344426837N00622366EA0128101291
B1556354426841N00622367EA0128101291
B1556364426844N00622369EA0128201291
B1556374426848N00622370EA0128201291
B1556384426853N00622371EA0128201291
B1556394426857N00622372EA0128201291
B1556404426861N00622373EA0128201291
B1556414426865N00622374EA0128201291
B1556424426870N00622374EA0128201292
B1556434426875N00622375EA0128201292
B1556444426879N00622376EA0128301292
B1556454426884N00622377EA0128401293
B1556464426888N00622378EA0128501294
B1556474426891N00622377EA0128401294
B1556484426894N00622375EA0128301293
B1556494426895N00622371EA0128201291
B1556504426895N00622367EA0128101291
B1556514426894N00622362EA0128201291
B1556524426890N00622358EA0128201291
B1556534426886N00622357EA0128201292
B1556544426881N00622356EA0128201292
B1556554426876N00622357EA0128201291
B1556564426870N00622359EA0128101291
B1556574426865N00622362EA0128001290
B1556584426858N00622365EA0128001290
B1556594426852N00622367EA0128101290
B1557004426846N00622368EA0128101291
B1557014426840N00622368EA0128301292
B1557024426834N00622368EA0128501294
B1557034426828N00622368EA0128701296
B1557044426823N00622369EA0128801297
B1557054426818N00622371EA0128901298
B1557064426813N00622372EA0129001299
B1557074426807N00622373EA0129001299
B1557084426802N00622372EA0129001299
B1557094426798N00622370EA0129001300
B1557104426795N00622367EA0128901299
B1557114426793N00622362EA0128901299
B1557124426794N00622358EA0128801298
B1557134426796N00622355EA0128801297
B1557144426799N00622353EA0128701297
B1557154426804N00622353EA0128701297
B1557164426808N00622356EA0128701297
B1557174426812N00622360EA0128701297
B1557184426816N00622364EA0128701297
B1557194426820N00622367EA0128701297
B1557204426824N00622368EA0128701297
B1557214426828N00622368EA0128601296
B1557224426832N00622368EA0128501295
B1557234426836N00622368EA0128601295
B1557244426841N00622368EA0128701296
B1557254426846N00622368EA0128801298
B1557264426850N00622369EA0129001299
B1557274426854N00622371EA0129101301
B1557284426858N00622373EA0129101301
B1557294426862N00622374EA0129201301
B1557304426866N00622375EA0129201302
B1557314426869N00622373EA0129201301
B1557324426871N00622370EA0129001300
B1557334426873N00622367EA0129001299
B1557344426873N00622363EA0128901299
B1557354426873N00622359EA0128801298
B1557364426871N00622354EA0128601296
B1557374426867N00622351EA0128401294
B1557384426861N00622349EA0128301292
B1557394426855N00622350EA0128201292
B1557404426848N00622352EA0128301293
B1557414426842N00622355EA0128501294
B1557424426836N00622358EA0128701296
B1557434426831N00622361EA0128801298
B1557444426826N00622364EA0128901299
B1557454426820N00622366EA0129001299
B1557464426815N00622368EA0129101300
B1557474426810N00622370EA0129101301
B1557484426805N00622372EA0129101301
B1557494426799N00622374EA0129101301
B1557504426793N00622375EA0129101301
B1557514426788N00622375EA0129201301
B1557524426783N00622374EA0129201302
B1557534426778N00622371EA0129301302
B1557544426775N00622369EA0129301302
B1557554426773N00622365EA0129201302
B1557564426771N00622360EA0129201301
B1557574426771N00622356EA0129201301
B1557584426773N00622351EA0129201302
B1557594426774N00622348EA0129301303
B1558004426776N00622345EA0129401303
B1558014426778N00622341EA0129301303
B1558024426779N00622337EA0129201302
B1558034426781N00622332EA0129101301
B1558044426783N00622328EA0129101300
B1558054426785N00622323EA0129101301
B1558064426787N00622319EA0129101301
B1558074426789N00622315EA0129201301
B1558084426792N00622311EA0129201301
B1558094426795N00622307EA0129201301
B1558104426797N00622302EA0129201302
B1558114426799N00622297EA0129301302
B1558124426802N00622292EA0129301303
B1558134426805N00622288EA0129401304
B1558144426808N00622283EA0129501304
B1558154426811N00622278EA0129501305
B1558164426814N00622273EA0129601305
B1558174426816N00622269EA0129701307
B1558184426819N00622266EA0129801307
B1558194426821N00622262EA0129801307
B1558204426823N00622257EA0129701306
B1558214426824N00622252EA0129601306
B1558224426825N00622246EA0129701307
B1558234426825N00622241EA0130001310
B1558244426825N00622237EA0130201312
B1558254426823N00622234EA0130301312
B1558264426821N00622231EA0130201312
B1558274426819N00622227EA0130201312
B1558284426815N00622224EA0130201312
B1558294426811N00622221EA0130401313
B1558304426806N00622219EA0130501314
B1558314426801N00622219EA0130501315
B1558324426795N00622220EA0130601315
B1558334426789N00622222EA0130601316
B1558344426784N00622224EA0130601316
B1558354426778N00622228EA0130601316
B1558364426772N00622234EA0130601316
B1558374426767N00622241EA0130601316
B1558384426762N00622248EA0130801317
B1558394426759N00622256EA0130901318
B1558404426756N00622265EA0130901318
B1558414426753N00622274EA0130901318
B1558424426752N00622284EA0130901318
B1558434426752N00622294EA0130901318
B1558444426754N00622304EA0130901319
B1558454426756N00622313EA0131001320
B1558464426759N00622320EA0131201322
B1558474426762N00622326EA0131301323
B1558484426766N00622330EA0131301323
B1558494426770N00622333EA0131301322
B1558504426774N00622334EA0131201322
B1558514426779N00622334EA0131201322
B1558524426783N00622332EA0131201322
B1558534426786N00622330EA0131301322
B1558544426789N00622328EA0131301322
B1558554426791N00622326EA0131201322
B1558564426793N00622322EA0131101320
B1558574426795N00622318EA0130901319
B1558584426796N00622313EA0130901318
B1558594426797N00622308EA0131001319
B1559004426799N00622303EA0131201322
B1559014426800N00622299EA0131301323
B1559024426800N00622294EA0131501325
B1559034426799N00622290EA0131601325
B1559044426798N00622286EA0131601326
B1559054426796N00622283EA0131701326
B1559064426793N00622279EA0131701326
B1559074426789N00622277EA0131701326
B1559084426785N00622275EA0131701326
B1559094426779N00622275EA0131601326
B1559104426773N00622275EA0131601326
B1559114426768N00622278EA0131701326
B1559124426762N00622282EA0131701327
B1559134426756N00622288EA0131701327
B1559144426752N00622295EA0131701326
B1559154426748N00622303EA0131701326
B1559164426745N00622313EA0131701326
B1559174426743N00622323EA0131701326
B1559184426742N00622333EA0131701327
B1559194426742N00622343EA0131701327
B1559204426744N00622351EA0131801327
B1559214426747N00622359EA0131801328
B1559224426750N00622364EA0131801328
B1559234426754N00622368EA0131801328
B1559244426758N00622371EA0131901329
B1559254426763N00622373EA0132001330
B1559264426767N00622374EA0132101331
B1559274426770N00622374EA0132101331
B1559284426774N00622375EA0132101331
B1559294426779N00622377EA0132101330
B1559304426783N00622380EA0132101331
B1559314426788N00622382EA0132101331
B1559324426792N00622384EA0132101331
B1559334426796N00622385EA0132201331
B1559344426801N00622386EA0132101331
B1559354426805N00622386EA0132001330
B1559364426809N00622386EA0132001330
B1559374426813N00622384EA0132101330
B1559384426815N00622381EA0132101331
B1559394426816N00622378EA0132201331
B1559404426817N00622375EA0132201332
B1559414426817N00622371EA0132301333
B1559424426817N00622367EA0132301333
B1559434426818N00622363EA0132401334
B1559444426818N00622358EA0132501335
B1559454426817N00622354EA0132601336
B1559464426816N00622351EA0132701336
B1559474426814N00622347EA0132701337
B1559484426813N00622344EA0132701337
B1559494426810N00622341EA0132701337
B1559504426806N00622338EA0132701337
B1559514426801N00622337EA0132701337
B1559524426796N00622336EA0132701337
B1559534426790N00622338EA0132801338
B1559544426784N00622341EA0132901338
B1559554426779N00622347EA0132901338
B1559564426774N00622354EA0132901338
B1559574426770N00622363EA0132901339
B1559584426767N00622372EA0132901338
B1559594426766N00622382EA0132901338
B1600004426765N00622392EA0133001339
B1600014426766N00622401EA0133101341
B1600024426767N00622408EA0133101341
B1600034426770N00622416EA0133001340
B1600044426773N00622422EA0133001340
B1600054426777N00622427EA0133001340
B1600064426781N00622429EA0132901339
B1600074426785N00622429EA0132801338
B1600084426788N00622427EA0132801337
B1600094426791N00622424EA0132801338
B1600104426793N00622421EA0132901339
B1600114426795N00622419EA0133001339
B1600124426797N00622416EA0132901339
B1600134426799N00622413EA0132801338
B1600144426801N00622409EA0132701337
B1600154426803N00622404EA0132801337
B1600164426805N00622400EA0132801338
B1600174426807N00622397EA0132901339
B1600184426810N00622394EA0133001339
B1600194426811N00622390EA0132901338
B1600204426814N00622387EA0132901338
B1600214426816N00622382EA0132901338
B1600224426819N00622379EA0133001339
B1600234426820N00622375EA0133101341
B1600244426822N00622372EA0133201342
B1600254426822N00622368EA0133201342
B1600264426822N00622365EA0133201342
B1600274426822N00622360EA0133201341
B1600284426820N00622356EA0133201342
B1600294426818N00622352EA0133201342
B1600304426814N00622349EA0133201342
B1600314426811N00622347EA0133201342
B1600324426806N00622346EA0133201342
B1600334426801N00622345EA0133301342
B1600344426795N00622346EA0133301343
B1600354426789N00622349EA0133201342
B1600364426784N00622354EA0133201342
B1600374426778N00622362EA0133201341
B1600384426774N00622371EA0133101341
B1600394426771N00622380EA0133201342
B1600404426769N00622390EA0133301342
B1600414426768N00622400EA0133301342
B1600424426768N00622410EA0133301342
B1600434426770N00622420EA0133201342
B1600444426772N00622429EA0133201341
B1600454426775N00622437EA0133101341
B1600464426779N00622444EA0133101341
B1600474426783N00622449EA0133001340
B1600484426787N00622452EA0133001340
B1600494426792N00622454EA0132901339
B1600504426795N00622453EA0132901339
B1600514426799N00622451EA0132901338
B1600524426802N00622449EA0132901338
B1600534426805N00622447EA0132801338
B1600544426808N00622445EA0132801338
B1600554426811N00622444EA0132701337
B1600564426815N00622442EA0132701336
B1600574426818N00622439EA0132701336
B1600584426821N00622436EA0132701337
B1600594426824N00622433EA0132801337
B1601004426826N00622431EA0132801337
B1601014426829N00622429EA0132701337
B1601024426832N00622427EA0132601336
B1601034426834N00622424EA0132501335
B1601044426837N00622421EA0132501335
B1601054426840N00622418EA0132501335
B1601064426842N00622416EA0132501335
B1601074426845N00622413EA0132501335
B1601084426848N00622411EA0132501334
B1601094426851N00622408EA0132401334
B1601104426854N00622405EA0132401334
B1601114426857N00622402EA0132401333
B1601124426859N00622399EA0132401333
B1601134426862N00622397EA0132301333
B1601144426866N00622395EA0132301333
B1601154426869N00622392EA0132201332
B1601164426872N00622390EA0132201332
B1601174426876N00622388EA0132201332
B1601184426879N00622385EA0132301332
B1601194426882N00622383EA0132301332
B1601204426884N00622379EA0132301332
B1601214426886N00622375EA0132301332
B1601224426888N00622371EA0132301333
B1601234426890N00622367EA0132501334
B1601244426892N00622364EA0132601336
B1601254426894N00622361EA0132701337
B1601264426895N00622358EA0132701337
B1601274426897N00622355EA0132601336
B1601284426899N00622352EA0132501335
B1601294426901N00622348EA0132501335
B1601304426903N00622345EA0132601335
B1601314426905N00622342EA0132601336
B1601324426907N00622340EA0132601336
B1601334426909N00622337EA0132601336
B1601344426910N00622334EA0132501334
B1601354426910N00622329EA0132301333
B1601364426909N00622323EA0132301332
B1601374426906N00622318EA0132301333
B1601384426903N00622313EA0132501334
B1601394426899N00622310EA0132701336
B1601404426895N00622308EA0132701337
B1601414426892N00622307EA0132701336
B1601424426887N00622306EA0132601336
B1601434426882N00622305EA0132601335
B1601444426876N00622305EA0132501335
B1601454426871N00622305EA0132501335
B1601464426866N00622306EA0132601335
B1601474426860N00622307EA0132601336
B1601484426855N00622308EA0132601335
B1601494426849N00622309EA0132501335
B1601504426843N00622310EA0132501334
B1601514426837N00622311EA0132501334
B1601524426831N00622312EA0132501335
B1601534426825N00622313EA0132501335
B1601544426819N00622313EA0132601335
B1601554426814N00622313EA0132501335
B1601564426808N00622313EA0132501335
B1601574426802N00622313EA0132601335
B1601584426796N00622313EA0132601336
B1601594426790N00622313EA0132601336
B1602004426785N00622312EA0132501335
B1602014426780N00622310EA0132301332
B1602024426774N00622309EA0132101331
B1602034426770N00622306EA0132201332
B1602044426766N00622303EA0132301332
B1602054426762N00622299EA0132401333
B1602064426758N00622295EA0132501335
B1602074426755N00622292EA0132501335
B1602084426751N00622289EA0132601336
B1602094426748N00622285EA0132601336
B1602104426746N00622281EA0132601335
B1602114426745N00622276EA0132601335
B1602124426745N00622272EA0132501335
B1602134426747N00622268EA0132501335
B1602144426749N00622265EA0132501335
B1602154426753N00622265EA0132601335
B1602164426757N00622266EA0132601335
B1602174426762N00622268EA0132601335
B1602184426766N00622273EA0132601335
B1602194426770N00622280EA0132601335
B1602204426773N00622288EA0132601335
B1602214426773N00622298EA0132501335
B1602224426773N00622309EA0132501334
B1602234426770N00622319EA0132401334
B1602244426766N00622328EA0132401334
B1602254426761N00622334EA0132401334
B1602264426755N00622339EA0132401333
B1602274426749N00622342EA0132301333
B1602284426744N00622344EA0132201332
B1602294426738N00622344EA0132201332
B1602304426733N00622343EA0132201332
B1602314426730N00622340EA0132201331
B1602324426726N00622337EA0132201331
B1602334426724N00622333EA0132201331
B1602344426722N00622329EA0132101330
B1602354426720N00622325EA0132001330
B1602364426718N00622321EA0132001330
B1602374426716N00622316EA0132001329
B1602384426714N00622312EA0132001329
B1602394426713N00622308EA0132001330
B1602404426712N00622305EA0132001330
B1602414426711N00622301EA0132001329
B1602424426709N00622296EA0131901328
B1602434426709N00622292EA0131801328
B1602444426708N00622287EA0131701327
B1602454426708N00622282EA0131701327
B1602464426709N00622277EA0131701327
B1602474426710N00622273EA0131701327
B1602484426711N00622269EA0131701327
B1602494426712N00622265EA0131701327
B1602504426715N00622262EA0131701327
B1602514426717N00622258EA0131801328
B1602524426719N00622255EA0131901328
B1602534426721N00622252EA0131901329
B1602544426723N00622249EA0131901329
B1602554426725N00622245EA0131901329
B1602564426727N00622242EA0132001329
B1602574426730N00622238EA0132001330
B1602584426732N00622235EA0132001330
B1602594426735N00622232EA0132001330
B1603004426737N00622230EA0132001330
B1603014426739N00622226EA0132001329
B1603024426740N00622223EA0131901329
B1603034426742N00622218EA0131901328
B1603044426744N00622214EA0131901328
B1603054426745N00622210EA0131901328
B1603064426746N00622206EA0131901328
B1603074426746N00622202EA0131801328
B1603084426746N00622197EA0131701326
B1603094426746N00622192EA0131601325
B1603104426745N00622187EA0131501325
B1603114426743N00622182EA0131401324
B1603124426740N00622178EA0131401323
B1603134426737N00622174EA0131301323
B1603144426732N00622171EA0131201322
B1603154426727N00622169EA0131101321
B1603164426722N00622168EA0131101321
B1603174426715N00622167EA0131101320
B1603184426709N00622167EA0131101320
B1603194426703N00622166EA0131101321
B1603204426698N00622166EA0131101321
B1603214426692N00622165EA0131101321
B1603224426686N00622164EA0131001320
B1603234426680N00622164EA0131001320
B1603244426674N00622164EA0131001320
B1603254426668N00622164EA0131101320
B1603264426663N00622165EA0131101321
B1603274426658N00622165EA0131001320
B1603284426652N00622165EA0130901319
B1603294426646N00622165EA0130901319
B1603304426640N00622165EA0130801318
B1603314426634N00622166EA0130801318
B1603324426628N00622168EA0130801318
B1603334426623N00622172EA0130801318
B1603344426617N00622176EA0130801318
B1603354426611N00622181EA0130801317
B1603364426606N00622187EA0130701317
B1603374426601N00622193EA0130701317
B1603384426596N00622199EA0130701317
B1603394426591N00622206EA0130701317
B1603404426586N00622213EA0130701317
B1603414426582N00622220EA0130701317
B1603424426578N00622228EA0130701316
B1603434426573N00622236EA0130601316
B1603444426569N00622244EA0130601316
B1603454426565N00622252EA0130601315
B1603464426562N00622261EA0130501314
B1603474426558N00622270EA0130501314
B1603484426554N00622279EA0130401314
B1603494426550N00622287EA0130401314
B1603504426546N00622295EA0130501314
B1603514426542N00622302EA0130401314
B1603524426538N00622309EA0130301313
B1603534426534N00622317EA0130201311
B1603544426530N00622325EA0130001310
B1603554426525N00622332EA0130001309
B1603564426521N00622339EA0129901309
B1603574426516N00622346EA0129801308
B1603584426511N00622353EA0129701307
B1603594426506N00622360EA0129601306
B1604004426501N00622365EA0129501305
B1604014426495N00622370EA0129301303
B1604024426489N00622374EA0129201302
B1604034426482N00622377EA0129101301
B1604044426475N00622379EA0129101300
B1604054426469N00622381EA0129101300
B1604064426463N00622382EA0129001300
B1604074426457N00622382EA0128901299
B1604084426452N00622381EA0128801298
B1604094426446N00622379EA0128701296
B1604104426440N00622377EA0128701297
B1604114426435N00622374EA0128801297
B1604124426430N00622372EA0128801298
B1604134426425N00622371EA0128701297
B1604144426419N00622371EA0128601296
B1604154426414N00622371EA0128501294
B1604164426408N00622369EA0128401294
B1604174426402N00622367EA0128301293
B1604184426398N00622364EA0128201292
B1604194426394N00622360EA0128201292
B1604204426392N00622355EA0128101291
B1604214426391N00622350EA0128001290
B1604224426392N00622345EA0128001289
B1604234426394N00622340EA0128001289
B1604244426396N00622337EA0128001290
B1604254426396N00622334EA0128001289
B1604264426397N00622331EA0127901289
B1604274426398N00622327EA0127801288
B1604284426400N00622323EA0127701287
B1604294426402N00622319EA0127701287
B1604304426403N00622315EA0127701286
B1604314426403N00622311EA0127501285
B1604324426403N00622306EA0127401284
B1604334426404N00622302EA0127401283
B1604344426407N00622298EA0127301283
B1604354426410N00622294EA0127301282
B1604364426413N00622291EA0127301283
B1604374426415N00622288EA0127301283
B1604384426415N00622285EA0127301282
B1604394426417N00622282EA0127101281
B1604404426419N00622278EA0127001280
B1604414426421N00622275EA0127001279
B1604424426422N00622271EA0127001279
B1604434426424N00622267EA0127001279
B1604444426426N00622264EA0126901279
B1604454426428N00622261EA0126901278
B1604464426432N00622259EA0126801277
B1604474426437N00622260EA0126701277
B1604484426440N00622264EA0126601276
B1604494426444N00622270EA0126701276
B1604504426447N00622277EA0126701276
B1604514426448N00622284EA0126701277
B1604524426450N00622291EA0126801278
B1604534426452N00622298EA0126901278
B1604544426454N00622305EA0126801278
B1604554426456N00622311EA0126801277
B1604564426459N00622318EA0126701277
B1604574426462N00622323EA0126601276
B1604584426465N00622329EA0126501275
B1604594426468N00622334EA0126401274
B1605004426472N00622339EA0126301273
B1605014426476N00622343EA0126201272
B1605024426480N00622346EA0126201271
B1605034426483N00622350EA0126001270
B1605044426487N00622353EA0126001269
B1605054426490N00622354EA0125801268
B1605064426494N00622354EA0125601266
B1605074426497N00622352EA0125501265
B1605084426499N00622350EA0125501265
B1605094426502N00622348EA0125501265
B1605104426503N00622347EA0125401264
B1605114426505N00622345EA0125201262
B1605124426507N00622342EA0125101261
B1605134426509N00622340EA0125001260
B1605144426512N00622338EA0124901259
B1605154426514N00622336EA0124901259
B1605164426516N00622334EA0124901258
B1605174426518N00622333EA0124801258
B1605184426520N00622332EA0124701257
B1605194426521N00622330EA0124701257
B1605204426523N00622329EA0124601256
B1605214426525N00622327EA0124501255
B1605224426527N00622325EA0124501255
B1605234426529N00622324EA0124501254
B1605244426531N00622323EA0124501254
B1605254426533N00622323EA0124401254
B1605264426535N00622322EA0124401253
B1605274426538N00622321EA0124201252
B1605284426540N00622320EA0124101251
B1605294426543N00622319EA0124001250
B1605304426545N00622319EA0123901249
B1605314426547N00622318EA0123901249
B1605324426549N00622317EA0123901248
B1605334426552N00622316EA0123801247
B1605344426554N00622315EA0123701246
B1605354426557N00622314EA0123601246
B1605364426559N00622313EA0123401244
B1605374426562N00622310EA0123201242
B1605384426564N00622308EA0123101241
B1605394426566N00622307EA0123201242
B1605404426567N00622306EA0123301242
B1605414426568N00622306EA0123201242
B1605424426567N00622306EA0123201242
B1605434426567N00622305EA0123201242
B1605444426567N00622305EA0123201242
B1605454426568N00622306EA0123201242
B1605464426567N00622306EA0123201242
B1605474426567N00622306EA0123201242
B1605484426567N00622306EA0123201242
B1605494426567N00622306EA0123201242
B1605504426567N00622306EA0123201242
B1605514426567N00622306EA0123201242
B1605524426567N00622306EA0123201242
B1605534426567N00622306EA0123201242
B1605544426567N00622306EA0123201242
B1605554426567N00622306EA0123201241
B1605564426567N00622306EA0123201241
B1605574426567N00622306EA0123201242
B1605584426567N00622306EA0123201242
B1605594426567N00622306EA0123201242
B1606004426567N00622306EA0123201242
B1606014426567N00622306EA0123201242
B1606024426567N00622306EA0123201242
B1606034426567N00622306EA0123201242
B1606044426567N00622306EA0123201242
B1606054426567N00622306EA0123201242
B1606064426567N00622306EA0123201242
B1606074426567N00622306EA0123201242
B1606084426567N00622306EA0123201242
B1606094426567N00622307EA0123201242
B1606104426567N00622307EA0123201242
B1606114426567N00622307EA0123201242
B1606124426567N00622307EA0123201241
B1606134426567N00622307EA0123201242
B1606144426567N00622307EA0123201242
B1606154426567N00622307EA0123201242
B1606164426567N00622307EA0123201242
B1606174426567N00622307EA0123201242
B1606184426567N00622307EA0123201242
B1606194426567N00622307EA0123201242
B1606204426567N00622307EA0123201242
B1606214426567N00622307EA0123201242
B1606224426567N00622307EA0123201242
B1606234426567N00622307EA0123201242
B1606244426567N00622307EA0123201242
B1606254426568N00622307EA0123201242
B1606264426568N00622307EA0123201242
B1606274426568N00622307EA0123201242
B1606284426568N00622307EA0123201242
B1606294426568N00622308EA0123201242
B1606304426568N00622308EA0123201242
B1606314426569N00622308EA0123201242
B1606324426569N00622309EA0123201242
B1606334426569N00622309EA0123201242
B1606344426569N00622309EA0123201242
B1606354426569N00622310EA0123201242
B1606364426569N00622310EA0123301242
B1606374426569N00622310EA0123301242
B1606384426569N00622311EA0123201242
B1606394426569N00622311EA0123301242
B1606404426569N00622311EA0123301242
B1606414426569N00622311EA0123301242
B1606424426569N00622311EA0123301242
B1606434426568N00622311EA0123301242
B1606444426568N00622311EA0123301242
B1606454426568N00622311EA0123301242
B1606464426568N00622311EA0123301242
B1606474426568N00622311EA0123301242
B1606484426568N00622312EA0123301242
B1606494426568N00622312EA0123301242
B1606504426568N00622312EA0123301242
B1606514426568N00622313EA0123301242
B1606524426569N00622314EA0123301242
B1606534426569N00622314EA0123301242
B1606544426569N00622315EA0123301242
B1606554426569N00622315EA0123301242
B1606564426568N00622316EA0123301242
B1606574426568N00622316EA0123301243
B1606584426568N00622316EA0123301243
B1606594426568N00622316EA0123301243
B1607004426568N00622316EA0123301243
B1607014426568N00622316EA0123301243
B1607024426568N00622316EA0123301243
B1607034426568N00622316EA0123301243
B1607044426568N00622316EA0123301243
B1607054426568N00622316EA0123301243
B1607064426568N00622316EA0123301243
B1607074426568N00622316EA0123301243
B1607084426568N00622316EA0123301243
B1607094426568N00622316EA0123301243
B1607104426568N00622316EA0123301243
B1607114426568N00622316EA0123301243
B1607124426568N00622316EA0123301242
B1607134426568N00622317EA0123301242
B1607144426568N00622317EA0123301242
B1607154426568N00622317EA0123301242
B1607164426568N00622317EA0123301242
B1607174426568N00622317EA0123301242
B1607184426568N00622317EA0123301242
B1607194426568N00622317EA0123301242
B1607204426568N00622317EA0123301243
B1607214426568N00622317EA0123301243
B1607224426568N00622317EA0123301242
B1607234426568N00622316EA0123301243
B1607244426568N00622316EA0123301243
B1607254426568N00622316EA0123301242
B1607264426568N00622316EA0123301242
B1607274426568N00622316EA0123301242
B1607284426568N00622317EA0123301242
B1607294426568N00622317EA0123301243
B1607304426568N00622317EA0123301243
B1607314426568N00622317EA0123301243
B1607324426568N00622317EA0123301243
B1607334426568N00622317EA0123301242
B1607344426568N00622317EA0123301243
B1607354426568N00622317EA0123301242
B1607364426568N00622317EA0123301242
B1607374426569N00622317EA0123301243
B1607384426569N00622317EA0123301243
B1607394426569N00622317EA0123301243
B1607404426569N00622317EA0123301243
B1607414426569N00622317EA0123301243
LXSX;GF:1.2
GB7EBDE5DD749BD769E5D258FCB261122
