AXSX003 SKYTRAXX V3.0.14 SN:00000380
HFPLTPILOT:Sepp Bucher
HFGTYGLIDERTYPE:Advance Sigma10
HFDTM100GPSDATUM:WGS-84
HFCIDCOMPETITIONID:0000
HFCCLCOMPETITION CLASS:Paraglider (Standard)
HFSITSITE:UNKNOWN
HFDTE120919
B0911414626456N00810127EA0185202050
B0911424626456N00810127EA0185202050
B0911434626456N00810127EA0185202050
B0911444626456N00810127EA0185202050
B0911454626456N00810128EA0185202050
B0911464626456N00810128EA0185202050
B0911474626455N00810127EA0185202050
B0911484626455N00810128EA0185102049
B0911494626455N00810128EA0185102049
B0911504626454N00810128EA0185102049
B0911514626453N00810129EA0185002048
B0911524626452N00810130EA0184802047
B0911534626451N00810130EA0184802046
B0911544626449N00810130EA0184702045
B0911554626448N00810131EA0184302043
B0911564626444N00810133EA0183902041
B0911574626441N00810134EA0183602038
B0911584626438N00810136EA0183602037
B0911594626432N00810141EA0183602038
B0912004626427N00810143EA0183502037
B0912014626423N00810147EA0183502037
B0912024626420N00810150EA0183602038
B0912034626417N00810153EA0183602038
B0912044626414N00810155EA0183502037
B0912054626412N00810158EA0183302035
B0912064626409N00810161EA0183102032
B0912074626406N00810166EA0182902031
B0912084626403N00810170EA0182802030
B0912094626399N00810174EA0182702029
B0912104626396N00810178EA0182602028
B0912114626394N00810182EA0182502027
B0912124626391N00810186EA0182402026
B0912134626389N00810191EA0182302025
B0912144626385N00810196EA0182202024
B0912154626382N00810201EA0182202024
B0912164626379N00810207EA0182302025
B0912174626377N00810212EA0182402026
B0912184626375N00810216EA0182402026
B0912194626373N00810220EA0182302025
B0912204626371N00810225EA0182102023
B0912214626368N00810231EA0182002022
B0912224626366N00810236EA0181902021
B0912234626363N00810241EA0181902021
B0912244626361N00810245EA0181902021
B0912254626358N00810249EA0181702019
B0912264626356N00810254EA0181502017
B0912274626353N00810259EA0181202014
B0912284626350N00810264EA0181102013
B0912294626346N00810270EA0181002012
B0912304626342N00810274EA0180902011
B0912314626338N00810277EA0180902011
B0912324626334N00810279EA0180802010
B0912334626330N00810283EA0180702009
B0912344626326N00810286EA0180402006
B0912354626321N00810289EA0180302005
B0912364626317N00810293EA0180302005
B0912374626314N00810297EA0180402006
B0912384626312N00810302EA0180302004
B0912394626308N00810307EA0180202004
B0912404626305N00810312EA0179902001
B0912414626301N00810317EA0179802000
B0912424626297N00810322EA0179501997
B0912434626294N00810327EA0179301995
B0912444626291N00810333EA0179101992
B0912454626288N00810338EA0179001991
B0912464626286N00810343EA0178901991
B0912474626284N00810347EA0178801990
B0912484626283N00810352EA0178601988
B0912494626281N00810357EA0178401986
B0912504626279N00810363EA0178101983
B0912514626276N00810368EA0178001982
B0912524626273N00810373EA0177901981
B0912534626269N00810377EA0177801980
B0912544626265N00810380EA0177701979
B0912554626261N00810382EA0177501977
B0912564626255N00810383EA0177401976
B0912574626250N00810382EA0177201974
B0912584626245N00810380EA0177001972
B0912594626239N00810376EA0176901971
B0913004626234N00810372EA0176801970
B0913014626229N00810367EA0176701969
B0913024626225N00810362EA0176501967
B0913034626220N00810357EA0176301965
B0913044626216N00810352EA0176101963
B0913054626211N00810345EA0176001962
B0913064626206N00810337EA0176101963
B0913074626202N00810329EA0176301965
B0913084626198N00810322EA0176701969
B0913094626196N00810316EA0177001972
B0913104626193N00810311EA0177001972
B0913114626189N00810306EA0176901971
B0913124626184N00810299EA0176801970
B0913134626180N00810292EA0176801970
B0913144626176N00810284EA0177001972
B0913154626173N00810276EA0177201974
B0913164626170N00810269EA0177301975
B0913174626167N00810262EA0177201974
B0913184626163N00810255EA0177101973
B0913194626160N00810247EA0177101973
B0913204626157N00810239EA0177101973
B0913214626154N00810230EA0177101973
B0913224626151N00810222EA0177201974
B0913234626148N00810215EA0177301974
B0913244626144N00810209EA0177101973
B0913254626141N00810204EA0176901971
B0913264626137N00810197EA0176601968
B0913274626133N00810190EA0176401966
B0913284626130N00810182EA0176201964
B0913294626126N00810175EA0176101963
B0913304626123N00810167EA0176001962
B0913314626120N00810160EA0175801960
B0913324626117N00810152EA0175601958
B0913334626114N00810144EA0175301955
B0913344626110N00810136EA0175101953
B0913354626107N00810128EA0174901951
B0913364626104N00810119EA0174801950
B0913374626102N00810112EA0174601948
B0913384626101N00810105EA0174401946
B0913394626098N00810097EA0174201944
B0913404626094N00810089EA0174001942
B0913414626091N00810081EA0173901941
B0913424626088N00810073EA0173901941
B0913434626086N00810067EA0173901941
B0913444626084N00810060EA0173801940
B0913454626081N00810054EA0173601938
B0913464626078N00810046EA0173301935
B0913474626074N00810038EA0173201934
B0913484626071N00810031EA0173001932
B0913494626068N00810023EA0172901931
B0913504626066N00810016EA0172701929
B0913514626063N00810008EA0172501927
B0913524626061N00809999EA0172301925
B0913534626059N00809991EA0172201924
B0913544626056N00809983EA0172001922
B0913554626054N00809975EA0171801920
B0913564626051N00809966EA0171601918
B0913574626048N00809958EA0171501917
B0913584626045N00809949EA0171401916
B0913594626042N00809940EA0171401916
B0914004626041N00809932EA0171401916
B0914014626039N00809924EA0171501917
B0914024626038N00809917EA0171501917
B0914034626037N00809910EA0171401916
B0914044626035N00809903EA0171301915
B0914054626033N00809895EA0171201914
B0914064626032N00809886EA0171101913
B0914074626032N00809878EA0171001912
B0914084626032N00809870EA0171001912
B0914094626032N00809862EA0171001912
B0914104626032N00809855EA0171001912
B0914114626032N00809847EA0170901911
B0914124626032N00809839EA0170701909
B0914134626032N00809831EA0170601908
B0914144626032N00809822EA0170501907
B0914154626033N00809813EA0170501907
B0914164626034N00809804EA0170501907
B0914174626035N00809795EA0170601908
B0914184626036N00809788EA0170701909
B0914194626036N00809780EA0170801910
B0914204626037N00809772EA0171001912
B0914214626038N00809764EA0171201914
B0914224626038N00809757EA0171301915
B0914234626037N00809751EA0171201914
B0914244626035N00809744EA0171201914
B0914254626032N00809738EA0171201914
B0914264626029N00809732EA0171301915
B0914274626026N00809728EA0171501916
B0914284626022N00809727EA0171401916
B0914294626019N00809727EA0171301914
B0914304626016N00809729EA0171101913
B0914314626013N00809732EA0171101913
B0914324626011N00809735EA0171201914
B0914334626010N00809740EA0171301915
B0914344626010N00809744EA0171301915
B0914354626011N00809749EA0171301915
B0914364626013N00809753EA0171301915
B0914374626016N00809757EA0171301915
B0914384626019N00809761EA0171301915
B0914394626024N00809763EA0171301915
B0914404626028N00809765EA0171401916
B0914414626034N00809765EA0171501917
B0914424626039N00809763EA0171601917
B0914434626044N00809760EA0171601918
B0914444626048N00809756EA0171801920
B0914454626053N00809753EA0172001921
B0914464626057N00809749EA0172101923
B0914474626060N00809744EA0172101923
B0914484626062N00809738EA0172001922
B0914494626063N00809730EA0171901921
B0914504626063N00809723EA0172001922
B0914514626062N00809717EA0172201924
B0914524626060N00809712EA0172201924
B0914534626059N00809708EA0172201924
B0914544626057N00809704EA0172101923
B0914554626054N00809702EA0172001922
B0914564626050N00809701EA0171801920
B0914574626045N00809703EA0171701919
B0914584626041N00809706EA0171801920
B0914594626039N00809709EA0172101922
B0915004626037N00809712EA0172201924
B0915014626036N00809715EA0172301925
B0915024626035N00809718EA0172201924
B0915034626035N00809724EA0172101923
B0915044626034N00809731EA0172201924
B0915054626034N00809736EA0172501927
B0915064626036N00809741EA0172801929
B0915074626038N00809745EA0172801930
B0915084626040N00809748EA0172701929
B0915094626042N00809753EA0172601928
B0915104626046N00809758EA0172501927
B0915114626051N00809761EA0172501927
B0915124626057N00809763EA0172601928
B0915134626062N00809763EA0172701929
B0915144626068N00809762EA0172801930
B0915154626073N00809759EA0172801930
B0915164626079N00809755EA0172801930
B0915174626084N00809751EA0172901931
B0915184626087N00809746EA0173001932
B0915194626090N00809741EA0173001932
B0915204626093N00809735EA0173001932
B0915214626094N00809730EA0173001932
B0915224626093N00809725EA0172801930
B0915234626092N00809719EA0172701929
B0915244626090N00809714EA0172701929
B0915254626086N00809712EA0172601928
B0915264626082N00809712EA0172501926
B0915274626077N00809713EA0172501927
B0915284626074N00809715EA0172701929
B0915294626072N00809716EA0172901931
B0915304626070N00809718EA0172901931
B0915314626067N00809720EA0172901931
B0915324626064N00809725EA0172701929
B0915334626062N00809731EA0172701929
B0915344626060N00809736EA0173001932
B0915354626058N00809739EA0173201934
B0915364626057N00809741EA0173301935
B0915374626057N00809744EA0173301935
B0915384626056N00809749EA0173101933
B0915394626055N00809756EA0173001932
B0915404626055N00809764EA0173201934
B0915414626055N00809771EA0173601938
B0915424626055N00809776EA0173901941
B0915434626053N00809780EA0174201944
B0915444626051N00809783EA0174201944
B0915454626047N00809784EA0174201944
B0915464626042N00809784EA0174201944
B0915474626038N00809781EA0174301945
B0915484626033N00809776EA0174401946
B0915494626031N00809769EA0174401946
B0915504626030N00809761EA0174301945
B0915514626030N00809753EA0174201944
B0915524626030N00809744EA0174201944
B0915534626032N00809735EA0174201944
B0915544626036N00809728EA0174101943
B0915554626041N00809722EA0174001941
B0915564626046N00809718EA0173801940
B0915574626052N00809716EA0173801940
B0915584626059N00809716EA0173801940
B0915594626064N00809719EA0173801939
B0916004626068N00809724EA0173801940
B0916014626073N00809731EA0173801940
B0916024626076N00809737EA0174001942
B0916034626078N00809744EA0174101943
B0916044626079N00809751EA0174201943
B0916054626079N00809758EA0174301945
B0916064626079N00809765EA0174401946
B0916074626079N00809772EA0174601948
B0916084626079N00809779EA0174701949
B0916094626079N00809786EA0174801950
B0916104626079N00809793EA0175001952
B0916114626079N00809799EA0175301954
B0916124626079N00809805EA0175401956
B0916134626079N00809810EA0175501957
B0916144626078N00809814EA0175301955
B0916154626077N00809819EA0175101953
B0916164626076N00809825EA0175001951
B0916174626072N00809830EA0174801950
B0916184626068N00809834EA0174701949
B0916194626063N00809836EA0174801949
B0916204626059N00809838EA0174801950
B0916214626054N00809839EA0175001952
B0916224626050N00809839EA0175201954
B0916234626045N00809836EA0175301955
B0916244626041N00809831EA0175301955
B0916254626038N00809824EA0175401955
B0916264626034N00809816EA0175301954
B0916274626031N00809807EA0175201954
B0916284626029N00809799EA0175301955
B0916294626028N00809791EA0175401956
B0916304626029N00809783EA0175401956
B0916314626031N00809775EA0175301955
B0916324626032N00809767EA0175301955
B0916334626035N00809760EA0175301955
B0916344626039N00809754EA0175201954
B0916354626044N00809749EA0175101953
B0916364626049N00809747EA0174901951
B0916374626055N00809748EA0174901951
B0916384626060N00809750EA0174901951
B0916394626064N00809755EA0175001952
B0916404626066N00809760EA0175101953
B0916414626067N00809766EA0175201954
B0916424626067N00809771EA0175301955
B0916434626066N00809776EA0175501957
B0916444626066N00809781EA0175501957
B0916454626064N00809785EA0175501956
B0916464626064N00809790EA0175401955
B0916474626064N00809795EA0175201953
B0916484626065N00809801EA0174901951
B0916494626066N00809807EA0174801950
B0916504626067N00809813EA0174801950
B0916514626068N00809818EA0174901951
B0916524626070N00809823EA0174801950
B0916534626072N00809830EA0174801950
B0916544626074N00809837EA0174801950
B0916554626074N00809844EA0174901951
B0916564626073N00809850EA0175101953
B0916574626071N00809854EA0175301955
B0916584626070N00809857EA0175401956
B0916594626068N00809860EA0175401956
B0917004626067N00809864EA0175501957
B0917014626066N00809870EA0175401956
B0917024626063N00809875EA0175301955
B0917034626062N00809880EA0175301955
B0917044626058N00809885EA0175401956
B0917054626054N00809887EA0175401956
B0917064626050N00809889EA0175401956
B0917074626045N00809889EA0175301955
B0917084626040N00809888EA0175201954
B0917094626035N00809885EA0175201954
B0917104626030N00809881EA0175001952
B0917114626026N00809875EA0174801950
B0917124626022N00809867EA0174701949
B0917134626020N00809859EA0174601948
B0917144626017N00809851EA0174601948
B0917154626015N00809843EA0174701948
B0917164626012N00809836EA0174601948
B0917174626009N00809829EA0174401946
B0917184626006N00809822EA0174401946
B0917194626002N00809815EA0174301945
B0917204625999N00809809EA0174201944
B0917214625995N00809803EA0174201944
B0917224625992N00809798EA0174201943
B0917234625988N00809791EA0173901941
B0917244625985N00809784EA0173801939
B0917254625982N00809775EA0173601938
B0917264625980N00809767EA0173601938
B0917274625979N00809759EA0173601938
B0917284625977N00809752EA0173701939
B0917294625976N00809746EA0173601938
B0917304625974N00809739EA0173501937
B0917314625972N00809731EA0173301935
B0917324625970N00809723EA0173301935
B0917334625969N00809716EA0173401936
B0917344625966N00809709EA0173601938
B0917354625964N00809703EA0173901940
B0917364625962N00809698EA0174001942
B0917374625960N00809694EA0174001942
B0917384625958N00809690EA0173801940
B0917394625955N00809685EA0173601938
B0917404625950N00809680EA0173501937
B0917414625946N00809675EA0173501937
B0917424625942N00809671EA0173701939
B0917434625938N00809668EA0173801940
B0917444625935N00809664EA0173801940
B0917454625930N00809662EA0173901940
B0917464625926N00809660EA0173801940
B0917474625921N00809658EA0173801940
B0917484625917N00809657EA0173901941
B0917494625913N00809656EA0174101943
B0917504625909N00809654EA0174101943
B0917514625905N00809651EA0174001942
B0917524625901N00809645EA0173801940
B0917534625898N00809639EA0173801940
B0917544625896N00809630EA0173701939
B0917554625895N00809622EA0173601938
B0917564625896N00809614EA0173601937
B0917574625898N00809606EA0173401936
B0917584625901N00809599EA0173201934
B0917594625905N00809593EA0172901931
B0918004625910N00809588EA0172701929
B0918014625916N00809586EA0172601928
B0918024625921N00809585EA0172401926
B0918034625927N00809586EA0172301925
B0918044625932N00809589EA0172301925
B0918054625936N00809592EA0172301925
B0918064625940N00809596EA0172201924
B0918074625943N00809601EA0172101923
B0918084625945N00809607EA0172001922
B0918094625945N00809614EA0171901921
B0918104625943N00809620EA0171801920
B0918114625940N00809626EA0171801920
B0918124625937N00809630EA0171701919
B0918134625933N00809633EA0171701919
B0918144625929N00809634EA0171701919
B0918154625924N00809633EA0171701918
B0918164625920N00809631EA0171501917
B0918174625916N00809626EA0171401916
B0918184625912N00809621EA0171401915
B0918194625908N00809614EA0171301915
B0918204625905N00809607EA0171301915
B0918214625902N00809601EA0171301915
B0918224625899N00809595EA0171201914
B0918234625896N00809589EA0171101913
B0918244625893N00809583EA0170901911
B0918254625890N00809577EA0170701909
B0918264625887N00809570EA0170501907
B0918274625884N00809563EA0170401906
B0918284625881N00809555EA0170201904
B0918294625879N00809548EA0170001902
B0918304625876N00809540EA0169801900
B0918314625873N00809533EA0169601898
B0918324625871N00809525EA0169501897
B0918334625868N00809518EA0169301895
B0918344625865N00809511EA0169201894
B0918354625862N00809504EA0169101893
B0918364625859N00809497EA0168801890
B0918374625855N00809491EA0168601888
B0918384625852N00809485EA0168401886
B0918394625848N00809479EA0168301885
B0918404625844N00809473EA0168201884
B0918414625840N00809467EA0168001882
B0918424625836N00809462EA0167801880
B0918434625833N00809456EA0167501877
B0918444625828N00809449EA0167301875
B0918454625825N00809441EA0167201874
B0918464625821N00809434EA0167101873
B0918474625818N00809427EA0167001872
B0918484625815N00809420EA0166901871
B0918494625812N00809413EA0166801870
B0918504625809N00809406EA0166601868
B0918514625806N00809399EA0166501867
B0918524625803N00809392EA0166401866
B0918534625800N00809385EA0166301865
B0918544625797N00809378EA0166101863
B0918554625793N00809371EA0166001862
B0918564625791N00809364EA0165901861
B0918574625788N00809357EA0165801860
B0918584625785N00809350EA0165701859
B0918594625782N00809343EA0165701858
B0919004625780N00809336EA0165601858
B0919014625777N00809328EA0165501857
B0919024625775N00809321EA0165401855
B0919034625772N00809314EA0165301855
B0919044625769N00809307EA0165201854
B0919054625766N00809300EA0165101853
B0919064625762N00809294EA0165101853
B0919074625759N00809287EA0165001852
B0919084625755N00809281EA0165001852
B0919094625752N00809274EA0164901851
B0919104625749N00809267EA0164801850
B0919114625746N00809261EA0164801849
B0919124625742N00809254EA0164601848
B0919134625739N00809247EA0164501847
B0919144625736N00809240EA0164401846
B0919154625733N00809233EA0164301844
B0919164625730N00809226EA0164101843
B0919174625727N00809219EA0164001842
B0919184625723N00809212EA0163801840
B0919194625720N00809206EA0163601838
B0919204625716N00809199EA0163501837
B0919214625713N00809193EA0163301835
B0919224625709N00809186EA0163101833
B0919234625705N00809180EA0162901831
B0919244625701N00809174EA0162801830
B0919254625697N00809168EA0162601827
B0919264625693N00809162EA0162401826
B0919274625690N00809154EA0162201824
B0919284625686N00809147EA0161901821
B0919294625683N00809140EA0161701819
B0919304625680N00809135EA0161701819
B0919314625677N00809129EA0161601818
B0919324625674N00809122EA0161301815
B0919334625671N00809115EA0161001812
B0919344625669N00809108EA0160701809
B0919354625667N00809100EA0160601808
B0919364625663N00809094EA0160701809
B0919374625660N00809087EA0160701809
B0919384625658N00809080EA0160501807
B0919394625655N00809073EA0160201804
B0919404625652N00809066EA0160001802
B0919414625649N00809059EA0159901801
B0919424625646N00809053EA0159701799
B0919434625643N00809046EA0159501797
B0919444625641N00809039EA0159401796
B0919454625637N00809032EA0159201794
B0919464625634N00809026EA0159101793
B0919474625630N00809020EA0158901791
B0919484625627N00809015EA0158801790
B0919494625622N00809010EA0158601788
B0919504625618N00809005EA0158501787
B0919514625614N00809000EA0158301785
B0919524625609N00808996EA0158201784
B0919534625605N00808992EA0158001782
B0919544625600N00808988EA0157801780
B0919554625595N00808984EA0157701779
B0919564625590N00808981EA0157601778
B0919574625585N00808978EA0157401776
B0919584625580N00808975EA0157301775
B0919594625575N00808972EA0157101773
B0920004625570N00808970EA0157001772
B0920014625565N00808967EA0156801770
B0920024625560N00808963EA0156601768
B0920034625555N00808959EA0156401766
B0920044625550N00808954EA0156301765
B0920054625546N00808949EA0156201764
B0920064625541N00808945EA0156001762
B0920074625537N00808940EA0155901761
B0920084625532N00808935EA0155801760
B0920094625528N00808930EA0155601758
B0920104625524N00808925EA0155501757
B0920114625520N00808919EA0155401756
B0920124625516N00808914EA0155201754
B0920134625512N00808910EA0155101753
B0920144625508N00808905EA0154901751
B0920154625503N00808901EA0154701749
B0920164625499N00808897EA0154601748
B0920174625494N00808894EA0154401746
B0920184625489N00808891EA0154301745
B0920194625484N00808887EA0154101743
B0920204625480N00808885EA0154001741
B0920214625474N00808882EA0153801739
B0920224625469N00808879EA0153601738
B0920234625464N00808875EA0153501737
B0920244625459N00808872EA0153401736
B0920254625454N00808869EA0153301735
B0920264625449N00808866EA0153101733
B0920274625444N00808862EA0153001732
B0920284625439N00808858EA0152801730
B0920294625434N00808854EA0152701728
B0920304625429N00808850EA0152601728
B0920314625425N00808846EA0152501727
B0920324625421N00808841EA0152401726
B0920334625418N00808836EA0152201724
B0920344625414N00808831EA0152101722
B0920354625409N00808826EA0151801720
B0920364625404N00808820EA0151601718
B0920374625399N00808814EA0151501717
B0920384625396N00808808EA0151501717
B0920394625392N00808803EA0151501716
B0920404625388N00808799EA0151301715
B0920414625384N00808794EA0151101713
B0920424625379N00808790EA0150901711
B0920434625374N00808786EA0150801710
B0920444625369N00808783EA0150701709
B0920454625364N00808780EA0150601708
B0920464625359N00808778EA0150501707
B0920474625354N00808775EA0150301705
B0920484625349N00808772EA0150101703
B0920494625343N00808768EA0150001702
B0920504625338N00808763EA0149901701
B0920514625334N00808758EA0149901700
B0920524625329N00808753EA0149801700
B0920534625325N00808748EA0149701699
B0920544625321N00808743EA0149501697
B0920554625316N00808738EA0149401696
B0920564625312N00808732EA0149301695
B0920574625308N00808726EA0149201694
B0920584625303N00808722EA0149101693
B0920594625299N00808718EA0149001692
B0921004625294N00808715EA0148901691
B0921014625289N00808711EA0148801689
B0921024625284N00808708EA0148601688
B0921034625279N00808705EA0148501687
B0921044625274N00808703EA0148401686
B0921054625269N00808701EA0148301685
B0921064625263N00808699EA0148101683
B0921074625258N00808697EA0148001682
B0921084625253N00808696EA0147901680
B0921094625247N00808693EA0147701679
B0921104625242N00808691EA0147601678
B0921114625237N00808688EA0147501677
B0921124625231N00808685EA0147401676
B0921134625227N00808682EA0147201674
B0921144625221N00808679EA0147101673
B0921154625216N00808676EA0147001672
B0921164625211N00808674EA0146901670
B0921174625206N00808671EA0146701669
B0921184625200N00808668EA0146601668
B0921194625195N00808666EA0146501667
B0921204625190N00808663EA0146401665
B0921214625185N00808660EA0146201664
B0921224625180N00808658EA0146101663
B0921234625174N00808655EA0146001662
B0921244625169N00808653EA0145901661
B0921254625163N00808650EA0145701659
B0921264625159N00808648EA0145601658
B0921274625153N00808645EA0145501657
B0921284625148N00808643EA0145401656
B0921294625143N00808640EA0145201654
B0921304625138N00808638EA0145101653
B0921314625132N00808635EA0145001651
B0921324625127N00808633EA0144801650
B0921334625122N00808631EA0144701649
B0921344625117N00808628EA0144601648
B0921354625111N00808625EA0144401646
B0921364625106N00808623EA0144301645
B0921374625101N00808620EA0144201644
B0921384625096N00808616EA0144101643
B0921394625091N00808613EA0144001642
B0921404625085N00808610EA0143901641
B0921414625081N00808606EA0143701639
B0921424625075N00808603EA0143601638
B0921434625070N00808599EA0143501637
B0921444625065N00808595EA0143301635
B0921454625060N00808592EA0143201634
B0921464625055N00808588EA0143101633
B0921474625050N00808585EA0143001632
B0921484625045N00808581EA0142901631
B0921494625041N00808578EA0142801630
B0921504625036N00808575EA0142701629
B0921514625031N00808572EA0142601628
B0921524625025N00808568EA0142501627
B0921534625020N00808566EA0142401626
B0921544625015N00808563EA0142301625
B0921554625010N00808560EA0142201623
B0921564625005N00808556EA0142001622
B0921574625000N00808553EA0142001621
B0921584624995N00808549EA0141901621
B0921594624990N00808546EA0141801619
B0922004624985N00808542EA0141701619
B0922014624980N00808539EA0141601618
B0922024624976N00808536EA0141501617
B0922034624970N00808534EA0141401616
B0922044624965N00808530EA0141301614
B0922054624960N00808527EA0141101613
B0922064624955N00808523EA0141001612
B0922074624950N00808520EA0140901611
B0922084624945N00808516EA0140801610
B0922094624940N00808513EA0140701609
B0922104624936N00808510EA0140601608
B0922114624931N00808507EA0140501607
B0922124624926N00808504EA0140401605
B0922134624921N00808501EA0140201604
B0922144624916N00808498EA0140101603
B0922154624911N00808495EA0140001602
B0922164624906N00808493EA0139901601
B0922174624901N00808491EA0139801600
B0922184624896N00808489EA0139701599
B0922194624891N00808487EA0139601598
B0922204624886N00808485EA0139501597
B0922214624880N00808484EA0139401596
B0922224624876N00808482EA0139301595
B0922234624870N00808481EA0139301595
B0922244624865N00808480EA0139201594
B0922254624860N00808479EA0139101593
B0922264624855N00808477EA0139001592
B0922274624850N00808475EA0138901591
B0922284624845N00808472EA0138801590
B0922294624840N00808470EA0138701589
B0922304624835N00808468EA0138601588
B0922314624830N00808466EA0138601588
B0922324624825N00808463EA0138501586
B0922334624820N00808460EA0138401585
B0922344624814N00808456EA0138301585
B0922354624809N00808453EA0138201584
B0922364624804N00808450EA0138201584
B0922374624799N00808447EA0138201584
B0922384624795N00808445EA0138101583
B0922394624790N00808442EA0138001582
B0922404624786N00808439EA0137901581
B0922414624781N00808436EA0137801580
B0922424624776N00808433EA0137701579
B0922434624772N00808430EA0137601578
B0922444624768N00808427EA0137501577
B0922454624763N00808423EA0137301575
B0922464624758N00808420EA0137101573
B0922474624753N00808417EA0137001572
B0922484624749N00808414EA0137001571
B0922494624745N00808412EA0136901571
B0922504624740N00808410EA0136801570
B0922514624736N00808408EA0136601568
B0922524624731N00808406EA0136501567
B0922534624727N00808404EA0136401566
B0922544624722N00808401EA0136301565
B0922554624717N00808399EA0136201564
B0922564624712N00808396EA0136201564
B0922574624708N00808394EA0136101563
B0922584624703N00808392EA0136001562
B0922594624698N00808389EA0135901561
B0923004624693N00808386EA0135901561
B0923014624689N00808383EA0135901561
B0923024624684N00808380EA0135801560
B0923034624679N00808377EA0135701559
B0923044624675N00808374EA0135601558
B0923054624670N00808372EA0135401556
B0923064624665N00808369EA0135101553
B0923074624660N00808365EA0135001552
B0923084624655N00808361EA0135001552
B0923094624651N00808356EA0134901551
B0923104624646N00808351EA0134801550
B0923114624642N00808347EA0134701549
B0923124624637N00808344EA0134501547
B0923134624632N00808340EA0134501547
B0923144624627N00808338EA0134401546
B0923154624622N00808335EA0134201544
B0923164624617N00808332EA0134101542
B0923174624612N00808328EA0133801540
B0923184624607N00808325EA0133701538
B0923194624602N00808322EA0133501537
B0923204624597N00808320EA0133401536
B0923214624591N00808318EA0133301534
B0923224624586N00808316EA0133101533
B0923234624581N00808314EA0132901531
B0923244624575N00808312EA0132701529
B0923254624569N00808310EA0132501527
B0923264624564N00808306EA0132401525
B0923274624559N00808300EA0132201524
B0923284624555N00808293EA0132101523
B0923294624552N00808285EA0132001522
B0923304624550N00808278EA0132001522
B0923314624548N00808270EA0131801520
B0923324624548N00808262EA0131701519
B0923334624549N00808254EA0131501517
B0923344624551N00808246EA0131401516
B0923354624554N00808240EA0131401516
B0923364624558N00808235EA0131301515
B0923374624562N00808233EA0131201514
B0923384624567N00808231EA0131001512
B0923394624571N00808231EA0130901511
B0923404624575N00808233EA0130701509
B0923414624580N00808236EA0130501507
B0923424624584N00808241EA0130401506
B0923434624586N00808247EA0130301505
B0923444624588N00808254EA0130101503
B0923454624588N00808261EA0130101503
B0923464624587N00808268EA0130001502
B0923474624585N00808276EA0129901501
B0923484624583N00808282EA0129801500
B0923494624580N00808287EA0129601498
B0923504624576N00808292EA0129501497
B0923514624570N00808295EA0129401496
B0923524624565N00808296EA0129201494
B0923534624559N00808296EA0129101493
B0923544624554N00808295EA0129001491
B0923554624549N00808293EA0128801490
B0923564624543N00808289EA0128701489
B0923574624539N00808283EA0128601488
B0923584624535N00808277EA0128501487
B0923594624533N00808269EA0128401486
B0924004624531N00808261EA0128301485
B0924014624530N00808253EA0128201484
B0924024624531N00808245EA0128101483
B0924034624532N00808237EA0127901481
B0924044624534N00808229EA0127801480
B0924054624537N00808222EA0127701479
B0924064624540N00808216EA0127601478
B0924074624545N00808211EA0127501477
B0924084624549N00808207EA0127401476
B0924094624555N00808205EA0127301475
B0924104624559N00808205EA0127201473
B0924114624565N00808206EA0127001472
B0924124624569N00808208EA0126901471
B0924134624573N00808212EA0126901471
B0924144624577N00808217EA0126801470
B0924154624580N00808223EA0126701469
B0924164624581N00808229EA0126601468
B0924174624581N00808236EA0126501466
B0924184624581N00808243EA0126301465
B0924194624579N00808250EA0126201464
B0924204624575N00808256EA0126101463
B0924214624571N00808260EA0126001462
B0924224624566N00808263EA0126001462
B0924234624561N00808264EA0126001462
B0924244624556N00808263EA0125901461
B0924254624550N00808261EA0125801459
B0924264624546N00808258EA0125601458
B0924274624540N00808253EA0125501457
B0924284624536N00808248EA0125401455
B0924294624532N00808241EA0125201454
B0924304624529N00808233EA0125101453
B0924314624527N00808226EA0125101453
B0924324624525N00808218EA0125001452
B0924334624523N00808211EA0124901451
B0924344624521N00808203EA0124801450
B0924354624521N00808194EA0124601448
B0924364624523N00808185EA0124501447
B0924374624525N00808177EA0124401446
B0924384624528N00808170EA0124301445
B0924394624532N00808164EA0124301444
B0924404624536N00808159EA0124201443
B0924414624540N00808155EA0124001442
B0924424624546N00808152EA0123901441
B0924434624551N00808152EA0123801440
B0924444624556N00808152EA0123701439
B0924454624561N00808154EA0123601438
B0924464624565N00808158EA0123501437
B0924474624568N00808163EA0123401436
B0924484624571N00808168EA0123301435
B0924494624573N00808173EA0123301434
B0924504624575N00808180EA0123201434
B0924514624575N00808187EA0123101433
B0924524624574N00808193EA0123001432
B0924534624572N00808199EA0122801430
B0924544624570N00808205EA0122701429
B0924554624566N00808209EA0122601428
B0924564624562N00808213EA0122501427
B0924574624557N00808216EA0122401426
B0924584624552N00808217EA0122401426
B0924594624547N00808216EA0122301425
B0925004624543N00808215EA0122301425
B0925014624538N00808212EA0122201424
B0925024624533N00808209EA0122101423
B0925034624529N00808203EA0122001422
B0925044624525N00808197EA0121801420
B0925054624522N00808189EA0121701419
B0925064624521N00808180EA0121601418
B0925074624521N00808171EA0121501417
B0925084624522N00808163EA0121501417
B0925094624524N00808155EA0121401416
B0925104624526N00808148EA0121201414
B0925114624529N00808141EA0121101413
B0925124624532N00808135EA0120901411
B0925134624537N00808130EA0120801410
B0925144624543N00808127EA0120601408
B0925154624548N00808126EA0120501407
B0925164624553N00808127EA0120501407
B0925174624558N00808129EA0120401406
B0925184624562N00808132EA0120401405
B0925194624566N00808135EA0120201404
B0925204624570N00808140EA0120101403
B0925214624573N00808146EA0120001402
B0925224624574N00808153EA0119901401
B0925234624575N00808160EA0119901401
B0925244624575N00808167EA0119901400
B0925254624574N00808173EA0119801400
B0925264624571N00808179EA0119701398
B0925274624568N00808185EA0119501397
B0925284624565N00808190EA0119401396
B0925294624560N00808193EA0119401396
B0925304624555N00808195EA0119301395
B0925314624550N00808194EA0119201394
B0925324624545N00808192EA0119101393
B0925334624540N00808189EA0119001392
B0925344624535N00808185EA0118901391
B0925354624531N00808180EA0118801390
B0925364624527N00808174EA0118701389
B0925374624525N00808167EA0118601388
B0925384624524N00808159EA0118501387
B0925394624523N00808151EA0118401386
B0925404624524N00808143EA0118301385
B0925414624525N00808136EA0118201384
B0925424624528N00808129EA0118101383
B0925434624532N00808123EA0117901381
B0925444624536N00808118EA0117801380
B0925454624540N00808115EA0117701379
B0925464624546N00808112EA0117601378
B0925474624551N00808111EA0117501377
B0925484624556N00808112EA0117401376
B0925494624561N00808114EA0117301375
B0925504624565N00808118EA0117201374
B0925514624569N00808123EA0117101373
B0925524624571N00808129EA0117101373
B0925534624572N00808136EA0117001372
B0925544624573N00808142EA0117001372
B0925554624572N00808149EA0116901371
B0925564624571N00808155EA0116801370
B0925574624570N00808161EA0116801370
B0925584624568N00808167EA0116701369
B0925594624566N00808172EA0116701369
B0926004624565N00808178EA0116601368
B0926014624563N00808184EA0116501367
B0926024624562N00808190EA0116401366
B0926034624561N00808196EA0116301365
B0926044624559N00808201EA0116201364
B0926054624556N00808207EA0116101363
B0926064624554N00808212EA0116101363
B0926074624552N00808217EA0116001362
B0926084624549N00808222EA0116001361
B0926094624546N00808226EA0115901361
B0926104624543N00808230EA0115701359
B0926114624539N00808233EA0115501357
B0926124624534N00808235EA0115301355
B0926134624529N00808237EA0115201354
B0926144624524N00808237EA0115201354
B0926154624518N00808236EA0115301355
B0926164624514N00808233EA0115201354
B0926174624510N00808229EA0115001352
B0926184624506N00808223EA0114901351
B0926194624502N00808217EA0114701349
B0926204624500N00808209EA0114601348
B0926214624497N00808200EA0114401346
B0926224624497N00808191EA0114301345
B0926234624499N00808182EA0114201344
B0926244624501N00808174EA0114101343
B0926254624504N00808167EA0114101342
B0926264624508N00808162EA0113901341
B0926274624513N00808158EA0113801340
B0926284624518N00808156EA0113701339
B0926294624524N00808155EA0113501337
B0926304624529N00808157EA0113401336
B0926314624533N00808160EA0113401335
B0926324624537N00808165EA0113201334
B0926334624540N00808171EA0113101333
B0926344624543N00808177EA0112901331
B0926354624544N00808185EA0112801330
B0926364624544N00808192EA0112701329
B0926374624542N00808199EA0112601328
B0926384624540N00808205EA0112601328
B0926394624536N00808210EA0112501326
B0926404624532N00808214EA0112301325
B0926414624528N00808218EA0112201324
B0926424624522N00808220EA0112001322
B0926434624517N00808221EA0111901321
B0926444624512N00808219EA0111901320
B0926454624507N00808215EA0111801320
B0926464624503N00808210EA0111601318
B0926474624500N00808204EA0111501317
B0926484624497N00808197EA0111401316
B0926494624495N00808189EA0111301314
B0926504624493N00808180EA0111101313
B0926514624494N00808171EA0111001311
B0926524624496N00808161EA0110901311
B0926534624499N00808153EA0110801310
B0926544624503N00808147EA0110701309
B0926554624508N00808142EA0110501307
B0926564624514N00808138EA0110401306
B0926574624519N00808136EA0110201304
B0926584624525N00808136EA0110001302
B0926594624530N00808138EA0109801300
B0927004624535N00808141EA0109601298
B0927014624540N00808146EA0109501297
B0927024624543N00808152EA0109501297
B0927034624544N00808158EA0109401296
B0927044624544N00808165EA0109301295
B0927054624543N00808172EA0109201294
B0927064624541N00808178EA0109101293
B0927074624538N00808183EA0109101293
B0927084624535N00808187EA0109001292
B0927094624530N00808190EA0108801290
B0927104624525N00808190EA0108601288
B0927114624520N00808190EA0108401286
B0927124624515N00808188EA0108201284
B0927134624510N00808184EA0108101283
B0927144624506N00808179EA0108101282
B0927154624503N00808172EA0108001282
B0927164624500N00808165EA0107901281
B0927174624499N00808157EA0107701279
B0927184624499N00808148EA0107501277
B0927194624500N00808139EA0107401276
B0927204624502N00808130EA0107301275
B0927214624506N00808121EA0107201274
B0927224624510N00808114EA0107101273
B0927234624514N00808109EA0107001272
B0927244624519N00808105EA0106801270
B0927254624524N00808102EA0106601268
B0927264624530N00808099EA0106401266
B0927274624536N00808099EA0106201264
B0927284624542N00808102EA0106101263
B0927294624546N00808107EA0105901261
B0927304624549N00808114EA0105801260
B0927314624551N00808122EA0105701259
B0927324624552N00808129EA0105701259
B0927334624553N00808136EA0105601258
B0927344624553N00808142EA0105501257
B0927354624553N00808149EA0105401256
B0927364624552N00808155EA0105201254
B0927374624552N00808162EA0105101253
B0927384624552N00808169EA0105001252
B0927394624551N00808176EA0105001252
B0927404624551N00808182EA0104901250
B0927414624550N00808189EA0104801250
B0927424624549N00808195EA0104701249
B0927434624548N00808201EA0104601248
B0927444624548N00808207EA0104501247
B0927454624546N00808213EA0104401246
B0927464624546N00808219EA0104301245
B0927474624544N00808225EA0104201244
B0927484624543N00808230EA0104101243
B0927494624543N00808236EA0103901241
B0927504624541N00808242EA0103701239
B0927514624540N00808249EA0103501237
B0927524624539N00808255EA0103501237
B0927534624537N00808261EA0103401236
B0927544624534N00808266EA0103301235
B0927554624530N00808270EA0103101232
B0927564624525N00808272EA0102801230
B0927574624520N00808273EA0102601228
B0927584624515N00808272EA0102501227
B0927594624511N00808268EA0102401226
B0928004624508N00808262EA0102201224
B0928014624506N00808254EA0102001222
B0928024624505N00808246EA0101901220
B0928034624506N00808238EA0101701219
B0928044624508N00808230EA0101501217
B0928054624511N00808223EA0101201214
B0928064624516N00808218EA0100901211
B0928074624521N00808213EA0100801210
B0928084624527N00808211EA0100801210
B0928094624532N00808211EA0100801210
B0928104624536N00808212EA0100701209
B0928114624540N00808213EA0100601207
B0928124624546N00808214EA0100401205
B0928134624551N00808214EA0100201204
B0928144624557N00808214EA0100101203
B0928154624562N00808214EA0100101203
B0928164624567N00808214EA0100101203
B0928174624572N00808214EA0100001202
B0928184624577N00808215EA0099901201
B0928194624582N00808215EA0099701199
B0928204624588N00808216EA0099501197
B0928214624594N00808217EA0099501197
B0928224624600N00808218EA0099501197
B0928234624605N00808218EA0099401196
B0928244624609N00808218EA0099201194
B0928254624615N00808219EA0098901191
B0928264624621N00808220EA0098701189
B0928274624627N00808221EA0098601188
B0928284624632N00808223EA0098601188
B0928294624637N00808225EA0098601188
B0928304624642N00808228EA0098501187
B0928314624647N00808230EA0098401186
B0928324624652N00808233EA0098301184
B0928334624658N00808236EA0098201184
B0928344624663N00808239EA0098101183
B0928354624668N00808242EA0098101183
B0928364624671N00808246EA0098001182
B0928374624675N00808251EA0097801180
B0928384624678N00808257EA0097601178
B0928394624681N00808263EA0097501177
B0928404624683N00808271EA0097301175
B0928414624684N00808278EA0097201174
B0928424624684N00808284EA0097101173
B0928434624685N00808291EA0096801170
B0928444624686N00808298EA0096601168
B0928454624687N00808305EA0096401166
B0928464624687N00808313EA0096301165
B0928474624687N00808321EA0096201164
B0928484624687N00808328EA0096201163
B0928494624688N00808335EA0096101163
B0928504624689N00808342EA0095901161
B0928514624689N00808350EA0095801160
B0928524624689N00808357EA0095601158
B0928534624689N00808365EA0095501157
B0928544624689N00808373EA0095401156
B0928554624689N00808381EA0095301155
B0928564624687N00808388EA0095101153
B0928574624684N00808394EA0095001152
B0928584624681N00808400EA0094901151
B0928594624677N00808404EA0094801150
B0929004624673N00808408EA0094801150
B0929014624668N00808409EA0094601148
B0929024624664N00808407EA0094401146
B0929034624660N00808403EA0094301145
B0929044624656N00808398EA0094201144
B0929054624655N00808391EA0094101143
B0929064624655N00808384EA0094001142
B0929074624656N00808377EA0093901141
B0929084624658N00808371EA0093901141
B0929094624660N00808364EA0093801140
B0929104624661N00808359EA0093701139
B0929114624663N00808353EA0093601138
B0929124624664N00808346EA0093501137
B0929134624665N00808340EA0093401136
B0929144624666N00808334EA0093301135
B0929154624667N00808328EA0093201134
B0929164624667N00808322EA0093001132
B0929174624666N00808316EA0092801130
B0929184624665N00808309EA0092701129
B0929194624665N00808303EA0092601128
B0929204624664N00808297EA0092501127
B0929214624662N00808293EA0092301125
B0929224624659N00808289EA0092001122
B0929234624655N00808286EA0091901120
B0929244624651N00808285EA0091801120
B0929254624647N00808285EA0091701119
B0929264624644N00808286EA0091601118
B0929274624640N00808288EA0091401116
B0929284624637N00808291EA0091201114
B0929294624634N00808295EA0091101113
B0929304624632N00808300EA0091101113
B0929314624630N00808306EA0091101113
B0929324624629N00808311EA0091001112
B0929334624627N00808316EA0090801110
B0929344624624N00808320EA0090601108
B0929354624620N00808323EA0090501107
B0929364624616N00808323EA0090501107
B0929374624612N00808321EA0090401106
B0929384624609N00808317EA0090201104
B0929394624607N00808311EA0090101103
B0929404624605N00808304EA0090001102
B0929414624605N00808297EA0090001101
B0929424624605N00808290EA0089901101
B0929434624605N00808284EA0089901101
B0929444624606N00808277EA0089701099
B0929454624605N00808271EA0089601097
B0929464624603N00808264EA0089401096
B0929474624600N00808259EA0089401096
B0929484624598N00808253EA0089401096
B0929494624595N00808250EA0089401096
B0929504624592N00808248EA0089301095
B0929514624588N00808248EA0089201093
B0929524624584N00808247EA0089001092
B0929534624580N00808247EA0088901091
B0929544624576N00808246EA0088901091
B0929554624572N00808245EA0088801090
B0929564624568N00808244EA0088801090
B0929574624565N00808243EA0088701088
B0929584624562N00808241EA0088601088
B0929594624559N00808238EA0088501087
B0930004624556N00808235EA0088501087
B0930014624553N00808233EA0088501087
B0930024624551N00808230EA0088401086
B0930034624548N00808228EA0088301085
B0930044624546N00808225EA0088301085
B0930054624543N00808222EA0088101083
B0930064624541N00808218EA0088001082
B0930074624539N00808214EA0087901081
B0930084624537N00808211EA0087801079
B0930094624536N00808210EA0087901081
B0930104624535N00808210EA0088001082
B0930114624535N00808211EA0088001082
B0930124624535N00808211EA0087901081
B0930134624535N00808211EA0087901081
B0930144624536N00808211EA0087901081
B0930154624536N00808210EA0087901081
B0930164624537N00808210EA0087901081
B0930174624537N00808210EA0087901081
B0930184624537N00808210EA0087901081
B0930194624537N00808209EA0087901081
B0930204624537N00808210EA0087901081
B0930214624537N00808210EA0087901081
B0930224624537N00808211EA0087901081
B0930234624537N00808211EA0087901081
B0930244624537N00808211EA0087901081
B0930254624538N00808211EA0087901081
B0930264624538N00808212EA0087901081
B0930274624538N00808213EA0087901081
B0930284624538N00808213EA0087901081
B0930294624538N00808213EA0087901081
B0930304624539N00808214EA0087901081
B0930314624539N00808214EA0087901081
B0930324624539N00808214EA0087901081
B0930334624539N00808215EA0087901081
B0930344624540N00808215EA0087901081
B0930354624540N00808215EA0087901081
B0930364624540N00808215EA0087901081
B0930374624540N00808215EA0087901081
B0930384624540N00808216EA0087901081
B0930394624540N00808216EA0087901081
B0930404624540N00808217EA0087901081
B0930414624540N00808216EA0087901081
B0930424624540N00808216EA0087901081
B0930434624541N00808217EA0087901081
B0930444624541N00808217EA0087901081
B0930454624541N00808217EA0087901081
B0930464624541N00808216EA0087901081
B0930474624541N00808216EA0087901081
B0930484624540N00808216EA0087901081
B0930494624540N00808216EA0087901081
B0930504624540N00808216EA0087901081
B0930514624540N00808217EA0087901081
B0930524624539N00808216EA0087901081
B0930534624539N00808216EA0087901081
B0930544624539N00808216EA0087901081
B0930554624539N00808217EA0087901081
B0930564624539N00808218EA0087901081
B0930574624539N00808218EA0087901081
B0930584624539N00808218EA0087901081
B0930594624539N00808219EA0087901081
B0931004624539N00808219EA0087901081
B0931014624539N00808219EA0087901081
B0931024624540N00808219EA0087901081
B0931034624540N00808219EA0087901081
B0931044624540N00808219EA0087901081
B0931054624540N00808219EA0087901081
B0931064624540N00808219EA0087901081
B0931074624540N00808219EA0087901081
B0931084624541N00808218EA0087901081
B0931094624541N00808218EA0087901081
B0931104624542N00808218EA0087901081
B0931114624543N00808217EA0087901081
B0931124624543N00808217EA0087901081
B0931134624543N00808217EA0087901081
B0931144624544N00808217EA0087901081
B0931154624544N00808217EA0087901081
B0931164624545N00808216EA0087901081
B0931174624545N00808216EA0087901081
B0931184624546N00808216EA0088001081
B0931194624546N00808216EA0087901081
B0931204624546N00808216EA0087901081
B0931214624547N00808216EA0087901081
B0931224624547N00808215EA0087901081
B0931234624548N00808215EA0087901081
B0931244624549N00808215EA0087901081
B0931254624549N00808215EA0088001082
B0931264624551N00808215EA0088001081
B0931274624552N00808215EA0087901081
B0931284624552N00808215EA0088001081
B0931294624553N00808214EA0087901081
B0931304624554N00808214EA0088001082
B0931314624554N00808213EA0088001082
B0931324624555N00808213EA0088001082
B0931334624555N00808213EA0088001082
B0931344624555N00808214EA0088001082
B0931354624556N00808213EA0088001082
B0931364624556N00808213EA0088001082
B0931374624556N00808213EA0088001082
B0931384624556N00808212EA0088001082
B0931394624556N00808211EA0088001082
B0931404624556N00808211EA0088001082
B0931414624556N00808211EA0088001082
LXSX;GF:1.3
G74F32EDF77A3C48733ABBFB9FD802C6A
