AXSX003 SKYTRAXX V3.0.14 SN:00000380
HFPLTPILOT:Sepp Bucher
HFGTYGLIDERTYPE:Advance Sigma10
HFDTM100GPSDATUM:WGS-84
HFCIDCOMPETITIONID:0000
HFCCLCOMPETITION CLASS:Paraglider (Standard)
HFSITSITE:UNKNOWN
HFDTE091019
B0846144358258N00629036EA0145601456
B0846154358254N00629040EA0145501455
B0846164358249N00629045EA0145501455
B0846174358243N00629049EA0145501455
B0846184358239N00629053EA0145501455
B0846194358233N00629056EA0145401454
B0846204358228N00629059EA0145301453
B0846214358222N00629062EA0145201452
B0846224358217N00629066EA0145201452
B0846234358212N00629070EA0145101451
B0846244358207N00629074EA0145101451
B0846254358202N00629077EA0145001450
B0846264358196N00629081EA0145001450
B0846274358191N00629084EA0145001450
B0846284358186N00629088EA0144901449
B0846294358181N00629091EA0144701447
B0846304358176N00629094EA0144601446
B0846314358170N00629098EA0144501445
B0846324358165N00629103EA0144401444
B0846334358159N00629108EA0144501445
B0846344358153N00629112EA0144501445
B0846354358148N00629117EA0144401444
B0846364358143N00629120EA0144301443
B0846374358487N00628889EA0144201442
B0846384358481N00628894EA0144101441
B0846394358474N00628898EA0144101441
B0846404358469N00628903EA0144101441
B0846414358463N00628906EA0144101441
B0846424358458N00628910EA0144001440
B0846434358452N00628913EA0143901439
B0846444358445N00628917EA0143801438
B0846454358439N00628921EA0143601436
B0846464358434N00628925EA0143501435
B0846474358429N00628929EA0143401434
B0846484358422N00628932EA0143401434
B0846494358416N00628936EA0143401434
B0846504358410N00628940EA0143301433
B0846514358404N00628945EA0143201432
B0846524358398N00628950EA0143101431
B0846534358392N00628954EA0143001430
B0846544358387N00628959EA0142901429
B0846554358381N00628965EA0142801428
B0846564358375N00628970EA0142701427
B0846574358370N00628976EA0142601426
B0846584358365N00628983EA0142501425
B0846594358359N00628989EA0142401424
B0847004358353N00628995EA0142301423
B0847014358348N00629001EA0142201422
B0847024358342N00629007EA0142101421
B0847034358337N00629013EA0142001420
B0847044358331N00629020EA0142001420
B0847054358326N00629026EA0141901419
B0847064358320N00629032EA0141801418
B0847074358315N00629038EA0141701417
B0847084358309N00629045EA0141501415
B0847094358303N00629051EA0141401414
B0847104358297N00629058EA0141301413
B0847114358292N00629064EA0141201412
B0847124358286N00629071EA0141101411
B0847134358281N00629078EA0141001410
B0847144358275N00629084EA0140901409
B0847154358269N00629091EA0140701407
B0847164358264N00629097EA0140601406
B0847174358259N00629104EA0140501405
B0847184358253N00629111EA0140401404
B0847194358248N00629117EA0140301403
B0847204358243N00629123EA0140201402
B0847214358237N00629130EA0140001400
B0847224358231N00629137EA0139901399
B0847234358226N00629144EA0139801398
B0847244358221N00629152EA0139801398
B0847254358217N00629160EA0139701397
B0847264358212N00629167EA0139601396
B0847274358208N00629175EA0139501395
B0847284358204N00629183EA0139301393
B0847294358199N00629192EA0139201392
B0847304358194N00629200EA0139101391
B0847314358190N00629209EA0139001390
B0847324358187N00629217EA0138901389
B0847334358183N00629226EA0138701387
B0847344358179N00629235EA0138601386
B0847354358175N00629244EA0138401384
B0847364358172N00629253EA0138301383
B0847374358168N00629262EA0138201382
B0847384358166N00629272EA0138101381
B0847394358163N00629281EA0137901379
B0847404358160N00629291EA0137801378
B0847414358158N00629300EA0137701377
B0847424358155N00629310EA0137601376
B0847434358153N00629320EA0137501375
B0847444358152N00629330EA0137401374
B0847454358151N00629340EA0137301373
B0847464358150N00629350EA0137201372
B0847474358149N00629360EA0137001370
B0847484358149N00629370EA0136901369
B0847494358148N00629381EA0136801368
B0847504358148N00629391EA0136701367
B0847514358148N00629401EA0136601366
B0847524358148N00629411EA0136501365
B0847534358148N00629422EA0136301363
B0847544358148N00629432EA0136101361
B0847554358149N00629443EA0136001360
B0847564358150N00629453EA0135901359
B0847574358150N00629463EA0135701357
B0847584358151N00629473EA0135601356
B0847594358152N00629484EA0135401354
B0848004358152N00629494EA0135301353
B0848014358153N00629504EA0135201352
B0848024358153N00629514EA0135101351
B0848034358152N00629523EA0134801348
B0848044358149N00629532EA0134601346
B0848054358147N00629541EA0134301343
B0848064358143N00629550EA0134101341
B0848074358139N00629558EA0133901339
B0848084358135N00629566EA0133701337
B0848094358130N00629573EA0133601336
B0848104358126N00629580EA0133401334
B0848114358122N00629587EA0133101331
B0848124358117N00629594EA0132601326
B0848134358112N00629601EA0132401324
B0848144358106N00629606EA0132501325
B0848154358102N00629611EA0132401324
B0848164358097N00629615EA0132201322
B0848174358091N00629619EA0132101321
B0848184358086N00629623EA0132101321
B0848194358081N00629627EA0131901319
B0848204358076N00629631EA0131701317
B0848214358070N00629635EA0131601316
B0848224358065N00629639EA0131501315
B0848234358060N00629643EA0131401314
B0848244358054N00629647EA0131301313
B0848254358049N00629651EA0131101311
B0848264358044N00629655EA0130901309
B0848274358038N00629659EA0130701307
B0848284358034N00629664EA0130601306
B0848294358029N00629670EA0130501305
B0848304358025N00629676EA0130401304
B0848314358022N00629684EA0130201302
B0848324358019N00629691EA0130001300
B0848334358017N00629699EA0129901299
B0848344358015N00629708EA0129701297
B0848354358013N00629717EA0129601296
B0848364358012N00629726EA0129401294
B0848374358010N00629735EA0129201292
B0848384358007N00629743EA0129001290
B0848394358004N00629751EA0128801288
B0848404358001N00629760EA0128701287
B0848414357998N00629768EA0128601286
B0848424357997N00629777EA0128501285
B0848434357996N00629786EA0128301283
B0848444357994N00629795EA0128201282
B0848454357993N00629804EA0128001280
B0848464357991N00629813EA0127801278
B0848474357989N00629823EA0127701277
B0848484357988N00629832EA0127601276
B0848494357987N00629842EA0127501275
B0848504357986N00629851EA0127401274
B0848514357985N00629860EA0127201272
B0848524357984N00629869EA0127101271
B0848534357982N00629879EA0127001270
B0848544357981N00629888EA0126901269
B0848554357980N00629897EA0126801268
B0848564357979N00629907EA0126701267
B0848574357978N00629916EA0126501265
B0848584357976N00629925EA0126401264
B0848594357975N00629934EA0126301263
B0849004357973N00629944EA0126201262
B0849014357971N00629953EA0126101261
B0849024357969N00629961EA0126001260
B0849034357966N00629969EA0125901259
B0849044357962N00629977EA0125801258
B0849054357960N00629984EA0125701257
B0849064357956N00629992EA0125601256
B0849074357953N00629999EA0125601256
B0849084357950N00630006EA0125601256
B0849094357946N00630010EA0125501255
B0849104357942N00630012EA0125201252
B0849114357938N00630009EA0124801248
B0849124357934N00630006EA0124801248
B0849134357929N00630005EA0124801248
B0849144357924N00630009EA0124501245
B0849154357922N00630019EA0123701237
B0849164357923N00630031EA0123401234
B0849174357922N00630040EA0123601236
B0849184357919N00630046EA0123501235
B0849194357914N00630046EA0122901229
B0849204357911N00630042EA0122101221
B0849214357906N00630035EA0122101221
B0849224357902N00630034EA0122301223
B0849234357897N00630042EA0121701217
B0849244357897N00630056EA0120801208
B0849254357898N00630067EA0120901209
B0849264357896N00630077EA0121201212
B0849274357892N00630082EA0120701207
B0849284357888N00630073EA0119701197
B0849294357883N00630070EA0119401194
B0849304357878N00630070EA0119701197
B0849314357872N00630074EA0119301193
B0849324357872N00630084EA0118401184
B0849334357876N00630098EA0118101181
B0849344357877N00630108EA0118601186
B0849354357875N00630115EA0118401184
B0849364357871N00630117EA0117601176
B0849374357864N00630115EA0116801168
B0849384357859N00630113EA0117101171
B0849394357854N00630118EA0117201172
B0849404357852N00630126EA0116701167
B0849414357855N00630138EA0116101161
B0849424357857N00630148EA0116301163
B0849434357857N00630156EA0116501165
B0849444357854N00630162EA0116201162
B0849454357850N00630165EA0115901159
B0849464357845N00630170EA0115701157
B0849474357842N00630176EA0115701157
B0849484357839N00630184EA0115501155
B0849494357836N00630192EA0115301153
B0849504357832N00630198EA0115101151
B0849514357828N00630203EA0114901149
B0849524357822N00630208EA0114901149
B0849534357818N00630214EA0114901149
B0849544357814N00630220EA0114901149
B0849554357811N00630227EA0114801148
B0849564357808N00630233EA0114601146
B0849574357805N00630240EA0114401144
B0849584357801N00630247EA0114201142
B0849594357796N00630254EA0114101141
B0850004357792N00630261EA0114101141
B0850014357788N00630267EA0114101141
B0850024357785N00630273EA0114101141
B0850034357781N00630279EA0114001140
B0850044357777N00630285EA0113801138
B0850054357773N00630291EA0113701137
B0850064357769N00630297EA0113501135
B0850074357764N00630302EA0113401134
B0850084357760N00630308EA0113501135
B0850094357756N00630313EA0113401134
B0850104357754N00630319EA0113301133
B0850114357750N00630325EA0113301133
B0850124357746N00630329EA0113101131
B0850134357742N00630331EA0112801128
B0850144357738N00630328EA0112501125
B0850154357736N00630321EA0112101121
B0850164357739N00630313EA0111501115
B0850174357746N00630313EA0111001110
B0850184357751N00630321EA0110401104
B0850194357753N00630333EA0109901099
B0850204357748N00630338EA0109401094
B0850214357743N00630335EA0108901089
B0850224357745N00630325EA0108201082
B0850234357755N00630327EA0107401074
B0850244357760N00630337EA0106801068
B0850254357758N00630350EA0106601066
B0850264357751N00630349EA0106501065
B0850274357748N00630341EA0106401064
B0850284357752N00630333EA0106301063
B0850294357757N00630326EA0106501065
B0850304357761N00630324EA0106601066
B0850314357765N00630323EA0106701067
B0850324357767N00630321EA0106601066
B0850334357769N00630319EA0106401064
B0850344357773N00630316EA0106101061
B0850354357777N00630316EA0105801058
B0850364357782N00630319EA0105501055
B0850374357786N00630327EA0105301053
B0850384357785N00630335EA0105101051
B0850394357782N00630341EA0105101051
B0850404357778N00630345EA0105101051
B0850414357773N00630346EA0105101051
B0850424357770N00630348EA0105001050
B0850434357765N00630350EA0104801048
B0850444357761N00630353EA0104601046
B0850454357757N00630356EA0104401044
B0850464357752N00630357EA0104401044
B0850474357748N00630357EA0104301043
B0850484357743N00630356EA0104201042
B0850494357738N00630354EA0104101041
B0850504357734N00630354EA0104001040
B0850514357729N00630353EA0103901039
B0850524357725N00630352EA0103801038
B0850534357720N00630351EA0103701037
B0850544357716N00630349EA0103601036
B0850554357710N00630348EA0103401034
B0850564357706N00630347EA0103301033
B0850574357701N00630347EA0103201032
B0850584357697N00630346EA0103101031
B0850594357692N00630346EA0103101031
B0851004357688N00630345EA0103001030
B0851014357684N00630345EA0102901029
B0851024357680N00630347EA0102701027
B0851034357676N00630349EA0102601026
B0851044357673N00630353EA0102501025
B0851054357670N00630356EA0102501025
B0851064357667N00630360EA0102401024
B0851074357665N00630364EA0102201022
B0851084357663N00630368EA0102101021
B0851094357660N00630372EA0101901019
B0851104357657N00630376EA0101801018
B0851114357654N00630381EA0101701017
B0851124357651N00630385EA0101601016
B0851134357648N00630389EA0101601016
B0851144357646N00630393EA0101401014
B0851154357644N00630398EA0101301013
B0851164357642N00630403EA0101201012
B0851174357639N00630408EA0101101011
B0851184357637N00630413EA0101001010
B0851194357634N00630417EA0101001010
B0851204357631N00630422EA0100801008
B0851214357628N00630426EA0100701007
B0851224357626N00630430EA0100601006
B0851234357623N00630435EA0100401004
B0851244357621N00630440EA0100301003
B0851254357619N00630445EA0100201002
B0851264357617N00630451EA0100001000
B0851274357615N00630456EA0099900999
B0851284357612N00630462EA0099700997
B0851294357609N00630468EA0099600996
B0851304357606N00630473EA0099600996
B0851314357604N00630478EA0099600996
B0851324357602N00630483EA0099500995
B0851334357601N00630488EA0099300993
B0851344357599N00630494EA0099200992
B0851354357598N00630500EA0099100991
B0851364357596N00630507EA0099000990
B0851374357595N00630513EA0098900989
B0851384357593N00630519EA0098800988
B0851394357592N00630525EA0098700987
B0851404357591N00630531EA0098600986
B0851414357589N00630537EA0098400984
B0851424357587N00630544EA0098300983
B0851434357586N00630550EA0098200982
B0851444357584N00630556EA0098100981
B0851454357583N00630563EA0098000980
B0851464357582N00630569EA0097900979
B0851474357580N00630576EA0097700977
B0851484357577N00630581EA0097600976
B0851494357574N00630586EA0097400974
B0851504357571N00630591EA0097400974
B0851514357567N00630596EA0097300973
B0851524357565N00630601EA0097200972
B0851534357564N00630607EA0097100971
B0851544357562N00630613EA0096900969
B0851554357561N00630619EA0096800968
B0851564357558N00630625EA0096700967
B0851574357555N00630630EA0096500965
B0851584357551N00630635EA0096400964
B0851594357547N00630638EA0096300963
B0852004357543N00630642EA0096200962
B0852014357540N00630646EA0096100961
B0852024357536N00630650EA0095900959
B0852034357532N00630653EA0095800958
B0852044357527N00630657EA0095700957
B0852054357523N00630659EA0095600956
B0852064357518N00630661EA0095500955
B0852074357514N00630663EA0095400954
B0852084357509N00630663EA0095300953
B0852094357504N00630663EA0095300953
B0852104357499N00630662EA0095200952
B0852114357495N00630660EA0095000950
B0852124357491N00630658EA0094900949
B0852134357486N00630656EA0094800948
B0852144357482N00630654EA0094700947
B0852154357477N00630653EA0094600946
B0852164357473N00630652EA0094400944
B0852174357469N00630652EA0094300943
B0852184357464N00630651EA0094200942
B0852194357460N00630650EA0094100941
B0852204357456N00630645EA0093900939
B0852214357456N00630638EA0093700937
B0852224357457N00630629EA0093400934
B0852234357461N00630622EA0093200932
B0852244357468N00630619EA0093100931
B0852254357475N00630621EA0092900929
B0852264357480N00630626EA0092700927
B0852274357483N00630634EA0092600926
B0852284357483N00630642EA0092500925
B0852294357480N00630648EA0092400924
B0852304357477N00630652EA0092200922
B0852314357472N00630653EA0092000920
B0852324357467N00630651EA0091900919
B0852334357463N00630646EA0091800918
B0852344357462N00630639EA0091600916
B0852354357463N00630631EA0091400914
B0852364357467N00630625EA0091300913
B0852374357472N00630621EA0091200912
B0852384357477N00630619EA0091100911
B0852394357483N00630620EA0091000910
B0852404357487N00630623EA0090900909
B0852414357492N00630628EA0090700907
B0852424357495N00630634EA0090500905
B0852434357496N00630642EA0090400904
B0852444357495N00630649EA0090300903
B0852454357493N00630656EA0090200902
B0852464357489N00630661EA0090100901
B0852474357485N00630664EA0090000900
B0852484357480N00630665EA0089800898
B0852494357476N00630663EA0089700897
B0852504357471N00630659EA0089600896
B0852514357469N00630652EA0089400894
B0852524357468N00630645EA0089300893
B0852534357469N00630638EA0089200892
B0852544357472N00630632EA0089100891
B0852554357476N00630626EA0089000890
B0852564357479N00630621EA0088800888
B0852574357483N00630615EA0088700887
B0852584357485N00630609EA0088600886
B0852594357488N00630602EA0088500885
B0853004357490N00630595EA0088300883
B0853014357493N00630588EA0088100881
B0853024357496N00630580EA0088000880
B0853034357499N00630573EA0088000880
B0853044357502N00630567EA0088000880
B0853054357505N00630560EA0088000880
B0853064357508N00630555EA0087900879
B0853074357512N00630551EA0087800878
B0853084357517N00630549EA0087600876
B0853094357522N00630548EA0087400874
B0853104357528N00630547EA0087300873
B0853114357532N00630544EA0087200872
B0853124357536N00630539EA0087000870
B0853134357539N00630533EA0086800868
B0853144357540N00630526EA0086700867
B0853154357542N00630520EA0086600866
B0853164357542N00630514EA0086500865
B0853174357540N00630508EA0086300863
B0853184357538N00630503EA0086100861
B0853194357535N00630497EA0086000860
B0853204357531N00630493EA0086000860
B0853214357527N00630490EA0085900859
B0853224357522N00630489EA0085700857
B0853234357517N00630491EA0085500855
B0853244357513N00630494EA0085400854
B0853254357509N00630500EA0085400854
B0853264357508N00630506EA0085300853
B0853274357508N00630513EA0085100851
B0853284357510N00630519EA0085000850
B0853294357513N00630525EA0084900849
B0853304357517N00630529EA0084900849
B0853314357522N00630530EA0084800848
B0853324357527N00630530EA0084700847
B0853334357532N00630527EA0084500845
B0853344357536N00630524EA0084400844
B0853354357541N00630520EA0084300843
B0853364357545N00630517EA0084300843
B0853374357550N00630516EA0084100841
B0853384357555N00630517EA0083900839
B0853394357559N00630521EA0083600836
B0853404357561N00630528EA0083400834
B0853414357561N00630536EA0083200832
B0853424357559N00630543EA0083000830
B0853434357554N00630548EA0082800828
B0853444357548N00630550EA0082800828
B0853454357544N00630552EA0082900829
B0853464357541N00630555EA0082800828
B0853474357538N00630558EA0082700827
B0853484357535N00630561EA0082500825
B0853494357531N00630565EA0082200822
B0853504357527N00630570EA0082100821
B0853514357525N00630575EA0081900819
B0853524357523N00630581EA0081800818
B0853534357522N00630587EA0081800818
B0853544357522N00630593EA0081700817
B0853554357522N00630599EA0081500815
B0853564357523N00630606EA0081300813
B0853574357524N00630613EA0081100811
B0853584357524N00630620EA0080900809
B0853594357524N00630627EA0080900809
B0854004357523N00630632EA0081000810
B0854014357522N00630636EA0081000810
B0854024357521N00630638EA0081100811
B0854034357521N00630639EA0081100811
B0854044357521N00630640EA0081100811
B0854054357520N00630640EA0081100811
B0854064357520N00630640EA0081100811
B0854074357520N00630640EA0081100811
B0854084357520N00630640EA0081100811
B0854094357520N00630640EA0081100811
B0854104357520N00630640EA0081100811
B0854114357520N00630640EA0081000810
B0854124357519N00630640EA0081000810
B0854134357518N00630639EA0081100811
B0854144357518N00630639EA0081000810
B0854154357518N00630639EA0081100811
B0854164357519N00630639EA0081100811
B0854174357519N00630639EA0081100811
B0854184357519N00630639EA0081100811
B0854194357519N00630639EA0081000810
B0854204357519N00630639EA0081100811
B0854214357520N00630639EA0081100811
B0854224357519N00630638EA0081100811
B0854234357519N00630638EA0081100811
B0854244357518N00630638EA0081100811
B0854254357518N00630637EA0081100811
B0854264357518N00630637EA0081000810
B0854274357519N00630637EA0081100811
B0854284357519N00630637EA0081000810
B0854294357520N00630637EA0081100811
B0854304357520N00630638EA0081100811
B0854314357520N00630638EA0081000810
B0854324357521N00630638EA0081100811
B0854334357521N00630638EA0081100811
B0854344357521N00630638EA0081100811
B0854354357521N00630638EA0081100811
B0854364357521N00630637EA0081100811
B0854374357521N00630638EA0081100811
B0854384357521N00630638EA0081100811
B0854394357522N00630638EA0081100811
B0854404357524N00630638EA0081100811
B0854414357524N00630638EA0081100811
B0854424357525N00630639EA0081100811
B0854434357526N00630639EA0081100811
B0854444357526N00630638EA0081100811
B0854454357526N00630637EA0081000810
B0854464357526N00630636EA0081000810
B0854474357526N00630636EA0081100811
B0854484357526N00630635EA0081000810
B0854494357527N00630635EA0081100811
B0854504357527N00630635EA0081100811
B0854514357527N00630634EA0081100811
B0854524357527N00630634EA0081100811
B0854534357527N00630634EA0081100811
B0854544357528N00630634EA0081100811
B0854554357528N00630633EA0081100811
B0854564357529N00630634EA0081100811
B0854574357529N00630634EA0081100811
B0854584357530N00630635EA0081100811
B0854594357531N00630635EA0081100811
B0855004357531N00630635EA0081100811
B0855014357531N00630636EA0081100811
B0855024357531N00630636EA0081100811
B0855034357531N00630636EA0081100811
B0855044357531N00630636EA0081100811
B0855054357531N00630635EA0081100811
B0855064357531N00630635EA0081100811
B0855074357531N00630636EA0081100811
B0855084357532N00630636EA0081100811
B0855094357532N00630637EA0081100811
B0855104357532N00630637EA0081100811
B0855114357533N00630637EA0081100811
B0855124357533N00630638EA0081100811
B0855134357534N00630639EA0081100811
B0855144357534N00630639EA0081100811
B0855154357533N00630638EA0081100811
B0855164357533N00630638EA0081100811
B0855174357534N00630638EA0081100811
B0855184357534N00630637EA0081100811
B0855194357534N00630636EA0081100811
B0855204357534N00630636EA0081100811
B0855214357535N00630635EA0081100811
B0855224357535N00630634EA0081100811
B0855234357535N00630634EA0081100811
B0855244357535N00630633EA0081100811
B0855254357536N00630633EA0081100811
B0855264357536N00630633EA0081100811
B0855274357537N00630633EA0081100811
B0855284357537N00630633EA0081100811
B0855294357538N00630633EA0081100811
B0855304357539N00630634EA0081100811
B0855314357539N00630634EA0081100811
B0855324357540N00630635EA0081100811
B0855334357540N00630636EA0081100811
LXSX;GF:2.5
G2519B4657625A618E2F54BF064E22A5E
