AXSX003 SKYTRAXX V3.0.16b SN:00000380
HFPLTPILOT:Sepp Bucher
HFGTYGLIDERTYPE:Advance Sigma10
HFDTM100GPSDATUM:WGS-84
HFCIDCOMPETITIONID:0000
HFCCLCOMPETITION CLASS:Paraglider (Standard)
HFSITSITE:UNKNOWN
HFDTE260620
B0928175522617N02514346EA0003800133
B0928185522617N02514346EA0003800133
B0928195522617N02514346EA0003800133
B0928205522617N02514346EA0003800133
B0928215522617N02514346EA0003800133
B0928225522617N02514346EA0003800133
B0928235522616N02514346EA0003800132
B0928245522615N02514346EA0003800133
B0928255522614N02514346EA0003900133
B0928265522614N02514346EA0003800133
B0928275522613N02514348EA0003700132
B0928285522610N02514351EA0003600131
B0928295522607N02514353EA0003700132
B0928305522605N02514355EA0004000137
B0928315522601N02514356EA0004300141
B0928325522598N02514358EA0004500144
B0928335522595N02514361EA0004600144
B0928345522592N02514364EA0004700145
B0928355522588N02514368EA0004800146
B0928365522584N02514371EA0005000148
B0928375522579N02514374EA0005200150
B0928385522575N02514376EA0005500154
B0928395522571N02514380EA0005800156
B0928405522567N02514382EA0006100159
B0928415522563N02514385EA0006500163
B0928425522561N02514388EA0006700166
B0928435522557N02514393EA0006900167
B0928445522552N02514397EA0007100169
B0928455522548N02514401EA0007400172
B0928465522544N02514404EA0007900177
B0928475522540N02514408EA0008300181
B0928485522537N02514411EA0008500183
B0928495522533N02514415EA0008700185
B0928505522529N02514419EA0008900187
B0928515522524N02514423EA0009200190
B0928525522521N02514427EA0009500193
B0928535522517N02514431EA0009700195
B0928545522513N02514436EA0009800196
B0928555522509N02514440EA0010000199
B0928565522504N02514444EA0010300201
B0928575522500N02514448EA0010600204
B0928585522497N02514451EA0010900207
B0928595522493N02514455EA0011100210
B0929005522489N02514460EA0011300212
B0929015522484N02514464EA0011500214
B0929025522480N02514468EA0011800217
B0929035522476N02514472EA0012200220
B0929045522471N02514477EA0012500224
B0929055522467N02514481EA0012800226
B0929065522463N02514485EA0013000228
B0929075522459N02514490EA0013200231
B0929085522454N02514494EA0013500234
B0929095522450N02514499EA0013900237
B0929105522446N02514505EA0014200240
B0929115522442N02514510EA0014500243
B0929125522439N02514517EA0014700245
B0929135522435N02514524EA0014900247
B0929145522432N02514531EA0015100249
B0929155522428N02514539EA0015300251
B0929165522424N02514546EA0015500254
B0929175522421N02514554EA0015700256
B0929185522417N02514562EA0015900258
B0929195522413N02514570EA0016200260
B0929205522410N02514577EA0016400262
B0929215522406N02514586EA0016600265
B0929225522402N02514594EA0016900267
B0929235522399N02514601EA0017000269
B0929245522395N02514609EA0017200270
B0929255522393N02514617EA0017300271
B0929265522389N02514625EA0017500273
B0929275522386N02514633EA0017600275
B0929285522383N02514641EA0017800276
B0929295522380N02514649EA0018000278
B0929305522377N02514657EA0018200280
B0929315522373N02514665EA0018300282
B0929325522371N02514674EA0018500284
B0929335522367N02514682EA0018800286
B0929345522364N02514691EA0019100289
B0929355522361N02514699EA0019400292
B0929365522358N02514707EA0019600294
B0929375522356N02514716EA0019900297
B0929385522353N02514725EA0020000299
B0929395522350N02514734EA0020200300
B0929405522347N02514742EA0020400303
B0929415522344N02514751EA0020700305
B0929425522341N02514760EA0020900307
B0929435522338N02514770EA0021100309
B0929445522335N02514779EA0021300312
B0929455522332N02514788EA0021700315
B0929465522329N02514797EA0022100320
B0929475522326N02514805EA0022500324
B0929485522324N02514813EA0022700326
B0929495522321N02514823EA0022900328
B0929505522318N02514832EA0023200330
B0929515522315N02514842EA0023600334
B0929525522313N02514851EA0024000338
B0929535522310N02514861EA0024300341
B0929545522307N02514870EA0024600345
B0929555522304N02514879EA0025000348
B0929565522302N02514889EA0025400352
B0929575522299N02514899EA0025700355
B0929585522295N02514908EA0026000358
B0929595522291N02514917EA0026400363
B0930005522289N02514927EA0027000369
B0930015522287N02514935EA0027500374
B0930025522284N02514943EA0028100379
B0930035522281N02514951EA0028500383
B0930045522279N02514958EA0028900388
B0930055522278N02514965EA0029100389
B0930065522275N02514971EA0029100389
B0930075522272N02514978EA0029200390
B0930085522268N02514987EA0029400393
B0930095522265N02514994EA0029600395
B0930105522262N02515000EA0029800396
B0930115522258N02515007EA0030000399
B0930125522255N02515015EA0030100399
B0930135522251N02515023EA0030200400
B0930145522247N02515031EA0030400402
B0930155522243N02515037EA0030700405
B0930165522240N02515045EA0030900408
B0930175522237N02515052EA0031000409
B0930185522233N02515059EA0031200410
B0930195522229N02515066EA0031300412
B0930205522226N02515073EA0031500414
B0930215522222N02515080EA0031600415
B0930225522218N02515087EA0031800416
B0930235522215N02515094EA0031900418
B0930245522211N02515102EA0032100420
B0930255522208N02515110EA0032300421
B0930265522204N02515118EA0032500423
B0930275522201N02515126EA0032700425
B0930285522197N02515134EA0032900428
B0930295522194N02515143EA0033200430
B0930305522191N02515152EA0033500433
B0930315522188N02515161EA0033700436
B0930325522185N02515170EA0034000439
B0930335522182N02515180EA0034300441
B0930345522179N02515189EA0034500444
B0930355522176N02515198EA0034700445
B0930365522172N02515207EA0034900448
B0930375522168N02515217EA0035100450
B0930385522164N02515226EA0035500454
B0930395522161N02515236EA0035800457
B0930405522158N02515245EA0036100460
B0930415522154N02515253EA0036500463
B0930425522150N02515262EA0036800466
B0930435522146N02515271EA0037100469
B0930445522142N02515279EA0037300472
B0930455522139N02515288EA0037600475
B0930465522135N02515297EA0037900478
B0930475522131N02515306EA0038200481
B0930485522127N02515315EA0038500483
B0930495522123N02515324EA0038700486
B0930505522119N02515333EA0039000489
B0930515522115N02515341EA0039300491
B0930525522111N02515350EA0039500493
B0930535522107N02515358EA0039700496
B0930545522102N02515366EA0039900497
B0930555522098N02515373EA0040000499
B0930565522094N02515380EA0040100499
B0930575522089N02515387EA0040100500
B0930585522085N02515394EA0040000498
B0930595522080N02515402EA0039900497
B0931005522074N02515409EA0040100499
B0931015522069N02515417EA0040300501
B0931025522064N02515424EA0040500504
B0931035522058N02515430EA0040700505
B0931045522053N02515436EA0040800507
B0931055522048N02515443EA0041000508
B0931065522045N02515449EA0041000509
B0931075522040N02515455EA0040900508
B0931085522036N02515460EA0040700506
B0931095522033N02515465EA0040400502
B0931105522029N02515471EA0039900498
B0931115522025N02515479EA0039500494
B0931125522023N02515488EA0039200491
B0931135522022N02515498EA0038900488
B0931145522022N02515508EA0038600484
B0931155522023N02515518EA0038200481
B0931165522024N02515528EA0037900478
B0931175522027N02515538EA0037700475
B0931185522030N02515547EA0037400472
B0931195522035N02515553EA0037200471
B0931205522041N02515558EA0037000469
B0931215522046N02515560EA0036900467
B0931225522052N02515561EA0036700466
B0931235522057N02515562EA0036600464
B0931245522063N02515562EA0036500463
B0931255522068N02515562EA0036300462
B0931265522075N02515561EA0036200460
B0931275522081N02515561EA0036100459
B0931285522087N02515561EA0036000458
B0931295522093N02515561EA0035800457
B0931305522099N02515561EA0035700455
B0931315522105N02515561EA0035600454
B0931325522111N02515561EA0035400452
B0931335522117N02515561EA0035400452
B0931345522123N02515562EA0035300451
B0931355522128N02515562EA0035100449
B0931365522133N02515564EA0034900447
B0931375522139N02515564EA0034600445
B0931385522144N02515565EA0034400442
B0931395522150N02515565EA0034200440
B0931405522156N02515565EA0034000438
B0931415522161N02515565EA0033700435
B0931425522166N02515565EA0033400432
B0931435522171N02515565EA0033100429
B0931445522177N02515566EA0032800426
B0931455522183N02515567EA0032400423
B0931465522188N02515568EA0032200420
B0931475522193N02515570EA0031900418
B0931485522199N02515572EA0031700415
B0931495522206N02515573EA0031200410
B0931505522212N02515574EA0030900407
B0931515522218N02515575EA0031000408
B0931525522224N02515575EA0031000408
B0931535522229N02515576EA0030800406
B0931545522235N02515576EA0030600404
B0931555522241N02515575EA0030300402
B0931565522248N02515572EA0030000399
B0931575522254N02515569EA0029900397
B0931585522260N02515565EA0029800397
B0931595522265N02515561EA0029800396
B0932005522270N02515557EA0029600395
B0932015522275N02515553EA0029500393
B0932025522281N02515548EA0029300392
B0932035522286N02515542EA0029200390
B0932045522291N02515537EA0029100389
B0932055522296N02515531EA0029000388
B0932065522301N02515526EA0028900387
B0932075522306N02515521EA0028800386
B0932085522310N02515516EA0028700385
B0932095522314N02515512EA0028600385
B0932105522318N02515508EA0028500384
B0932115522322N02515504EA0028400382
B0932125522327N02515499EA0028200380
B0932135522331N02515495EA0028000378
B0932145522336N02515489EA0027800376
B0932155522341N02515485EA0027700375
B0932165522346N02515481EA0027700375
B0932175522350N02515477EA0027600375
B0932185522354N02515474EA0027400373
B0932195522358N02515471EA0027200370
B0932205522363N02515467EA0026800366
B0932215522368N02515463EA0026500364
B0932225522373N02515457EA0026400363
B0932235522378N02515452EA0026300362
B0932245522381N02515448EA0026300362
B0932255522385N02515445EA0026300361
B0932265522388N02515440EA0026100359
B0932275522392N02515434EA0025800357
B0932285522397N02515428EA0025700355
B0932295522401N02515423EA0025700355
B0932305522405N02515420EA0025700355
B0932315522409N02515417EA0025600355
B0932325522413N02515414EA0025400353
B0932335522419N02515409EA0025200351
B0932345522423N02515405EA0025100349
B0932355522429N02515400EA0025100349
B0932365522433N02515396EA0025100349
B0932375522438N02515391EA0025100349
B0932385522441N02515386EA0025000349
B0932395522446N02515381EA0025000348
B0932405522451N02515375EA0025000349
B0932415522456N02515370EA0025000348
B0932425522460N02515366EA0025100349
B0932435522464N02515361EA0025200351
B0932445522467N02515355EA0025300351
B0932455522471N02515350EA0025300351
B0932465522475N02515345EA0025300351
B0932475522478N02515341EA0025300351
B0932485522481N02515337EA0025200351
B0932495522483N02515331EA0025100350
B0932505522486N02515325EA0025000349
B0932515522490N02515319EA0024900348
B0932525522493N02515313EA0024900347
B0932535522497N02515308EA0024900347
B0932545522501N02515303EA0024800346
B0932555522506N02515298EA0024700346
B0932565522511N02515294EA0024700346
B0932575522515N02515289EA0024700345
B0932585522519N02515284EA0024700345
B0932595522524N02515280EA0024600344
B0933005522529N02515276EA0024500343
B0933015522534N02515271EA0024400342
B0933025522539N02515266EA0024200340
B0933035522543N02515261EA0024000339
B0933045522549N02515257EA0023800337
B0933055522554N02515253EA0023700335
B0933065522560N02515249EA0023600334
B0933075522565N02515245EA0023500333
B0933085522570N02515241EA0023300332
B0933095522575N02515238EA0023200330
B0933105522581N02515233EA0022900328
B0933115522585N02515227EA0022800326
B0933125522590N02515221EA0022700325
B0933135522595N02515215EA0022600325
B0933145522599N02515210EA0022600324
B0933155522603N02515205EA0022500323
B0933165522608N02515199EA0022400322
B0933175522612N02515194EA0022200321
B0933185522617N02515187EA0022100320
B0933195522622N02515182EA0022100320
B0933205522627N02515177EA0022200320
B0933215522631N02515172EA0022100320
B0933225522635N02515167EA0022000319
B0933235522639N02515161EA0021900317
B0933245522644N02515155EA0021700316
B0933255522649N02515149EA0021700315
B0933265522653N02515144EA0021700315
B0933275522658N02515139EA0021700315
B0933285522662N02515134EA0021600314
B0933295522666N02515129EA0021500313
B0933305522672N02515124EA0021300312
B0933315522677N02515119EA0021200311
B0933325522682N02515114EA0021200310
B0933335522687N02515109EA0021100310
B0933345522691N02515104EA0021000309
B0933355522696N02515099EA0020900307
B0933365522701N02515095EA0020800306
B0933375522706N02515089EA0020600305
B0933385522710N02515084EA0020500303
B0933395522715N02515079EA0020300302
B0933405522720N02515075EA0020200301
B0933415522725N02515070EA0020100299
B0933425522730N02515065EA0019900298
B0933435522735N02515060EA0019700296
B0933445522739N02515054EA0019600294
B0933455522744N02515048EA0019400292
B0933465522749N02515043EA0019300291
B0933475522753N02515038EA0019100290
B0933485522758N02515032EA0019000289
B0933495522763N02515026EA0018800287
B0933505522768N02515020EA0018800286
B0933515522772N02515015EA0018700286
B0933525522777N02515010EA0018600285
B0933535522782N02515005EA0018400283
B0933545522787N02515000EA0018300281
B0933555522792N02514995EA0018100279
B0933565522796N02514990EA0017900278
B0933575522802N02514985EA0017800276
B0933585522807N02514979EA0017600274
B0933595522812N02514974EA0017400272
B0934005522817N02514969EA0017300271
B0934015522822N02514964EA0017200270
B0934025522827N02514958EA0017000269
B0934035522832N02514953EA0016900267
B0934045522837N02514947EA0016800266
B0934055522842N02514942EA0016600265
B0934065522847N02514937EA0016500263
B0934075522852N02514931EA0016300261
B0934085522858N02514925EA0016100260
B0934095522863N02514919EA0016100259
B0934105522868N02514913EA0016100260
B0934115522873N02514906EA0016100259
B0934125522877N02514900EA0016000258
B0934135522881N02514894EA0015900257
B0934145522885N02514888EA0015800257
B0934155522889N02514881EA0015800256
B0934165522893N02514875EA0015700255
B0934175522896N02514868EA0015600255
B0934185522899N02514860EA0015600254
B0934195522902N02514852EA0015500254
B0934205522906N02514845EA0015500253
B0934215522909N02514838EA0015400252
B0934225522911N02514830EA0015300251
B0934235522914N02514822EA0015200250
B0934245522917N02514814EA0015100250
B0934255522919N02514806EA0015100250
B0934265522921N02514800EA0015100249
B0934275522924N02514794EA0014900247
B0934285522927N02514789EA0014700245
B0934295522930N02514783EA0014500243
B0934305522935N02514777EA0014200241
B0934315522939N02514773EA0014000239
B0934325522944N02514769EA0013900238
B0934335522949N02514765EA0013800236
B0934345522954N02514761EA0013500234
B0934355522959N02514756EA0013400232
B0934365522964N02514751EA0013200231
B0934375522970N02514746EA0013100230
B0934385522975N02514741EA0013000229
B0934395522980N02514738EA0013000228
B0934405522985N02514734EA0012800227
B0934415522990N02514730EA0012700226
B0934425522995N02514726EA0012600224
B0934435523001N02514722EA0012500223
B0934445523006N02514718EA0012400222
B0934455523012N02514714EA0012300222
B0934465523017N02514710EA0012300222
B0934475523022N02514705EA0012400222
B0934485523027N02514700EA0012500224
B0934495523031N02514695EA0012600225
B0934505523035N02514691EA0012700225
B0934515523038N02514686EA0012700225
B0934525523041N02514681EA0012700225
B0934535523045N02514674EA0012600225
B0934545523048N02514667EA0012500224
B0934555523052N02514661EA0012500223
B0934565523055N02514655EA0012500223
B0934575523059N02514650EA0012500223
B0934585523063N02514645EA0012400223
B0934595523066N02514641EA0012400222
B0935005523069N02514637EA0012300221
B0935015523073N02514634EA0012100220
B0935025523077N02514629EA0012100219
B0935035523081N02514624EA0012000218
B0935045523085N02514620EA0011900218
B0935055523089N02514616EA0012000218
B0935065523094N02514613EA0012100219
B0935075523098N02514610EA0012100219
B0935085523102N02514606EA0012100219
B0935095523105N02514603EA0012000219
B0935105523109N02514600EA0012000218
B0935115523113N02514597EA0011800217
B0935125523118N02514595EA0011800216
B0935135523123N02514592EA0011800216
B0935145523127N02514588EA0011700216
B0935155523132N02514585EA0011700216
B0935165523136N02514582EA0011700216
B0935175523140N02514580EA0011700215
B0935185523145N02514577EA0011600215
B0935195523149N02514573EA0011500214
B0935205523153N02514570EA0011400212
B0935215523157N02514568EA0011300212
B0935225523161N02514567EA0011200211
B0935235523165N02514565EA0011100210
B0935245523169N02514562EA0011000209
B0935255523173N02514560EA0010900208
B0935265523178N02514557EA0010800207
B0935275523182N02514554EA0010800206
B0935285523186N02514552EA0010800206
B0935295523191N02514550EA0010700206
B0935305523194N02514548EA0010700205
B0935315523198N02514545EA0010500203
B0935325523202N02514543EA0010300201
B0935335523206N02514542EA0010100200
B0935345523210N02514542EA0009900198
B0935355523215N02514544EA0009800196
B0935365523218N02514549EA0009600194
B0935375523221N02514555EA0009500194
B0935385523223N02514562EA0009500193
B0935395523224N02514568EA0009300191
B0935405523224N02514575EA0009100189
B0935415523223N02514584EA0008900187
B0935425523222N02514592EA0008700186
B0935435523221N02514601EA0008600184
B0935445523219N02514608EA0008500184
B0935455523217N02514616EA0008500183
B0935465523215N02514623EA0008300181
B0935475523213N02514631EA0008100180
B0935485523211N02514640EA0008000179
B0935495523208N02514648EA0008000179
B0935505523206N02514656EA0008100180
B0935515523203N02514663EA0008200181
B0935525523201N02514669EA0008200181
B0935535523199N02514675EA0008200180
B0935545523197N02514681EA0008100180
B0935555523196N02514688EA0008000179
B0935565523194N02514695EA0007900178
B0935575523193N02514702EA0007800176
B0935585523191N02514709EA0007700175
B0935595523189N02514716EA0007500174
B0936005523186N02514721EA0007400172
B0936015523183N02514727EA0007200170
B0936025523179N02514731EA0007000168
B0936035523174N02514733EA0006900167
B0936045523169N02514734EA0006700166
B0936055523164N02514733EA0006600165
B0936065523159N02514732EA0006500163
B0936075523155N02514730EA0006400162
B0936085523150N02514729EA0006200161
B0936095523145N02514728EA0006100160
B0936105523140N02514726EA0006100159
B0936115523136N02514723EA0006000158
B0936125523131N02514720EA0005900157
B0936135523126N02514716EA0005700155
B0936145523122N02514712EA0005500153
B0936155523117N02514708EA0005400152
B0936165523112N02514704EA0005400152
B0936175523107N02514701EA0005400152
B0936185523103N02514700EA0005200151
B0936195523098N02514701EA0005000149
B0936205523093N02514702EA0004800146
B0936215523088N02514705EA0004900148
B0936225523085N02514707EA0005300151
B0936235523083N02514710EA0005400153
B0936245523082N02514713EA0005200150
B0936255523082N02514720EA0004800147
B0936265523081N02514728EA0004400142
B0936275523081N02514736EA0004400142
B0936285523080N02514742EA0004500144
B0936295523078N02514746EA0004600144
B0936305523076N02514749EA0004500143
B0936315523075N02514751EA0004300141
B0936325523074N02514754EA0004300142
B0936335523073N02514754EA0004500143
B0936345523073N02514755EA0004500143
B0936355523073N02514755EA0004400142
B0936365523072N02514755EA0004400142
B0936375523072N02514755EA0004400142
B0936385523073N02514755EA0004400142
B0936395523072N02514755EA0004400142
B0936405523072N02514755EA0004400142
B0936415523072N02514755EA0004400142
B0936425523072N02514755EA0004400142
B0936435523072N02514755EA0004400142
B0936445523072N02514755EA0004400142
B0936455523072N02514755EA0004400142
B0936465523072N02514755EA0004400142
B0936475523072N02514755EA0004400142
B0936485523072N02514755EA0004400142
B0936495523072N02514755EA0004400142
B0936505523071N02514754EA0004400142
B0936515523071N02514754EA0004400142
B0936525523071N02514754EA0004400142
B0936535523071N02514754EA0004400142
B0936545523071N02514754EA0004400142
B0936555523071N02514754EA0004400142
B0936565523071N02514754EA0004400142
B0936575523071N02514753EA0004400142
B0936585523071N02514753EA0004400142
B0936595523071N02514753EA0004400142
B0937005523071N02514753EA0004400142
B0937015523071N02514754EA0004400142
B0937025523071N02514754EA0004400142
B0937035523071N02514754EA0004400142
B0937045523071N02514754EA0004400142
B0937055523071N02514754EA0004400142
B0937065523072N02514754EA0004400142
B0937075523072N02514754EA0004400142
B0937085523072N02514754EA0004400142
B0937095523072N02514754EA0004400142
B0937105523071N02514754EA0004400142
B0937115523072N02514754EA0004400142
B0937125523071N02514754EA0004400142
B0937135523072N02514754EA0004400142
B0937145523072N02514754EA0004400142
B0937155523072N02514754EA0004400142
B0937165523072N02514754EA0004400142
B0937175523072N02514753EA0004400142
B0937185523073N02514753EA0004400142
B0937195523073N02514753EA0004400142
B0937205523073N02514752EA0004400142
B0937215523073N02514751EA0004400142
B0937225523073N02514751EA0004400142
B0937235523073N02514751EA0004400142
B0937245523073N02514751EA0004400142
B0937255523073N02514751EA0004400142
B0937265523074N02514751EA0004400142
B0937275523074N02514751EA0004400142
B0937285523074N02514752EA0004400142
B0937295523073N02514752EA0004400142
B0937305523073N02514753EA0004400143
B0937315523073N02514753EA0004400143
B0937325523073N02514752EA0004400142
B0937335523073N02514752EA0004400142
B0937345523073N02514752EA0004400142
B0937355523073N02514752EA0004400142
B0937365523073N02514752EA0004400142
B0937375523073N02514752EA0004400142
B0937385523073N02514752EA0004400142
B0937395523073N02514752EA0004400142
B0937405523073N02514752EA0004400142
B0937415523073N02514752EA0004400142
B0937425523073N02514752EA0004400142
B0937435523073N02514752EA0004400142
B0937445523073N02514752EA0004400142
B0937455523073N02514752EA0004400142
B0937465523073N02514752EA0004400142
B0937475523074N02514752EA0004400142
B0937485523074N02514752EA0004400142
B0937495523074N02514753EA0004400142
B0937505523074N02514752EA0004400143
B0937515523074N02514752EA0004400142
B0937525523074N02514752EA0004400142
B0937535523074N02514752EA0004400142
B0937545523074N02514752EA0004400142
B0937555523074N02514753EA0004400142
B0937565523074N02514753EA0004400142
B0937575523074N02514753EA0004400142
B0937585523075N02514753EA0004400142
B0937595523075N02514753EA0004400142
B0938005523075N02514752EA0004400142
B0938015523075N02514753EA0004400143
B0938025523075N02514753EA0004400143
B0938035523075N02514753EA0004400142
B0938045523075N02514753EA0004400142
B0938055523075N02514754EA0004400142
B0938065523074N02514754EA0004300142
B0938075523073N02514755EA0004400142
B0938085523073N02514755EA0004400142
B0938095523072N02514756EA0004400142
B0938105523071N02514757EA0004400142
B0938115523071N02514758EA0004400142
B0938125523070N02514759EA0004400142
B0938135523070N02514759EA0004400142
B0938145523069N02514760EA0004400142
B0938155523069N02514760EA0004300142
B0938165523068N02514761EA0004300142
B0938175523068N02514762EA0004300142
B0938185523067N02514762EA0004300142
B0938195523067N02514762EA0004300142
B0938205523066N02514763EA0004300142
B0938215523066N02514763EA0004300142
B0938225523065N02514764EA0004300142
B0938235523064N02514765EA0004300142
B0938245523064N02514765EA0004300141
B0938255523064N02514765EA0004300141
B0938265523063N02514765EA0004300141
B0938275523063N02514765EA0004300141
B0938285523061N02514766EA0004300141
B0938295523061N02514767EA0004300141
B0938305523060N02514767EA0004300141
B0938315523060N02514767EA0004300141
B0938325523059N02514768EA0004300141
B0938335523059N02514768EA0004300141
LXSX;GF:1.3
GC8D2CC4EBB751EBA2FEE643E87D9464C
