AXSX003 SKYTRAXX V3.0.16c SN:00000380
HFPLTPILOT:Sepp Bucher
HFGTYGLIDERTYPE:Advance Sigma10
HFDTM100GPSDATUM:WGS-84
HFCIDCOMPETITIONID:0000
HFCCLCOMPETITION CLASS:Paraglider (Standard)
HFSITSITE:UNKNOWN
HFDTE091020
B0947574526333N00738829EA0130201383
B0947584526333N00738829EA0130201383
B0947594526333N00738829EA0130201383
B0948004526333N00738829EA0130201383
B0948014526333N00738829EA0130201383
B0948024526333N00738830EA0130201383
B0948034526333N00738829EA0130201383
B0948044526333N00738829EA0130201383
B0948054526333N00738830EA0130101382
B0948064526331N00738831EA0130101382
B0948074526331N00738832EA0130101383
B0948084526331N00738833EA0130101383
B0948094526330N00738833EA0130001382
B0948104526328N00738834EA0129801380
B0948114526326N00738835EA0129801381
B0948124526324N00738835EA0129601382
B0948134526321N00738834EA0129301379
B0948144526318N00738834EA0129201378
B0948154526315N00738835EA0129101377
B0948164526311N00738837EA0129001376
B0948174526307N00738839EA0128801373
B0948184526301N00738841EA0128701373
B0948194526296N00738842EA0128501371
B0948204526291N00738844EA0128601372
B0948214526287N00738845EA0128701373
B0948224526282N00738846EA0128701373
B0948234526277N00738846EA0128701373
B0948244526272N00738845EA0128901374
B0948254526269N00738843EA0128801374
B0948264526265N00738840EA0128701373
B0948274526261N00738836EA0128601372
B0948284526257N00738831EA0128501371
B0948294526253N00738826EA0128501371
B0948304526248N00738822EA0128501370
B0948314526243N00738817EA0128501371
B0948324526239N00738814EA0128501370
B0948334526235N00738812EA0128401370
B0948344526230N00738811EA0128301369
B0948354526225N00738810EA0128201368
B0948364526219N00738810EA0128201368
B0948374526214N00738809EA0128201368
B0948384526210N00738808EA0128201368
B0948394526205N00738807EA0128201368
B0948404526200N00738806EA0128101367
B0948414526195N00738806EA0127901365
B0948424526190N00738806EA0127901364
B0948434526185N00738806EA0127701363
B0948444526181N00738807EA0127601362
B0948454526176N00738807EA0127501361
B0948464526170N00738807EA0127401360
B0948474526165N00738807EA0127401360
B0948484526159N00738807EA0127501360
B0948494526155N00738807EA0127501361
B0948504526150N00738807EA0127501361
B0948514526145N00738807EA0127501361
B0948524526141N00738806EA0127401360
B0948534526135N00738805EA0127301359
B0948544526130N00738804EA0127201358
B0948554526125N00738803EA0127201358
B0948564526120N00738801EA0127201358
B0948574526114N00738800EA0127201357
B0948584526109N00738798EA0127101357
B0948594526104N00738797EA0127001356
B0949004526099N00738796EA0127001356
B0949014526094N00738794EA0126901355
B0949024526089N00738793EA0126701353
B0949034526083N00738792EA0126601351
B0949044526077N00738791EA0126501351
B0949054526071N00738789EA0126501351
B0949064526066N00738787EA0126701353
B0949074526061N00738784EA0126801354
B0949084526057N00738782EA0126901355
B0949094526054N00738780EA0126901355
B0949104526051N00738777EA0126701353
B0949114526047N00738774EA0126601352
B0949124526044N00738772EA0126301349
B0949134526039N00738770EA0126101347
B0949144526034N00738769EA0126001346
B0949154526028N00738769EA0126001346
B0949164526023N00738768EA0125901345
B0949174526019N00738766EA0125901345
B0949184526015N00738765EA0125801344
B0949194526010N00738764EA0125601342
B0949204526005N00738763EA0125501341
B0949214526000N00738762EA0125501341
B0949224525995N00738760EA0125501341
B0949234525991N00738756EA0125501341
B0949244525987N00738753EA0125501341
B0949254525983N00738749EA0125401340
B0949264525979N00738745EA0125301339
B0949274525974N00738739EA0125201338
B0949284525970N00738733EA0125301339
B0949294525967N00738725EA0125401340
B0949304525966N00738718EA0125401340
B0949314525966N00738710EA0125401340
B0949324525966N00738703EA0125401340
B0949334525966N00738694EA0125301339
B0949344525967N00738685EA0125201338
B0949354525967N00738676EA0125301338
B0949364525968N00738668EA0125301339
B0949374525968N00738660EA0125301339
B0949384525967N00738652EA0125201338
B0949394525967N00738644EA0125201338
B0949404525967N00738635EA0125301339
B0949414525967N00738626EA0125501341
B0949424525967N00738619EA0125701343
B0949434525967N00738612EA0125801344
B0949444525967N00738606EA0125901345
B0949454525966N00738598EA0125901345
B0949464525964N00738590EA0125801344
B0949474525962N00738583EA0125701343
B0949484525959N00738578EA0125701343
B0949494525955N00738576EA0125601342
B0949504525952N00738576EA0125601342
B0949514525949N00738578EA0125601342
B0949524525946N00738581EA0125601342
B0949534525944N00738585EA0125501341
B0949544525944N00738590EA0125401340
B0949554525946N00738595EA0125201338
B0949564525949N00738601EA0125101337
B0949574525951N00738607EA0125201338
B0949584525953N00738612EA0125201338
B0949594525954N00738618EA0125101337
B0950004525955N00738624EA0125101337
B0950014525956N00738630EA0125101337
B0950024525957N00738635EA0125001336
B0950034525958N00738641EA0125001335
B0950044525959N00738647EA0124901335
B0950054525960N00738653EA0124901335
B0950064525962N00738658EA0124801334
B0950074525963N00738664EA0124601332
B0950084525963N00738670EA0124401330
B0950094525962N00738676EA0124201328
B0950104525961N00738682EA0124101327
B0950114525960N00738688EA0124001326
B0950124525959N00738694EA0123901325
B0950134525958N00738699EA0123801324
B0950144525957N00738705EA0123701323
B0950154525955N00738710EA0123601322
B0950164525954N00738716EA0123601322
B0950174525953N00738722EA0123501321
B0950184525952N00738728EA0123501321
B0950194525950N00738734EA0123601322
B0950204525949N00738740EA0123601322
B0950214525949N00738746EA0123601322
B0950224525949N00738752EA0123701323
B0950234525949N00738759EA0123701323
B0950244525949N00738765EA0123801324
B0950254525950N00738772EA0124001326
B0950264525950N00738778EA0124201328
B0950274525950N00738784EA0124301328
B0950284525949N00738788EA0124101327
B0950294525946N00738792EA0123901325
B0950304525941N00738794EA0123701323
B0950314525936N00738795EA0123601322
B0950324525932N00738793EA0123601322
B0950334525928N00738789EA0123501321
B0950344525924N00738784EA0123501320
B0950354525922N00738777EA0123301319
B0950364525920N00738770EA0123201318
B0950374525920N00738762EA0123101317
B0950384525920N00738754EA0123101317
B0950394525920N00738746EA0123101317
B0950404525918N00738739EA0122901315
B0950414525916N00738733EA0122901315
B0950424525912N00738729EA0122901315
B0950434525908N00738726EA0122901315
B0950444525904N00738725EA0122801314
B0950454525900N00738726EA0122601312
B0950464525896N00738729EA0122401310
B0950474525892N00738732EA0122201308
B0950484525889N00738737EA0122101307
B0950494525887N00738744EA0122001306
B0950504525887N00738750EA0121901305
B0950514525888N00738757EA0121801304
B0950524525890N00738763EA0121701303
B0950534525892N00738769EA0121601302
B0950544525895N00738774EA0121401300
B0950554525900N00738779EA0121201298
B0950564525905N00738783EA0121001296
B0950574525909N00738787EA0120901295
B0950584525914N00738791EA0120801294
B0950594525917N00738795EA0120701293
B0951004525921N00738800EA0120701293
B0951014525925N00738804EA0120601292
B0951024525929N00738808EA0120501290
B0951034525933N00738812EA0120301289
B0951044525936N00738818EA0120201288
B0951054525939N00738824EA0120101286
B0951064525941N00738831EA0119901285
B0951074525941N00738838EA0119801284
B0951084525940N00738844EA0119601282
B0951094525938N00738851EA0119401280
B0951104525934N00738856EA0119201278
B0951114525929N00738860EA0119001276
B0951124525924N00738862EA0118901275
B0951134525918N00738864EA0118801274
B0951144525913N00738865EA0118601272
B0951154525907N00738865EA0118501271
B0951164525902N00738865EA0118301269
B0951174525896N00738864EA0118201268
B0951184525891N00738863EA0118101266
B0951194525885N00738861EA0118001265
B0951204525879N00738858EA0118001266
B0951214525874N00738854EA0118001265
B0951224525870N00738850EA0117901265
B0951234525865N00738846EA0117801264
B0951244525861N00738843EA0117601262
B0951254525855N00738839EA0117401260
B0951264525850N00738834EA0117301258
B0951274525845N00738829EA0117201258
B0951284525840N00738824EA0117301259
B0951294525835N00738820EA0117301259
B0951304525832N00738815EA0117401259
B0951314525829N00738809EA0117301259
B0951324525826N00738805EA0117201258
B0951334525823N00738799EA0117001256
B0951344525819N00738794EA0116801254
B0951354525815N00738789EA0116601252
B0951364525810N00738784EA0116501251
B0951374525805N00738780EA0116401250
B0951384525799N00738777EA0116301249
B0951394525795N00738773EA0116201248
B0951404525789N00738770EA0116101247
B0951414525784N00738766EA0115901245
B0951424525778N00738763EA0115701243
B0951434525772N00738761EA0115601242
B0951444525766N00738758EA0115601242
B0951454525761N00738756EA0115601242
B0951464525756N00738754EA0115501241
B0951474525751N00738753EA0115301239
B0951484525747N00738752EA0115101236
B0951494525741N00738752EA0114801234
B0951504525736N00738750EA0114601232
B0951514525730N00738748EA0114401230
B0951524525725N00738745EA0114301229
B0951534525720N00738742EA0114101227
B0951544525715N00738739EA0114001226
B0951554525710N00738736EA0113901225
B0951564525705N00738734EA0113901224
B0951574525700N00738731EA0113701223
B0951584525694N00738728EA0113601222
B0951594525689N00738724EA0113501221
B0952004525684N00738721EA0113401220
B0952014525679N00738718EA0113401220
B0952024525673N00738715EA0113301219
B0952034525668N00738712EA0113201218
B0952044525664N00738708EA0113101216
B0952054525659N00738705EA0112901215
B0952064525653N00738701EA0112701213
B0952074525648N00738697EA0112601212
B0952084525643N00738693EA0112501211
B0952094525637N00738690EA0112401210
B0952104525632N00738686EA0112301209
B0952114525627N00738682EA0112201208
B0952124525623N00738679EA0112101207
B0952134525618N00738675EA0111901205
B0952144525613N00738671EA0111801204
B0952154525608N00738668EA0111601202
B0952164525602N00738665EA0111501201
B0952174525597N00738662EA0111301199
B0952184525592N00738659EA0111201198
B0952194525587N00738656EA0111001196
B0952204525581N00738654EA0110901194
B0952214525576N00738652EA0110701193
B0952224525571N00738650EA0110501191
B0952234525565N00738647EA0110301189
B0952244525560N00738645EA0110201188
B0952254525555N00738642EA0110101187
B0952264525549N00738639EA0110001186
B0952274525544N00738637EA0109801184
B0952284525539N00738634EA0109701183
B0952294525533N00738630EA0109601182
B0952304525528N00738626EA0109501181
B0952314525523N00738623EA0109401180
B0952324525518N00738619EA0109301179
B0952334525513N00738615EA0109101177
B0952344525508N00738612EA0108901175
B0952354525502N00738607EA0108801174
B0952364525497N00738603EA0108701173
B0952374525492N00738599EA0108601172
B0952384525487N00738595EA0108601172
B0952394525482N00738592EA0108401170
B0952404525477N00738589EA0108301169
B0952414525472N00738586EA0108101167
B0952424525466N00738583EA0107901165
B0952434525460N00738581EA0107801164
B0952444525454N00738579EA0107701163
B0952454525449N00738576EA0107601162
B0952464525443N00738574EA0107501161
B0952474525437N00738572EA0107401160
B0952484525432N00738570EA0107201158
B0952494525426N00738568EA0107001156
B0952504525420N00738566EA0106901155
B0952514525415N00738564EA0106801154
B0952524525409N00738562EA0106701152
B0952534525403N00738560EA0106501151
B0952544525397N00738558EA0106401150
B0952554525392N00738556EA0106201148
B0952564525386N00738555EA0106101147
B0952574525381N00738553EA0105901145
B0952584525375N00738551EA0105801144
B0952594525369N00738550EA0105701142
B0953004525364N00738548EA0105501141
B0953014525358N00738546EA0105301139
B0953024525353N00738545EA0105201138
B0953034525347N00738543EA0105101137
B0953044525341N00738541EA0104901135
B0953054525335N00738539EA0104801134
B0953064525329N00738537EA0104701133
B0953074525323N00738535EA0104601132
B0953084525317N00738533EA0104401130
B0953094525312N00738531EA0104301129
B0953104525306N00738529EA0104201128
B0953114525300N00738527EA0104101127
B0953124525294N00738526EA0103901125
B0953134525288N00738524EA0103801124
B0953144525283N00738522EA0103701123
B0953154525277N00738520EA0103601122
B0953164525271N00738519EA0103501121
B0953174525266N00738517EA0103401120
B0953184525260N00738516EA0103301119
B0953194525254N00738515EA0103201118
B0953204525249N00738513EA0103001116
B0953214525243N00738512EA0102901115
B0953224525237N00738511EA0102801114
B0953234525232N00738510EA0102701113
B0953244525226N00738510EA0102601112
B0953254525221N00738509EA0102501110
B0953264525215N00738508EA0102301109
B0953274525210N00738507EA0102201108
B0953284525204N00738506EA0102101107
B0953294525198N00738506EA0101901105
B0953304525193N00738505EA0101801104
B0953314525188N00738505EA0101701103
B0953324525182N00738504EA0101601102
B0953334525176N00738504EA0101501101
B0953344525170N00738503EA0101501101
B0953354525164N00738503EA0101601101
B0953364525159N00738503EA0101601102
B0953374525154N00738501EA0101601102
B0953384525149N00738499EA0101401100
B0953394525145N00738496EA0101301099
B0953404525140N00738493EA0101101097
B0953414525135N00738489EA0101001096
B0953424525130N00738484EA0100801094
B0953434525126N00738477EA0100601092
B0953444525123N00738471EA0100501090
B0953454525121N00738463EA0100301089
B0953464525120N00738455EA0100101087
B0953474525119N00738446EA0100001086
B0953484525120N00738437EA0099801084
B0953494525122N00738429EA0099701083
B0953504525124N00738422EA0099501081
B0953514525128N00738415EA0099401080
B0953524525132N00738410EA0099201078
B0953534525137N00738406EA0099101076
B0953544525142N00738404EA0098901075
B0953554525148N00738404EA0098801074
B0953564525153N00738405EA0098801074
B0953574525158N00738408EA0098801074
B0953584525161N00738412EA0098701073
B0953594525164N00738417EA0098601072
B0954004525167N00738422EA0098601072
B0954014525170N00738427EA0098501071
B0954024525172N00738433EA0098401070
B0954034525173N00738439EA0098401069
B0954044525173N00738445EA0098301069
B0954054525173N00738451EA0098301069
B0954064525173N00738456EA0098301069
B0954074525172N00738461EA0098201068
B0954084525172N00738466EA0098101067
B0954094525172N00738472EA0098001066
B0954104525172N00738478EA0097901065
B0954114525173N00738484EA0097801064
B0954124525173N00738489EA0097701063
B0954134525173N00738494EA0097601061
B0954144525172N00738499EA0097301059
B0954154525171N00738505EA0097101057
B0954164525170N00738511EA0096901055
B0954174525167N00738517EA0096701053
B0954184525165N00738523EA0096601052
B0954194525162N00738527EA0096501051
B0954204525159N00738532EA0096401050
B0954214525155N00738536EA0096301049
B0954224525152N00738541EA0096201048
B0954234525149N00738546EA0096101047
B0954244525145N00738551EA0096101046
B0954254525142N00738556EA0095901045
B0954264525139N00738560EA0095901044
B0954274525135N00738564EA0095801044
B0954284525132N00738568EA0095701043
B0954294525129N00738573EA0095601042
B0954304525126N00738578EA0095501041
B0954314525123N00738583EA0095401040
B0954324525121N00738587EA0095301038
B0954334525119N00738592EA0095101037
B0954344525117N00738598EA0094801034
B0954354525115N00738604EA0094601032
B0954364525112N00738610EA0094501031
B0954374525110N00738615EA0094401030
B0954384525108N00738620EA0094201028
B0954394525107N00738625EA0094101026
B0954404525105N00738631EA0093801024
B0954414525104N00738636EA0093601022
B0954424525103N00738643EA0093301019
B0954434525101N00738649EA0093101017
B0954444525099N00738655EA0093001016
B0954454525097N00738661EA0092901015
B0954464525095N00738666EA0092801014
B0954474525094N00738671EA0092701013
B0954484525092N00738676EA0092701013
B0954494525091N00738682EA0092701013
B0954504525089N00738689EA0092701013
B0954514525088N00738694EA0092701013
B0954524525086N00738700EA0092701013
B0954534525083N00738705EA0092501011
B0954544525082N00738710EA0092501010
B0954554525079N00738716EA0092401010
B0954564525077N00738723EA0092201008
B0954574525074N00738728EA0092201008
B0954584525070N00738733EA0092101007
B0954594525066N00738737EA0092001006
B0955004525061N00738740EA0091801004
B0955014525056N00738742EA0091701003
B0955024525051N00738745EA0091501001
B0955034525046N00738747EA0091401000
B0955044525041N00738749EA0091300999
B0955054525037N00738752EA0091200998
B0955064525032N00738754EA0091100997
B0955074525026N00738755EA0090900995
B0955084525021N00738754EA0090800993
B0955094525016N00738753EA0090600992
B0955104525010N00738749EA0090500990
B0955114525005N00738745EA0090300989
B0955124525001N00738740EA0090300988
B0955134524997N00738734EA0090100987
B0955144524994N00738728EA0090000985
B0955154524992N00738720EA0089800984
B0955164524991N00738712EA0089800984
B0955174524990N00738704EA0089700983
B0955184524991N00738697EA0089600982
B0955194524991N00738690EA0089600982
B0955204524993N00738683EA0089500981
B0955214524995N00738676EA0089400980
B0955224524998N00738668EA0089400980
B0955234525001N00738662EA0089400980
B0955244525005N00738656EA0089500981
B0955254525010N00738651EA0089500981
B0955264525015N00738647EA0089500980
B0955274525020N00738642EA0089500980
B0955284525025N00738638EA0089500981
B0955294525030N00738633EA0089700983
B0955304525036N00738631EA0089700983
B0955314525041N00738631EA0089700983
B0955324525046N00738633EA0089700983
B0955334525051N00738636EA0089600982
B0955344525056N00738639EA0089700983
B0955354525060N00738642EA0089800984
B0955364525063N00738647EA0089800984
B0955374525066N00738652EA0089700983
B0955384525066N00738659EA0089700982
B0955394525066N00738666EA0089700983
B0955404525066N00738673EA0089700983
B0955414525063N00738678EA0089600982
B0955424525061N00738682EA0089400980
B0955434525056N00738684EA0089200978
B0955444525051N00738685EA0089000976
B0955454525045N00738685EA0088800974
B0955464525039N00738684EA0088800974
B0955474525034N00738680EA0088700972
B0955484525030N00738675EA0088600972
B0955494525026N00738668EA0088600971
B0955504525023N00738661EA0088500971
B0955514525021N00738653EA0088500971
B0955524525020N00738645EA0088500971
B0955534525020N00738636EA0088500970
B0955544525021N00738627EA0088400970
B0955554525023N00738619EA0088500970
B0955564525027N00738613EA0088500971
B0955574525032N00738608EA0088600971
B0955584525037N00738604EA0088700973
B0955594525041N00738600EA0088800974
B0956004525046N00738598EA0088800974
B0956014525050N00738597EA0088800974
B0956024525055N00738598EA0088800974
B0956034525060N00738601EA0088900975
B0956044525064N00738605EA0088900975
B0956054525066N00738611EA0089000976
B0956064525067N00738617EA0089000976
B0956074525066N00738623EA0089100977
B0956084525064N00738628EA0089200978
B0956094525061N00738632EA0089300979
B0956104525057N00738634EA0089300979
B0956114525052N00738634EA0089400980
B0956124525047N00738631EA0089400980
B0956134525044N00738624EA0089400980
B0956144525042N00738616EA0089300979
B0956154525042N00738607EA0089300978
B0956164525044N00738597EA0089300979
B0956174525048N00738590EA0089400980
B0956184525053N00738585EA0089600982
B0956194525057N00738583EA0089600982
B0956204525062N00738581EA0089700983
B0956214525067N00738581EA0089800984
B0956224525072N00738583EA0089900985
B0956234525075N00738586EA0089900985
B0956244525077N00738591EA0089800984
B0956254525078N00738597EA0089700983
B0956264525077N00738603EA0089700983
B0956274525075N00738609EA0089800984
B0956284525072N00738613EA0089900985
B0956294525068N00738615EA0089900985
B0956304525064N00738615EA0090000985
B0956314525059N00738612EA0089900984
B0956324525055N00738607EA0089700983
B0956334525052N00738598EA0089700983
B0956344525053N00738588EA0089800984
B0956354525055N00738580EA0089900985
B0956364525059N00738573EA0090000986
B0956374525064N00738569EA0090100987
B0956384525069N00738568EA0090300989
B0956394525073N00738567EA0090300989
B0956404525077N00738569EA0090300989
B0956414525080N00738572EA0090200988
B0956424525082N00738577EA0090100987
B0956434525084N00738583EA0090100987
B0956444525085N00738589EA0090100987
B0956454525084N00738594EA0090100987
B0956464525082N00738599EA0090200988
B0956474525079N00738603EA0090200988
B0956484525076N00738606EA0090100987
B0956494525071N00738608EA0090000986
B0956504525066N00738607EA0090000985
B0956514525060N00738604EA0089900985
B0956524525056N00738598EA0089900985
B0956534525053N00738590EA0089900984
B0956544525051N00738581EA0089900985
B0956554525051N00738572EA0089900985
B0956564525053N00738563EA0089900985
B0956574525056N00738556EA0089800984
B0956584525061N00738552EA0089800984
B0956594525067N00738551EA0089800984
B0957004525072N00738553EA0089800984
B0957014525077N00738556EA0089900985
B0957024525082N00738559EA0090000986
B0957034525086N00738560EA0090100987
B0957044525089N00738562EA0090200988
B0957054525093N00738565EA0090100987
B0957064525095N00738569EA0090000986
B0957074525097N00738574EA0089900985
B0957084525098N00738580EA0089800984
B0957094525097N00738586EA0089900984
B0957104525095N00738590EA0089800984
B0957114525093N00738594EA0089800984
B0957124525090N00738597EA0089800984
B0957134525087N00738599EA0089800984
B0957144525083N00738601EA0089700983
B0957154525079N00738604EA0089700983
B0957164525076N00738607EA0089700983
B0957174525072N00738611EA0089700983
B0957184525068N00738614EA0089700983
B0957194525065N00738617EA0089600982
B0957204525061N00738620EA0089600981
B0957214525058N00738622EA0089500980
B0957224525054N00738625EA0089300979
B0957234525050N00738627EA0089200978
B0957244525045N00738628EA0089100977
B0957254525039N00738628EA0089000976
B0957264525034N00738627EA0089000976
B0957274525029N00738623EA0088900975
B0957284525025N00738619EA0088900975
B0957294525021N00738612EA0088800974
B0957304525019N00738605EA0088700973
B0957314525017N00738597EA0088700973
B0957324525017N00738588EA0088600972
B0957334525020N00738581EA0088500971
B0957344525024N00738576EA0088300969
B0957354525029N00738572EA0088200968
B0957364525035N00738570EA0088100967
B0957374525039N00738570EA0088100967
B0957384525044N00738570EA0088100966
B0957394525049N00738572EA0088000966
B0957404525052N00738575EA0088000966
B0957414525055N00738579EA0087900965
B0957424525057N00738584EA0087800964
B0957434525058N00738590EA0087700963
B0957444525058N00738596EA0087800964
B0957454525057N00738602EA0087900964
B0957464525055N00738607EA0088000965
B0957474525054N00738612EA0088000966
B0957484525054N00738617EA0088100967
B0957494525053N00738623EA0088100967
B0957504525053N00738629EA0088100967
B0957514525053N00738634EA0088100967
B0957524525053N00738639EA0088100967
B0957534525052N00738644EA0088200968
B0957544525050N00738649EA0088200968
B0957554525047N00738652EA0088200968
B0957564525043N00738654EA0088300969
B0957574525039N00738654EA0088300969
B0957584525034N00738653EA0088400970
B0957594525030N00738649EA0088400970
B0958004525028N00738643EA0088300969
B0958014525026N00738635EA0088200968
B0958024525025N00738627EA0088100967
B0958034525026N00738618EA0088100967
B0958044525029N00738610EA0088100967
B0958054525033N00738604EA0088000966
B0958064525037N00738600EA0088000966
B0958074525042N00738596EA0088000966
B0958084525046N00738594EA0088000966
B0958094525051N00738592EA0088100967
B0958104525056N00738592EA0088200968
B0958114525061N00738592EA0088300968
B0958124525064N00738594EA0088300969
B0958134525068N00738596EA0088200968
B0958144525071N00738600EA0088100967
B0958154525074N00738604EA0088100967
B0958164525077N00738609EA0088100967
B0958174525078N00738615EA0087900965
B0958184525078N00738621EA0087800964
B0958194525077N00738627EA0087800963
B0958204525076N00738633EA0087800964
B0958214525075N00738639EA0087800964
B0958224525074N00738645EA0087800963
B0958234525073N00738650EA0087800964
B0958244525073N00738656EA0087800964
B0958254525072N00738662EA0087800964
B0958264525070N00738666EA0087800964
B0958274525067N00738670EA0087800964
B0958284525063N00738670EA0087700962
B0958294525059N00738669EA0087400960
B0958304525055N00738666EA0087400959
B0958314525050N00738662EA0087300959
B0958324525046N00738657EA0087300959
B0958334525044N00738650EA0087200958
B0958344525041N00738641EA0087100957
B0958354525040N00738631EA0087000956
B0958364525039N00738622EA0087200958
B0958374525038N00738613EA0087500960
B0958384525036N00738605EA0087600962
B0958394525034N00738598EA0087600962
B0958404525031N00738592EA0087500961
B0958414525028N00738586EA0087500961
B0958424525024N00738582EA0087400960
B0958434525020N00738578EA0087300959
B0958444525015N00738576EA0087200958
B0958454525011N00738576EA0087100957
B0958464525007N00738577EA0087000956
B0958474525004N00738580EA0086900955
B0958484525002N00738585EA0086800954
B0958494525001N00738590EA0086700953
B0958504525001N00738596EA0086600952
B0958514525002N00738601EA0086500951
B0958524525004N00738606EA0086500950
B0958534525006N00738610EA0086300949
B0958544525010N00738614EA0086200948
B0958554525014N00738617EA0086200948
B0958564525019N00738619EA0086100947
B0958574525024N00738621EA0086100947
B0958584525029N00738621EA0086000946
B0958594525034N00738620EA0086000946
B0959004525039N00738619EA0086000946
B0959014525044N00738617EA0086000946
B0959024525050N00738614EA0086000946
B0959034525056N00738612EA0086000946
B0959044525061N00738611EA0086200948
B0959054525067N00738612EA0086200948
B0959064525071N00738613EA0086200948
B0959074525075N00738616EA0086200948
B0959084525078N00738619EA0086100947
B0959094525081N00738623EA0086000946
B0959104525082N00738628EA0085900945
B0959114525083N00738633EA0085800944
B0959124525082N00738638EA0085600942
B0959134525080N00738643EA0085500941
B0959144525077N00738647EA0085400940
B0959154525074N00738651EA0085400940
B0959164525070N00738653EA0085400940
B0959174525066N00738655EA0085500941
B0959184525062N00738655EA0085500941
B0959194525058N00738654EA0085600942
B0959204525054N00738653EA0085600942
B0959214525049N00738649EA0085600942
B0959224525046N00738644EA0085600942
B0959234525044N00738638EA0085500941
B0959244525042N00738630EA0085500941
B0959254525041N00738622EA0085500941
B0959264525039N00738615EA0085400940
B0959274525038N00738608EA0085300939
B0959284525035N00738601EA0085300939
B0959294525032N00738594EA0085300939
B0959304525028N00738589EA0085200938
B0959314525024N00738584EA0085200938
B0959324525020N00738581EA0085100937
B0959334525017N00738580EA0085100937
B0959344525012N00738579EA0085100937
B0959354525008N00738580EA0085000936
B0959364525005N00738582EA0085000935
B0959374525002N00738586EA0084800934
B0959384525001N00738591EA0084700933
B0959394524999N00738596EA0084600932
B0959404524999N00738602EA0084600932
B0959414525000N00738607EA0084500931
B0959424525002N00738613EA0084500931
B0959434525004N00738618EA0084400930
B0959444525008N00738622EA0084300929
B0959454525012N00738626EA0084200927
B0959464525017N00738630EA0084100927
B0959474525022N00738633EA0084100927
B0959484525028N00738634EA0084100927
B0959494525034N00738634EA0084100927
B0959504525039N00738633EA0084000926
B0959514525044N00738633EA0083900925
B0959524525050N00738635EA0083800924
B0959534525056N00738637EA0083800924
B0959544525061N00738640EA0083900925
B0959554525067N00738643EA0084100927
B0959564525071N00738645EA0084300929
B0959574525074N00738648EA0084400930
B0959584525077N00738650EA0084400929
B0959594525081N00738652EA0084300928
B1000004525085N00738656EA0084100927
B1000014525089N00738659EA0084200928
B1000024525093N00738664EA0084300929
B1000034525094N00738669EA0084300929
B1000044525095N00738673EA0084300929
B1000054525094N00738678EA0084200928
B1000064525092N00738683EA0084100927
B1000074525089N00738687EA0083900925
B1000084525085N00738691EA0083800924
B1000094525080N00738692EA0083700923
B1000104525074N00738691EA0083800924
B1000114525069N00738687EA0084000925
B1000124525066N00738682EA0084100926
B1000134525063N00738677EA0084100927
B1000144525062N00738671EA0084200928
B1000154525061N00738664EA0084200928
B1000164525061N00738658EA0084100927
B1000174525061N00738651EA0084100927
B1000184525060N00738643EA0084000926
B1000194525059N00738636EA0083900925
B1000204525057N00738629EA0083800924
B1000214525054N00738623EA0083700923
B1000224525050N00738619EA0083600922
B1000234525046N00738617EA0083600922
B1000244525042N00738616EA0083500921
B1000254525039N00738617EA0083500921
B1000264525035N00738620EA0083500921
B1000274525032N00738624EA0083600922
B1000284525029N00738629EA0083700923
B1000294525028N00738634EA0083800924
B1000304525027N00738638EA0083900925
B1000314525026N00738643EA0083900925
B1000324525026N00738648EA0083700923
B1000334525026N00738654EA0083600922
B1000344525028N00738660EA0083500920
B1000354525031N00738666EA0083300918
B1000364525035N00738671EA0083200918
B1000374525039N00738674EA0083100917
B1000384525044N00738676EA0083200917
B1000394525049N00738677EA0083200918
B1000404525054N00738677EA0083200917
B1000414525060N00738677EA0083200917
B1000424525066N00738675EA0083200918
B1000434525071N00738673EA0083200918
B1000444525076N00738672EA0083200918
B1000454525081N00738671EA0083300919
B1000464525086N00738671EA0083400919
B1000474525091N00738671EA0083400920
B1000484525096N00738672EA0083400920
B1000494525101N00738672EA0083500921
B1000504525104N00738674EA0083400920
B1000514525107N00738677EA0083300919
B1000524525110N00738682EA0083200918
B1000534525111N00738689EA0083200918
B1000544525110N00738695EA0083100917
B1000554525107N00738699EA0083000916
B1000564525103N00738702EA0082800914
B1000574525099N00738703EA0082700913
B1000584525093N00738703EA0082800914
B1000594525088N00738702EA0082900915
B1001004525084N00738701EA0082900915
B1001014525080N00738698EA0083000916
B1001024525076N00738696EA0083000916
B1001034525071N00738692EA0082900915
B1001044525067N00738687EA0082900915
B1001054525063N00738682EA0082900915
B1001064525060N00738675EA0083000916
B1001074525058N00738669EA0083100917
B1001084525055N00738663EA0083200918
B1001094525053N00738657EA0083200918
B1001104525051N00738653EA0083200917
B1001114525047N00738649EA0083000916
B1001124525043N00738647EA0082800914
B1001134525038N00738646EA0082700913
B1001144525034N00738648EA0082800913
B1001154525030N00738651EA0082800914
B1001164525028N00738654EA0082800914
B1001174525026N00738659EA0082800913
B1001184525024N00738664EA0082600912
B1001194525023N00738670EA0082500911
B1001204525024N00738677EA0082400910
B1001214525026N00738684EA0082400910
B1001224525029N00738690EA0082400910
B1001234525033N00738695EA0082500911
B1001244525037N00738698EA0082600912
B1001254525041N00738700EA0082700913
B1001264525046N00738701EA0082800914
B1001274525052N00738701EA0082900915
B1001284525057N00738700EA0083000916
B1001294525061N00738698EA0083000916
B1001304525066N00738695EA0083000916
B1001314525070N00738693EA0082900915
B1001324525075N00738692EA0082600912
B1001334525081N00738692EA0082400910
B1001344525087N00738693EA0082400910
B1001354525092N00738695EA0082500911
B1001364525097N00738697EA0082700913
B1001374525101N00738700EA0082800914
B1001384525103N00738703EA0082800914
B1001394525104N00738708EA0082700913
B1001404525105N00738713EA0082500911
B1001414525104N00738718EA0082300909
B1001424525103N00738723EA0082100907
B1001434525099N00738726EA0081800904
B1001444525093N00738729EA0081500901
B1001454525088N00738730EA0081400900
B1001464525082N00738730EA0081400899
B1001474525077N00738729EA0081400900
B1001484525073N00738727EA0081300899
B1001494525069N00738725EA0081100897
B1001504525065N00738722EA0080900895
B1001514525060N00738719EA0080700892
B1001524525055N00738716EA0080600891
B1001534525049N00738712EA0080600892
B1001544525044N00738708EA0080700892
B1001554525040N00738703EA0080800894
B1001564525037N00738699EA0081000896
B1001574525034N00738694EA0081100897
B1001584525032N00738688EA0081000896
B1001594525030N00738683EA0080900895
B1002004525028N00738677EA0080900895
B1002014525026N00738670EA0080800894
B1002024525024N00738663EA0080800893
B1002034525023N00738656EA0080700893
B1002044525020N00738651EA0080600892
B1002054525016N00738647EA0080500891
B1002064525011N00738644EA0080500890
B1002074525006N00738644EA0080500891
B1002084525002N00738644EA0080700893
B1002094524998N00738647EA0080800894
B1002104524995N00738650EA0080800894
B1002114524994N00738655EA0080700893
B1002124524993N00738661EA0080700893
B1002134524993N00738667EA0080600892
B1002144524995N00738674EA0080600892
B1002154524998N00738680EA0080600892
B1002164525001N00738684EA0080700893
B1002174525006N00738687EA0080700893
B1002184525011N00738688EA0080800894
B1002194525015N00738689EA0080700893
B1002204525020N00738690EA0080600892
B1002214525026N00738691EA0080600892
B1002224525032N00738693EA0080600892
B1002234525036N00738697EA0080700892
B1002244525039N00738702EA0080700893
B1002254525042N00738709EA0080600892
B1002264525042N00738715EA0080600892
B1002274525041N00738722EA0080700893
B1002284525039N00738727EA0080800894
B1002294525036N00738731EA0080800894
B1002304525032N00738733EA0080800894
B1002314525028N00738733EA0080800894
B1002324525024N00738732EA0080800894
B1002334525020N00738728EA0080900895
B1002344525017N00738723EA0081000896
B1002354525015N00738717EA0081100897
B1002364525014N00738710EA0081100897
B1002374525015N00738703EA0081100897
B1002384525016N00738696EA0081100897
B1002394525017N00738690EA0081000896
B1002404525019N00738683EA0081000895
B1002414525020N00738676EA0080900895
B1002424525022N00738669EA0080900895
B1002434525023N00738661EA0080900895
B1002444525023N00738654EA0080900895
B1002454525020N00738647EA0080900895
B1002464525017N00738641EA0080900895
B1002474525014N00738637EA0080800894
B1002484525009N00738636EA0080700893
B1002494525005N00738638EA0080700893
B1002504525002N00738641EA0080700893
B1002514525000N00738644EA0080700893
B1002524524999N00738650EA0080700893
B1002534524999N00738656EA0080600892
B1002544525001N00738663EA0080500891
B1002554525004N00738669EA0080400890
B1002564525007N00738674EA0080400890
B1002574525012N00738677EA0080400890
B1002584525016N00738681EA0080500890
B1002594525022N00738683EA0080500891
B1003004525027N00738685EA0080500891
B1003014525032N00738686EA0080500891
B1003024525038N00738686EA0080500891
B1003034525043N00738686EA0080600892
B1003044525048N00738688EA0080600892
B1003054525052N00738689EA0080600892
B1003064525057N00738692EA0080600892
B1003074525060N00738695EA0080500891
B1003084525063N00738699EA0080500891
B1003094525064N00738705EA0080400890
B1003104525065N00738711EA0080400890
B1003114525063N00738717EA0080300889
B1003124525061N00738722EA0080300889
B1003134525057N00738726EA0080200888
B1003144525051N00738727EA0080100887
B1003154525046N00738726EA0080000886
B1003164525042N00738723EA0080000886
B1003174525038N00738719EA0080100887
B1003184525034N00738714EA0080200888
B1003194525031N00738708EA0080300889
B1003204525028N00738703EA0080400890
B1003214525026N00738697EA0080400890
B1003224525024N00738691EA0080500890
B1003234525023N00738684EA0080500890
B1003244525022N00738677EA0080500890
B1003254525021N00738670EA0080500891
B1003264525020N00738663EA0080500891
B1003274525019N00738656EA0080500891
B1003284525017N00738650EA0080600892
B1003294525015N00738645EA0080700892
B1003304525012N00738641EA0080600892
B1003314525008N00738639EA0080600892
B1003324525004N00738638EA0080600892
B1003334525001N00738639EA0080600892
B1003344524997N00738643EA0080500891
B1003354524995N00738649EA0080400890
B1003364524996N00738656EA0080300889
B1003374524998N00738662EA0080300889
B1003384525001N00738668EA0080400890
B1003394525005N00738672EA0080400889
B1003404525010N00738674EA0080300889
B1003414525014N00738677EA0080300889
B1003424525019N00738680EA0080300889
B1003434525024N00738683EA0080200888
B1003444525030N00738685EA0080200888
B1003454525035N00738687EA0080300889
B1003464525041N00738689EA0080400890
B1003474525044N00738692EA0080500891
B1003484525048N00738695EA0080500891
B1003494525051N00738700EA0080400890
B1003504525052N00738705EA0080300889
B1003514525053N00738711EA0080300889
B1003524525051N00738716EA0080200888
B1003534525048N00738720EA0080200888
B1003544525044N00738722EA0080100887
B1003554525039N00738721EA0080100887
B1003564525034N00738718EA0080300888
B1003574525031N00738714EA0080500891
B1003584525028N00738711EA0080500891
B1003594525026N00738706EA0080400890
B1004004525024N00738699EA0080400889
B1004014525023N00738692EA0080300889
B1004024525022N00738685EA0080300889
B1004034525020N00738678EA0080400890
B1004044525020N00738671EA0080400890
B1004054525019N00738665EA0080400890
B1004064525018N00738659EA0080300889
B1004074525016N00738653EA0080100887
B1004084525012N00738648EA0079900885
B1004094525008N00738644EA0079800884
B1004104525003N00738642EA0079900885
B1004114524998N00738643EA0079900885
B1004124524995N00738646EA0080000886
B1004134524992N00738651EA0080000886
B1004144524990N00738655EA0080000886
B1004154524989N00738660EA0080000886
B1004164524989N00738666EA0080000886
B1004174524990N00738673EA0080000886
B1004184524993N00738681EA0080000886
B1004194524995N00738688EA0080100887
B1004204524998N00738695EA0080300889
B1004214525001N00738700EA0080400890
B1004224525003N00738705EA0080400889
B1004234525006N00738710EA0080200888
B1004244525008N00738716EA0080000886
B1004254525010N00738724EA0080000886
B1004264525012N00738731EA0080200888
B1004274525014N00738738EA0080300889
B1004284525017N00738743EA0080500891
B1004294525019N00738748EA0080700893
B1004304525022N00738753EA0080800894
B1004314525023N00738758EA0080900894
B1004324525025N00738764EA0080900895
B1004334525025N00738769EA0081000896
B1004344525025N00738775EA0081000896
B1004354525023N00738781EA0081000896
B1004364525021N00738786EA0080800894
B1004374525018N00738791EA0080700893
B1004384525014N00738794EA0080600892
B1004394525009N00738796EA0080400890
B1004404525004N00738796EA0080200888
B1004414524999N00738794EA0080000886
B1004424524994N00738790EA0080000885
B1004434524990N00738785EA0079900885
B1004444524987N00738779EA0079900885
B1004454524985N00738773EA0079800884
B1004464524984N00738765EA0079600882
B1004474524984N00738757EA0079500881
B1004484524985N00738749EA0079400880
B1004494524987N00738741EA0079300879
B1004504524990N00738733EA0079300879
B1004514524994N00738727EA0079400880
B1004524524998N00738722EA0079400880
B1004534525004N00738718EA0079400880
B1004544525009N00738715EA0079400880
B1004554525016N00738713EA0079400880
B1004564525022N00738712EA0079500881
B1004574525026N00738712EA0079600882
B1004584525032N00738712EA0079700883
B1004594525036N00738714EA0079800884
B1005004525041N00738715EA0079800884
B1005014525045N00738718EA0079800884
B1005024525048N00738721EA0079800884
B1005034525051N00738726EA0079700883
B1005044525052N00738732EA0079700882
B1005054525052N00738738EA0079600882
B1005064525049N00738743EA0079600882
B1005074525045N00738746EA0079600882
B1005084525041N00738747EA0079500881
B1005094525036N00738744EA0079600881
B1005104525031N00738740EA0079600882
B1005114525027N00738735EA0079700883
B1005124525024N00738729EA0079800884
B1005134525022N00738722EA0080000886
B1005144525020N00738716EA0080100887
B1005154525019N00738710EA0080200888
B1005164525019N00738703EA0080300888
B1005174525019N00738696EA0080300889
B1005184525019N00738689EA0080200888
B1005194525019N00738682EA0080200888
B1005204525017N00738675EA0080100887
B1005214525016N00738669EA0080100887
B1005224525014N00738664EA0080000886
B1005234525011N00738659EA0079900885
B1005244525007N00738657EA0079800884
B1005254525003N00738656EA0079700883
B1005264524998N00738657EA0079600882
B1005274524995N00738659EA0079500881
B1005284524991N00738663EA0079500881
B1005294524988N00738667EA0079400880
B1005304524987N00738673EA0079300879
B1005314524986N00738679EA0079400880
B1005324524987N00738684EA0079500881
B1005334524988N00738688EA0079500881
B1005344524990N00738691EA0079500881
B1005354524993N00738695EA0079500881
B1005364524995N00738698EA0079400880
B1005374525000N00738701EA0079400880
B1005384525004N00738703EA0079300879
B1005394525009N00738704EA0079300879
B1005404525014N00738704EA0079400880
B1005414525019N00738704EA0079500881
B1005424525023N00738704EA0079500881
B1005434525028N00738703EA0079500881
B1005444525033N00738704EA0079500880
B1005454525038N00738704EA0079400880
B1005464525044N00738707EA0079500880
B1005474525047N00738710EA0079500881
B1005484525050N00738716EA0079500881
B1005494525052N00738721EA0079600881
B1005504525052N00738726EA0079400880
B1005514525050N00738731EA0079300879
B1005524525047N00738735EA0079100877
B1005534525042N00738738EA0078900875
B1005544525037N00738739EA0078700873
B1005554525031N00738737EA0078600872
B1005564525026N00738733EA0078500871
B1005574525022N00738728EA0078500871
B1005584525017N00738723EA0078400870
B1005594525014N00738718EA0078400870
B1006004525010N00738712EA0078300869
B1006014525007N00738706EA0078200868
B1006024525004N00738699EA0078300869
B1006034525001N00738692EA0078300869
B1006044524999N00738685EA0078300869
B1006054524998N00738678EA0078200868
B1006064524997N00738670EA0078200868
B1006074524996N00738663EA0078100867
B1006084524994N00738655EA0078100867
B1006094524991N00738649EA0078000866
B1006104524988N00738643EA0078100866
B1006114524985N00738637EA0078100867
B1006124524981N00738634EA0078200868
B1006134524977N00738633EA0078200867
B1006144524973N00738634EA0078100867
B1006154524968N00738637EA0078000866
B1006164524965N00738641EA0077900865
B1006174524963N00738647EA0077900865
B1006184524963N00738653EA0078000866
B1006194524964N00738661EA0077900865
B1006204524967N00738666EA0077900865
B1006214524970N00738671EA0077900865
B1006224524974N00738675EA0077900865
B1006234524977N00738679EA0077900864
B1006244524982N00738683EA0077800864
B1006254524986N00738688EA0077700863
B1006264524991N00738692EA0077700863
B1006274524995N00738696EA0077800864
B1006284525000N00738700EA0077800864
B1006294525003N00738704EA0077800864
B1006304525006N00738708EA0077800864
B1006314525010N00738712EA0077700863
B1006324525014N00738717EA0077600862
B1006334525018N00738722EA0077600861
B1006344525022N00738727EA0077600862
B1006354525024N00738732EA0077600862
B1006364525026N00738737EA0077600862
B1006374525026N00738743EA0077500861
B1006384525025N00738749EA0077500861
B1006394525022N00738753EA0077400860
B1006404525018N00738756EA0077500861
B1006414525013N00738756EA0077400860
B1006424525009N00738754EA0077400860
B1006434525004N00738750EA0077300859
B1006444525001N00738744EA0077300859
B1006454524998N00738739EA0077300859
B1006464524995N00738733EA0077200858
B1006474524992N00738726EA0077100857
B1006484524990N00738718EA0077000856
B1006494524989N00738710EA0077000856
B1006504524987N00738701EA0077100857
B1006514524987N00738694EA0077300859
B1006524524986N00738687EA0077400860
B1006534524986N00738682EA0077400860
B1006544524986N00738675EA0077300859
B1006554524985N00738668EA0077300859
B1006564524984N00738661EA0077100857
B1006574524982N00738654EA0077000856
B1006584524978N00738648EA0076900854
B1006594524974N00738644EA0076800854
B1007004524970N00738642EA0076800854
B1007014524965N00738641EA0076800853
B1007024524961N00738643EA0076700853
B1007034524958N00738647EA0076800853
B1007044524956N00738652EA0076700853
B1007054524955N00738658EA0076700853
B1007064524956N00738664EA0076700853
B1007074524958N00738669EA0076700853
B1007084524961N00738674EA0076600852
B1007094524964N00738678EA0076600852
B1007104524968N00738683EA0076600852
B1007114524971N00738687EA0076500851
B1007124524975N00738692EA0076400850
B1007134524979N00738697EA0076400850
B1007144524982N00738703EA0076500851
B1007154524985N00738708EA0076500851
B1007164524988N00738712EA0076600852
B1007174524992N00738716EA0076600852
B1007184524995N00738719EA0076600852
B1007194524998N00738723EA0076600852
B1007204525001N00738727EA0076600852
B1007214525004N00738732EA0076500851
B1007224525004N00738739EA0076500851
B1007234525004N00738745EA0076500851
B1007244525002N00738750EA0076600852
B1007254525000N00738753EA0076600852
B1007264524997N00738756EA0076600852
B1007274524992N00738758EA0076600852
B1007284524987N00738758EA0076600852
B1007294524982N00738756EA0076500851
B1007304524978N00738751EA0076500851
B1007314524976N00738744EA0076500851
B1007324524974N00738737EA0076500851
B1007334524973N00738730EA0076500851
B1007344524973N00738723EA0076500851
B1007354524973N00738716EA0076400850
B1007364524973N00738708EA0076200848
B1007374524973N00738700EA0076100847
B1007384524973N00738692EA0076100847
B1007394524973N00738684EA0076100847
B1007404524972N00738676EA0076200848
B1007414524971N00738669EA0076200848
B1007424524969N00738663EA0076100847
B1007434524965N00738658EA0076000846
B1007444524960N00738654EA0075900845
B1007454524956N00738652EA0075900845
B1007464524951N00738652EA0075900845
B1007474524947N00738655EA0076000846
B1007484524944N00738660EA0076000846
B1007494524943N00738666EA0076000846
B1007504524943N00738672EA0076100847
B1007514524943N00738678EA0076200847
B1007524524945N00738682EA0076200847
B1007534524946N00738687EA0076000846
B1007544524949N00738691EA0075800844
B1007554524953N00738696EA0075600842
B1007564524958N00738701EA0075600842
B1007574524962N00738706EA0075700843
B1007584524966N00738710EA0075700843
B1007594524970N00738714EA0075700843
B1008004524972N00738718EA0075600842
B1008014524975N00738723EA0075500841
B1008024524978N00738730EA0075500840
B1008034524979N00738736EA0075400840
B1008044524980N00738743EA0075400840
B1008054524979N00738748EA0075500841
B1008064524978N00738753EA0075500841
B1008074524974N00738756EA0075500841
B1008084524971N00738758EA0075500841
B1008094524966N00738759EA0075500841
B1008104524961N00738757EA0075400840
B1008114524957N00738752EA0075200838
B1008124524953N00738746EA0075100837
B1008134524951N00738740EA0075100837
B1008144524949N00738733EA0075000836
B1008154524948N00738726EA0074900835
B1008164524946N00738718EA0074800834
B1008174524945N00738710EA0074700833
B1008184524944N00738702EA0074600832
B1008194524943N00738694EA0074600831
B1008204524942N00738686EA0074500831
B1008214524940N00738678EA0074400830
B1008224524939N00738670EA0074400830
B1008234524939N00738661EA0074300829
B1008244524938N00738653EA0074300829
B1008254524936N00738644EA0074400830
B1008264524936N00738635EA0074500831
B1008274524935N00738627EA0074500831
B1008284524935N00738619EA0074500831
B1008294524934N00738611EA0074400830
B1008304524934N00738603EA0074400830
B1008314524932N00738596EA0074500831
B1008324524931N00738589EA0074600831
B1008334524930N00738582EA0074600832
B1008344524930N00738576EA0074700832
B1008354524930N00738568EA0074700833
B1008364524930N00738561EA0074700833
B1008374524930N00738553EA0074800833
B1008384524930N00738546EA0074800834
B1008394524930N00738540EA0074800834
B1008404524929N00738533EA0074800833
B1008414524927N00738526EA0074700833
B1008424524924N00738521EA0074700833
B1008434524921N00738517EA0074500831
B1008444524917N00738514EA0074400830
B1008454524913N00738514EA0074300828
B1008464524909N00738515EA0074100827
B1008474524906N00738519EA0074100827
B1008484524903N00738524EA0074000826
B1008494524902N00738530EA0074000825
B1008504524902N00738535EA0073900825
B1008514524902N00738541EA0073800824
B1008524524903N00738548EA0073700823
B1008534524904N00738554EA0073700822
B1008544524906N00738561EA0073600822
B1008554524907N00738567EA0073600822
B1008564524908N00738573EA0073600822
B1008574524910N00738579EA0073600822
B1008584524912N00738585EA0073600822
B1008594524914N00738591EA0073700823
B1009004524916N00738597EA0073800824
B1009014524918N00738602EA0073900825
B1009024524921N00738606EA0073900825
B1009034524923N00738610EA0073900825
B1009044524926N00738615EA0073900825
B1009054524929N00738621EA0073900825
B1009064524931N00738627EA0073900825
B1009074524933N00738632EA0074000826
B1009084524935N00738638EA0074100827
B1009094524936N00738643EA0074100826
B1009104524937N00738648EA0074000826
B1009114524938N00738653EA0073900825
B1009124524938N00738658EA0073800824
B1009134524936N00738663EA0073800824
B1009144524934N00738667EA0073700823
B1009154524930N00738670EA0073600821
B1009164524925N00738670EA0073500821
B1009174524920N00738669EA0073400820
B1009184524916N00738666EA0073400820
B1009194524912N00738661EA0073400820
B1009204524909N00738655EA0073400820
B1009214524907N00738649EA0073500820
B1009224524905N00738641EA0073500821
B1009234524904N00738634EA0073600822
B1009244524903N00738626EA0073700823
B1009254524903N00738618EA0073700823
B1009264524904N00738610EA0073800823
B1009274524904N00738602EA0073800824
B1009284524905N00738594EA0073700823
B1009294524906N00738585EA0073800824
B1009304524907N00738577EA0073900825
B1009314524908N00738570EA0074000826
B1009324524910N00738563EA0074000826
B1009334524912N00738556EA0074000826
B1009344524913N00738549EA0073800824
B1009354524914N00738541EA0073700823
B1009364524915N00738533EA0073600822
B1009374524915N00738525EA0073600822
B1009384524915N00738517EA0073600822
B1009394524914N00738510EA0073600822
B1009404524914N00738503EA0073500821
B1009414524912N00738497EA0073400820
B1009424524909N00738491EA0073300819
B1009434524906N00738486EA0073200818
B1009444524902N00738482EA0073200817
B1009454524899N00738479EA0073100817
B1009464524895N00738476EA0072900815
B1009474524892N00738475EA0072700813
B1009484524887N00738475EA0072600811
B1009494524883N00738477EA0072500811
B1009504524880N00738481EA0072400810
B1009514524878N00738485EA0072200808
B1009524524877N00738491EA0072100807
B1009534524877N00738497EA0072000806
B1009544524878N00738502EA0072000806
B1009554524880N00738508EA0071900805
B1009564524883N00738513EA0071800804
B1009574524885N00738519EA0071700803
B1009584524886N00738524EA0071700803
B1009594524888N00738530EA0071600802
B1010004524889N00738536EA0071600802
B1010014524889N00738542EA0071600802
B1010024524888N00738548EA0071500801
B1010034524886N00738553EA0071500800
B1010044524883N00738557EA0071400800
B1010054524879N00738559EA0071400800
B1010064524875N00738560EA0071400800
B1010074524871N00738560EA0071400800
B1010084524867N00738558EA0071400800
B1010094524863N00738556EA0071300798
B1010104524859N00738552EA0071100797
B1010114524855N00738547EA0071000796
B1010124524852N00738541EA0070900795
B1010134524849N00738534EA0070800794
B1010144524848N00738527EA0070700793
B1010154524847N00738519EA0070600792
B1010164524848N00738511EA0070500791
B1010174524849N00738503EA0070400790
B1010184524851N00738495EA0070300789
B1010194524853N00738487EA0070200788
B1010204524856N00738480EA0070000786
B1010214524859N00738472EA0070000786
B1010224524861N00738463EA0069900785
B1010234524864N00738455EA0069900785
B1010244524867N00738447EA0069800784
B1010254524870N00738440EA0069800784
B1010264524873N00738432EA0069700783
B1010274524876N00738425EA0069600781
B1010284524877N00738417EA0069400780
B1010294524878N00738408EA0069200778
B1010304524878N00738399EA0069100776
B1010314524878N00738390EA0068900775
B1010324524877N00738381EA0068900775
B1010334524877N00738373EA0068700773
B1010344524876N00738364EA0068600772
B1010354524875N00738355EA0068500771
B1010364524875N00738345EA0068400770
B1010374524875N00738336EA0068400770
B1010384524875N00738327EA0068400770
B1010394524875N00738319EA0068400770
B1010404524875N00738310EA0068400770
B1010414524876N00738301EA0068400770
B1010424524876N00738292EA0068400770
B1010434524878N00738284EA0068300769
B1010444524879N00738276EA0068300769
B1010454524881N00738268EA0068200768
B1010464524883N00738260EA0068100767
B1010474524884N00738252EA0068000766
B1010484524885N00738243EA0067900765
B1010494524885N00738235EA0067900764
B1010504524885N00738228EA0067800764
B1010514524884N00738221EA0067600762
B1010524524882N00738214EA0067400760
B1010534524879N00738206EA0067400759
B1010544524876N00738200EA0067300759
B1010554524872N00738196EA0067300759
B1010564524868N00738194EA0067300759
B1010574524864N00738193EA0067200758
B1010584524860N00738193EA0067100757
B1010594524856N00738193EA0067000756
B1011004524852N00738195EA0066900755
B1011014524849N00738197EA0066900755
B1011024524845N00738199EA0066900755
B1011034524841N00738202EA0066900755
B1011044524838N00738204EA0066900755
B1011054524836N00738206EA0066700753
B1011064524832N00738209EA0066700753
B1011074524829N00738213EA0066500751
B1011084524827N00738217EA0066400750
B1011094524824N00738220EA0066400750
B1011104524822N00738224EA0066300749
B1011114524820N00738227EA0066300749
B1011124524818N00738231EA0066200748
B1011134524817N00738235EA0066000746
B1011144524815N00738241EA0065800744
B1011154524813N00738246EA0065700743
B1011164524811N00738252EA0065700743
B1011174524809N00738256EA0065700743
B1011184524807N00738261EA0065700742
B1011194524804N00738265EA0065600742
B1011204524802N00738270EA0065500740
B1011214524800N00738276EA0065300739
B1011224524798N00738281EA0065300739
B1011234524796N00738285EA0065300739
B1011244524795N00738290EA0065400740
B1011254524793N00738294EA0065400740
B1011264524792N00738298EA0065400739
B1011274524790N00738302EA0065300739
B1011284524790N00738306EA0065200738
B1011294524790N00738311EA0064900735
B1011304524789N00738317EA0064800733
B1011314524788N00738323EA0064700732
B1011324524786N00738328EA0064700733
B1011334524784N00738332EA0064700733
B1011344524782N00738335EA0064700733
B1011354524779N00738337EA0064700733
B1011364524776N00738338EA0064700733
B1011374524772N00738339EA0064600732
B1011384524768N00738338EA0064600732
B1011394524765N00738335EA0064500731
B1011404524762N00738331EA0064400730
B1011414524758N00738326EA0064300729
B1011424524755N00738320EA0064200727
B1011434524753N00738313EA0064000726
B1011444524752N00738305EA0064000726
B1011454524752N00738297EA0064000726
B1011464524752N00738289EA0063900725
B1011474524753N00738281EA0063800724
B1011484524753N00738273EA0063600722
B1011494524754N00738265EA0063500721
B1011504524755N00738257EA0063400720
B1011514524755N00738249EA0063300719
B1011524524755N00738241EA0063200718
B1011534524754N00738233EA0063200718
B1011544524752N00738225EA0063300718
B1011554524751N00738218EA0063300719
B1011564524749N00738211EA0063500721
B1011574524748N00738204EA0063600722
B1011584524745N00738199EA0063700722
B1011594524742N00738194EA0063700723
B1012004524738N00738189EA0063700723
B1012014524734N00738185EA0063700723
B1012024524731N00738182EA0063800724
B1012034524727N00738180EA0063800724
B1012044524723N00738180EA0063800724
B1012054524719N00738180EA0063800724
B1012064524715N00738181EA0063900724
B1012074524712N00738183EA0064000726
B1012084524709N00738186EA0064100727
B1012094524707N00738189EA0064200728
B1012104524705N00738192EA0064300729
B1012114524704N00738196EA0064300729
B1012124524704N00738200EA0064200728
B1012134524705N00738206EA0064000726
B1012144524707N00738211EA0063900725
B1012154524709N00738216EA0063900725
B1012164524712N00738221EA0063900725
B1012174524716N00738224EA0064000726
B1012184524721N00738226EA0064000726
B1012194524726N00738227EA0063900725
B1012204524731N00738229EA0063800724
B1012214524736N00738228EA0063600722
B1012224524743N00738226EA0063500721
B1012234524749N00738222EA0063200718
B1012244524755N00738218EA0063100717
B1012254524761N00738213EA0063200717
B1012264524765N00738207EA0063100717
B1012274524769N00738200EA0063100717
B1012284524773N00738192EA0063000716
B1012294524775N00738183EA0063000716
B1012304524777N00738173EA0063100717
B1012314524778N00738165EA0063300719
B1012324524778N00738158EA0063300719
B1012334524778N00738151EA0063300719
B1012344524776N00738144EA0063200718
B1012354524775N00738137EA0063200717
B1012364524772N00738131EA0063100716
B1012374524768N00738125EA0063000716
B1012384524765N00738121EA0062900715
B1012394524762N00738117EA0062900715
B1012404524758N00738113EA0062900714
B1012414524754N00738111EA0062800714
B1012424524752N00738110EA0062700713
B1012434524748N00738111EA0062600712
B1012444524745N00738113EA0062500711
B1012454524742N00738117EA0062400710
B1012464524740N00738123EA0062400710
B1012474524739N00738129EA0062500711
B1012484524739N00738134EA0062700712
B1012494524738N00738138EA0062700713
B1012504524736N00738142EA0062700713
B1012514524735N00738146EA0062700713
B1012524524735N00738152EA0062600712
B1012534524734N00738159EA0062600712
B1012544524734N00738165EA0062700713
B1012554524734N00738171EA0062800714
B1012564524735N00738176EA0062900715
B1012574524736N00738181EA0062900715
B1012584524738N00738186EA0062800714
B1012594524742N00738192EA0062800714
B1013004524746N00738197EA0062800714
B1013014524751N00738201EA0062900715
B1013024524754N00738203EA0063000716
B1013034524759N00738204EA0063000716
B1013044524764N00738204EA0062900715
B1013054524770N00738203EA0062700713
B1013064524776N00738200EA0062600712
B1013074524782N00738194EA0062600711
B1013084524786N00738187EA0062500711
B1013094524788N00738179EA0062600712
B1013104524790N00738172EA0062700713
B1013114524792N00738166EA0062900714
B1013124524792N00738160EA0062800714
B1013134524792N00738153EA0062600712
B1013144524790N00738144EA0062300709
B1013154524788N00738137EA0062300709
B1013164524785N00738130EA0062400710
B1013174524782N00738126EA0062400710
B1013184524779N00738123EA0062400710
B1013194524776N00738123EA0062400710
B1013204524773N00738124EA0062400710
B1013214524769N00738127EA0062400710
B1013224524767N00738131EA0062400710
B1013234524765N00738136EA0062400710
B1013244524765N00738141EA0062400710
B1013254524764N00738146EA0062300709
B1013264524764N00738152EA0062300708
B1013274524764N00738158EA0062300708
B1013284524765N00738164EA0062300709
B1013294524767N00738170EA0062400710
B1013304524768N00738175EA0062600712
B1013314524770N00738179EA0062700713
B1013324524771N00738184EA0062700713
B1013334524773N00738190EA0062700713
B1013344524775N00738195EA0062600712
B1013354524775N00738201EA0062500711
B1013364524774N00738206EA0062600712
B1013374524772N00738210EA0062500711
B1013384524769N00738211EA0062500711
B1013394524766N00738211EA0062400710
B1013404524763N00738209EA0062400710
B1013414524760N00738206EA0062300709
B1013424524757N00738200EA0062200708
B1013434524755N00738193EA0062200708
B1013444524754N00738185EA0062200708
B1013454524754N00738177EA0062200708
B1013464524755N00738169EA0062000706
B1013474524758N00738161EA0061800703
B1013484524763N00738153EA0061500701
B1013494524768N00738146EA0061500701
B1013504524774N00738140EA0061600702
B1013514524779N00738133EA0061600702
B1013524524782N00738126EA0061600702
B1013534524785N00738119EA0061600702
B1013544524788N00738112EA0061500701
B1013554524790N00738103EA0061400700
B1013564524792N00738095EA0061400700
B1013574524793N00738086EA0061400700
B1013584524793N00738077EA0061500701
B1013594524794N00738069EA0061500701
B1014004524793N00738062EA0061500701
B1014014524792N00738055EA0061500701
B1014024524790N00738049EA0061400700
B1014034524788N00738045EA0061300699
B1014044524786N00738041EA0061200698
B1014054524783N00738038EA0061200698
B1014064524779N00738037EA0061100697
B1014074524776N00738039EA0060900695
B1014084524773N00738041EA0060800694
B1014094524771N00738045EA0060700693
B1014104524770N00738050EA0060600692
B1014114524769N00738054EA0060500691
B1014124524768N00738059EA0060300689
B1014134524766N00738064EA0060200688
B1014144524765N00738068EA0060100687
B1014154524764N00738073EA0060000686
B1014164524762N00738078EA0059800684
B1014174524761N00738082EA0059700683
B1014184524760N00738087EA0059600682
B1014194524758N00738092EA0059600681
B1014204524758N00738097EA0059500681
B1014214524758N00738102EA0059400680
B1014224524758N00738106EA0059300679
B1014234524758N00738111EA0059100677
B1014244524757N00738117EA0058900675
B1014254524757N00738123EA0058700673
B1014264524756N00738129EA0058700673
B1014274524755N00738134EA0058700673
B1014284524754N00738139EA0058600672
B1014294524752N00738143EA0058500671
B1014304524751N00738148EA0058300668
B1014314524749N00738153EA0058100667
B1014324524746N00738158EA0058000666
B1014334524744N00738162EA0057900665
B1014344524742N00738166EA0057800664
B1014354524739N00738169EA0057700663
B1014364524737N00738173EA0057500661
B1014374524734N00738177EA0057400660
B1014384524731N00738181EA0057200658
B1014394524728N00738185EA0057200658
B1014404524725N00738187EA0057100657
B1014414524721N00738189EA0057000656
B1014424524717N00738190EA0057000656
B1014434524713N00738190EA0056900655
B1014444524709N00738189EA0056700653
B1014454524706N00738188EA0056600651
B1014464524701N00738186EA0056400650
B1014474524697N00738183EA0056300649
B1014484524694N00738180EA0056200648
B1014494524690N00738177EA0056000646
B1014504524687N00738174EA0055800644
B1014514524684N00738169EA0055700643
B1014524524680N00738163EA0055500641
B1014534524677N00738157EA0055500640
B1014544524674N00738150EA0055500640
B1014554524671N00738143EA0055500641
B1014564524669N00738137EA0055600642
B1014574524668N00738130EA0055700643
B1014584524668N00738124EA0055800643
B1014594524667N00738117EA0055800643
B1015004524667N00738110EA0055700643
B1015014524667N00738101EA0055700643
B1015024524668N00738093EA0055700643
B1015034524668N00738084EA0055700643
B1015044524670N00738075EA0055700643
B1015054524672N00738066EA0055800644
B1015064524674N00738058EA0055800644
B1015074524676N00738049EA0055700643
B1015084524678N00738041EA0055700643
B1015094524680N00738032EA0055600642
B1015104524681N00738023EA0055600642
B1015114524682N00738015EA0055500641
B1015124524682N00738007EA0055300639
B1015134524681N00738000EA0055200638
B1015144524679N00737994EA0055100636
B1015154524676N00737989EA0054900635
B1015164524672N00737985EA0054800634
B1015174524668N00737983EA0054800634
B1015184524665N00737983EA0054700633
B1015194524662N00737985EA0054600632
B1015204524659N00737988EA0054500631
B1015214524658N00737992EA0054400630
B1015224524657N00737996EA0054300629
B1015234524655N00738000EA0054200628
B1015244524655N00738005EA0054100627
B1015254524654N00738010EA0054100627
B1015264524654N00738015EA0054000626
B1015274524654N00738021EA0053900625
B1015284524653N00738026EA0053900625
B1015294524652N00738032EA0053900625
B1015304524651N00738038EA0053900625
B1015314524652N00738043EA0054000625
B1015324524652N00738048EA0054000626
B1015334524652N00738053EA0054000626
B1015344524652N00738058EA0054000625
B1015354524653N00738063EA0053900625
B1015364524653N00738068EA0053700623
B1015374524652N00738074EA0053500621
B1015384524651N00738080EA0053500621
B1015394524650N00738085EA0053600622
B1015404524650N00738090EA0053600622
B1015414524649N00738094EA0053500621
B1015424524649N00738098EA0053400620
B1015434524647N00738102EA0053300619
B1015444524646N00738107EA0053200618
B1015454524645N00738113EA0053100617
B1015464524643N00738118EA0053000616
B1015474524642N00738123EA0052900615
B1015484524640N00738127EA0052800614
B1015494524638N00738132EA0052800614
B1015504524636N00738136EA0052700613
B1015514524634N00738141EA0052600612
B1015524524633N00738145EA0052500611
B1015534524630N00738150EA0052500610
B1015544524628N00738155EA0052400610
B1015554524627N00738160EA0052300609
B1015564524625N00738164EA0052400610
B1015574524624N00738168EA0052300609
B1015584524622N00738173EA0052200608
B1015594524620N00738177EA0052100607
B1016004524618N00738182EA0052100607
B1016014524615N00738186EA0052100607
B1016024524612N00738188EA0052100607
B1016034524610N00738191EA0052000606
B1016044524608N00738194EA0051900605
B1016054524606N00738198EA0051600602
B1016064524603N00738202EA0051600601
B1016074524600N00738207EA0051500601
B1016084524597N00738211EA0051600602
B1016094524595N00738215EA0051600602
B1016104524593N00738219EA0051500601
B1016114524591N00738222EA0051300599
B1016124524588N00738226EA0051200598
B1016134524586N00738231EA0051100597
B1016144524584N00738236EA0051100596
B1016154524582N00738240EA0051000596
B1016164524581N00738245EA0051000596
B1016174524580N00738250EA0050900595
B1016184524579N00738255EA0050700593
B1016194524578N00738260EA0050600592
B1016204524576N00738265EA0050400590
B1016214524575N00738270EA0050400590
B1016224524573N00738275EA0050300589
B1016234524571N00738280EA0050200588
B1016244524569N00738284EA0050100587
B1016254524567N00738289EA0050000586
B1016264524565N00738294EA0049900585
B1016274524563N00738300EA0049800584
B1016284524562N00738305EA0049700583
B1016294524561N00738310EA0049700583
B1016304524559N00738315EA0049600582
B1016314524558N00738320EA0049500581
B1016324524556N00738325EA0049400580
B1016334524555N00738331EA0049300579
B1016344524554N00738337EA0049300579
B1016354524553N00738343EA0049300579
B1016364524552N00738350EA0049300579
B1016374524551N00738356EA0049400580
B1016384524550N00738362EA0049500581
B1016394524549N00738368EA0049600581
B1016404524549N00738372EA0049500581
B1016414524549N00738377EA0049400580
B1016424524549N00738382EA0049200578
B1016434524549N00738388EA0049000576
B1016444524548N00738395EA0049000575
B1016454524548N00738401EA0048900575
B1016464524547N00738407EA0048800574
B1016474524546N00738412EA0048800574
B1016484524545N00738418EA0048700573
B1016494524544N00738423EA0048700573
B1016504524543N00738429EA0048600572
B1016514524542N00738435EA0048600572
B1016524524540N00738439EA0048500571
B1016534524538N00738443EA0048500570
B1016544524535N00738445EA0048300569
B1016554524532N00738446EA0048200568
B1016564524527N00738446EA0048100567
B1016574524524N00738443EA0048000566
B1016584524520N00738439EA0047900564
B1016594524517N00738434EA0047800564
B1017004524514N00738429EA0047500561
B1017014524511N00738423EA0047200558
B1017024524508N00738417EA0047100557
B1017034524505N00738411EA0046900555
B1017044524502N00738404EA0047000555
B1017054524500N00738397EA0046900555
B1017064524497N00738390EA0047100557
B1017074524494N00738384EA0047100557
B1017084524492N00738378EA0047100557
B1017094524489N00738371EA0047000556
B1017104524486N00738364EA0046900555
B1017114524482N00738357EA0046900555
B1017124524478N00738351EA0046800554
B1017134524475N00738346EA0046800554
B1017144524471N00738341EA0046700553
B1017154524466N00738335EA0046700553
B1017164524462N00738330EA0046700553
B1017174524458N00738324EA0046700553
B1017184524454N00738319EA0046800554
B1017194524449N00738314EA0046900555
B1017204524446N00738309EA0047000555
B1017214524443N00738305EA0046900555
B1017224524440N00738301EA0046800554
B1017234524436N00738296EA0046600552
B1017244524432N00738291EA0046400550
B1017254524428N00738286EA0046300549
B1017264524424N00738280EA0046200547
B1017274524420N00738275EA0046100547
B1017284524417N00738271EA0046000546
B1017294524413N00738268EA0045800544
B1017304524408N00738264EA0045600542
B1017314524404N00738259EA0045500541
B1017324524400N00738254EA0045400540
B1017334524396N00738249EA0045300539
B1017344524393N00738244EA0045200538
B1017354524389N00738240EA0045000536
B1017364524385N00738235EA0044900535
B1017374524381N00738230EA0044800534
B1017384524378N00738225EA0044700533
B1017394524374N00738220EA0044600532
B1017404524370N00738216EA0044500531
B1017414524366N00738212EA0044400530
B1017424524363N00738209EA0044300529
B1017434524359N00738207EA0044200528
B1017444524355N00738205EA0044100526
B1017454524351N00738203EA0043900525
B1017464524347N00738203EA0043800524
B1017474524344N00738202EA0043600522
B1017484524340N00738202EA0043500521
B1017494524336N00738203EA0043300519
B1017504524332N00738205EA0043100517
B1017514524329N00738206EA0043000516
B1017524524326N00738207EA0042900515
B1017534524322N00738208EA0042700513
B1017544524319N00738209EA0042600512
B1017554524315N00738210EA0042400510
B1017564524312N00738211EA0042200508
B1017574524308N00738212EA0042000506
B1017584524305N00738214EA0041800504
B1017594524301N00738216EA0041700503
B1018004524298N00738218EA0041500501
B1018014524295N00738220EA0041400500
B1018024524292N00738222EA0041200498
B1018034524290N00738225EA0041100496
B1018044524287N00738227EA0040900495
B1018054524284N00738231EA0040800493
B1018064524281N00738235EA0040600492
B1018074524279N00738239EA0040500491
B1018084524276N00738243EA0040400490
B1018094524275N00738247EA0040300489
B1018104524272N00738250EA0040100487
B1018114524269N00738254EA0040000486
B1018124524267N00738258EA0039900485
B1018134524264N00738262EA0039800484
B1018144524261N00738265EA0039800484
B1018154524258N00738268EA0039700483
B1018164524255N00738271EA0039700483
B1018174524253N00738275EA0039600482
B1018184524250N00738279EA0039500481
B1018194524248N00738284EA0039500481
B1018204524247N00738290EA0039500481
B1018214524245N00738295EA0039600481
B1018224524244N00738299EA0039500481
B1018234524243N00738302EA0039400480
B1018244524241N00738305EA0039300479
B1018254524238N00738308EA0039100477
B1018264524235N00738309EA0038800474
B1018274524230N00738307EA0038500471
B1018284524226N00738302EA0038300469
B1018294524223N00738295EA0038200468
B1018304524221N00738286EA0038100467
B1018314524220N00738278EA0038000466
B1018324524219N00738269EA0037900465
B1018334524218N00738261EA0037800464
B1018344524218N00738252EA0037700463
B1018354524218N00738243EA0037600462
B1018364524218N00738234EA0037500461
B1018374524219N00738225EA0037400460
B1018384524220N00738217EA0037200458
B1018394524221N00738209EA0037000456
B1018404524223N00738200EA0036900455
B1018414524225N00738191EA0036700453
B1018424524226N00738183EA0036500451
B1018434524228N00738174EA0036400450
B1018444524229N00738166EA0036300449
B1018454524229N00738158EA0036200447
B1018464524229N00738149EA0036000446
B1018474524229N00738140EA0035900445
B1018484524228N00738132EA0035800444
B1018494524229N00738124EA0035700443
B1018504524229N00738116EA0035700443
B1018514524229N00738108EA0035600442
B1018524524229N00738101EA0035600442
B1018534524228N00738094EA0035500441
B1018544524227N00738086EA0035300439
B1018554524226N00738078EA0035200438
B1018564524224N00738071EA0035200438
B1018574524223N00738064EA0035200438
B1018584524221N00738057EA0035100437
B1018594524219N00738049EA0035100437
B1019004524218N00738042EA0035100437
B1019014524216N00738035EA0035100437
B1019024524214N00738030EA0035000436
B1019034524212N00738025EA0034900435
B1019044524209N00738020EA0034800434
B1019054524207N00738014EA0034800433
B1019064524204N00738009EA0034700433
B1019074524201N00738005EA0034600432
B1019084524198N00738001EA0034500431
B1019094524195N00737998EA0034400430
B1019104524191N00737995EA0034200428
B1019114524188N00737994EA0034000426
B1019124524185N00737996EA0033800424
B1019134524182N00737999EA0033500421
B1019144524180N00738004EA0033400420
B1019154524178N00738008EA0033400420
B1019164524177N00738011EA0033200418
B1019174524175N00738015EA0032900415
B1019184524173N00738020EA0032500411
B1019194524171N00738026EA0032300409
B1019204524170N00738031EA0032300409
B1019214524169N00738037EA0032200408
B1019224524168N00738041EA0032100407
B1019234524167N00738046EA0031900405
B1019244524166N00738051EA0031700403
B1019254524166N00738057EA0031600402
B1019264524166N00738062EA0031500401
B1019274524165N00738067EA0031400400
B1019284524164N00738072EA0031400400
B1019294524163N00738075EA0031300399
B1019304524162N00738079EA0031400399
B1019314524162N00738081EA0031400400
B1019324524162N00738083EA0031400400
B1019334524162N00738085EA0031400400
B1019344524161N00738087EA0031300399
B1019354524161N00738088EA0031300399
B1019364524160N00738090EA0031300399
B1019374524160N00738092EA0031300399
B1019384524160N00738093EA0031300399
B1019394524159N00738095EA0031300399
B1019404524159N00738096EA0031400399
B1019414524159N00738096EA0031400400
B1019424524158N00738097EA0031400400
B1019434524158N00738097EA0031400400
B1019444524158N00738098EA0031400400
B1019454524158N00738098EA0031400400
B1019464524158N00738098EA0031400400
B1019474524158N00738098EA0031400400
B1019484524158N00738099EA0031400400
B1019494524158N00738099EA0031400400
B1019504524158N00738099EA0031400400
B1019514524158N00738099EA0031400400
B1019524524159N00738099EA0031400400
B1019534524159N00738099EA0031400400
B1019544524159N00738099EA0031400400
B1019554524159N00738099EA0031400400
B1019564524158N00738099EA0031400400
B1019574524159N00738099EA0031400400
B1019584524159N00738099EA0031400400
B1019594524159N00738099EA0031400400
B1020004524159N00738099EA0031400400
B1020014524159N00738099EA0031400400
B1020024524159N00738099EA0031400400
B1020034524159N00738099EA0031400400
B1020044524160N00738099EA0031400400
B1020054524160N00738099EA0031400400
B1020064524160N00738100EA0031400400
B1020074524161N00738100EA0031400400
B1020084524161N00738100EA0031400400
B1020094524161N00738100EA0031400400
B1020104524161N00738100EA0031400400
B1020114524161N00738100EA0031400400
B1020124524161N00738100EA0031400400
B1020134524161N00738100EA0031400400
B1020144524161N00738100EA0031400400
B1020154524162N00738100EA0031400400
B1020164524162N00738100EA0031400400
B1020174524162N00738100EA0031400400
B1020184524162N00738100EA0031400400
B1020194524162N00738100EA0031400400
B1020204524162N00738101EA0031400400
B1020214524162N00738101EA0031400400
B1020224524161N00738102EA0031300399
B1020234524161N00738102EA0031400399
B1020244524160N00738102EA0031400400
B1020254524159N00738103EA0031400399
B1020264524159N00738103EA0031300399
B1020274524158N00738103EA0031400399
B1020284524158N00738103EA0031400399
B1020294524157N00738104EA0031400400
B1020304524157N00738105EA0031400400
B1020314524156N00738106EA0031400400
B1020324524155N00738106EA0031400400
B1020334524155N00738107EA0031400400
B1020344524154N00738108EA0031300399
B1020354524154N00738108EA0031400400
B1020364524154N00738109EA0031400400
B1020374524154N00738110EA0031400400
B1020384524154N00738110EA0031400400
B1020394524154N00738111EA0031400400
B1020404524154N00738113EA0031400400
B1020414524154N00738114EA0031400399
B1020424524154N00738115EA0031400400
B1020434524154N00738116EA0031400399
B1020444524154N00738117EA0031400399
B1020454524154N00738117EA0031400400
B1020464524154N00738118EA0031400400
B1020474524154N00738119EA0031400400
B1020484524154N00738120EA0031400400
B1020494524154N00738121EA0031400399
B1020504524154N00738121EA0031400399
B1020514524155N00738122EA0031300399
B1020524524155N00738123EA0031400399
B1020534524155N00738124EA0031300399
B1020544524155N00738124EA0031300399
B1020554524155N00738125EA0031300399
B1020564524156N00738125EA0031300399
B1020574524156N00738126EA0031300399
B1020584524156N00738127EA0031300399
B1020594524156N00738127EA0031400399
B1021004524156N00738127EA0031300399
B1021014524156N00738128EA0031300399
B1021024524156N00738128EA0031300399
B1021034524155N00738128EA0031400399
B1021044524155N00738128EA0031300399
B1021054524155N00738128EA0031300399
LXSX;GF:1.3
G14883472A3EBD6EE2DB21851EA1260E3
