AXSX003 SKYTRAXX V3.0.15 SN:00000380
HFPLTPILOT:Sepp Bucher
HFGTYGLIDERTYPE:Advance Sigma10
HFDTM100GPSDATUM:WGS-84
HFCIDCOMPETITIONID:0000
HFCCLCOMPETITION CLASS:Paraglider (Standard)
HFSITSITE:UNKNOWN
HFDTE190120
B1602383144226S06013279WA0004500032
B1602393144226S06013279WA0004500032
B1602403144226S06013279WA0004500032
B1602413144226S06013279WA0004500032
B1602423144226S06013278WA0004500031
B1602433144225S06013278WA0004500032
B1602443144225S06013278WA0004500032
B1602453144224S06013277WA0004500032
B1602463144223S06013275WA0004500032
B1602473144222S06013275WA0004500032
B1602483144221S06013274WA0004500032
B1602493144218S06013274WA0004300030
B1602503144215S06013274WA0004300030
B1602513144211S06013272WA0004500031
B1602523144209S06013271WA0005000035
B1602533144206S06013269WA0005500040
B1602543144203S06013268WA0005700042
B1602553144199S06013267WA0005900044
B1602563144195S06013266WA0006100046
B1602573144192S06013265WA0006500050
B1602583144189S06013264WA0007000054
B1602593144185S06013264WA0007300058
B1603003144182S06013264WA0007600061
B1603013144179S06013264WA0007900064
B1603023144176S06013264WA0008200067
B1603033144172S06013264WA0008600071
B1603043144169S06013263WA0009000075
B1603053144166S06013263WA0009400079
B1603063144163S06013262WA0009700082
B1603073144160S06013262WA0010100085
B1603083144156S06013261WA0010300088
B1603093144153S06013260WA0010600091
B1603103144149S06013259WA0010900094
B1603113144146S06013258WA0011300098
B1603123144143S06013258WA0011500100
B1603133144139S06013257WA0011600101
B1603143144136S06013256WA0011600101
B1603153144131S06013256WA0011600100
B1603163144127S06013255WA0011600101
B1603173144122S06013254WA0011900104
B1603183144118S06013253WA0012100106
B1603193144114S06013253WA0012400109
B1603203144110S06013252WA0012500110
B1603213144106S06013252WA0012700112
B1603223144101S06013251WA0013100115
B1603233144096S06013250WA0013500120
B1603243144092S06013250WA0014000125
B1603253144089S06013250WA0014300128
B1603263144084S06013250WA0014500130
B1603273144080S06013250WA0014800133
B1603283144076S06013250WA0015200137
B1603293144072S06013250WA0015600141
B1603303144068S06013252WA0016200147
B1603313144064S06013252WA0016700152
B1603323144060S06013252WA0017000155
B1603333144056S06013250WA0017400159
B1603343144052S06013250WA0017900164
B1603353144048S06013249WA0018500170
B1603363144044S06013247WA0019000175
B1603373144041S06013246WA0019600181
B1603383144037S06013244WA0020100186
B1603393144032S06013243WA0020700192
B1603403144028S06013242WA0021400198
B1603413144024S06013241WA0022000204
B1603423144020S06013240WA0022600211
B1603433144015S06013239WA0022900214
B1603443144011S06013238WA0023600221
B1603453144006S06013238WA0024200227
B1603463144001S06013238WA0024800233
B1603473143997S06013238WA0025300238
B1603483143991S06013239WA0025800243
B1603493143987S06013239WA0026400248
B1603503143981S06013238WA0027000255
B1603513143976S06013238WA0027600260
B1603523143970S06013238WA0028200267
B1603533143964S06013238WA0029000275
B1603543143959S06013239WA0029700282
B1603553143955S06013240WA0030300288
B1603563143950S06013241WA0030800293
B1603573143945S06013242WA0031300298
B1603583143939S06013242WA0031800302
B1603593143934S06013242WA0032400309
B1604003143929S06013242WA0033000315
B1604013143925S06013242WA0033600321
B1604023143920S06013242WA0033800323
B1604033143915S06013241WA0034100326
B1604043143909S06013240WA0034400329
B1604053143904S06013240WA0035000334
B1604063143899S06013239WA0035300338
B1604073143894S06013238WA0035600341
B1604083143890S06013237WA0035900344
B1604093143885S06013236WA0036200347
B1604103143880S06013236WA0036600351
B1604113143876S06013235WA0036700352
B1604123143871S06013234WA0037000355
B1604133143866S06013233WA0037300358
B1604143143861S06013232WA0037500360
B1604153143856S06013231WA0037600361
B1604163143851S06013231WA0037900364
B1604173143846S06013230WA0038200367
B1604183143841S06013230WA0038400369
B1604193143837S06013230WA0038400369
B1604203143832S06013229WA0038600370
B1604213143827S06013229WA0038600371
B1604223143822S06013230WA0038500370
B1604233143817S06013229WA0038600371
B1604243143812S06013229WA0038700372
B1604253143808S06013230WA0038800373
B1604263143804S06013231WA0038800373
B1604273143802S06013233WA0038600371
B1604283143799S06013233WA0038400369
B1604293143795S06013234WA0038200366
B1604303143791S06013233WA0037800363
B1604313143787S06013233WA0037600361
B1604323143783S06013232WA0037600361
B1604333143779S06013231WA0037400359
B1604343143776S06013230WA0037200357
B1604353143773S06013228WA0037000355
B1604363143769S06013227WA0036700352
B1604373143765S06013224WA0036500350
B1604383143762S06013221WA0036300348
B1604393143759S06013218WA0036200347
B1604403143756S06013214WA0036100346
B1604413143754S06013211WA0035900344
B1604423143751S06013208WA0035700342
B1604433143748S06013205WA0035500340
B1604443143745S06013202WA0035400339
B1604453143742S06013198WA0035300338
B1604463143739S06013195WA0035300338
B1604473143737S06013192WA0035300338
B1604483143735S06013190WA0035200337
B1604493143733S06013186WA0035000335
B1604503143731S06013182WA0034800333
B1604513143729S06013179WA0034600331
B1604523143725S06013176WA0034500329
B1604533143721S06013174WA0034400329
B1604543143718S06013172WA0034400329
B1604553143715S06013169WA0034400329
B1604563143712S06013168WA0034400329
B1604573143709S06013165WA0034300328
B1604583143705S06013162WA0034200327
B1604593143701S06013159WA0034300327
B1605003143698S06013157WA0034300328
B1605013143695S06013154WA0034500330
B1605023143692S06013151WA0034700332
B1605033143690S06013148WA0034800333
B1605043143689S06013145WA0034800333
B1605053143687S06013143WA0034800333
B1605063143685S06013140WA0034700332
B1605073143682S06013137WA0034600331
B1605083143679S06013133WA0034700332
B1605093143676S06013128WA0034800333
B1605103143674S06013125WA0034900334
B1605113143671S06013121WA0035000335
B1605123143669S06013118WA0035000335
B1605133143668S06013114WA0035000335
B1605143143667S06013109WA0034900334
B1605153143667S06013104WA0034800333
B1605163143669S06013099WA0034700332
B1605173143672S06013093WA0034600331
B1605183143676S06013089WA0034800333
B1605193143681S06013086WA0034800333
B1605203143686S06013085WA0034800333
B1605213143692S06013086WA0034600331
B1605223143698S06013087WA0034500330
B1605233143704S06013089WA0034400329
B1605243143710S06013092WA0034500330
B1605253143716S06013096WA0034400329
B1605263143720S06013103WA0034300328
B1605273143721S06013109WA0034000325
B1605283143722S06013115WA0033900324
B1605293143721S06013122WA0033900324
B1605303143720S06013127WA0033800323
B1605313143718S06013132WA0033800323
B1605323143715S06013137WA0033700322
B1605333143711S06013140WA0033700322
B1605343143708S06013143WA0033800323
B1605353143705S06013146WA0033900324
B1605363143702S06013147WA0033900324
B1605373143699S06013148WA0034000325
B1605383143697S06013150WA0033900324
B1605393143694S06013151WA0033900324
B1605403143691S06013151WA0033800323
B1605413143687S06013151WA0033800323
B1605423143684S06013150WA0033700322
B1605433143681S06013148WA0033600321
B1605443143678S06013147WA0033600321
B1605453143676S06013144WA0033500320
B1605463143673S06013143WA0033400319
B1605473143670S06013141WA0033200317
B1605483143667S06013140WA0033100316
B1605493143664S06013138WA0032900314
B1605503143660S06013136WA0032700312
B1605513143657S06013134WA0032600310
B1605523143654S06013131WA0032400309
B1605533143652S06013129WA0032300308
B1605543143649S06013127WA0032100306
B1605553143646S06013125WA0031900303
B1605563143643S06013124WA0031600301
B1605573143639S06013122WA0031300298
B1605583143636S06013118WA0031100296
B1605593143634S06013114WA0031000295
B1606003143632S06013110WA0030900294
B1606013143630S06013106WA0030700292
B1606023143628S06013103WA0030600291
B1606033143626S06013098WA0030500290
B1606043143624S06013094WA0030400289
B1606053143622S06013090WA0030300288
B1606063143620S06013086WA0030200287
B1606073143619S06013082WA0030100285
B1606083143617S06013078WA0029900284
B1606093143615S06013074WA0029700282
B1606103143613S06013070WA0029500280
B1606113143611S06013066WA0029400279
B1606123143609S06013062WA0029300278
B1606133143608S06013058WA0029200277
B1606143143606S06013054WA0029100276
B1606153143605S06013049WA0028900274
B1606163143603S06013045WA0028700272
B1606173143601S06013041WA0028500270
B1606183143599S06013036WA0028300268
B1606193143598S06013032WA0028100266
B1606203143597S06013027WA0027900264
B1606213143596S06013022WA0027700262
B1606223143595S06013017WA0027500260
B1606233143595S06013012WA0027300258
B1606243143594S06013007WA0027200257
B1606253143593S06013002WA0027100256
B1606263143592S06012998WA0027000255
B1606273143591S06012993WA0026800253
B1606283143591S06012988WA0026700252
B1606293143592S06012983WA0026400249
B1606303143595S06012978WA0026100246
B1606313143599S06012973WA0025900244
B1606323143604S06012969WA0025700242
B1606333143610S06012966WA0025500240
B1606343143616S06012963WA0025400239
B1606353143622S06012962WA0025200237
B1606363143629S06012960WA0025000235
B1606373143636S06012960WA0024700232
B1606383143643S06012960WA0024500230
B1606393143650S06012960WA0024300228
B1606403143657S06012960WA0024100226
B1606413143665S06012960WA0023900224
B1606423143672S06012960WA0023700222
B1606433143680S06012961WA0023400219
B1606443143687S06012962WA0023200217
B1606453143696S06012963WA0023100216
B1606463143703S06012964WA0023000215
B1606473143710S06012966WA0022900214
B1606483143718S06012967WA0022800213
B1606493143725S06012969WA0022500210
B1606503143732S06012971WA0022300208
B1606513143740S06012973WA0022100206
B1606523143749S06012975WA0022000205
B1606533143756S06012977WA0022100206
B1606543143763S06012978WA0022100206
B1606553143770S06012979WA0022000205
B1606563143776S06012979WA0021800203
B1606573143783S06012981WA0021700202
B1606583143790S06012981WA0021500200
B1606593143797S06012982WA0021400199
B1607003143804S06012982WA0021300198
B1607013143811S06012983WA0021200197
B1607023143818S06012984WA0021200197
B1607033143824S06012985WA0021000195
B1607043143831S06012986WA0020800193
B1607053143838S06012987WA0020600191
B1607063143845S06012988WA0020400189
B1607073143853S06012990WA0020300188
B1607083143859S06012992WA0020200187
B1607093143866S06012994WA0020100186
B1607103143873S06012996WA0020000185
B1607113143880S06012998WA0020000185
B1607123143887S06013000WA0020100185
B1607133143894S06013002WA0020100186
B1607143143900S06013003WA0020000184
B1607153143907S06013004WA0019700182
B1607163143913S06013005WA0019500180
B1607173143920S06013007WA0019300178
B1607183143927S06013008WA0019100176
B1607193143934S06013009WA0018900174
B1607203143941S06013010WA0018700172
B1607213143948S06013011WA0018500170
B1607223143955S06013012WA0018300168
B1607233143962S06013012WA0018100166
B1607243143968S06013013WA0017800163
B1607253143975S06013014WA0017500160
B1607263143982S06013015WA0017300157
B1607273143989S06013017WA0017000155
B1607283143997S06013019WA0016800152
B1607293144004S06013020WA0016500150
B1607303144011S06013023WA0016300148
B1607313144017S06013025WA0016000145
B1607323144023S06013029WA0015700142
B1607333144030S06013032WA0015400139
B1607343144036S06013036WA0015100136
B1607353144043S06013040WA0014900133
B1607363144050S06013043WA0014600131
B1607373144057S06013046WA0014500130
B1607383144064S06013049WA0014300128
B1607393144071S06013053WA0014200127
B1607403144077S06013056WA0014000125
B1607413144083S06013060WA0013800123
B1607423144090S06013064WA0013600121
B1607433144097S06013067WA0013400119
B1607443144104S06013071WA0013200117
B1607453144111S06013074WA0013100115
B1607463144118S06013078WA0012900114
B1607473144125S06013081WA0012800113
B1607483144131S06013085WA0012600111
B1607493144137S06013090WA0012500110
B1607503144143S06013095WA0012300108
B1607513144148S06013101WA0012200107
B1607523144154S06013106WA0012000105
B1607533144159S06013113WA0011800103
B1607543144164S06013121WA0011700102
B1607553144169S06013128WA0011600101
B1607563144174S06013135WA0011400099
B1607573144178S06013143WA0011400099
B1607583144181S06013151WA0011300098
B1607593144184S06013158WA0011200097
B1608003144188S06013166WA0011100096
B1608013144191S06013173WA0011100096
B1608023144194S06013181WA0011100096
B1608033144196S06013188WA0011200096
B1608043144199S06013194WA0011200097
B1608053144201S06013201WA0011300098
B1608063144205S06013207WA0011300098
B1608073144209S06013214WA0011500100
B1608083144211S06013221WA0011700102
B1608093144213S06013226WA0011700102
B1608103144212S06013231WA0011800102
B1608113144211S06013235WA0011800103
B1608123144210S06013239WA0011800103
B1608133144209S06013243WA0011900104
B1608143144206S06013245WA0011900104
B1608153144203S06013246WA0012100106
B1608163144199S06013246WA0012400109
B1608173144196S06013247WA0012500109
B1608183144194S06013250WA0012600111
B1608193144192S06013252WA0012600111
B1608203144189S06013254WA0012700111
B1608213144185S06013254WA0012600111
B1608223144181S06013253WA0012700112
B1608233144178S06013252WA0012800113
B1608243144176S06013250WA0013000115
B1608253144175S06013247WA0013000115
B1608263144175S06013245WA0013000115
B1608273144175S06013241WA0013000115
B1608283144176S06013236WA0013000115
B1608293144178S06013232WA0013200117
B1608303144181S06013228WA0013400119
B1608313144184S06013225WA0013500120
B1608323144189S06013222WA0013600121
B1608333144194S06013219WA0013700122
B1608343144201S06013217WA0013800123
B1608353144207S06013218WA0013900124
B1608363144214S06013221WA0013900124
B1608373144219S06013227WA0014100126
B1608383144222S06013232WA0014300128
B1608393144224S06013239WA0014400128
B1608403144223S06013245WA0014300128
B1608413144220S06013249WA0014400129
B1608423144217S06013250WA0014600131
B1608433144213S06013250WA0014900133
B1608443144210S06013250WA0015100136
B1608453144208S06013250WA0015300138
B1608463144206S06013250WA0015300138
B1608473144203S06013251WA0015400139
B1608483144201S06013251WA0015300138
B1608493144198S06013251WA0015300138
B1608503144195S06013250WA0015400139
B1608513144192S06013250WA0015500140
B1608523144190S06013249WA0015600141
B1608533144189S06013247WA0015600141
B1608543144189S06013243WA0015600141
B1608553144190S06013239WA0015600141
B1608563144193S06013234WA0015600141
B1608573144197S06013230WA0015700142
B1608583144203S06013228WA0015700142
B1608593144209S06013227WA0015700142
B1609003144216S06013228WA0015700142
B1609013144223S06013231WA0015700142
B1609023144229S06013236WA0015800143
B1609033144233S06013242WA0016000145
B1609043144235S06013249WA0016100146
B1609053144236S06013255WA0016300147
B1609063144235S06013260WA0016400149
B1609073144234S06013265WA0016400149
B1609083144232S06013269WA0016400149
B1609093144229S06013271WA0016400149
B1609103144226S06013272WA0016400149
B1609113144222S06013274WA0016500150
B1609123144220S06013274WA0016600151
B1609133144217S06013274WA0016600151
B1609143144214S06013274WA0016600151
B1609153144210S06013272WA0016700152
B1609163144208S06013271WA0016700152
B1609173144206S06013269WA0016800153
B1609183144204S06013266WA0016800152
B1609193144203S06013263WA0016700152
B1609203144202S06013259WA0016700151
B1609213144201S06013255WA0016700152
B1609223144200S06013250WA0016900154
B1609233144201S06013246WA0017100156
B1609243144203S06013242WA0017200157
B1609253144206S06013238WA0017200157
B1609263144211S06013235WA0017100156
B1609273144217S06013232WA0017100155
B1609283144224S06013231WA0017100156
B1609293144231S06013231WA0017200157
B1609303144238S06013232WA0017300158
B1609313144244S06013236WA0017300158
B1609323144250S06013240WA0017200157
B1609333144255S06013246WA0017200157
B1609343144258S06013253WA0017100156
B1609353144259S06013261WA0017100156
B1609363144258S06013267WA0017000155
B1609373144256S06013272WA0016900154
B1609383144253S06013275WA0017000155
B1609393144250S06013277WA0017000154
B1609403144247S06013278WA0016900154
B1609413144244S06013279WA0016900154
B1609423144241S06013279WA0016800153
B1609433144237S06013278WA0016800152
B1609443144234S06013278WA0016800152
B1609453144231S06013277WA0016800153
B1609463144228S06013275WA0016800153
B1609473144225S06013273WA0016800153
B1609483144222S06013271WA0016900154
B1609493144219S06013269WA0016900154
B1609503144216S06013267WA0017100156
B1609513144213S06013265WA0017200157
B1609523144210S06013264WA0017300158
B1609533144207S06013263WA0017500160
B1609543144205S06013261WA0017500160
B1609553144202S06013260WA0017500160
B1609563144200S06013258WA0017400159
B1609573144199S06013255WA0017400159
B1609583144198S06013252WA0017300158
B1609593144198S06013248WA0017200157
B1610003144200S06013243WA0017200157
B1610013144203S06013239WA0017000155
B1610023144207S06013236WA0016900154
B1610033144213S06013234WA0016700152
B1610043144219S06013234WA0016500150
B1610053144226S06013235WA0016400149
B1610063144232S06013237WA0016300148
B1610073144239S06013241WA0016200147
B1610083144244S06013246WA0016200146
B1610093144249S06013251WA0016100146
B1610103144253S06013257WA0016100146
B1610113144257S06013264WA0016100146
B1610123144259S06013271WA0016200147
B1610133144260S06013277WA0016200147
B1610143144259S06013283WA0016200147
B1610153144259S06013288WA0016300148
B1610163144258S06013293WA0016500150
B1610173144256S06013297WA0016500150
B1610183144255S06013300WA0016600150
B1610193144253S06013304WA0016700151
B1610203144251S06013308WA0016600151
B1610213144249S06013312WA0016600151
B1610223144247S06013315WA0016600151
B1610233144244S06013317WA0016500150
B1610243144241S06013319WA0016500150
B1610253144239S06013319WA0016500150
B1610263144236S06013318WA0016400149
B1610273144234S06013317WA0016400149
B1610283144232S06013315WA0016200147
B1610293144231S06013312WA0016100146
B1610303144229S06013309WA0015900144
B1610313144228S06013306WA0015900144
B1610323144227S06013302WA0015900143
B1610333144225S06013299WA0015800143
B1610343144225S06013296WA0015700142
B1610353144224S06013292WA0015500140
B1610363144222S06013289WA0015400139
B1610373144221S06013285WA0015200137
B1610383144220S06013282WA0015100136
B1610393144218S06013279WA0014900134
B1610403144216S06013276WA0014800133
B1610413144215S06013273WA0014600131
B1610423144214S06013270WA0014400129
B1610433144212S06013267WA0014300127
B1610443144211S06013263WA0014100126
B1610453144210S06013259WA0014000125
B1610463144209S06013256WA0013900123
B1610473144208S06013252WA0013700122
B1610483144207S06013250WA0013700122
B1610493144206S06013246WA0013600121
B1610503144205S06013243WA0013500120
B1610513144203S06013239WA0013500120
B1610523144203S06013235WA0013500119
B1610533144202S06013231WA0013400119
B1610543144201S06013228WA0013400119
B1610553144199S06013225WA0013200117
B1610563144197S06013223WA0013000115
B1610573144194S06013222WA0012800113
B1610583144190S06013223WA0012700112
B1610593144187S06013224WA0012700112
B1611003144185S06013227WA0012600111
B1611013144183S06013231WA0012400109
B1611023144182S06013236WA0012200107
B1611033144180S06013241WA0012100106
B1611043144178S06013245WA0012000105
B1611053144176S06013249WA0011900103
B1611063144175S06013252WA0011700102
B1611073144172S06013254WA0011500100
B1611083144169S06013255WA0011300098
B1611093144166S06013255WA0011100096
B1611103144164S06013252WA0010900094
B1611113144163S06013247WA0010700092
B1611123144163S06013243WA0010600091
B1611133144164S06013239WA0010600090
B1611143144166S06013236WA0010500090
B1611153144168S06013232WA0010400089
B1611163144170S06013228WA0010200087
B1611173144173S06013224WA0010100086
B1611183144175S06013219WA0010000085
B1611193144178S06013214WA0009900084
B1611203144179S06013210WA0009800083
B1611213144180S06013206WA0009600081
B1611223144179S06013202WA0009300078
B1611233144177S06013199WA0009100076
B1611243144175S06013197WA0009000075
B1611253144172S06013197WA0008900074
B1611263144169S06013199WA0008800073
B1611273144167S06013203WA0008700072
B1611283144165S06013207WA0008600071
B1611293144164S06013212WA0008500070
B1611303144163S06013217WA0008500070
B1611313144163S06013223WA0008400068
B1611323144164S06013228WA0008200067
B1611333144163S06013235WA0008100066
B1611343144160S06013240WA0008100066
B1611353144157S06013243WA0008000065
B1611363144153S06013243WA0007800063
B1611373144149S06013241WA0007800063
B1611383144147S06013238WA0007700062
B1611393144146S06013234WA0007700062
B1611403144146S06013231WA0007700062
B1611413144147S06013228WA0007500060
B1611423144146S06013225WA0007400059
B1611433144146S06013222WA0007200057
B1611443144144S06013219WA0007000055
B1611453144142S06013218WA0006800053
B1611463144138S06013217WA0006700052
B1611473144136S06013217WA0006500050
B1611483144134S06013217WA0006400049
B1611493144131S06013216WA0006200047
B1611503144128S06013216WA0006000045
B1611513144125S06013215WA0005900044
B1611523144123S06013215WA0005900044
B1611533144121S06013214WA0005900044
B1611543144119S06013213WA0005800043
B1611553144117S06013212WA0005600041
B1611563144115S06013212WA0005400039
B1611573144112S06013211WA0005100036
B1611583144109S06013210WA0005000035
B1611593144105S06013209WA0004700032
B1612003144102S06013208WA0004800033
B1612013144100S06013208WA0005000034
B1612023144100S06013207WA0005000035
B1612033144100S06013208WA0005000035
B1612043144099S06013206WA0004900034
B1612053144099S06013206WA0004900034
B1612063144100S06013206WA0005000035
B1612073144100S06013205WA0005000035
B1612083144100S06013205WA0005000034
B1612093144100S06013205WA0004900034
B1612103144100S06013204WA0004900034
B1612113144100S06013204WA0005000034
B1612123144101S06013204WA0005000034
B1612133144101S06013205WA0005000035
B1612143144101S06013204WA0005000034
B1612153144100S06013205WA0005000034
B1612163144101S06013204WA0005000035
B1612173144101S06013204WA0004900034
B1612183144100S06013204WA0004900034
B1612193144101S06013204WA0005000034
B1612203144101S06013204WA0004900034
B1612213144101S06013204WA0004900034
B1612223144101S06013205WA0004900034
B1612233144101S06013205WA0005000034
B1612243144101S06013206WA0005000035
B1612253144101S06013206WA0005000034
B1612263144101S06013206WA0004900034
B1612273144101S06013207WA0004900034
B1612283144101S06013206WA0004900034
B1612293144102S06013207WA0005000035
B1612303144103S06013206WA0005000034
B1612313144104S06013206WA0004900034
B1612323144104S06013206WA0005000034
B1612333144105S06013206WA0005000034
B1612343144105S06013206WA0004900034
B1612353144104S06013206WA0005000035
B1612363144105S06013206WA0005000034
B1612373144105S06013206WA0004900034
B1612383144104S06013206WA0004900034
B1612393144104S06013205WA0004900034
B1612403144104S06013205WA0004900034
B1612413144104S06013205WA0005000035
B1612423144104S06013205WA0005000035
B1612433144104S06013205WA0004900034
B1612443144105S06013205WA0004900034
B1612453144105S06013205WA0004900034
B1612463144106S06013205WA0004900034
B1612473144107S06013205WA0005000034
B1612483144107S06013205WA0004900034
B1612493144107S06013205WA0004900034
B1612503144109S06013205WA0004900034
B1612513144109S06013205WA0004900034
B1612523144110S06013205WA0004900034
B1612533144110S06013204WA0004900034
B1612543144111S06013204WA0004900034
B1612553144112S06013204WA0004900034
B1612563144113S06013204WA0004900034
B1612573144113S06013204WA0005000034
B1612583144113S06013204WA0004900034
B1612593144114S06013204WA0004900034
B1613003144114S06013203WA0004900034
B1613013144115S06013203WA0004900034
B1613023144116S06013202WA0004900034
B1613033144116S06013202WA0004900034
B1613043144117S06013202WA0004900034
B1613053144119S06013201WA0004900034
B1613063144120S06013201WA0004900034
B1613073144121S06013201WA0004900034
B1613083144122S06013201WA0005000034
B1613093144123S06013201WA0004900034
B1613103144123S06013202WA0004900034
B1613113144124S06013201WA0004900034
B1613123144125S06013201WA0004900034
B1613133144125S06013202WA0005000034
B1613143144125S06013202WA0005000035
B1613153144125S06013202WA0005000034
B1613163144125S06013202WA0004900034
B1613173144125S06013202WA0005000034
B1613183144125S06013202WA0005000034
B1613193144125S06013202WA0005000034
B1613203144125S06013202WA0005000034
B1613213144125S06013202WA0004900034
B1613223144124S06013202WA0004900034
LXSX;GF:1.3
GF0F9912F17008225A1604BDE978410FE
