AXSX003 SKYTRAXX V3.0.16b SN:00000380
HFPLTPILOT:Sepp Bucher
HFGTYGLIDERTYPE:Advance Sigma10
HFDTM100GPSDATUM:WGS-84
HFCIDCOMPETITIONID:0000
HFCCLCOMPETITION CLASS:Paraglider (Standard)
HFSITSITE:UNKNOWN
HFDTE030620
B0759074624855N00806462EA0213502141
B0759084624855N00806461EA0213502141
B0759094624855N00806462EA0213502141
B0759104624855N00806462EA0213502141
B0759114624855N00806462EA0213502141
B0759124624855N00806463EA0213402140
B0759134624856N00806464EA0213402140
B0759144624855N00806464EA0213402140
B0759154624855N00806464EA0213202139
B0759164624855N00806465EA0213002137
B0759174624854N00806466EA0213002137
B0759184624852N00806467EA0212902136
B0759194624852N00806469EA0212702135
B0759204624851N00806472EA0212502133
B0759214624849N00806475EA0212302135
B0759224624847N00806477EA0212102135
B0759234624845N00806481EA0212302137
B0759244624843N00806488EA0212202136
B0759254624839N00806494EA0211802132
B0759264624836N00806499EA0211602131
B0759274624833N00806504EA0211702132
B0759284624830N00806509EA0211802132
B0759294624827N00806513EA0211902133
B0759304624824N00806517EA0211902133
B0759314624822N00806521EA0211802132
B0759324624820N00806525EA0211702131
B0759334624818N00806531EA0211702131
B0759344624815N00806535EA0211802132
B0759354624814N00806539EA0211802132
B0759364624811N00806542EA0211902133
B0759374624811N00806546EA0212002134
B0759384624810N00806549EA0211902133
B0759394624810N00806554EA0211702131
B0759404624809N00806560EA0211502129
B0759414624808N00806566EA0211402128
B0759424624806N00806573EA0211502129
B0759434624803N00806577EA0211702131
B0759444624800N00806580EA0211802132
B0759454624797N00806581EA0211902133
B0759464624794N00806581EA0211802132
B0759474624790N00806582EA0211802132
B0759484624787N00806584EA0211802132
B0759494624784N00806586EA0211902133
B0759504624781N00806588EA0212102135
B0759514624779N00806591EA0212302137
B0759524624777N00806594EA0212302137
B0759534624775N00806597EA0212302137
B0759544624773N00806601EA0212302137
B0759554624773N00806607EA0212202136
B0759564624773N00806612EA0212202136
B0759574624774N00806618EA0212202136
B0759584624776N00806624EA0212302137
B0759594624779N00806630EA0212402139
B0800004624781N00806636EA0212602140
B0800014624783N00806642EA0212802142
B0800024624784N00806647EA0212902143
B0800034624783N00806652EA0212902144
B0800044624781N00806656EA0213002144
B0800054624777N00806657EA0213102145
B0800064624773N00806656EA0213202147
B0800074624769N00806653EA0213402148
B0800084624766N00806646EA0213502149
B0800094624764N00806638EA0213602150
B0800104624764N00806629EA0213702151
B0800114624765N00806619EA0213902153
B0800124624768N00806610EA0213802152
B0800134624773N00806603EA0213802152
B0800144624778N00806598EA0213802152
B0800154624784N00806595EA0213702152
B0800164624790N00806596EA0213702151
B0800174624795N00806599EA0213702151
B0800184624799N00806605EA0213602150
B0800194624803N00806611EA0213702151
B0800204624806N00806617EA0213902153
B0800214624809N00806623EA0214102155
B0800224624811N00806627EA0214302157
B0800234624812N00806632EA0214402158
B0800244624814N00806638EA0214402158
B0800254624816N00806644EA0214402158
B0800264624817N00806651EA0214602160
B0800274624817N00806658EA0214802162
B0800284624817N00806663EA0215002164
B0800294624817N00806667EA0215102165
B0800304624815N00806670EA0215102165
B0800314624813N00806672EA0214902163
B0800324624809N00806672EA0214802162
B0800334624804N00806672EA0214602160
B0800344624799N00806669EA0214702161
B0800354624795N00806665EA0214902164
B0800364624792N00806660EA0215402168
B0800374624792N00806654EA0215702171
B0800384624792N00806647EA0215802172
B0800394624793N00806639EA0215902173
B0800404624794N00806631EA0215902174
B0800414624797N00806622EA0216102175
B0800424624801N00806615EA0216202176
B0800434624807N00806609EA0216102176
B0800444624812N00806606EA0216102176
B0800454624818N00806605EA0216102175
B0800464624823N00806606EA0216102176
B0800474624829N00806609EA0216102175
B0800484624833N00806614EA0216102175
B0800494624836N00806620EA0216202176
B0800504624838N00806625EA0216302177
B0800514624840N00806631EA0216402178
B0800524624841N00806636EA0216502179
B0800534624842N00806640EA0216502179
B0800544624841N00806645EA0216302178
B0800554624838N00806649EA0216302177
B0800564624835N00806653EA0216102175
B0800574624832N00806656EA0216102175
B0800584624828N00806659EA0216402178
B0800594624825N00806662EA0216702181
B0801004624823N00806665EA0216802182
B0801014624820N00806667EA0216902183
B0801024624817N00806668EA0216902183
B0801034624812N00806668EA0216902183
B0801044624808N00806666EA0216902184
B0801054624805N00806662EA0217102185
B0801064624802N00806656EA0217202187
B0801074624801N00806649EA0217302187
B0801084624800N00806641EA0217302187
B0801094624801N00806632EA0217302187
B0801104624804N00806623EA0217302187
B0801114624808N00806616EA0217302187
B0801124624813N00806611EA0217402188
B0801134624819N00806610EA0217502189
B0801144624825N00806613EA0217402188
B0801154624828N00806618EA0217302188
B0801164624829N00806624EA0217302187
B0801174624828N00806629EA0217402188
B0801184624825N00806633EA0217402188
B0801194624823N00806637EA0217302187
B0801204624821N00806639EA0217302187
B0801214624818N00806643EA0217202186
B0801224624815N00806647EA0217202187
B0801234624812N00806651EA0217302187
B0801244624811N00806654EA0217502189
B0801254624809N00806657EA0217602190
B0801264624808N00806659EA0217602190
B0801274624806N00806660EA0217702191
B0801284624803N00806662EA0217702191
B0801294624798N00806663EA0217702191
B0801304624794N00806663EA0217802192
B0801314624790N00806663EA0218102195
B0801324624786N00806661EA0218402199
B0801334624783N00806657EA0218702202
B0801344624781N00806652EA0218902204
B0801354624780N00806644EA0219002205
B0801364624779N00806636EA0219102205
B0801374624780N00806626EA0219202206
B0801384624784N00806617EA0219202206
B0801394624790N00806612EA0219102205
B0801404624797N00806610EA0219202206
B0801414624804N00806611EA0219302207
B0801424624810N00806615EA0219402208
B0801434624813N00806620EA0219702211
B0801444624815N00806626EA0219902213
B0801454624817N00806632EA0220102215
B0801464624817N00806638EA0220302217
B0801474624817N00806644EA0220402219
B0801484624817N00806650EA0220502219
B0801494624817N00806655EA0220802222
B0801504624816N00806661EA0221102225
B0801514624815N00806665EA0221302227
B0801524624813N00806670EA0221602230
B0801534624811N00806674EA0221802232
B0801544624808N00806678EA0222002235
B0801554624804N00806681EA0222302237
B0801564624800N00806683EA0222602240
B0801574624796N00806682EA0222702242
B0801584624792N00806678EA0222802242
B0801594624789N00806672EA0222902243
B0802004624786N00806664EA0223102245
B0802014624785N00806656EA0223202246
B0802024624786N00806646EA0223202247
B0802034624788N00806637EA0223302248
B0802044624792N00806628EA0223502249
B0802054624798N00806622EA0223802252
B0802064624805N00806619EA0224102255
B0802074624810N00806619EA0224302257
B0802084624814N00806621EA0224402258
B0802094624818N00806625EA0224402259
B0802104624821N00806630EA0224602260
B0802114624824N00806636EA0224902263
B0802124624827N00806641EA0225202267
B0802134624828N00806646EA0225602270
B0802144624828N00806650EA0225802272
B0802154624829N00806654EA0225902274
B0802164624828N00806659EA0226102275
B0802174624827N00806665EA0226202276
B0802184624824N00806669EA0226302277
B0802194624820N00806671EA0226402279
B0802204624815N00806668EA0226602280
B0802214624811N00806661EA0226702281
B0802224624809N00806652EA0226902283
B0802234624810N00806641EA0227102285
B0802244624812N00806631EA0227502289
B0802254624817N00806624EA0227802292
B0802264624823N00806619EA0228102295
B0802274624829N00806616EA0228402298
B0802284624834N00806617EA0228402299
B0802294624839N00806619EA0228502299
B0802304624844N00806623EA0228502299
B0802314624848N00806628EA0228702302
B0802324624851N00806634EA0229002304
B0802334624854N00806641EA0229202306
B0802344624857N00806647EA0229402308
B0802354624860N00806653EA0229402308
B0802364624862N00806659EA0229602310
B0802374624863N00806665EA0229602310
B0802384624865N00806672EA0229602310
B0802394624866N00806678EA0229702311
B0802404624868N00806683EA0229902313
B0802414624870N00806687EA0229902313
B0802424624872N00806691EA0229902314
B0802434624874N00806694EA0229902314
B0802444624876N00806699EA0229902313
B0802454624878N00806704EA0229902314
B0802464624878N00806709EA0230102315
B0802474624877N00806714EA0230202316
B0802484624875N00806718EA0230402319
B0802494624872N00806721EA0230602320
B0802504624867N00806724EA0230802322
B0802514624862N00806724EA0231102325
B0802524624857N00806722EA0231302327
B0802534624852N00806718EA0231402328
B0802544624847N00806712EA0231502329
B0802554624843N00806705EA0231402328
B0802564624840N00806697EA0231402328
B0802574624838N00806688EA0231502329
B0802584624838N00806679EA0231402328
B0802594624841N00806671EA0231402328
B0803004624844N00806663EA0231302327
B0803014624849N00806656EA0231302327
B0803024624854N00806652EA0231302327
B0803034624858N00806651EA0231302328
B0803044624862N00806654EA0231102326
B0803054624864N00806660EA0231002324
B0803064624864N00806666EA0231202326
B0803074624864N00806671EA0231702331
B0803084624863N00806674EA0231902334
B0803094624862N00806676EA0232102335
B0803104624861N00806679EA0232102335
B0803114624859N00806682EA0232202336
B0803124624856N00806686EA0232202336
B0803134624852N00806690EA0232302337
B0803144624846N00806691EA0232602340
B0803154624842N00806691EA0232702341
B0803164624838N00806688EA0232702341
B0803174624836N00806685EA0232702341
B0803184624833N00806680EA0232602340
B0803194624830N00806675EA0232502339
B0803204624827N00806669EA0232302338
B0803214624823N00806662EA0232402338
B0803224624819N00806657EA0232602340
B0803234624816N00806651EA0232702341
B0803244624813N00806646EA0232802342
B0803254624810N00806639EA0232902343
B0803264624806N00806632EA0232902343
B0803274624802N00806625EA0233002344
B0803284624800N00806616EA0233202346
B0803294624799N00806606EA0233402348
B0803304624800N00806596EA0233502349
B0803314624803N00806587EA0233702351
B0803324624807N00806578EA0233902353
B0803334624811N00806573EA0233902353
B0803344624817N00806571EA0233802352
B0803354624822N00806571EA0233602350
B0803364624827N00806574EA0233502349
B0803374624830N00806578EA0233302348
B0803384624833N00806584EA0233302347
B0803394624833N00806589EA0233302347
B0803404624833N00806595EA0233202347
B0803414624833N00806601EA0233202346
B0803424624834N00806608EA0233202346
B0803434624834N00806614EA0233202346
B0803444624834N00806621EA0233302347
B0803454624833N00806627EA0233602350
B0803464624832N00806632EA0234002354
B0803474624830N00806638EA0234302357
B0803484624830N00806643EA0234702361
B0803494624828N00806647EA0235102365
B0803504624826N00806652EA0235502369
B0803514624824N00806656EA0235802372
B0803524624821N00806660EA0236202376
B0803534624819N00806664EA0236402378
B0803544624817N00806668EA0236602381
B0803554624815N00806672EA0236802382
B0803564624811N00806677EA0237002384
B0803574624807N00806680EA0237202386
B0803584624803N00806681EA0237502389
B0803594624798N00806679EA0237402388
B0804004624795N00806674EA0237402388
B0804014624792N00806668EA0237302387
B0804024624789N00806660EA0237502389
B0804034624788N00806651EA0237602390
B0804044624788N00806643EA0237702391
B0804054624789N00806634EA0237902393
B0804064624790N00806625EA0238002394
B0804074624792N00806617EA0238202396
B0804084624793N00806608EA0238302397
B0804094624796N00806598EA0238502399
B0804104624800N00806589EA0238602400
B0804114624805N00806582EA0238802402
B0804124624811N00806578EA0238802402
B0804134624817N00806577EA0238902403
B0804144624823N00806579EA0239002404
B0804154624828N00806582EA0239102405
B0804164624833N00806586EA0239502409
B0804174624837N00806590EA0239802412
B0804184624840N00806595EA0240102415
B0804194624843N00806600EA0240502419
B0804204624844N00806606EA0240802422
B0804214624845N00806613EA0241102426
B0804224624844N00806619EA0241402429
B0804234624841N00806624EA0241902433
B0804244624837N00806627EA0242202436
B0804254624833N00806628EA0242502439
B0804264624829N00806626EA0242702441
B0804274624825N00806623EA0242802442
B0804284624821N00806617EA0242902443
B0804294624819N00806609EA0243102445
B0804304624818N00806599EA0243302447
B0804314624820N00806589EA0243502449
B0804324624823N00806581EA0243802452
B0804334624828N00806574EA0244102455
B0804344624832N00806569EA0244402458
B0804354624837N00806566EA0244602461
B0804364624843N00806566EA0244802462
B0804374624848N00806570EA0245102465
B0804384624851N00806576EA0245402468
B0804394624851N00806582EA0245902473
B0804404624851N00806587EA0246502479
B0804414624850N00806591EA0246902483
B0804424624849N00806594EA0247202486
B0804434624846N00806597EA0247402488
B0804444624843N00806598EA0247302487
B0804454624838N00806598EA0247302487
B0804464624833N00806596EA0247402488
B0804474624828N00806593EA0247602490
B0804484624823N00806590EA0247802492
B0804494624818N00806587EA0248002494
B0804504624814N00806583EA0248102495
B0804514624810N00806577EA0248102495
B0804524624807N00806569EA0248102495
B0804534624806N00806559EA0248002494
B0804544624806N00806548EA0248102495
B0804554624809N00806539EA0248302497
B0804564624812N00806532EA0248602500
B0804574624817N00806527EA0248702501
B0804584624821N00806524EA0248702502
B0804594624827N00806521EA0249002504
B0805004624833N00806520EA0249202506
B0805014624838N00806522EA0249502509
B0805024624843N00806525EA0249702512
B0805034624847N00806529EA0250102515
B0805044624850N00806533EA0250302517
B0805054624853N00806538EA0250602520
B0805064624855N00806543EA0250902523
B0805074624856N00806548EA0251202526
B0805084624857N00806554EA0251502529
B0805094624857N00806560EA0251802532
B0805104624856N00806566EA0252102535
B0805114624854N00806571EA0252202536
B0805124624851N00806574EA0252402538
B0805134624846N00806575EA0252602541
B0805144624841N00806574EA0252802542
B0805154624836N00806571EA0253002544
B0805164624831N00806566EA0253002545
B0805174624827N00806561EA0253002544
B0805184624824N00806553EA0252902543
B0805194624822N00806545EA0252902543
B0805204624822N00806536EA0252902543
B0805214624823N00806526EA0252802542
B0805224624826N00806517EA0253002544
B0805234624830N00806509EA0253102545
B0805244624834N00806504EA0253202547
B0805254624840N00806500EA0253302547
B0805264624846N00806499EA0253402548
B0805274624852N00806498EA0253602550
B0805284624859N00806498EA0253802552
B0805294624864N00806500EA0254102555
B0805304624869N00806502EA0254402558
B0805314624872N00806505EA0254802562
B0805324624874N00806510EA0255202567
B0805334624876N00806514EA0255502569
B0805344624876N00806519EA0255802572
B0805354624877N00806524EA0256002574
B0805364624876N00806529EA0256202576
B0805374624876N00806534EA0256502579
B0805384624874N00806538EA0256802582
B0805394624871N00806541EA0256902583
B0805404624867N00806544EA0257202586
B0805414624862N00806545EA0257502589
B0805424624857N00806544EA0257702591
B0805434624852N00806540EA0258002594
B0805444624849N00806534EA0258102595
B0805454624847N00806526EA0258002594
B0805464624846N00806516EA0258102595
B0805474624847N00806506EA0258202596
B0805484624850N00806497EA0258402598
B0805494624855N00806490EA0258602600
B0805504624860N00806486EA0258702602
B0805514624866N00806485EA0258902603
B0805524624871N00806487EA0259102605
B0805534624876N00806490EA0259402608
B0805544624879N00806494EA0259602610
B0805554624882N00806500EA0259902613
B0805564624885N00806505EA0260202616
B0805574624887N00806510EA0260602620
B0805584624889N00806515EA0260802623
B0805594624891N00806520EA0261102625
B0806004624891N00806525EA0261202626
B0806014624892N00806532EA0261302627
B0806024624892N00806539EA0261502629
B0806034624894N00806545EA0261802632
B0806044624895N00806550EA0261902633
B0806054624898N00806555EA0262002635
B0806064624898N00806561EA0262202636
B0806074624899N00806567EA0262302637
B0806084624900N00806573EA0262402638
B0806094624903N00806580EA0262502639
B0806104624905N00806586EA0262602640
B0806114624907N00806593EA0262602640
B0806124624908N00806599EA0262702641
B0806134624910N00806606EA0262802642
B0806144624912N00806612EA0262702641
B0806154624914N00806618EA0262602640
B0806164624917N00806625EA0262602640
B0806174624919N00806633EA0262602640
B0806184624920N00806641EA0262502639
B0806194624921N00806649EA0262702641
B0806204624924N00806656EA0262802643
B0806214624926N00806662EA0262902644
B0806224624929N00806669EA0262802642
B0806234624931N00806675EA0262602641
B0806244624934N00806683EA0262402639
B0806254624936N00806691EA0262302637
B0806264624939N00806699EA0262202636
B0806274624941N00806708EA0262002634
B0806284624943N00806716EA0261902633
B0806294624945N00806725EA0261802632
B0806304624947N00806733EA0261602630
B0806314624949N00806742EA0261502629
B0806324624952N00806751EA0261302627
B0806334624953N00806760EA0261202626
B0806344624955N00806770EA0261102625
B0806354624956N00806779EA0261002624
B0806364624958N00806787EA0260902623
B0806374624960N00806796EA0260702622
B0806384624963N00806804EA0260702621
B0806394624966N00806812EA0260602620
B0806404624968N00806821EA0260602620
B0806414624972N00806829EA0260502619
B0806424624975N00806837EA0260402619
B0806434624978N00806845EA0260502619
B0806444624980N00806854EA0260602620
B0806454624982N00806862EA0260502619
B0806464624985N00806871EA0260402618
B0806474624988N00806880EA0260202616
B0806484624991N00806890EA0260202616
B0806494624994N00806901EA0260202616
B0806504624997N00806912EA0260302617
B0806514624998N00806922EA0260702621
B0806524625001N00806931EA0261002624
B0806534625004N00806939EA0261202626
B0806544625005N00806947EA0261302627
B0806554625007N00806955EA0261502629
B0806564625009N00806964EA0261402628
B0806574625010N00806973EA0261502629
B0806584625012N00806982EA0261502629
B0806594625013N00806992EA0261502629
B0807004625015N00807001EA0261502629
B0807014625017N00807011EA0261402628
B0807024625018N00807020EA0261102625
B0807034625019N00807031EA0260802623
B0807044625020N00807042EA0260602620
B0807054625022N00807054EA0260402618
B0807064625023N00807065EA0260402618
B0807074625025N00807075EA0260502619
B0807084625028N00807084EA0260402619
B0807094625030N00807094EA0260302617
B0807104625032N00807103EA0260102616
B0807114625035N00807113EA0260002614
B0807124625037N00807124EA0259902613
B0807134625039N00807133EA0259802612
B0807144625042N00807143EA0259802612
B0807154625045N00807152EA0259702611
B0807164625047N00807162EA0259502609
B0807174625050N00807172EA0259202606
B0807184625053N00807182EA0259002604
B0807194625056N00807192EA0258902603
B0807204625059N00807202EA0258802602
B0807214625061N00807212EA0258802602
B0807224625064N00807222EA0258802602
B0807234625067N00807232EA0258702602
B0807244625069N00807242EA0258702601
B0807254625071N00807251EA0258602600
B0807264625074N00807260EA0258502599
B0807274625077N00807269EA0258202596
B0807284625079N00807279EA0257902593
B0807294625081N00807289EA0257702592
B0807304625082N00807299EA0257502589
B0807314625085N00807309EA0257202586
B0807324625087N00807319EA0256902583
B0807334625090N00807329EA0256602581
B0807344625092N00807339EA0256502579
B0807354625093N00807348EA0256402578
B0807364625094N00807358EA0256102575
B0807374625096N00807368EA0255802573
B0807384625098N00807378EA0255702571
B0807394625101N00807388EA0255502569
B0807404625103N00807397EA0255502569
B0807414625105N00807404EA0255302567
B0807424625108N00807412EA0255102565
B0807434625111N00807420EA0254702561
B0807444625113N00807429EA0254402558
B0807454625116N00807439EA0254202556
B0807464625119N00807448EA0254002554
B0807474625121N00807456EA0253902553
B0807484625123N00807464EA0253802552
B0807494625126N00807473EA0253602551
B0807504625128N00807481EA0253402548
B0807514625130N00807490EA0253202546
B0807524625132N00807499EA0252902544
B0807534625135N00807508EA0252702541
B0807544625137N00807518EA0252702541
B0807554625139N00807526EA0252702541
B0807564625141N00807535EA0252502539
B0807574625143N00807543EA0252302537
B0807584625145N00807552EA0252002534
B0807594625147N00807561EA0251802532
B0808004625150N00807571EA0251602530
B0808014625152N00807581EA0251602530
B0808024625155N00807590EA0251602531
B0808034625157N00807598EA0251502530
B0808044625160N00807606EA0251602530
B0808054625161N00807613EA0251602530
B0808064625162N00807620EA0251402528
B0808074625163N00807628EA0251202526
B0808084625163N00807636EA0251102525
B0808094625163N00807644EA0250902523
B0808104625163N00807652EA0250802522
B0808114625163N00807660EA0250702522
B0808124625163N00807667EA0250602521
B0808134625163N00807674EA0250502519
B0808144625164N00807682EA0250302517
B0808154625166N00807690EA0250102515
B0808164625166N00807697EA0249902513
B0808174625167N00807705EA0249802512
B0808184625168N00807713EA0249802512
B0808194625168N00807720EA0249702511
B0808204625167N00807727EA0249502509
B0808214625167N00807735EA0249302507
B0808224625167N00807742EA0249102505
B0808234625167N00807750EA0249002504
B0808244625167N00807758EA0248902503
B0808254625167N00807765EA0248802502
B0808264625166N00807772EA0248602500
B0808274625166N00807779EA0248402499
B0808284625166N00807787EA0248202497
B0808294625166N00807795EA0248002494
B0808304625166N00807803EA0247802493
B0808314625166N00807811EA0247702492
B0808324625167N00807819EA0247702491
B0808334625167N00807826EA0247702491
B0808344625167N00807834EA0247602490
B0808354625169N00807841EA0247402488
B0808364625170N00807848EA0247302487
B0808374625171N00807856EA0247202486
B0808384625172N00807863EA0247102486
B0808394625173N00807870EA0247102485
B0808404625173N00807878EA0247102485
B0808414625173N00807885EA0247002484
B0808424625174N00807892EA0246902483
B0808434625174N00807900EA0246802482
B0808444625174N00807907EA0246702482
B0808454625174N00807915EA0246702481
B0808464625174N00807922EA0246502480
B0808474625175N00807929EA0246402478
B0808484625176N00807936EA0246302477
B0808494625177N00807943EA0246102475
B0808504625178N00807951EA0245902473
B0808514625180N00807958EA0245802472
B0808524625182N00807965EA0245602470
B0808534625184N00807973EA0245402468
B0808544625187N00807980EA0245202467
B0808554625190N00807986EA0245202466
B0808564625193N00807992EA0245102465
B0808574625196N00807997EA0244802463
B0808584625199N00808003EA0244602460
B0808594625203N00808010EA0244402459
B0809004625206N00808017EA0244302457
B0809014625210N00808023EA0244102456
B0809024625212N00808030EA0244202457
B0809034625215N00808036EA0244202456
B0809044625217N00808042EA0244102455
B0809054625220N00808048EA0243902453
B0809064625223N00808055EA0243602451
B0809074625226N00808062EA0243502449
B0809084625229N00808069EA0243402448
B0809094625232N00808076EA0243402448
B0809104625234N00808082EA0243302447
B0809114625237N00808088EA0243102445
B0809124625239N00808095EA0242902443
B0809134625242N00808101EA0242602440
B0809144625245N00808108EA0242502439
B0809154625247N00808115EA0242502439
B0809164625250N00808123EA0242402438
B0809174625251N00808130EA0242302437
B0809184625254N00808136EA0242202436
B0809194625257N00808142EA0242002435
B0809204625260N00808149EA0241902433
B0809214625263N00808155EA0241702431
B0809224625265N00808162EA0241602430
B0809234625268N00808168EA0241502429
B0809244625271N00808175EA0241402428
B0809254625274N00808181EA0241202426
B0809264625277N00808187EA0241002424
B0809274625279N00808194EA0241002424
B0809284625282N00808201EA0240902423
B0809294625284N00808207EA0240702422
B0809304625287N00808214EA0240602420
B0809314625290N00808220EA0240502420
B0809324625292N00808227EA0240402418
B0809334625295N00808233EA0240302417
B0809344625297N00808240EA0240202416
B0809354625300N00808247EA0240002415
B0809364625302N00808253EA0240002414
B0809374625305N00808260EA0239802413
B0809384625307N00808266EA0239702411
B0809394625310N00808273EA0239602410
B0809404625313N00808279EA0239502409
B0809414625315N00808285EA0239402408
B0809424625318N00808291EA0239302407
B0809434625321N00808297EA0239102405
B0809444625324N00808304EA0239002404
B0809454625326N00808310EA0238902403
B0809464625329N00808317EA0238702402
B0809474625331N00808324EA0238602400
B0809484625334N00808330EA0238502399
B0809494625337N00808337EA0238402398
B0809504625339N00808343EA0238302397
B0809514625342N00808350EA0238102395
B0809524625344N00808357EA0238002394
B0809534625347N00808364EA0237802393
B0809544625349N00808371EA0237802392
B0809554625351N00808378EA0237602390
B0809564625353N00808385EA0237602390
B0809574625354N00808392EA0237402388
B0809584625356N00808399EA0237202387
B0809594625358N00808406EA0237102385
B0810004625360N00808414EA0237002384
B0810014625361N00808421EA0236902383
B0810024625363N00808428EA0236702381
B0810034625365N00808435EA0236602380
B0810044625366N00808442EA0236402378
B0810054625368N00808450EA0236302377
B0810064625369N00808458EA0236202376
B0810074625371N00808465EA0236102375
B0810084625372N00808473EA0235902374
B0810094625374N00808480EA0235802372
B0810104625375N00808487EA0235602370
B0810114625378N00808495EA0235502369
B0810124625379N00808502EA0235402368
B0810134625382N00808509EA0235302367
B0810144625384N00808516EA0235102365
B0810154625387N00808522EA0235002364
B0810164625389N00808529EA0234702361
B0810174625392N00808536EA0234502360
B0810184625394N00808543EA0234402358
B0810194625397N00808550EA0234302357
B0810204625399N00808557EA0234102355
B0810214625401N00808564EA0234002354
B0810224625403N00808571EA0233802352
B0810234625405N00808578EA0233602350
B0810244625407N00808584EA0233402348
B0810254625409N00808592EA0233302347
B0810264625410N00808599EA0233202346
B0810274625412N00808607EA0233102345
B0810284625413N00808613EA0233002344
B0810294625415N00808620EA0232802342
B0810304625418N00808626EA0232702341
B0810314625420N00808633EA0232502339
B0810324625422N00808641EA0232302337
B0810334625425N00808648EA0232102335
B0810344625428N00808655EA0232002334
B0810354625430N00808661EA0231802333
B0810364625433N00808668EA0231702331
B0810374625436N00808674EA0231502329
B0810384625440N00808680EA0231302327
B0810394625442N00808687EA0231102325
B0810404625446N00808693EA0230902324
B0810414625449N00808700EA0230802322
B0810424625452N00808706EA0230702321
B0810434625456N00808712EA0230602320
B0810444625459N00808718EA0230402318
B0810454625462N00808724EA0230302317
B0810464625464N00808731EA0230102315
B0810474625467N00808737EA0229902313
B0810484625470N00808744EA0229802312
B0810494625473N00808750EA0229602310
B0810504625476N00808757EA0229502309
B0810514625478N00808764EA0229302307
B0810524625481N00808770EA0229102305
B0810534625483N00808777EA0229002304
B0810544625487N00808784EA0228802302
B0810554625490N00808790EA0228702301
B0810564625493N00808797EA0228602300
B0810574625496N00808803EA0228502299
B0810584625499N00808810EA0228302297
B0810594625502N00808817EA0228202296
B0811004625505N00808823EA0228002294
B0811014625509N00808829EA0227902293
B0811024625512N00808836EA0227702291
B0811034625516N00808842EA0227602290
B0811044625519N00808848EA0227402288
B0811054625522N00808854EA0227302287
B0811064625526N00808861EA0227202286
B0811074625530N00808867EA0227002284
B0811084625533N00808873EA0226902283
B0811094625536N00808880EA0226802282
B0811104625540N00808886EA0226702281
B0811114625543N00808892EA0226502279
B0811124625546N00808899EA0226402278
B0811134625549N00808905EA0226302277
B0811144625553N00808912EA0226202276
B0811154625556N00808918EA0226102275
B0811164625559N00808924EA0225902274
B0811174625563N00808930EA0225802272
B0811184625566N00808936EA0225702271
B0811194625570N00808942EA0225502269
B0811204625573N00808948EA0225402268
B0811214625577N00808954EA0225302267
B0811224625581N00808960EA0225202266
B0811234625584N00808966EA0225102265
B0811244625588N00808971EA0225002264
B0811254625592N00808977EA0224902263
B0811264625595N00808982EA0224702262
B0811274625599N00808988EA0224502259
B0811284625603N00808993EA0224302257
B0811294625607N00808999EA0224302257
B0811304625610N00809005EA0224102255
B0811314625614N00809012EA0224002254
B0811324625618N00809018EA0224002254
B0811334625621N00809024EA0223802252
B0811344625624N00809030EA0223602250
B0811354625628N00809036EA0223502249
B0811364625632N00809042EA0223302247
B0811374625636N00809049EA0223102245
B0811384625639N00809055EA0223102245
B0811394625643N00809061EA0223002244
B0811404625647N00809067EA0222902243
B0811414625650N00809073EA0222802242
B0811424625654N00809079EA0222602240
B0811434625658N00809085EA0222502239
B0811444625662N00809091EA0222302238
B0811454625666N00809097EA0222202237
B0811464625670N00809102EA0222102235
B0811474625674N00809108EA0222002234
B0811484625678N00809114EA0221902233
B0811494625682N00809120EA0221802232
B0811504625686N00809125EA0221702231
B0811514625689N00809131EA0221502229
B0811524625693N00809137EA0221402228
B0811534625697N00809143EA0221302227
B0811544625701N00809149EA0221202226
B0811554625705N00809154EA0221002224
B0811564625709N00809160EA0220902223
B0811574625713N00809166EA0220702222
B0811584625717N00809172EA0220602220
B0811594625721N00809177EA0220502219
B0812004625725N00809183EA0220402218
B0812014625730N00809189EA0220302217
B0812024625733N00809194EA0220102215
B0812034625738N00809200EA0220002214
B0812044625742N00809206EA0219902213
B0812054625746N00809212EA0219802212
B0812064625749N00809217EA0219602210
B0812074625753N00809223EA0219502209
B0812084625757N00809229EA0219402208
B0812094625761N00809235EA0219202207
B0812104625765N00809242EA0219102205
B0812114625769N00809248EA0219002204
B0812124625773N00809254EA0218802203
B0812134625777N00809261EA0218702201
B0812144625781N00809267EA0218602200
B0812154625785N00809273EA0218502199
B0812164625789N00809279EA0218302197
B0812174625793N00809285EA0218202196
B0812184625797N00809291EA0218002194
B0812194625801N00809297EA0217902193
B0812204625806N00809303EA0217702192
B0812214625810N00809309EA0217602190
B0812224625814N00809316EA0217302187
B0812234625818N00809322EA0217202186
B0812244625822N00809329EA0217102185
B0812254625826N00809335EA0217002184
B0812264625830N00809342EA0216902183
B0812274625834N00809348EA0216702181
B0812284625838N00809354EA0216602180
B0812294625843N00809360EA0216602180
B0812304625847N00809366EA0216502179
B0812314625851N00809372EA0216402178
B0812324625855N00809377EA0216202177
B0812334625860N00809383EA0216102175
B0812344625864N00809390EA0216002174
B0812354625869N00809396EA0215902173
B0812364625873N00809402EA0215802172
B0812374625877N00809408EA0215702171
B0812384625881N00809414EA0215502169
B0812394625885N00809420EA0215402168
B0812404625889N00809426EA0215202166
B0812414625893N00809433EA0215002164
B0812424625897N00809439EA0214902163
B0812434625900N00809446EA0214802162
B0812444625904N00809453EA0214702161
B0812454625908N00809459EA0214502159
B0812464625911N00809465EA0214402158
B0812474625915N00809471EA0214202156
B0812484625919N00809478EA0214002155
B0812494625923N00809484EA0213902153
B0812504625927N00809490EA0213802152
B0812514625931N00809496EA0213502149
B0812524625935N00809501EA0213202146
B0812534625938N00809507EA0213002144
B0812544625942N00809514EA0212702141
B0812554625946N00809520EA0212502139
B0812564625949N00809527EA0212202137
B0812574625953N00809533EA0212002135
B0812584625957N00809539EA0211902133
B0812594625961N00809545EA0211702131
B0813004625964N00809551EA0211502129
B0813014625967N00809558EA0211302127
B0813024625970N00809565EA0211102125
B0813034625973N00809572EA0210902123
B0813044625976N00809579EA0210702121
B0813054625979N00809586EA0210602121
B0813064625982N00809592EA0210502119
B0813074625985N00809599EA0210302117
B0813084625988N00809605EA0210102115
B0813094625991N00809612EA0209902113
B0813104625994N00809619EA0209702111
B0813114625997N00809626EA0209502109
B0813124626001N00809633EA0209302107
B0813134626004N00809640EA0209102105
B0813144626007N00809647EA0208902103
B0813154626010N00809654EA0208702101
B0813164626013N00809661EA0208502100
B0813174626015N00809669EA0208402098
B0813184626018N00809676EA0208202097
B0813194626020N00809684EA0208002094
B0813204626023N00809691EA0207802093
B0813214626026N00809697EA0207602091
B0813224626029N00809704EA0207502089
B0813234626031N00809711EA0207302087
B0813244626033N00809718EA0207102085
B0813254626036N00809725EA0206802082
B0813264626040N00809731EA0206702081
B0813274626042N00809738EA0206502079
B0813284626046N00809745EA0206302077
B0813294626049N00809752EA0206102075
B0813304626053N00809760EA0206002075
B0813314626056N00809767EA0206102075
B0813324626058N00809772EA0206202076
B0813334626061N00809777EA0206102075
B0813344626064N00809781EA0206002074
B0813354626067N00809785EA0205802072
B0813364626071N00809791EA0205602070
B0813374626075N00809796EA0205402069
B0813384626079N00809802EA0205302067
B0813394626082N00809807EA0205202067
B0813404626086N00809813EA0205102065
B0813414626089N00809819EA0205002064
B0813424626092N00809826EA0204902063
B0813434626096N00809832EA0204802062
B0813444626100N00809838EA0204802062
B0813454626103N00809844EA0204702061
B0813464626106N00809850EA0204602060
B0813474626110N00809856EA0204502059
B0813484626113N00809863EA0204402058
B0813494626116N00809871EA0204302057
B0813504626120N00809878EA0204302057
B0813514626122N00809886EA0204402058
B0813524626125N00809892EA0204602060
B0813534626127N00809898EA0204702061
B0813544626129N00809903EA0204802062
B0813554626131N00809908EA0204802062
B0813564626134N00809913EA0204702061
B0813574626138N00809920EA0204602060
B0813584626142N00809927EA0204602060
B0813594626145N00809934EA0204802062
B0814004626147N00809940EA0204902064
B0814014626150N00809945EA0205102066
B0814024626152N00809950EA0205202066
B0814034626155N00809955EA0205102065
B0814044626157N00809960EA0204902063
B0814054626161N00809966EA0204802062
B0814064626165N00809973EA0204802062
B0814074626168N00809980EA0204802062
B0814084626170N00809988EA0204902063
B0814094626173N00809994EA0205002065
B0814104626176N00810001EA0205302068
B0814114626179N00810006EA0205602070
B0814124626182N00810010EA0205802073
B0814134626185N00810015EA0206002074
B0814144626188N00810019EA0206002074
B0814154626192N00810023EA0206102075
B0814164626197N00810027EA0205902073
B0814174626203N00810031EA0205802072
B0814184626208N00810034EA0205902073
B0814194626213N00810037EA0206102075
B0814204626217N00810042EA0206302077
B0814214626221N00810048EA0206402078
B0814224626225N00810053EA0206402078
B0814234626228N00810059EA0206402078
B0814244626232N00810065EA0206602080
B0814254626235N00810070EA0206602080
B0814264626238N00810075EA0206502080
B0814274626240N00810079EA0206502079
B0814284626242N00810083EA0206402078
B0814294626244N00810087EA0206302077
B0814304626245N00810093EA0206302077
B0814314626246N00810099EA0206302078
B0814324626247N00810105EA0206602080
B0814334626247N00810111EA0206802082
B0814344626249N00810116EA0207002085
B0814354626251N00810121EA0207102085
B0814364626254N00810125EA0207102085
B0814374626257N00810130EA0207202086
B0814384626261N00810134EA0207402088
B0814394626264N00810138EA0207502089
B0814404626267N00810141EA0207602090
B0814414626269N00810144EA0207702091
B0814424626269N00810149EA0207702091
B0814434626269N00810153EA0207502089
B0814444626268N00810159EA0207402088
B0814454626266N00810163EA0207302087
B0814464626262N00810166EA0207302087
B0814474626258N00810170EA0207402088
B0814484626253N00810172EA0207502089
B0814494626249N00810172EA0207602090
B0814504626244N00810171EA0207502089
B0814514626238N00810167EA0207302088
B0814524626233N00810163EA0207202087
B0814534626228N00810157EA0207202086
B0814544626224N00810151EA0207202086
B0814554626221N00810143EA0207202086
B0814564626219N00810135EA0207302087
B0814574626218N00810127EA0207202087
B0814584626217N00810120EA0207202086
B0814594626218N00810112EA0207102085
B0815004626221N00810104EA0206902084
B0815014626225N00810097EA0206702081
B0815024626231N00810092EA0206602081
B0815034626236N00810090EA0206702082
B0815044626242N00810089EA0206802082
B0815054626246N00810091EA0206802082
B0815064626250N00810093EA0206802082
B0815074626253N00810098EA0206802083
B0815084626255N00810104EA0206802083
B0815094626257N00810110EA0207002084
B0815104626258N00810116EA0207102085
B0815114626259N00810121EA0207202086
B0815124626261N00810127EA0207302087
B0815134626263N00810132EA0207302087
B0815144626265N00810138EA0207402088
B0815154626268N00810144EA0207502089
B0815164626269N00810150EA0207602090
B0815174626271N00810155EA0207702091
B0815184626272N00810160EA0207602090
B0815194626274N00810164EA0207402088
B0815204626276N00810169EA0207202086
B0815214626277N00810175EA0207002084
B0815224626278N00810181EA0206802082
B0815234626277N00810187EA0206702081
B0815244626276N00810192EA0206602080
B0815254626274N00810196EA0206402078
B0815264626271N00810200EA0206102075
B0815274626267N00810203EA0205902073
B0815284626262N00810205EA0205802072
B0815294626257N00810205EA0205602070
B0815304626253N00810202EA0205502069
B0815314626248N00810198EA0205302067
B0815324626244N00810193EA0205102065
B0815334626240N00810186EA0204902063
B0815344626236N00810178EA0204802063
B0815354626234N00810170EA0204702062
B0815364626232N00810161EA0204702061
B0815374626231N00810153EA0204602061
B0815384626229N00810144EA0204502060
B0815394626227N00810136EA0204502059
B0815404626225N00810127EA0204502059
B0815414626224N00810119EA0204502059
B0815424626222N00810111EA0204502059
B0815434626220N00810104EA0204502060
B0815444626217N00810098EA0204502059
B0815454626215N00810091EA0204502059
B0815464626213N00810084EA0204502059
B0815474626212N00810076EA0204402058
B0815484626211N00810067EA0204402058
B0815494626210N00810058EA0204502059
B0815504626209N00810050EA0204602060
B0815514626207N00810041EA0204802062
B0815524626206N00810034EA0204902063
B0815534626205N00810027EA0205002065
B0815544626204N00810019EA0205102065
B0815554626202N00810012EA0205102065
B0815564626200N00810004EA0205002064
B0815574626197N00809997EA0204802062
B0815584626193N00809992EA0204502060
B0815594626189N00809990EA0204402058
B0816004626185N00809990EA0204302057
B0816014626181N00809991EA0204302057
B0816024626178N00809993EA0204202056
B0816034626175N00809997EA0204102056
B0816044626174N00810002EA0204002054
B0816054626173N00810007EA0203802052
B0816064626173N00810013EA0203502050
B0816074626174N00810019EA0203302047
B0816084626175N00810026EA0203202046
B0816094626178N00810033EA0203002044
B0816104626180N00810040EA0202902043
B0816114626182N00810046EA0202802042
B0816124626184N00810052EA0202702041
B0816134626185N00810058EA0202502039
B0816144626187N00810065EA0202302038
B0816154626187N00810071EA0202202036
B0816164626188N00810078EA0202002034
B0816174626189N00810084EA0201902033
B0816184626190N00810091EA0201802032
B0816194626191N00810098EA0201602030
B0816204626193N00810104EA0201602030
B0816214626195N00810110EA0201602030
B0816224626197N00810116EA0201502029
B0816234626199N00810121EA0201302028
B0816244626201N00810126EA0201202026
B0816254626203N00810132EA0200902024
B0816264626205N00810138EA0200702021
B0816274626207N00810144EA0200502019
B0816284626208N00810151EA0200402018
B0816294626209N00810158EA0200302017
B0816304626209N00810164EA0200202016
B0816314626210N00810169EA0199902013
B0816324626211N00810175EA0199702011
B0816334626212N00810182EA0199502009
B0816344626214N00810188EA0199302007
B0816354626216N00810193EA0199102005
B0816364626217N00810198EA0198902003
B0816374626218N00810203EA0198501999
B0816384626218N00810209EA0198101995
B0816394626217N00810215EA0197701991
B0816404626215N00810221EA0197401989
B0816414626213N00810228EA0197301987
B0816424626212N00810234EA0197201986
B0816434626210N00810239EA0197001984
B0816444626209N00810245EA0196801982
B0816454626208N00810250EA0196501979
B0816464626207N00810256EA0196001975
B0816474626204N00810262EA0195801972
B0816484626201N00810266EA0195601970
B0816494626197N00810269EA0195501969
B0816504626193N00810271EA0195301967
B0816514626190N00810272EA0195201967
B0816524626187N00810274EA0195301967
B0816534626184N00810274EA0195201967
B0816544626180N00810273EA0195101965
B0816554626176N00810271EA0195201966
B0816564626173N00810269EA0195201966
B0816574626169N00810266EA0195301967
B0816584626165N00810263EA0195301967
B0816594626162N00810259EA0195301967
B0817004626158N00810255EA0195201966
B0817014626155N00810252EA0195201966
B0817024626152N00810248EA0195101965
B0817034626149N00810244EA0194901963
B0817044626145N00810240EA0194801962
B0817054626141N00810236EA0194701961
B0817064626138N00810231EA0194701962
B0817074626135N00810226EA0195001964
B0817084626132N00810222EA0195101965
B0817094626130N00810219EA0195201966
B0817104626128N00810215EA0195201966
B0817114626124N00810212EA0195101965
B0817124626121N00810208EA0195001964
B0817134626118N00810203EA0195001964
B0817144626115N00810197EA0195001964
B0817154626112N00810193EA0194901963
B0817164626109N00810189EA0194801962
B0817174626106N00810184EA0194601960
B0817184626104N00810180EA0194501959
B0817194626101N00810175EA0194301957
B0817204626098N00810171EA0194101955
B0817214626094N00810166EA0193901953
B0817224626091N00810160EA0193801952
B0817234626088N00810154EA0193801952
B0817244626085N00810149EA0193901953
B0817254626082N00810144EA0194001954
B0817264626080N00810138EA0194001954
B0817274626078N00810133EA0194001954
B0817284626075N00810128EA0194001954
B0817294626073N00810121EA0194101955
B0817304626069N00810115EA0194201956
B0817314626066N00810110EA0194501959
B0817324626063N00810105EA0195001964
B0817334626062N00810101EA0195401968
B0817344626060N00810097EA0195601970
B0817354626058N00810093EA0195801972
B0817364626055N00810089EA0195901973
B0817374626053N00810083EA0196101975
B0817384626051N00810077EA0196401978
B0817394626049N00810071EA0196501979
B0817404626048N00810066EA0196701982
B0817414626046N00810061EA0196901983
B0817424626044N00810058EA0197001984
B0817434626041N00810055EA0197001984
B0817444626038N00810054EA0197101985
B0817454626034N00810054EA0197201986
B0817464626031N00810055EA0197301988
B0817474626029N00810059EA0197501989
B0817484626027N00810063EA0197501989
B0817494626026N00810069EA0197601990
B0817504626026N00810075EA0197601990
B0817514626028N00810081EA0197601990
B0817524626033N00810087EA0197501989
B0817534626039N00810092EA0197601990
B0817544626045N00810093EA0197801992
B0817554626052N00810091EA0198001994
B0817564626058N00810087EA0198001994
B0817574626063N00810082EA0198001994
B0817584626067N00810075EA0198001994
B0817594626071N00810067EA0198201996
B0818004626074N00810059EA0198301998
B0818014626075N00810050EA0198501999
B0818024626075N00810042EA0198702001
B0818034626075N00810035EA0198802002
B0818044626074N00810029EA0199002004
B0818054626073N00810023EA0199002004
B0818064626070N00810018EA0199102005
B0818074626067N00810013EA0199302007
B0818084626064N00810011EA0199502009
B0818094626060N00810010EA0199702011
B0818104626058N00810012EA0199802012
B0818114626055N00810015EA0199902013
B0818124626054N00810021EA0200002014
B0818134626053N00810028EA0200202016
B0818144626054N00810035EA0200402018
B0818154626058N00810041EA0200702021
B0818164626062N00810046EA0200902023
B0818174626067N00810050EA0201002024
B0818184626073N00810052EA0201102026
B0818194626079N00810052EA0201302027
B0818204626085N00810051EA0201402028
B0818214626092N00810047EA0201502029
B0818224626098N00810040EA0201502029
B0818234626101N00810031EA0201602031
B0818244626104N00810022EA0201902033
B0818254626105N00810014EA0202202036
B0818264626106N00810006EA0202402038
B0818274626106N00809999EA0202502040
B0818284626104N00809993EA0202602040
B0818294626101N00809988EA0202702041
B0818304626098N00809983EA0202802042
B0818314626094N00809980EA0203002045
B0818324626091N00809977EA0203302047
B0818334626087N00809975EA0203402048
B0818344626084N00809974EA0203502049
B0818354626080N00809974EA0203602050
B0818364626076N00809977EA0203602050
B0818374626073N00809983EA0203602050
B0818384626072N00809991EA0203702051
B0818394626073N00810000EA0204002054
B0818404626076N00810008EA0204302057
B0818414626079N00810013EA0204702061
B0818424626085N00810017EA0204902063
B0818434626090N00810019EA0205102065
B0818444626096N00810020EA0205302067
B0818454626101N00810020EA0205502069
B0818464626108N00810018EA0205502069
B0818474626115N00810014EA0205702071
B0818484626121N00810008EA0205802073
B0818494626126N00810000EA0206102075
B0818504626129N00809992EA0206302077
B0818514626131N00809984EA0206602080
B0818524626131N00809976EA0206802082
B0818534626130N00809970EA0206902083
B0818544626128N00809964EA0207202086
B0818554626125N00809960EA0207402088
B0818564626122N00809957EA0207502089
B0818574626117N00809956EA0207502090
B0818584626113N00809958EA0207702091
B0818594626108N00809960EA0208002094
B0819004626104N00809963EA0208202096
B0819014626101N00809967EA0208402098
B0819024626099N00809972EA0208602100
B0819034626098N00809978EA0208802102
B0819044626099N00809986EA0208902103
B0819054626102N00809994EA0209202106
B0819064626107N00809998EA0209202106
B0819074626115N00809999EA0209102105
B0819084626122N00809996EA0209102105
B0819094626128N00809991EA0209402108
B0819104626134N00809986EA0209802112
B0819114626137N00809980EA0210202116
B0819124626140N00809974EA0210302117
B0819134626140N00809966EA0210402119
B0819144626140N00809958EA0210702121
B0819154626139N00809950EA0210902123
B0819164626137N00809943EA0211202126
B0819174626135N00809937EA0211402128
B0819184626131N00809932EA0211502129
B0819194626128N00809926EA0211602130
B0819204626125N00809920EA0211702131
B0819214626122N00809914EA0211802132
B0819224626119N00809909EA0211902133
B0819234626116N00809903EA0211902134
B0819244626114N00809897EA0212102135
B0819254626111N00809892EA0212202136
B0819264626109N00809887EA0212302137
B0819274626107N00809882EA0212302138
B0819284626104N00809876EA0212302137
B0819294626101N00809870EA0212202136
B0819304626099N00809865EA0212102135
B0819314626095N00809860EA0211902134
B0819324626092N00809855EA0211902133
B0819334626089N00809849EA0211802132
B0819344626087N00809843EA0211702131
B0819354626085N00809836EA0211502129
B0819364626082N00809830EA0211302127
B0819374626079N00809824EA0211202126
B0819384626076N00809818EA0211102125
B0819394626074N00809813EA0210902124
B0819404626071N00809806EA0210702121
B0819414626068N00809800EA0210502119
B0819424626065N00809793EA0210302117
B0819434626062N00809785EA0210202116
B0819444626059N00809779EA0210202116
B0819454626057N00809772EA0210102115
B0819464626055N00809767EA0210002114
B0819474626053N00809761EA0209602111
B0819484626050N00809755EA0209302107
B0819494626047N00809748EA0208902103
B0819504626043N00809741EA0208702101
B0819514626040N00809734EA0208602100
B0819524626036N00809729EA0208502099
B0819534626033N00809723EA0208102095
B0819544626029N00809718EA0207902093
B0819554626026N00809711EA0207802092
B0819564626022N00809704EA0207702091
B0819574626019N00809696EA0207502089
B0819584626016N00809689EA0207402088
B0819594626013N00809683EA0207402088
B0820004626010N00809678EA0207202086
B0820014626008N00809672EA0206902083
B0820024626004N00809666EA0206502079
B0820034626001N00809659EA0206102075
B0820044625997N00809651EA0205802072
B0820054625993N00809642EA0205702072
B0820064625990N00809634EA0205802072
B0820074625986N00809628EA0205902073
B0820084625983N00809623EA0206002074
B0820094625980N00809618EA0206102075
B0820104625977N00809613EA0206102075
B0820114625974N00809608EA0206202076
B0820124625971N00809604EA0206202076
B0820134625968N00809599EA0206302077
B0820144625965N00809596EA0206302077
B0820154625963N00809592EA0206202076
B0820164625960N00809588EA0206002074
B0820174625957N00809583EA0205802072
B0820184625954N00809578EA0205602070
B0820194625951N00809572EA0205602070
B0820204625948N00809565EA0205602071
B0820214625946N00809560EA0205702071
B0820224625943N00809554EA0205602070
B0820234625941N00809549EA0205502069
B0820244625938N00809544EA0205402068
B0820254625935N00809538EA0205302067
B0820264625932N00809532EA0205302067
B0820274625929N00809527EA0205302068
B0820284625926N00809522EA0205402069
B0820294625924N00809519EA0205402068
B0820304625921N00809515EA0205202066
B0820314625918N00809511EA0204902064
B0820324625914N00809507EA0204702061
B0820334625911N00809502EA0204502060
B0820344625908N00809497EA0204502059
B0820354625905N00809493EA0204402058
B0820364625902N00809488EA0204202056
B0820374625898N00809484EA0203902053
B0820384625894N00809478EA0203602050
B0820394625890N00809473EA0203402049
B0820404625886N00809467EA0203402048
B0820414625883N00809462EA0203302047
B0820424625880N00809457EA0203002044
B0820434625876N00809453EA0202702042
B0820444625873N00809448EA0202602041
B0820454625870N00809443EA0202602040
B0820464625867N00809438EA0202402039
B0820474625863N00809432EA0202302037
B0820484625860N00809427EA0202102035
B0820494625857N00809421EA0201902033
B0820504625853N00809416EA0201702031
B0820514625850N00809410EA0201502029
B0820524625846N00809404EA0201302027
B0820534625842N00809398EA0201102026
B0820544625838N00809392EA0200902023
B0820554625835N00809386EA0200702021
B0820564625830N00809379EA0200502020
B0820574625827N00809373EA0200402019
B0820584625824N00809368EA0200302017
B0820594625821N00809363EA0200102015
B0821004625817N00809358EA0199902013
B0821014625814N00809353EA0199602010
B0821024625809N00809348EA0199402008
B0821034625805N00809342EA0199202006
B0821044625802N00809336EA0199102005
B0821054625798N00809330EA0199002004
B0821064625795N00809325EA0198802002
B0821074625792N00809320EA0198501999
B0821084625787N00809314EA0198201996
B0821094625783N00809309EA0198001994
B0821104625779N00809302EA0197701991
B0821114625775N00809296EA0197601990
B0821124625771N00809290EA0197401988
B0821134625768N00809284EA0197201986
B0821144625764N00809278EA0196901983
B0821154625760N00809272EA0196701981
B0821164625756N00809265EA0196601980
B0821174625752N00809258EA0196401978
B0821184625749N00809253EA0196301977
B0821194625746N00809247EA0196201976
B0821204625742N00809242EA0195901973
B0821214625738N00809236EA0195601970
B0821224625733N00809229EA0195401968
B0821234625729N00809223EA0195301967
B0821244625725N00809217EA0195101965
B0821254625721N00809212EA0194901964
B0821264625716N00809207EA0194801962
B0821274625713N00809201EA0194601960
B0821284625708N00809196EA0194201957
B0821294625705N00809190EA0193901953
B0821304625701N00809184EA0193401948
B0821314625697N00809178EA0193401948
B0821324625693N00809172EA0193301947
B0821334625690N00809166EA0193101945
B0821344625687N00809161EA0192901943
B0821354625684N00809155EA0192601941
B0821364625680N00809149EA0192401938
B0821374625675N00809144EA0192101936
B0821384625670N00809139EA0192001934
B0821394625666N00809133EA0191801932
B0821404625662N00809128EA0191601930
B0821414625657N00809123EA0191401928
B0821424625652N00809117EA0191101926
B0821434625648N00809111EA0190601920
B0821444625643N00809105EA0190401918
B0821454625639N00809098EA0190301917
B0821464625634N00809092EA0190201916
B0821474625630N00809087EA0190001914
B0821484625624N00809082EA0189701911
B0821494625619N00809077EA0189501909
B0821504625614N00809073EA0189401908
B0821514625608N00809068EA0189301907
B0821524625603N00809063EA0189201906
B0821534625598N00809059EA0189101906
B0821544625593N00809055EA0189001904
B0821554625587N00809051EA0188801902
B0821564625582N00809046EA0188601901
B0821574625577N00809042EA0188501899
B0821584625572N00809037EA0188401898
B0821594625567N00809032EA0188301897
B0822004625562N00809028EA0188101896
B0822014625558N00809024EA0187901893
B0822024625552N00809020EA0187701891
B0822034625547N00809015EA0187601890
B0822044625542N00809011EA0187601890
B0822054625537N00809008EA0187501889
B0822064625533N00809004EA0187401888
B0822074625528N00808999EA0187301887
B0822084625524N00808994EA0187201886
B0822094625520N00808989EA0187101885
B0822104625515N00808984EA0187001884
B0822114625511N00808979EA0187001884
B0822124625506N00808975EA0186901883
B0822134625502N00808971EA0186701882
B0822144625498N00808966EA0186501879
B0822154625493N00808961EA0186201877
B0822164625489N00808956EA0186001874
B0822174625484N00808950EA0185901873
B0822184625480N00808944EA0185901873
B0822194625475N00808939EA0185801872
B0822204625471N00808934EA0185701871
B0822214625466N00808929EA0185401868
B0822224625462N00808924EA0185001864
B0822234625457N00808918EA0185101865
B0822244625452N00808912EA0185001864
B0822254625448N00808907EA0184901863
B0822264625443N00808902EA0184601860
B0822274625438N00808897EA0184201857
B0822284625433N00808892EA0184001854
B0822294625427N00808886EA0183701852
B0822304625422N00808879EA0183501849
B0822314625417N00808872EA0183401848
B0822324625412N00808866EA0183101845
B0822334625407N00808861EA0182901843
B0822344625401N00808856EA0182801842
B0822354625397N00808849EA0182501839
B0822364625393N00808841EA0182101836
B0822374625388N00808833EA0181901833
B0822384625384N00808827EA0181701831
B0822394625378N00808821EA0181501830
B0822404625374N00808815EA0181401828
B0822414625370N00808807EA0181001824
B0822424625367N00808799EA0180601820
B0822434625364N00808791EA0180501819
B0822444625359N00808785EA0180101815
B0822454625353N00808781EA0179401808
B0822464625347N00808778EA0179101806
B0822474625341N00808772EA0178801802
B0822484625339N00808763EA0178401798
B0822494625338N00808752EA0177901793
B0822504625338N00808743EA0177701791
B0822514625337N00808736EA0177601790
B0822524625336N00808731EA0177401788
B0822534625335N00808725EA0177101785
B0822544625333N00808719EA0176701782
B0822554625331N00808712EA0176401778
B0822564625327N00808705EA0176101775
B0822574625322N00808700EA0175901773
B0822584625317N00808696EA0175701772
B0822594625312N00808692EA0175601770
B0823004625308N00808687EA0175401769
B0823014625304N00808683EA0175201766
B0823024625299N00808678EA0174901764
B0823034625294N00808674EA0174701761
B0823044625290N00808670EA0174501759
B0823054625285N00808666EA0174401758
B0823064625280N00808663EA0174301757
B0823074625275N00808660EA0174101755
B0823084625271N00808656EA0173801753
B0823094625266N00808653EA0173601750
B0823104625261N00808651EA0173401749
B0823114625255N00808648EA0173401748
B0823124625250N00808646EA0173301747
B0823134625246N00808643EA0173201747
B0823144625242N00808641EA0173101745
B0823154625237N00808639EA0173001744
B0823164625232N00808637EA0172801742
B0823174625227N00808634EA0172601740
B0823184625222N00808632EA0172501740
B0823194625217N00808631EA0172501739
B0823204625212N00808629EA0172401738
B0823214625207N00808627EA0172201736
B0823224625203N00808625EA0172101735
B0823234625198N00808623EA0171901733
B0823244625192N00808621EA0171701731
B0823254625187N00808619EA0171501729
B0823264625182N00808617EA0171301728
B0823274625177N00808615EA0171201726
B0823284625172N00808613EA0171101725
B0823294625166N00808612EA0170801723
B0823304625161N00808612EA0170701721
B0823314625156N00808611EA0170601720
B0823324625151N00808609EA0170501720
B0823334625145N00808608EA0170401718
B0823344625141N00808605EA0170201716
B0823354625136N00808603EA0170101715
B0823364625131N00808600EA0169901713
B0823374625126N00808597EA0169701711
B0823384625121N00808594EA0169501709
B0823394625116N00808591EA0169401708
B0823404625110N00808589EA0169201707
B0823414625105N00808586EA0169101705
B0823424625101N00808583EA0169001704
B0823434625096N00808580EA0168701701
B0823444625091N00808577EA0168401698
B0823454625086N00808574EA0168201697
B0823464625082N00808571EA0168201696
B0823474625078N00808566EA0168001694
B0823484625074N00808560EA0167701691
B0823494625071N00808554EA0167501689
B0823504625068N00808547EA0167501689
B0823514625066N00808542EA0167401689
B0823524625062N00808537EA0167501689
B0823534625059N00808532EA0167301687
B0823544625055N00808527EA0167101685
B0823554625051N00808522EA0167001684
B0823564625047N00808518EA0166901683
B0823574625043N00808515EA0166701681
B0823584625038N00808513EA0166601680
B0823594625033N00808513EA0166401678
B0824004625028N00808511EA0166301677
B0824014625023N00808510EA0166201676
B0824024625019N00808509EA0166101675
B0824034625014N00808508EA0166001674
B0824044625009N00808508EA0165801672
B0824054625004N00808508EA0165601670
B0824064625000N00808507EA0165501669
B0824074624994N00808506EA0165401668
B0824084624989N00808505EA0165201666
B0824094624984N00808504EA0165101665
B0824104624979N00808503EA0165001664
B0824114624974N00808501EA0164901663
B0824124624969N00808500EA0164801662
B0824134624964N00808498EA0164701661
B0824144624960N00808496EA0164501660
B0824154624955N00808493EA0164401658
B0824164624950N00808491EA0164401658
B0824174624945N00808488EA0164301657
B0824184624940N00808486EA0164201656
B0824194624936N00808484EA0164001654
B0824204624931N00808481EA0163901653
B0824214624926N00808479EA0163801652
B0824224624921N00808476EA0163701651
B0824234624916N00808473EA0163601650
B0824244624911N00808470EA0163501649
B0824254624906N00808468EA0163401648
B0824264624901N00808465EA0163301647
B0824274624896N00808463EA0163101645
B0824284624892N00808460EA0162901643
B0824294624887N00808457EA0162801642
B0824304624882N00808454EA0162801642
B0824314624878N00808451EA0162701641
B0824324624874N00808447EA0162601640
B0824334624869N00808444EA0162401638
B0824344624865N00808440EA0162401638
B0824354624861N00808436EA0162301637
B0824364624856N00808433EA0162101635
B0824374624852N00808429EA0162001634
B0824384624848N00808424EA0161901633
B0824394624843N00808419EA0161801632
B0824404624839N00808415EA0161701631
B0824414624836N00808410EA0161501629
B0824424624831N00808406EA0161401628
B0824434624827N00808402EA0161201626
B0824444624822N00808398EA0161001624
B0824454624818N00808393EA0160901623
B0824464624814N00808388EA0160801622
B0824474624810N00808383EA0160601621
B0824484624806N00808379EA0160501619
B0824494624802N00808374EA0160301617
B0824504624798N00808371EA0160001614
B0824514624793N00808367EA0159801612
B0824524624788N00808364EA0159601610
B0824534624783N00808361EA0159501609
B0824544624779N00808358EA0159401608
B0824554624775N00808355EA0159201606
B0824564624771N00808352EA0159001604
B0824574624767N00808349EA0158801602
B0824584624762N00808346EA0158601601
B0824594624757N00808341EA0158601600
B0825004624754N00808337EA0158401598
B0825014624751N00808331EA0158301597
B0825024624748N00808326EA0158101595
B0825034624744N00808321EA0157901593
B0825044624740N00808317EA0157701591
B0825054624736N00808313EA0157501589
B0825064624731N00808309EA0157401588
B0825074624727N00808305EA0157301587
B0825084624724N00808302EA0157201586
B0825094624719N00808300EA0157001584
B0825104624715N00808298EA0156901583
B0825114624711N00808295EA0156701581
B0825124624707N00808292EA0156601581
B0825134624704N00808287EA0156501579
B0825144624704N00808279EA0156101575
B0825154624706N00808269EA0155701571
B0825164624714N00808266EA0155201566
B0825174624721N00808270EA0154701561
B0825184624723N00808278EA0154101555
B0825194624719N00808287EA0153301547
B0825204624714N00808283EA0152601540
B0825214624711N00808273EA0152001534
B0825224624717N00808268EA0151101525
B0825234624724N00808278EA0150201516
B0825244624722N00808291EA0149301508
B0825254624719N00808292EA0148601501
B0825264624720N00808282EA0148001494
B0825274624727N00808278EA0147001484
B0825284624734N00808278EA0145801472
B0825294624737N00808282EA0145101465
B0825304624735N00808279EA0144501459
B0825314624735N00808269EA0144001454
B0825324624740N00808270EA0143201446
B0825334624744N00808272EA0142301437
B0825344624746N00808276EA0141701431
B0825354624745N00808266EA0141201426
B0825364624744N00808256EA0140601420
B0825374624752N00808255EA0139701411
B0825384624750N00808268EA0138801402
B0825394624749N00808272EA0138201396
B0825404624744N00808270EA0137701391
B0825414624740N00808262EA0137101385
B0825424624748N00808261EA0136101376
B0825434624752N00808276EA0135201366
B0825444624755N00808280EA0134601360
B0825454624756N00808285EA0134001355
B0825464624756N00808288EA0133301347
B0825474624766N00808289EA0132301337
B0825484624768N00808294EA0131701331
B0825494624764N00808302EA0131501330
B0825504624762N00808299EA0131601330
B0825514624771N00808268EA0131501329
B0825524624770N00808258EA0131501329
B0825534624770N00808249EA0131501330
B0825544624771N00808243EA0131501329
B0825554624773N00808234EA0131201327
B0825564624774N00808229EA0130901324
B0825574624775N00808222EA0130701321
B0825584624775N00808215EA0130701321
B0825594624775N00808209EA0130701322
B0826004624775N00808205EA0130801322
B0826014624773N00808203EA0130801322
B0826024624771N00808200EA0130801322
B0826034624767N00808197EA0130701321
B0826044624765N00808193EA0130601321
B0826054624762N00808189EA0130601320
B0826064624755N00808186EA0130501319
B0826074624746N00808183EA0130401318
B0826084624738N00808180EA0130201316
B0826094624729N00808177EA0129901313
B0826104624720N00808175EA0129701311
B0826114624712N00808174EA0129501309
B0826124624705N00808174EA0129401309
B0826134624698N00808172EA0129401308
B0826144624690N00808169EA0129301307
B0826154624684N00808166EA0129101305
B0826164624677N00808164EA0128901303
B0826174624669N00808161EA0128701301
B0826184624659N00808159EA0128501299
B0826194624647N00808157EA0128401298
B0826204624641N00808153EA0128201296
B0826214624636N00808148EA0128001294
B0826224624632N00808144EA0127801292
B0826234624627N00808139EA0127701291
B0826244624621N00808137EA0127501289
B0826254624616N00808137EA0127301287
B0826264624611N00808140EA0127101286
B0826274624607N00808143EA0127101285
B0826284624604N00808148EA0127001284
B0826294624603N00808154EA0126901283
B0826304624602N00808161EA0126701281
B0826314624602N00808169EA0126501279
B0826324624605N00808176EA0126401279
B0826334624608N00808182EA0126301277
B0826344624612N00808186EA0126201276
B0826354624617N00808189EA0126001274
B0826364624623N00808190EA0125801272
B0826374624628N00808189EA0125701271
B0826384624633N00808185EA0125401269
B0826394624637N00808179EA0125201266
B0826404624638N00808171EA0125001264
B0826414624638N00808163EA0124801262
B0826424624635N00808157EA0124601260
B0826434624630N00808154EA0124501259
B0826444624625N00808153EA0124401259
B0826454624621N00808152EA0124401258
B0826464624617N00808150EA0124301257
B0826474624613N00808148EA0124101255
B0826484624608N00808146EA0123901253
B0826494624603N00808143EA0123701251
B0826504624599N00808141EA0123701251
B0826514624595N00808138EA0123801252
B0826524624591N00808136EA0123701251
B0826534624588N00808135EA0123501249
B0826544624584N00808135EA0123201246
B0826554624579N00808135EA0122801242
B0826564624574N00808133EA0122701241
B0826574624569N00808131EA0122701241
B0826584624565N00808128EA0122701242
B0826594624562N00808125EA0122801242
B0827004624559N00808123EA0122701241
B0827014624554N00808122EA0122501240
B0827024624550N00808121EA0122401238
B0827034624546N00808121EA0122301237
B0827044624542N00808120EA0122301237
B0827054624539N00808119EA0122201236
B0827064624536N00808118EA0122101235
B0827074624532N00808117EA0121801232
B0827084624529N00808116EA0121601230
B0827094624525N00808114EA0121401228
B0827104624521N00808112EA0121201226
B0827114624518N00808110EA0121001224
B0827124624514N00808109EA0120901223
B0827134624511N00808110EA0120701221
B0827144624507N00808112EA0120401219
B0827154624503N00808115EA0120201216
B0827164624500N00808119EA0120101215
B0827174624497N00808123EA0120101215
B0827184624494N00808127EA0120001215
B0827194624492N00808131EA0119901213
B0827204624489N00808137EA0119701211
B0827214624486N00808143EA0119501209
B0827224624484N00808148EA0119501209
B0827234624481N00808154EA0119501209
B0827244624479N00808159EA0119501209
B0827254624477N00808165EA0119401208
B0827264624475N00808171EA0119301207
B0827274624472N00808178EA0119201207
B0827284624470N00808184EA0119201206
B0827294624469N00808191EA0119201206
B0827304624468N00808198EA0119101205
B0827314624467N00808204EA0118901204
B0827324624465N00808210EA0118701202
B0827334624464N00808217EA0118501199
B0827344624464N00808225EA0118201197
B0827354624463N00808234EA0118001195
B0827364624463N00808241EA0117901193
B0827374624463N00808249EA0117801192
B0827384624464N00808256EA0117601190
B0827394624464N00808264EA0117401188
B0827404624466N00808272EA0117201186
B0827414624467N00808281EA0117001184
B0827424624469N00808290EA0116801183
B0827434624471N00808298EA0116801182
B0827444624474N00808305EA0116701181
B0827454624476N00808312EA0116501179
B0827464624479N00808320EA0116501179
B0827474624481N00808328EA0116401178
B0827484624484N00808335EA0116201176
B0827494624487N00808341EA0116101175
B0827504624491N00808347EA0115801172
B0827514624496N00808354EA0115601170
B0827524624500N00808360EA0115401168
B0827534624505N00808365EA0115301167
B0827544624509N00808371EA0115301167
B0827554624514N00808376EA0115101165
B0827564624518N00808382EA0114801163
B0827574624522N00808387EA0114701161
B0827584624527N00808392EA0114501159
B0827594624532N00808396EA0114201157
B0828004624537N00808399EA0114001154
B0828014624543N00808402EA0113801152
B0828024624548N00808404EA0113701151
B0828034624553N00808407EA0113601150
B0828044624558N00808408EA0113401148
B0828054624563N00808410EA0113301147
B0828064624568N00808411EA0113201146
B0828074624573N00808414EA0113001144
B0828084624578N00808416EA0112801142
B0828094624584N00808418EA0112601140
B0828104624590N00808418EA0112601140
B0828114624596N00808418EA0112701141
B0828124624601N00808417EA0112801142
B0828134624605N00808417EA0112901143
B0828144624609N00808417EA0112801142
B0828154624614N00808414EA0112601140
B0828164624619N00808411EA0112401138
B0828174624624N00808407EA0112201136
B0828184624628N00808402EA0112101135
B0828194624632N00808396EA0112101135
B0828204624635N00808390EA0112001134
B0828214624638N00808385EA0111801132
B0828224624640N00808379EA0111701131
B0828234624641N00808372EA0111501129
B0828244624641N00808366EA0111401128
B0828254624641N00808360EA0111301128
B0828264624639N00808355EA0111201126
B0828274624637N00808350EA0110901123
B0828284624634N00808345EA0110801122
B0828294624632N00808339EA0110701121
B0828304624631N00808333EA0110601120
B0828314624630N00808328EA0110501119
B0828324624629N00808322EA0110401118
B0828334624628N00808316EA0110401118
B0828344624627N00808310EA0110201116
B0828354624626N00808305EA0110201116
B0828364624625N00808299EA0110101115
B0828374624624N00808294EA0110101115
B0828384624623N00808289EA0110101115
B0828394624622N00808285EA0110001114
B0828404624620N00808282EA0109901113
B0828414624617N00808279EA0109701111
B0828424624613N00808276EA0109601110
B0828434624610N00808273EA0109601110
B0828444624608N00808269EA0109501109
B0828454624606N00808265EA0109401109
B0828464624605N00808261EA0109301107
B0828474624602N00808259EA0109101105
B0828484624598N00808259EA0108701101
B0828494624593N00808261EA0108501099
B0828504624589N00808261EA0108301097
B0828514624585N00808260EA0108101095
B0828524624582N00808257EA0107901094
B0828534624578N00808253EA0107801093
B0828544624575N00808248EA0107801092
B0828554624572N00808245EA0107801092
B0828564624569N00808243EA0107701091
B0828574624565N00808242EA0107501089
B0828584624562N00808239EA0107301087
B0828594624559N00808236EA0107201086
B0829004624558N00808233EA0107301088
B0829014624556N00808232EA0107401088
B0829024624556N00808231EA0107301087
B0829034624555N00808231EA0107301087
B0829044624554N00808231EA0107401088
B0829054624555N00808231EA0107401088
B0829064624555N00808231EA0107401088
B0829074624555N00808231EA0107401088
B0829084624555N00808231EA0107401088
B0829094624554N00808231EA0107401088
B0829104624554N00808231EA0107401088
B0829114624555N00808231EA0107401088
B0829124624554N00808231EA0107401088
B0829134624554N00808231EA0107401088
B0829144624554N00808231EA0107401088
B0829154624554N00808231EA0107401088
B0829164624554N00808231EA0107401088
B0829174624553N00808231EA0107401088
B0829184624553N00808231EA0107401088
B0829194624552N00808231EA0107401088
B0829204624552N00808231EA0107401088
B0829214624553N00808233EA0107401088
B0829224624553N00808233EA0107401088
B0829234624554N00808233EA0107401088
B0829244624553N00808232EA0107401088
B0829254624552N00808232EA0107401088
B0829264624552N00808232EA0107401088
B0829274624552N00808232EA0107401088
B0829284624551N00808232EA0107401088
B0829294624551N00808232EA0107401088
B0829304624550N00808231EA0107401088
B0829314624549N00808231EA0107401088
B0829324624548N00808231EA0107401088
B0829334624548N00808230EA0107401088
B0829344624548N00808230EA0107401088
B0829354624546N00808231EA0107401088
B0829364624546N00808230EA0107401088
B0829374624546N00808231EA0107401088
B0829384624545N00808231EA0107401088
B0829394624546N00808229EA0107401088
B0829404624546N00808229EA0107401088
B0829414624546N00808228EA0107401088
B0829424624545N00808228EA0107401088
B0829434624546N00808228EA0107401088
B0829444624547N00808228EA0107401088
B0829454624547N00808227EA0107401088
B0829464624547N00808226EA0107401088
B0829474624548N00808226EA0107401088
B0829484624548N00808226EA0107401088
B0829494624549N00808225EA0107401088
B0829504624549N00808224EA0107401088
B0829514624548N00808223EA0107401088
B0829524624548N00808223EA0107401088
B0829534624549N00808222EA0107401088
B0829544624549N00808222EA0107401088
B0829554624549N00808221EA0107401088
B0829564624549N00808220EA0107401088
B0829574624549N00808219EA0107401088
B0829584624549N00808219EA0107401088
B0829594624550N00808219EA0107401088
B0830004624550N00808219EA0107401088
B0830014624550N00808219EA0107401088
B0830024624551N00808219EA0107401088
B0830034624551N00808218EA0107401088
B0830044624551N00808218EA0107401088
B0830054624551N00808217EA0107401088
B0830064624551N00808217EA0107401088
B0830074624551N00808216EA0107401088
B0830084624551N00808216EA0107401088
B0830094624551N00808215EA0107401088
B0830104624551N00808217EA0107401088
B0830114624551N00808217EA0107401088
B0830124624551N00808217EA0107401088
B0830134624551N00808217EA0107401088
B0830144624551N00808216EA0107401088
B0830154624552N00808216EA0107401088
B0830164624552N00808216EA0107401088
B0830174624552N00808216EA0107401088
B0830184624552N00808216EA0107401088
B0830194624553N00808216EA0107401088
B0830204624553N00808216EA0107401088
B0830214624553N00808215EA0107401088
B0830224624553N00808215EA0107401088
B0830234624553N00808214EA0107401088
B0830244624553N00808214EA0107401088
B0830254624553N00808214EA0107401088
B0830264624552N00808214EA0107401088
B0830274624552N00808214EA0107401088
B0830284624552N00808214EA0107401088
B0830294624552N00808213EA0107401088
B0830304624552N00808213EA0107401088
B0830314624552N00808213EA0107401088
B0830324624552N00808213EA0107401088
B0830334624552N00808213EA0107401088
B0830344624551N00808213EA0107401088
B0830354624551N00808212EA0107401088
B0830364624551N00808212EA0107401088
B0830374624551N00808212EA0107401088
B0830384624551N00808212EA0107401088
B0830394624551N00808212EA0107401088
B0830404624551N00808212EA0107401088
B0830414624551N00808212EA0107401088
B0830424624551N00808212EA0107401088
B0830434624551N00808212EA0107401088
B0830444624551N00808212EA0107401088
B0830454624551N00808212EA0107401088
B0830464624551N00808212EA0107401088
B0830474624551N00808211EA0107401088
B0830484624551N00808211EA0107401088
B0830494624551N00808211EA0107401088
B0830504624551N00808210EA0107401088
B0830514624551N00808210EA0107401088
B0830524624551N00808209EA0107401088
B0830534624551N00808209EA0107401088
B0830544624551N00808208EA0107401088
B0830554624551N00808208EA0107401088
B0830564624551N00808208EA0107401088
B0830574624551N00808208EA0107401088
B0830584624551N00808208EA0107401088
B0830594624551N00808207EA0107401088
B0831004624551N00808207EA0107301088
B0831014624550N00808207EA0107301087
B0831024624551N00808207EA0107301087
B0831034624551N00808207EA0107301087
LXSX;GF:3.2
G19623D1AFF4A72D3031BC155D7FD4074
