AXSX003 SKYTRAXX V3.0.16c SN:00000380
HFPLTPILOT:Sepp Bucher
HFGTYGLIDERTYPE:Advance Sigma10
HFDTM100GPSDATUM:WGS-84
HFCIDCOMPETITIONID:0000
HFCCLCOMPETITION CLASS:Paraglider (Standard)
HFSITSITE:UNKNOWN
HFDTE020920
B0947204624861N00806470EA0209302141
B0947214624861N00806470EA0209302141
B0947224624862N00806470EA0209302141
B0947234624862N00806470EA0209302141
B0947244624862N00806470EA0209302141
B0947254624862N00806470EA0209302141
B0947264624861N00806471EA0209302141
B0947274624861N00806471EA0209302141
B0947284624861N00806472EA0209202140
B0947294624861N00806472EA0209202140
B0947304624861N00806471EA0209202140
B0947314624860N00806471EA0209102139
B0947324624859N00806469EA0209002138
B0947334624857N00806467EA0208802137
B0947344624855N00806467EA0208602136
B0947354624853N00806469EA0208502136
B0947364624851N00806471EA0208602136
B0947374624846N00806473EA0208602136
B0947384624841N00806475EA0208602136
B0947394624838N00806474EA0208602137
B0947404624835N00806474EA0208802138
B0947414624832N00806473EA0208702137
B0947424624830N00806473EA0208602137
B0947434624827N00806474EA0208602136
B0947444624824N00806475EA0208502136
B0947454624822N00806478EA0208502135
B0947464624821N00806481EA0208602136
B0947474624819N00806484EA0208602136
B0947484624818N00806487EA0208502136
B0947494624817N00806490EA0208402135
B0947504624815N00806493EA0208402134
B0947514624814N00806497EA0208302134
B0947524624811N00806500EA0208302134
B0947534624810N00806504EA0208402134
B0947544624809N00806508EA0208402134
B0947554624809N00806514EA0208302134
B0947564624808N00806519EA0208402134
B0947574624807N00806524EA0208402135
B0947584624807N00806529EA0208502135
B0947594624807N00806534EA0208602137
B0948004624808N00806539EA0208802138
B0948014624809N00806543EA0208802139
B0948024624812N00806548EA0208802139
B0948034624815N00806553EA0208802139
B0948044624817N00806558EA0208802138
B0948054624819N00806564EA0208802138
B0948064624820N00806570EA0208802139
B0948074624820N00806576EA0208802138
B0948084624820N00806581EA0208802138
B0948094624820N00806586EA0208802139
B0948104624822N00806591EA0208802139
B0948114624824N00806598EA0208802139
B0948124624826N00806603EA0208902140
B0948134624828N00806608EA0208802139
B0948144624829N00806613EA0208802139
B0948154624829N00806618EA0208602137
B0948164624829N00806624EA0208302134
B0948174624828N00806630EA0208102132
B0948184624826N00806637EA0208002131
B0948194624823N00806642EA0207802129
B0948204624820N00806647EA0207902130
B0948214624818N00806651EA0208102131
B0948224624817N00806655EA0208002131
B0948234624815N00806659EA0208002130
B0948244624812N00806664EA0207902130
B0948254624810N00806669EA0207802129
B0948264624809N00806674EA0207902129
B0948274624807N00806678EA0208002130
B0948284624805N00806682EA0208102131
B0948294624803N00806684EA0208102131
B0948304624800N00806686EA0208002131
B0948314624797N00806688EA0207902130
B0948324624795N00806690EA0207802129
B0948334624792N00806693EA0207702128
B0948344624790N00806695EA0207602127
B0948354624787N00806699EA0207502126
B0948364624785N00806703EA0207502125
B0948374624784N00806708EA0207402125
B0948384624783N00806713EA0207402125
B0948394624782N00806718EA0207402125
B0948404624781N00806723EA0207302124
B0948414624781N00806728EA0207202123
B0948424624782N00806734EA0207002121
B0948434624783N00806742EA0206902120
B0948444624786N00806749EA0206902120
B0948454624789N00806756EA0206802119
B0948464624791N00806761EA0206802119
B0948474624793N00806766EA0206802118
B0948484624797N00806771EA0206702117
B0948494624801N00806778EA0206502116
B0948504624807N00806784EA0206502115
B0948514624813N00806790EA0206702118
B0948524624819N00806795EA0207302124
B0948534624825N00806798EA0207902129
B0948544624829N00806800EA0208202133
B0948554624834N00806801EA0208302134
B0948564624840N00806802EA0208402134
B0948574624847N00806805EA0208502135
B0948584624852N00806810EA0208602137
B0948594624857N00806816EA0208902139
B0949004624859N00806823EA0209002141
B0949014624858N00806829EA0209002141
B0949024624856N00806834EA0209102141
B0949034624854N00806837EA0209102142
B0949044624850N00806837EA0209002141
B0949054624846N00806833EA0208902140
B0949064624843N00806825EA0208902140
B0949074624843N00806815EA0209102142
B0949084624845N00806805EA0209402145
B0949094624849N00806795EA0209902149
B0949104624855N00806788EA0210102151
B0949114624861N00806782EA0210402154
B0949124624869N00806779EA0210502155
B0949134624876N00806781EA0210402155
B0949144624883N00806786EA0210502155
B0949154624887N00806793EA0210602156
B0949164624888N00806801EA0210802158
B0949174624887N00806807EA0210802159
B0949184624883N00806810EA0210902160
B0949194624879N00806809EA0211002161
B0949204624876N00806803EA0211202163
B0949214624874N00806795EA0211602167
B0949224624874N00806786EA0212102171
B0949234624878N00806778EA0212302174
B0949244624885N00806772EA0212402175
B0949254624893N00806769EA0212602177
B0949264624900N00806769EA0212902180
B0949274624907N00806773EA0213202183
B0949284624912N00806778EA0213502186
B0949294624916N00806784EA0213902189
B0949304624917N00806790EA0214002191
B0949314624918N00806796EA0214002191
B0949324624918N00806802EA0214102192
B0949334624917N00806807EA0214102191
B0949344624913N00806810EA0214002190
B0949354624909N00806810EA0213902190
B0949364624904N00806806EA0213802189
B0949374624902N00806799EA0213702187
B0949384624902N00806790EA0213702188
B0949394624903N00806780EA0213902190
B0949404624907N00806770EA0214102192
B0949414624913N00806762EA0214402195
B0949424624921N00806757EA0214802198
B0949434624929N00806757EA0215102201
B0949444624937N00806759EA0215302204
B0949454624943N00806764EA0215602207
B0949464624949N00806769EA0216002211
B0949474624954N00806774EA0216402214
B0949484624957N00806779EA0216602217
B0949494624958N00806785EA0216802218
B0949504624958N00806790EA0216702218
B0949514624955N00806795EA0216802218
B0949524624951N00806799EA0216802219
B0949534624946N00806802EA0216802219
B0949544624941N00806803EA0217002221
B0949554624937N00806802EA0217302223
B0949564624934N00806800EA0217402224
B0949574624931N00806797EA0217402225
B0949584624929N00806793EA0217502225
B0949594624927N00806787EA0217602226
B0950004624926N00806779EA0217602227
B0950014624925N00806770EA0217702227
B0950024624926N00806760EA0217902229
B0950034624927N00806751EA0218102232
B0950044624930N00806742EA0218302234
B0950054624934N00806735EA0218602237
B0950064624940N00806729EA0218802239
B0950074624946N00806727EA0218902240
B0950084624953N00806727EA0219002240
B0950094624959N00806731EA0219102242
B0950104624964N00806737EA0219602246
B0950114624967N00806743EA0219802249
B0950124624969N00806749EA0220102252
B0950134624970N00806753EA0220402255
B0950144624970N00806758EA0220502256
B0950154624969N00806765EA0220602257
B0950164624969N00806773EA0220802259
B0950174624969N00806782EA0221002261
B0950184624969N00806789EA0221302264
B0950194624969N00806796EA0221702268
B0950204624970N00806802EA0222002270
B0950214624971N00806808EA0222202273
B0950224624972N00806816EA0222502276
B0950234624972N00806824EA0223102281
B0950244624972N00806830EA0223602287
B0950254624972N00806835EA0224102292
B0950264624972N00806840EA0224502295
B0950274624972N00806846EA0224702297
B0950284624971N00806854EA0224802299
B0950294624972N00806862EA0224902299
B0950304624975N00806871EA0225102302
B0950314624978N00806879EA0225302304
B0950324624982N00806886EA0225502306
B0950334624984N00806894EA0225702308
B0950344624986N00806901EA0225802309
B0950354624987N00806909EA0225902309
B0950364624989N00806916EA0225902309
B0950374624992N00806924EA0225802309
B0950384624995N00806931EA0225802308
B0950394624998N00806938EA0225702307
B0950404625001N00806946EA0225602307
B0950414625004N00806953EA0225502305
B0950424625006N00806960EA0225402305
B0950434625010N00806966EA0225202303
B0950444625014N00806973EA0225002300
B0950454625019N00806979EA0224702298
B0950464625023N00806986EA0224602297
B0950474625029N00806992EA0224402295
B0950484625034N00806999EA0224102291
B0950494625039N00807006EA0224002290
B0950504625044N00807013EA0224002290
B0950514625050N00807019EA0223702288
B0950524625055N00807026EA0223702287
B0950534625061N00807032EA0223602287
B0950544625066N00807039EA0223602287
B0950554625070N00807045EA0223602287
B0950564625075N00807051EA0223602287
B0950574625080N00807057EA0223702287
B0950584625086N00807062EA0223802288
B0950594625092N00807066EA0223902290
B0951004625098N00807070EA0224202293
B0951014625103N00807074EA0224302294
B0951024625107N00807079EA0224402294
B0951034625111N00807083EA0224502295
B0951044625115N00807088EA0224502296
B0951054625119N00807094EA0224502296
B0951064625122N00807098EA0224502296
B0951074625126N00807103EA0224502296
B0951084625131N00807108EA0224602296
B0951094625137N00807111EA0224702297
B0951104625142N00807114EA0224802298
B0951114625147N00807116EA0224902300
B0951124625152N00807117EA0224902300
B0951134625157N00807116EA0224902300
B0951144625163N00807115EA0224902300
B0951154625168N00807110EA0224902300
B0951164625172N00807103EA0224902300
B0951174625174N00807094EA0224902299
B0951184625173N00807085EA0224802299
B0951194625169N00807078EA0224902299
B0951204625165N00807073EA0225002300
B0951214625161N00807071EA0225102301
B0951224625156N00807071EA0225102302
B0951234625153N00807073EA0225102302
B0951244625149N00807077EA0225102302
B0951254625147N00807082EA0225102302
B0951264625147N00807089EA0225102301
B0951274625147N00807095EA0225102302
B0951284625149N00807101EA0225202303
B0951294625152N00807106EA0225302303
B0951304625156N00807111EA0225402304
B0951314625159N00807115EA0225402305
B0951324625161N00807120EA0225402305
B0951334625161N00807126EA0225402305
B0951344625160N00807131EA0225302304
B0951354625157N00807135EA0225202303
B0951364625153N00807138EA0225202303
B0951374625149N00807139EA0225302304
B0951384625145N00807138EA0225402304
B0951394625141N00807136EA0225402304
B0951404625137N00807132EA0225402305
B0951414625134N00807126EA0225302304
B0951424625132N00807119EA0225202303
B0951434625131N00807111EA0225202303
B0951444625130N00807103EA0225302303
B0951454625130N00807095EA0225302304
B0951464625132N00807087EA0225402304
B0951474625134N00807079EA0225502306
B0951484625138N00807072EA0225602307
B0951494625144N00807068EA0225602307
B0951504625150N00807066EA0225702307
B0951514625156N00807067EA0225702308
B0951524625162N00807070EA0225902309
B0951534625166N00807075EA0226002311
B0951544625167N00807081EA0226102311
B0951554625169N00807086EA0226102311
B0951564625167N00807092EA0226102311
B0951574625165N00807097EA0226002310
B0951584625161N00807101EA0225902310
B0951594625157N00807102EA0226002310
B0952004625152N00807100EA0226002311
B0952014625148N00807096EA0226102311
B0952024625145N00807092EA0226102312
B0952034625143N00807086EA0226102312
B0952044625142N00807079EA0226102312
B0952054625141N00807071EA0226102312
B0952064625143N00807063EA0226102312
B0952074625145N00807055EA0226102312
B0952084625149N00807048EA0226202313
B0952094625153N00807042EA0226202313
B0952104625159N00807038EA0226302313
B0952114625165N00807035EA0226302314
B0952124625170N00807034EA0226402314
B0952134625176N00807035EA0226402315
B0952144625181N00807037EA0226502316
B0952154625185N00807041EA0226502316
B0952164625188N00807047EA0226502316
B0952174625189N00807052EA0226502316
B0952184625190N00807058EA0226502315
B0952194625189N00807064EA0226402315
B0952204625186N00807069EA0226402314
B0952214625182N00807073EA0226302314
B0952224625177N00807074EA0226402314
B0952234625172N00807073EA0226502316
B0952244625169N00807070EA0226602316
B0952254625165N00807066EA0226502316
B0952264625162N00807060EA0226502316
B0952274625159N00807055EA0226602316
B0952284625157N00807048EA0226502316
B0952294625155N00807041EA0226602317
B0952304625154N00807033EA0226602317
B0952314625154N00807025EA0226702317
B0952324625156N00807016EA0226702317
B0952334625158N00807008EA0226702318
B0952344625160N00807001EA0226802318
B0952354625164N00806994EA0226802319
B0952364625169N00806990EA0226702318
B0952374625175N00806987EA0226702318
B0952384625181N00806986EA0226702318
B0952394625185N00806988EA0226802319
B0952404625189N00806991EA0226902320
B0952414625192N00806995EA0226902320
B0952424625195N00806998EA0226802319
B0952434625198N00807002EA0226702318
B0952444625201N00807007EA0226502316
B0952454625205N00807013EA0226402314
B0952464625207N00807020EA0226202313
B0952474625210N00807027EA0226202313
B0952484625211N00807033EA0226202313
B0952494625213N00807040EA0226202312
B0952504625214N00807047EA0226102312
B0952514625216N00807053EA0226002310
B0952524625219N00807060EA0225902309
B0952534625222N00807067EA0225802308
B0952544625225N00807073EA0225702308
B0952554625228N00807079EA0225702308
B0952564625230N00807085EA0225702307
B0952574625232N00807091EA0225602307
B0952584625235N00807096EA0225502305
B0952594625238N00807102EA0225402304
B0953004625241N00807108EA0225302303
B0953014625243N00807115EA0225202303
B0953024625245N00807122EA0225202303
B0953034625247N00807129EA0225202303
B0953044625249N00807135EA0225202303
B0953054625250N00807141EA0225202303
B0953064625253N00807147EA0225102302
B0953074625256N00807152EA0225002301
B0953084625259N00807158EA0224902300
B0953094625262N00807164EA0224802299
B0953104625265N00807171EA0224802299
B0953114625268N00807178EA0224702298
B0953124625271N00807184EA0224702298
B0953134625274N00807190EA0224702298
B0953144625277N00807196EA0224602296
B0953154625280N00807202EA0224402295
B0953164625283N00807208EA0224202293
B0953174625286N00807215EA0224002291
B0953184625290N00807221EA0223802289
B0953194625294N00807227EA0223702287
B0953204625297N00807233EA0223502285
B0953214625302N00807238EA0223302284
B0953224625307N00807244EA0223202283
B0953234625311N00807249EA0223202282
B0953244625316N00807255EA0223102282
B0953254625321N00807260EA0223102281
B0953264625326N00807266EA0223102282
B0953274625331N00807273EA0223302283
B0953284625335N00807278EA0223602286
B0953294625339N00807282EA0223802289
B0953304625343N00807286EA0223902290
B0953314625346N00807289EA0224202292
B0953324625350N00807291EA0224302294
B0953334625353N00807294EA0224402295
B0953344625357N00807296EA0224702298
B0953354625361N00807298EA0225002301
B0953364625364N00807300EA0225302304
B0953374625368N00807302EA0225502305
B0953384625371N00807304EA0225602306
B0953394625375N00807309EA0225702308
B0953404625377N00807316EA0225802308
B0953414625378N00807324EA0226002310
B0953424625378N00807331EA0226102312
B0953434625375N00807337EA0226302314
B0953444625370N00807341EA0226502315
B0953454625364N00807340EA0226502316
B0953464625359N00807336EA0226702317
B0953474625356N00807329EA0226802319
B0953484625353N00807321EA0227002321
B0953494625353N00807313EA0227102322
B0953504625356N00807305EA0227202323
B0953514625361N00807299EA0227302324
B0953524625367N00807298EA0227402325
B0953534625372N00807300EA0227602327
B0953544625376N00807306EA0227802329
B0953554625378N00807314EA0227802329
B0953564625378N00807324EA0228002330
B0953574625378N00807332EA0228302334
B0953584625376N00807340EA0228502336
B0953594625375N00807347EA0228602337
B0954004625374N00807353EA0228802338
B0954014625372N00807358EA0228702338
B0954024625371N00807365EA0228602337
B0954034625369N00807372EA0228402334
B0954044625368N00807379EA0228302334
B0954054625366N00807388EA0228302334
B0954064625365N00807395EA0228402335
B0954074625364N00807401EA0228402334
B0954084625363N00807407EA0228202332
B0954094625362N00807414EA0227902330
B0954104625361N00807422EA0227702328
B0954114625359N00807430EA0227702327
B0954124625359N00807438EA0227702328
B0954134625358N00807445EA0227802329
B0954144625359N00807452EA0227902330
B0954154625359N00807460EA0227902330
B0954164625359N00807467EA0228002331
B0954174625358N00807474EA0228102332
B0954184625358N00807481EA0228302334
B0954194625359N00807487EA0228402335
B0954204625360N00807494EA0228402335
B0954214625361N00807500EA0228502335
B0954224625363N00807507EA0228402335
B0954234625365N00807514EA0228502335
B0954244625367N00807521EA0228702338
B0954254625369N00807528EA0228902340
B0954264625369N00807534EA0229002341
B0954274625369N00807540EA0229102342
B0954284625367N00807547EA0229102342
B0954294625367N00807554EA0229202343
B0954304625366N00807561EA0229402344
B0954314625366N00807568EA0229502345
B0954324625366N00807575EA0229502346
B0954334625365N00807582EA0229702347
B0954344625364N00807589EA0229802349
B0954354625364N00807595EA0230002351
B0954364625365N00807601EA0230102351
B0954374625366N00807606EA0230002350
B0954384625368N00807611EA0229902349
B0954394625372N00807617EA0229602347
B0954404625375N00807624EA0229502346
B0954414625379N00807630EA0229502346
B0954424625382N00807636EA0229802348
B0954434625384N00807642EA0229902350
B0954444625387N00807646EA0229802349
B0954454625389N00807651EA0229502346
B0954464625393N00807656EA0229202343
B0954474625397N00807661EA0228902339
B0954484625402N00807666EA0228602337
B0954494625407N00807671EA0228402335
B0954504625412N00807676EA0228302334
B0954514625416N00807681EA0228302334
B0954524625419N00807686EA0228202332
B0954534625423N00807690EA0228002331
B0954544625428N00807696EA0227702328
B0954554625432N00807702EA0227502326
B0954564625437N00807709EA0227402325
B0954574625441N00807715EA0227402325
B0954584625445N00807720EA0227402325
B0954594625450N00807726EA0227402325
B0955004625454N00807732EA0227302323
B0955014625458N00807738EA0227102322
B0955024625462N00807745EA0226902320
B0955034625465N00807752EA0226702318
B0955044625468N00807759EA0226602317
B0955054625472N00807766EA0226602317
B0955064625476N00807773EA0226402315
B0955074625480N00807780EA0226302314
B0955084625483N00807787EA0226202313
B0955094625487N00807794EA0226202313
B0955104625491N00807801EA0226202312
B0955114625496N00807808EA0226102312
B0955124625499N00807814EA0225902310
B0955134625503N00807821EA0225702308
B0955144625506N00807828EA0225502305
B0955154625509N00807837EA0225302304
B0955164625513N00807845EA0225202303
B0955174625517N00807853EA0225202303
B0955184625521N00807860EA0225302304
B0955194625525N00807867EA0225402304
B0955204625529N00807874EA0225302304
B0955214625532N00807881EA0225202303
B0955224625535N00807889EA0225202303
B0955234625537N00807896EA0225102302
B0955244625540N00807903EA0225002300
B0955254625542N00807910EA0224702298
B0955264625543N00807917EA0224402294
B0955274625546N00807925EA0224002291
B0955284625548N00807934EA0223702288
B0955294625550N00807943EA0223502286
B0955304625553N00807951EA0223402285
B0955314625556N00807959EA0223102281
B0955324625559N00807967EA0222702277
B0955334625562N00807976EA0222202273
B0955344625566N00807987EA0221802269
B0955354625570N00807997EA0221602267
B0955364625574N00808007EA0221602266
B0955374625578N00808016EA0221502266
B0955384625581N00808024EA0221402265
B0955394625584N00808032EA0221102262
B0955404625587N00808042EA0220902260
B0955414625590N00808051EA0220702258
B0955424625594N00808060EA0220602257
B0955434625597N00808070EA0220602257
B0955444625600N00808078EA0220502255
B0955454625602N00808088EA0220202253
B0955464625604N00808097EA0220002251
B0955474625608N00808107EA0219702248
B0955484625610N00808117EA0219502245
B0955494625614N00808127EA0219402244
B0955504625617N00808136EA0219302244
B0955514625621N00808145EA0219102242
B0955524625624N00808154EA0219002241
B0955534625628N00808163EA0218802239
B0955544625632N00808172EA0218702237
B0955554625636N00808181EA0218502235
B0955564625640N00808190EA0218402235
B0955574625643N00808200EA0218302234
B0955584625648N00808209EA0218202232
B0955594625652N00808218EA0218102231
B0956004625656N00808227EA0218002230
B0956014625659N00808236EA0217802229
B0956024625663N00808246EA0217602227
B0956034625666N00808255EA0217502225
B0956044625669N00808265EA0217302224
B0956054625673N00808274EA0217202223
B0956064625676N00808284EA0217102222
B0956074625679N00808293EA0217002220
B0956084625683N00808302EA0216802219
B0956094625686N00808312EA0216602217
B0956104625689N00808322EA0216502216
B0956114625692N00808332EA0216402215
B0956124625695N00808341EA0216302214
B0956134625698N00808351EA0216202213
B0956144625702N00808360EA0216102211
B0956154625705N00808370EA0215902210
B0956164625708N00808379EA0215802208
B0956174625712N00808389EA0215602207
B0956184625715N00808399EA0215502206
B0956194625719N00808408EA0215402205
B0956204625723N00808418EA0215302204
B0956214625726N00808428EA0215202203
B0956224625730N00808437EA0215102202
B0956234625733N00808447EA0215002201
B0956244625736N00808457EA0215002200
B0956254625739N00808467EA0214902199
B0956264625742N00808476EA0214802198
B0956274625746N00808486EA0214702197
B0956284625749N00808496EA0214602196
B0956294625751N00808506EA0214502195
B0956304625754N00808516EA0214402195
B0956314625757N00808525EA0214302194
B0956324625760N00808534EA0214202193
B0956334625764N00808544EA0214102192
B0956344625767N00808553EA0213902190
B0956354625770N00808563EA0213802188
B0956364625773N00808572EA0213702187
B0956374625776N00808582EA0213602187
B0956384625780N00808591EA0213502186
B0956394625783N00808600EA0213402185
B0956404625786N00808609EA0213302184
B0956414625789N00808618EA0213202183
B0956424625792N00808627EA0213102182
B0956434625796N00808635EA0213202182
B0956444625799N00808643EA0213102182
B0956454625802N00808651EA0213002180
B0956464625806N00808659EA0212802178
B0956474625809N00808668EA0212602176
B0956484625813N00808677EA0212402175
B0956494625816N00808685EA0212302173
B0956504625820N00808694EA0212202172
B0956514625823N00808703EA0212102171
B0956524625825N00808712EA0211902170
B0956534625828N00808721EA0211802169
B0956544625830N00808729EA0211602167
B0956554625833N00808739EA0211502165
B0956564625836N00808748EA0211302164
B0956574625839N00808757EA0211202163
B0956584625841N00808766EA0211102162
B0956594625843N00808775EA0211102161
B0957004625845N00808784EA0211002160
B0957014625847N00808792EA0210802159
B0957024625850N00808801EA0210602157
B0957034625852N00808810EA0210502155
B0957044625855N00808819EA0210302154
B0957054625857N00808829EA0210202153
B0957064625859N00808838EA0210102152
B0957074625861N00808847EA0210002151
B0957084625863N00808856EA0209902150
B0957094625865N00808864EA0209802149
B0957104625868N00808873EA0209702147
B0957114625871N00808882EA0209502146
B0957124625873N00808891EA0209302144
B0957134625875N00808900EA0209302143
B0957144625878N00808910EA0209102142
B0957154625880N00808919EA0209002141
B0957164625883N00808928EA0208902140
B0957174625886N00808937EA0208902139
B0957184625889N00808945EA0208802138
B0957194625891N00808954EA0208602137
B0957204625894N00808963EA0208502136
B0957214625896N00808972EA0208402134
B0957224625899N00808981EA0208302134
B0957234625902N00808990EA0208202132
B0957244625904N00808999EA0208102131
B0957254625907N00809007EA0207902130
B0957264625910N00809016EA0207802129
B0957274625913N00809025EA0207702128
B0957284625916N00809034EA0207602126
B0957294625918N00809043EA0207402125
B0957304625921N00809052EA0207402124
B0957314625924N00809061EA0207202123
B0957324625926N00809070EA0207102122
B0957334625929N00809078EA0207002120
B0957344625933N00809087EA0206802119
B0957354625936N00809096EA0206702118
B0957364625939N00809105EA0206702118
B0957374625942N00809113EA0206602116
B0957384625945N00809122EA0206402115
B0957394625949N00809131EA0206302113
B0957404625952N00809140EA0206202112
B0957414625955N00809149EA0206102111
B0957424625957N00809158EA0206002111
B0957434625960N00809167EA0205902109
B0957444625963N00809175EA0205702108
B0957454625966N00809185EA0205602106
B0957464625968N00809194EA0205402105
B0957474625971N00809203EA0205302103
B0957484625974N00809212EA0205102102
B0957494625976N00809221EA0205002101
B0957504625979N00809230EA0204802099
B0957514625982N00809239EA0204702097
B0957524625984N00809248EA0204502095
B0957534625986N00809258EA0204302094
B0957544625988N00809267EA0204202093
B0957554625990N00809276EA0204102092
B0957564625993N00809285EA0204002090
B0957574625995N00809294EA0203802088
B0957584625998N00809303EA0203602086
B0957594626000N00809313EA0203402085
B0958004626002N00809322EA0203302084
B0958014626005N00809330EA0203202082
B0958024626008N00809339EA0203002081
B0958034626010N00809348EA0202802079
B0958044626013N00809357EA0202602077
B0958054626016N00809366EA0202502076
B0958064626019N00809375EA0202402074
B0958074626022N00809384EA0202202073
B0958084626024N00809393EA0202102072
B0958094626026N00809401EA0202002070
B0958104626029N00809410EA0201802069
B0958114626031N00809419EA0201702067
B0958124626033N00809429EA0201502066
B0958134626035N00809438EA0201402065
B0958144626038N00809447EA0201302063
B0958154626040N00809456EA0201202062
B0958164626043N00809465EA0201002061
B0958174626045N00809475EA0200902060
B0958184626048N00809484EA0200802059
B0958194626050N00809493EA0200702057
B0958204626053N00809502EA0200502056
B0958214626056N00809512EA0200402054
B0958224626059N00809521EA0200202053
B0958234626061N00809531EA0200002051
B0958244626063N00809540EA0199902050
B0958254626066N00809550EA0199802049
B0958264626068N00809559EA0199702048
B0958274626071N00809568EA0199602046
B0958284626074N00809578EA0199402045
B0958294626077N00809587EA0199302044
B0958304626079N00809596EA0199202042
B0958314626082N00809606EA0199002040
B0958324626085N00809615EA0198802039
B0958334626088N00809624EA0198602036
B0958344626090N00809634EA0198402035
B0958354626093N00809644EA0198302033
B0958364626095N00809655EA0198102032
B0958374626098N00809664EA0198002031
B0958384626101N00809674EA0197902030
B0958394626104N00809683EA0197802029
B0958404626106N00809693EA0197602027
B0958414626108N00809703EA0197502025
B0958424626110N00809713EA0197302024
B0958434626113N00809723EA0197102022
B0958444626115N00809733EA0196902020
B0958454626118N00809743EA0196802019
B0958464626120N00809753EA0196702018
B0958474626122N00809762EA0196602017
B0958484626125N00809772EA0196402015
B0958494626127N00809781EA0196302014
B0958504626129N00809791EA0196102012
B0958514626131N00809801EA0196002011
B0958524626133N00809810EA0195902009
B0958534626136N00809820EA0195702008
B0958544626138N00809830EA0195502006
B0958554626140N00809839EA0195402004
B0958564626141N00809849EA0195202003
B0958574626143N00809858EA0195002001
B0958584626144N00809868EA0194801998
B0958594626146N00809878EA0194501996
B0959004626147N00809889EA0194301994
B0959014626147N00809900EA0194301993
B0959024626148N00809910EA0194101992
B0959034626149N00809920EA0194001990
B0959044626149N00809930EA0193801989
B0959054626150N00809940EA0193601987
B0959064626150N00809951EA0193401985
B0959074626150N00809961EA0193201983
B0959084626151N00809972EA0193101981
B0959094626152N00809983EA0193001981
B0959104626154N00809993EA0192901979
B0959114626155N00810002EA0192701978
B0959124626156N00810012EA0192501976
B0959134626158N00810022EA0192201973
B0959144626159N00810033EA0192001971
B0959154626161N00810044EA0191901969
B0959164626163N00810054EA0191701968
B0959174626164N00810064EA0191601967
B0959184626165N00810074EA0191501966
B0959194626166N00810084EA0191301964
B0959204626167N00810094EA0191001961
B0959214626169N00810104EA0190801958
B0959224626170N00810114EA0190601956
B0959234626172N00810125EA0190401954
B0959244626173N00810135EA0190101952
B0959254626175N00810145EA0189901949
B0959264626176N00810155EA0189601947
B0959274626178N00810166EA0189401945
B0959284626180N00810177EA0189201943
B0959294626181N00810187EA0189101941
B0959304626183N00810196EA0188901940
B0959314626184N00810206EA0188601937
B0959324626185N00810216EA0188301934
B0959334626187N00810227EA0188001931
B0959344626187N00810238EA0187801929
B0959354626188N00810248EA0187701927
B0959364626189N00810258EA0187501926
B0959374626189N00810269EA0187301924
B0959384626190N00810279EA0187101922
B0959394626192N00810289EA0186801919
B0959404626194N00810300EA0186501916
B0959414626196N00810310EA0186301914
B0959424626198N00810320EA0186201913
B0959434626199N00810330EA0186101912
B0959444626201N00810340EA0186001911
B0959454626202N00810350EA0186001910
B0959464626204N00810359EA0185901910
B0959474626206N00810368EA0185801909
B0959484626209N00810377EA0185601906
B0959494626211N00810386EA0185301903
B0959504626212N00810395EA0185001900
B0959514626214N00810405EA0184701898
B0959524626216N00810414EA0184601897
B0959534626219N00810424EA0184701898
B0959544626222N00810434EA0184801899
B0959554626223N00810443EA0184901899
B0959564626225N00810450EA0184901899
B0959574626227N00810458EA0184801898
B0959584626231N00810465EA0184501896
B0959594626236N00810473EA0184301893
B1000004626241N00810481EA0184301894
B1000014626245N00810487EA0184601897
B1000024626249N00810492EA0185001900
B1000034626252N00810496EA0185001901
B1000044626255N00810499EA0184901900
B1000054626258N00810503EA0184601896
B1000064626263N00810508EA0184201893
B1000074626267N00810515EA0183901890
B1000084626272N00810522EA0183801889
B1000094626276N00810529EA0184001891
B1000104626280N00810536EA0184201893
B1000114626283N00810542EA0184401894
B1000124626286N00810547EA0184401895
B1000134626290N00810551EA0184201893
B1000144626293N00810555EA0184001891
B1000154626297N00810561EA0183801889
B1000164626301N00810569EA0183601887
B1000174626305N00810577EA0183601887
B1000184626308N00810584EA0183801889
B1000194626310N00810591EA0183801889
B1000204626312N00810599EA0183701888
B1000214626315N00810608EA0183601887
B1000224626316N00810617EA0183701888
B1000234626318N00810626EA0183701888
B1000244626317N00810634EA0183601886
B1000254626315N00810642EA0183401885
B1000264626312N00810648EA0183201883
B1000274626307N00810653EA0183001881
B1000284626301N00810656EA0182901880
B1000294626296N00810656EA0183001881
B1000304626292N00810657EA0183201883
B1000314626289N00810659EA0183201883
B1000324626286N00810662EA0183001881
B1000334626282N00810664EA0182701877
B1000344626278N00810668EA0182201873
B1000354626272N00810672EA0181901870
B1000364626267N00810678EA0181501866
B1000374626262N00810685EA0181401864
B1000384626259N00810694EA0181101862
B1000394626258N00810703EA0180801858
B1000404626258N00810714EA0180401855
B1000414626259N00810724EA0180201852
B1000424626261N00810735EA0180001850
B1000434626263N00810745EA0179801849
B1000444626267N00810754EA0179701848
B1000454626271N00810762EA0179601846
B1000464626276N00810769EA0179401844
B1000474626281N00810776EA0179201842
B1000484626287N00810782EA0179001840
B1000494626293N00810788EA0178601837
B1000504626298N00810794EA0178301833
B1000514626304N00810801EA0177901830
B1000524626310N00810808EA0177601827
B1000534626316N00810814EA0177401824
B1000544626322N00810819EA0177001821
B1000554626329N00810825EA0176601817
B1000564626335N00810830EA0176301814
B1000574626342N00810836EA0176101811
B1000584626349N00810842EA0175801808
B1000594626356N00810847EA0175501805
B1001004626364N00810852EA0175301804
B1001014626371N00810858EA0175101802
B1001024626377N00810864EA0174901800
B1001034626385N00810869EA0174701798
B1001044626392N00810874EA0174601797
B1001054626399N00810879EA0174401795
B1001064626406N00810885EA0174301793
B1001074626414N00810892EA0174101792
B1001084626421N00810898EA0174001791
B1001094626429N00810905EA0174001790
B1001104626436N00810912EA0173901790
B1001114626443N00810920EA0174001790
B1001124626450N00810927EA0174001791
B1001134626456N00810933EA0173901790
B1001144626463N00810940EA0173901790
B1001154626469N00810947EA0173801788
B1001164626476N00810954EA0173501786
B1001174626483N00810962EA0173301784
B1001184626490N00810970EA0173101782
B1001194626496N00810979EA0173001781
B1001204626502N00810989EA0172901780
B1001214626509N00810998EA0172901780
B1001224626515N00811007EA0172801779
B1001234626520N00811016EA0172901780
B1001244626525N00811024EA0172801778
B1001254626530N00811032EA0172501776
B1001264626536N00811041EA0172301774
B1001274626542N00811050EA0172101772
B1001284626548N00811058EA0171901770
B1001294626554N00811066EA0171801769
B1001304626561N00811074EA0171901770
B1001314626566N00811080EA0171901770
B1001324626571N00811087EA0171801769
B1001334626577N00811094EA0171801768
B1001344626584N00811101EA0171701768
B1001354626591N00811108EA0171601767
B1001364626598N00811116EA0171701768
B1001374626605N00811124EA0171801769
B1001384626611N00811131EA0171901770
B1001394626617N00811137EA0172001771
B1001404626624N00811143EA0171901770
B1001414626631N00811150EA0171801769
B1001424626639N00811157EA0171901769
B1001434626646N00811164EA0172001770
B1001444626653N00811171EA0172101772
B1001454626659N00811178EA0172201773
B1001464626664N00811186EA0172201772
B1001474626668N00811194EA0172101772
B1001484626671N00811204EA0172101772
B1001494626672N00811213EA0172001770
B1001504626672N00811220EA0171901769
B1001514626670N00811225EA0171701768
B1001524626668N00811226EA0171701767
B1001534626666N00811224EA0171701768
B1001544626665N00811220EA0171801769
B1001554626665N00811215EA0172001770
B1001564626665N00811211EA0172101771
B1001574626664N00811206EA0172101772
B1001584626664N00811202EA0172201773
B1001594626663N00811198EA0172301774
B1002004626662N00811193EA0172401775
B1002014626662N00811190EA0172601776
B1002024626662N00811187EA0172801779
B1002034626662N00811184EA0172901780
B1002044626663N00811182EA0173001781
B1002054626663N00811180EA0172901780
B1002064626663N00811177EA0172801779
B1002074626662N00811173EA0173001780
B1002084626661N00811171EA0173001781
B1002094626660N00811169EA0173101781
B1002104626660N00811169EA0173101781
B1002114626659N00811169EA0173001781
B1002124626657N00811168EA0172801779
B1002134626655N00811169EA0172601777
B1002144626652N00811171EA0172601777
B1002154626651N00811176EA0172601776
B1002164626650N00811183EA0172501775
B1002174626651N00811193EA0172401775
B1002184626654N00811203EA0172301774
B1002194626658N00811213EA0172401774
B1002204626664N00811222EA0172501776
B1002214626671N00811228EA0172601776
B1002224626679N00811233EA0172601776
B1002234626686N00811236EA0172501776
B1002244626693N00811237EA0172401775
B1002254626701N00811239EA0172401775
B1002264626709N00811242EA0172501776
B1002274626717N00811246EA0172701778
B1002284626724N00811251EA0173001780
B1002294626730N00811257EA0173001780
B1002304626735N00811264EA0173001781
B1002314626739N00811272EA0172901780
B1002324626742N00811281EA0172701778
B1002334626743N00811289EA0172501776
B1002344626741N00811295EA0172401775
B1002354626739N00811298EA0172401774
B1002364626737N00811299EA0172301774
B1002374626735N00811299EA0172501775
B1002384626734N00811299EA0172401775
B1002394626733N00811299EA0172301773
B1002404626732N00811297EA0172001771
B1002414626730N00811295EA0171701768
B1002424626728N00811293EA0171701768
B1002434626725N00811292EA0171701768
B1002444626722N00811293EA0171801769
B1002454626720N00811295EA0171801769
B1002464626717N00811297EA0171901770
B1002474626715N00811298EA0171901770
B1002484626712N00811299EA0171901769
B1002494626711N00811300EA0172001770
B1002504626709N00811301EA0172201773
B1002514626708N00811303EA0172301774
B1002524626707N00811305EA0172301774
B1002534626705N00811305EA0172201772
B1002544626704N00811305EA0171901770
B1002554626703N00811305EA0171901770
B1002564626702N00811306EA0171801769
B1002574626700N00811307EA0171601767
B1002584626698N00811308EA0171401765
B1002594626696N00811308EA0171301764
B1003004626693N00811309EA0171201763
B1003014626691N00811310EA0171001761
B1003024626689N00811311EA0170901760
B1003034626687N00811312EA0170801759
B1003044626685N00811312EA0170701757
B1003054626683N00811312EA0170501755
B1003064626681N00811313EA0170301754
B1003074626679N00811314EA0170101752
B1003084626676N00811315EA0170001751
B1003094626674N00811317EA0169901749
B1003104626671N00811318EA0169701748
B1003114626668N00811320EA0169501745
B1003124626665N00811323EA0169201742
B1003134626662N00811325EA0169101742
B1003144626659N00811328EA0169101742
B1003154626656N00811331EA0169101741
B1003164626654N00811334EA0168901740
B1003174626653N00811337EA0168601736
B1003184626650N00811339EA0168201733
B1003194626646N00811341EA0167801729
B1003204626642N00811342EA0167501726
B1003214626639N00811344EA0167601727
B1003224626637N00811347EA0167601727
B1003234626635N00811348EA0167401724
B1003244626632N00811349EA0166901720
B1003254626629N00811351EA0166601716
B1003264626625N00811352EA0166301714
B1003274626621N00811353EA0166301713
B1003284626619N00811354EA0166301713
B1003294626617N00811353EA0166201712
B1003304626615N00811352EA0165901710
B1003314626613N00811353EA0165601706
B1003324626610N00811353EA0165201703
B1003334626606N00811354EA0165101702
B1003344626604N00811354EA0165101702
B1003354626602N00811354EA0165001701
B1003364626600N00811354EA0164901700
B1003374626598N00811355EA0164601697
B1003384626595N00811355EA0164301694
B1003394626591N00811356EA0164201693
B1003404626588N00811356EA0164201693
B1003414626586N00811357EA0164401694
B1003424626584N00811358EA0164401694
B1003434626583N00811360EA0164201692
B1003444626580N00811361EA0163901689
B1003454626577N00811362EA0163501686
B1003464626574N00811363EA0163401684
B1003474626570N00811364EA0163301683
B1003484626568N00811364EA0163301684
B1003494626565N00811364EA0163301684
B1003504626563N00811363EA0163201683
B1003514626561N00811362EA0163101681
B1003524626558N00811362EA0163001681
B1003534626556N00811361EA0163001680
B1003544626553N00811361EA0162801679
B1003554626551N00811359EA0162801678
B1003564626549N00811357EA0162501676
B1003574626547N00811356EA0162301673
B1003584626545N00811355EA0161901670
B1003594626543N00811354EA0161601667
B1004004626539N00811354EA0161301664
B1004014626535N00811356EA0161001661
B1004024626531N00811358EA0160901660
B1004034626528N00811361EA0160901660
B1004044626525N00811363EA0160901660
B1004054626522N00811365EA0160901659
B1004064626520N00811368EA0160701658
B1004074626517N00811371EA0160601657
B1004084626514N00811374EA0160501656
B1004094626511N00811376EA0160401655
B1004104626508N00811378EA0160201652
B1004114626505N00811379EA0159901650
B1004124626502N00811381EA0160001650
B1004134626499N00811383EA0160201653
B1004144626498N00811385EA0160101652
B1004154626495N00811386EA0160201653
B1004164626492N00811387EA0160101651
B1004174626489N00811389EA0160001650
B1004184626486N00811391EA0159901650
B1004194626483N00811392EA0159901650
B1004204626480N00811393EA0159901649
B1004214626478N00811394EA0159701648
B1004224626476N00811394EA0159601646
B1004234626473N00811394EA0159401645
B1004244626470N00811395EA0159301644
B1004254626468N00811395EA0159201642
B1004264626465N00811394EA0159001641
B1004274626463N00811394EA0158901639
B1004284626460N00811395EA0158701638
B1004294626457N00811396EA0158501636
B1004304626454N00811398EA0158401635
B1004314626452N00811400EA0158201633
B1004324626449N00811400EA0158101631
B1004334626446N00811400EA0157901629
B1004344626443N00811402EA0157601627
B1004354626440N00811404EA0157201623
B1004364626436N00811408EA0157001621
B1004374626433N00811412EA0156801619
B1004384626430N00811415EA0156601616
B1004394626428N00811419EA0156201613
B1004404626425N00811423EA0155901609
B1004414626421N00811426EA0155501606
B1004424626418N00811429EA0155201603
B1004434626414N00811432EA0155101602
B1004444626411N00811435EA0155001601
B1004454626408N00811438EA0155001601
B1004464626405N00811442EA0155001601
B1004474626403N00811446EA0154901599
B1004484626400N00811450EA0154701598
B1004494626398N00811456EA0154601597
B1004504626395N00811461EA0154501596
B1004514626393N00811465EA0154401594
B1004524626390N00811468EA0154201593
B1004534626388N00811471EA0154101592
B1004544626385N00811475EA0154001591
B1004554626382N00811479EA0153901589
B1004564626380N00811485EA0153801589
B1004574626377N00811490EA0153901589
B1004584626375N00811495EA0154001590
B1004594626373N00811500EA0154001591
B1005004626372N00811506EA0153901590
B1005014626370N00811511EA0153801589
B1005024626367N00811516EA0153701587
B1005034626365N00811522EA0153601587
B1005044626362N00811530EA0153501586
B1005054626360N00811537EA0153601587
B1005064626358N00811544EA0153701588
B1005074626357N00811549EA0153701588
B1005084626355N00811555EA0153701587
B1005094626353N00811562EA0153601586
B1005104626350N00811569EA0153501586
B1005114626348N00811575EA0153501586
B1005124626346N00811580EA0153501585
B1005134626343N00811585EA0153401585
B1005144626341N00811591EA0153301584
B1005154626339N00811596EA0153201582
B1005164626337N00811600EA0153001581
B1005174626333N00811604EA0152901580
B1005184626330N00811609EA0152901579
B1005194626327N00811614EA0152801579
B1005204626324N00811620EA0152701578
B1005214626322N00811625EA0152601577
B1005224626319N00811629EA0152401575
B1005234626315N00811633EA0152301573
B1005244626312N00811636EA0152101572
B1005254626310N00811640EA0152001570
B1005264626307N00811644EA0151901569
B1005274626305N00811650EA0151701568
B1005284626303N00811655EA0151501566
B1005294626300N00811659EA0151401565
B1005304626298N00811663EA0151301563
B1005314626296N00811667EA0151001561
B1005324626294N00811670EA0150701558
B1005334626291N00811673EA0150301553
B1005344626288N00811677EA0149901550
B1005354626284N00811681EA0149601547
B1005364626281N00811683EA0149401545
B1005374626278N00811686EA0149301544
B1005384626276N00811688EA0149001541
B1005394626273N00811690EA0148801539
B1005404626271N00811691EA0148501535
B1005414626267N00811692EA0148201532
B1005424626263N00811693EA0147901530
B1005434626260N00811696EA0147701528
B1005444626256N00811699EA0147601526
B1005454626253N00811702EA0147501525
B1005464626250N00811705EA0147201523
B1005474626247N00811706EA0147001520
B1005484626245N00811705EA0146701517
B1005494626243N00811703EA0146401515
B1005504626243N00811699EA0146201513
B1005514626245N00811694EA0146001511
B1005524626250N00811690EA0145901509
B1005534626255N00811688EA0145701508
B1005544626262N00811688EA0145601507
B1005554626268N00811689EA0145401505
B1005564626275N00811691EA0145101502
B1005574626282N00811692EA0144901499
B1005584626290N00811693EA0144701498
B1005594626296N00811693EA0144701498
B1006004626302N00811693EA0144701498
B1006014626308N00811692EA0144601497
B1006024626313N00811691EA0144401495
B1006034626318N00811689EA0144201492
B1006044626323N00811685EA0143901490
B1006054626328N00811680EA0143801489
B1006064626331N00811675EA0143901489
B1006074626333N00811671EA0143801489
B1006084626333N00811669EA0143801488
B1006094626333N00811667EA0143601487
B1006104626331N00811665EA0143501486
B1006114626329N00811664EA0143301483
B1006124626327N00811666EA0143101482
B1006134626324N00811668EA0143001481
B1006144626322N00811672EA0142801479
B1006154626319N00811677EA0142701477
B1006164626317N00811683EA0142501475
B1006174626315N00811689EA0142301473
B1006184626312N00811695EA0142101472
B1006194626309N00811700EA0142001471
B1006204626306N00811704EA0141901469
B1006214626304N00811708EA0141801469
B1006224626302N00811713EA0141701467
B1006234626300N00811719EA0141401465
B1006244626297N00811725EA0141101462
B1006254626294N00811732EA0140901460
B1006264626291N00811737EA0140801458
B1006274626287N00811741EA0140701457
B1006284626284N00811744EA0140601457
B1006294626282N00811747EA0140601456
B1006304626279N00811751EA0140401455
B1006314626277N00811754EA0140201453
B1006324626274N00811756EA0140001450
B1006334626272N00811756EA0139801449
B1006344626269N00811755EA0139701448
B1006354626268N00811753EA0139701447
B1006364626266N00811753EA0139601446
B1006374626264N00811753EA0139401445
B1006384626261N00811753EA0139201443
B1006394626258N00811754EA0139101442
B1006404626255N00811754EA0139101441
B1006414626253N00811755EA0139101441
B1006424626251N00811755EA0139001441
B1006434626249N00811757EA0138901440
B1006444626246N00811760EA0138701438
B1006454626243N00811763EA0138601437
B1006464626239N00811766EA0138601436
B1006474626236N00811766EA0138501436
B1006484626234N00811764EA0138401434
B1006494626234N00811760EA0138301434
B1006504626235N00811755EA0138201433
B1006514626238N00811751EA0138201433
B1006524626241N00811748EA0138101432
B1006534626244N00811745EA0138001431
B1006544626247N00811741EA0137801428
B1006554626251N00811737EA0137501425
B1006564626255N00811733EA0137301424
B1006574626258N00811729EA0137201422
B1006584626262N00811726EA0137001420
B1006594626265N00811722EA0136701418
B1007004626269N00811719EA0136401415
B1007014626272N00811715EA0136101412
B1007024626276N00811710EA0135901409
B1007034626279N00811706EA0135701408
B1007044626283N00811701EA0135701407
B1007054626286N00811697EA0135601407
B1007064626289N00811692EA0135501406
B1007074626292N00811688EA0135501405
B1007084626295N00811683EA0135501405
B1007094626299N00811678EA0135401405
B1007104626303N00811674EA0135401404
B1007114626307N00811671EA0135201403
B1007124626311N00811668EA0135101402
B1007134626315N00811664EA0134901400
B1007144626317N00811659EA0134701398
B1007154626319N00811655EA0134501396
B1007164626320N00811650EA0134401395
B1007174626320N00811647EA0134301394
B1007184626319N00811646EA0134201393
B1007194626317N00811645EA0134101391
B1007204626315N00811646EA0133901390
B1007214626313N00811647EA0133801388
B1007224626311N00811648EA0133601386
B1007234626308N00811649EA0133401385
B1007244626306N00811650EA0133301384
B1007254626304N00811650EA0133301384
B1007264626302N00811652EA0133201383
B1007274626300N00811653EA0133001381
B1007284626297N00811654EA0132901379
B1007294626294N00811654EA0132701378
B1007304626291N00811654EA0132701378
B1007314626289N00811656EA0132701378
B1007324626286N00811658EA0132601377
B1007334626285N00811661EA0132401375
B1007344626282N00811665EA0132201372
B1007354626280N00811667EA0131901370
B1007364626276N00811669EA0131601367
B1007374626273N00811671EA0131601366
B1007384626271N00811673EA0131501366
B1007394626268N00811675EA0131501366
B1007404626266N00811678EA0131401365
B1007414626263N00811681EA0131301364
B1007424626260N00811685EA0131201363
B1007434626257N00811688EA0131201363
B1007444626254N00811690EA0131101362
B1007454626252N00811693EA0131101362
B1007464626250N00811696EA0130901360
B1007474626247N00811699EA0130701358
B1007484626245N00811702EA0130501355
B1007494626241N00811704EA0130201353
B1007504626238N00811705EA0130001351
B1007514626235N00811707EA0129801349
B1007524626232N00811710EA0129701347
B1007534626228N00811713EA0129601347
B1007544626226N00811716EA0129501346
B1007554626223N00811717EA0129401344
B1007564626221N00811714EA0129201342
B1007574626220N00811710EA0128801339
B1007584626222N00811704EA0128601337
B1007594626225N00811699EA0128401335
B1008004626230N00811695EA0128301334
B1008014626236N00811693EA0128401334
B1008024626242N00811692EA0128401335
B1008034626247N00811691EA0128301334
B1008044626253N00811691EA0128101332
B1008054626259N00811690EA0128001331
B1008064626266N00811689EA0128001330
B1008074626273N00811687EA0128001331
B1008084626278N00811685EA0128101332
B1008094626282N00811682EA0128101332
B1008104626286N00811678EA0128001331
B1008114626288N00811673EA0127901330
B1008124626290N00811669EA0127801329
B1008134626290N00811663EA0127701328
B1008144626288N00811659EA0127701328
B1008154626285N00811658EA0127801329
B1008164626281N00811660EA0128001330
B1008174626279N00811664EA0128001330
B1008184626277N00811670EA0128001330
B1008194626275N00811675EA0128001331
B1008204626272N00811677EA0128001330
B1008214626270N00811679EA0127901330
B1008224626267N00811682EA0127801329
B1008234626265N00811685EA0127801328
B1008244626262N00811688EA0127701328
B1008254626259N00811690EA0127601327
B1008264626257N00811692EA0127401325
B1008274626254N00811693EA0127301324
B1008284626251N00811694EA0127101322
B1008294626248N00811695EA0127001321
B1008304626246N00811697EA0126901320
B1008314626243N00811699EA0126801319
B1008324626240N00811701EA0126701317
B1008334626237N00811703EA0126501316
B1008344626234N00811706EA0126401315
B1008354626231N00811707EA0126301314
B1008364626227N00811708EA0126301313
B1008374626224N00811708EA0126201313
B1008384626222N00811708EA0126201312
B1008394626220N00811707EA0126001311
B1008404626219N00811705EA0125801309
B1008414626218N00811701EA0125601307
B1008424626219N00811696EA0125501305
B1008434626221N00811691EA0125401305
B1008444626225N00811686EA0125401304
B1008454626229N00811684EA0125301304
B1008464626234N00811681EA0125301303
B1008474626239N00811679EA0125101302
B1008484626244N00811675EA0124901300
B1008494626247N00811671EA0124601297
B1008504626249N00811665EA0124501295
B1008514626250N00811660EA0124401295
B1008524626250N00811656EA0124401294
B1008534626249N00811654EA0124301294
B1008544626247N00811651EA0124201293
B1008554626246N00811649EA0124101292
B1008564626245N00811647EA0124001291
B1008574626244N00811645EA0123901290
B1008584626243N00811644EA0123701288
B1008594626241N00811643EA0123501286
B1009004626239N00811643EA0123401285
B1009014626237N00811641EA0123301283
B1009024626236N00811639EA0123001281
B1009034626234N00811638EA0123001281
B1009044626232N00811637EA0123001281
B1009054626231N00811637EA0122901280
B1009064626228N00811636EA0122801278
B1009074626227N00811635EA0122501276
B1009084626225N00811634EA0122301274
B1009094626223N00811632EA0122201272
B1009104626221N00811629EA0122001271
B1009114626220N00811626EA0122001270
B1009124626218N00811624EA0121901270
B1009134626217N00811623EA0121901270
B1009144626216N00811622EA0121701268
B1009154626215N00811619EA0121301264
B1009164626214N00811618EA0121501265
B1009174626214N00811617EA0121701268
B1009184626214N00811618EA0121601267
B1009194626214N00811618EA0121601267
B1009204626213N00811618EA0121601267
B1009214626213N00811618EA0121601267
B1009224626213N00811617EA0121601267
B1009234626213N00811617EA0121601267
B1009244626213N00811617EA0121601267
B1009254626213N00811617EA0121601267
B1009264626214N00811617EA0121701267
B1009274626214N00811617EA0121701267
B1009284626214N00811616EA0121701267
B1009294626214N00811617EA0121701267
B1009304626214N00811617EA0121601267
B1009314626214N00811617EA0121601267
B1009324626215N00811618EA0121601267
B1009334626216N00811619EA0121601267
B1009344626216N00811619EA0121601267
B1009354626216N00811619EA0121601267
B1009364626216N00811619EA0121701267
B1009374626216N00811619EA0121701267
B1009384626216N00811619EA0121601267
B1009394626216N00811619EA0121601267
B1009404626217N00811619EA0121601267
B1009414626217N00811619EA0121601267
B1009424626217N00811621EA0121601267
B1009434626218N00811621EA0121601267
B1009444626218N00811620EA0121601267
B1009454626218N00811620EA0121601267
B1009464626218N00811620EA0121601267
B1009474626218N00811620EA0121601267
B1009484626218N00811620EA0121601267
B1009494626218N00811620EA0121601267
B1009504626218N00811620EA0121601267
B1009514626218N00811620EA0121601267
B1009524626217N00811620EA0121601267
B1009534626217N00811620EA0121601267
B1009544626217N00811621EA0121601267
B1009554626217N00811621EA0121601267
B1009564626217N00811621EA0121601267
B1009574626217N00811621EA0121601267
B1009584626217N00811621EA0121601267
B1009594626217N00811620EA0121601267
B1010004626217N00811620EA0121601267
B1010014626217N00811619EA0121601267
B1010024626217N00811619EA0121601267
B1010034626217N00811619EA0121601267
B1010044626217N00811618EA0121701267
B1010054626217N00811618EA0121601267
B1010064626217N00811618EA0121601267
B1010074626217N00811618EA0121601267
B1010084626217N00811619EA0121601267
B1010094626217N00811619EA0121601267
B1010104626217N00811619EA0121701267
B1010114626217N00811619EA0121701267
B1010124626218N00811619EA0121601267
B1010134626218N00811619EA0121601267
B1010144626218N00811619EA0121601267
LXSX;GF:1.4
GE7D78CB750DFB6FC6096CFA439EC69DD
