AXSX003 SKYTRAXX V3.0.15 SN:00000380
HFPLTPILOT:Sepp Bucher
HFGTYGLIDERTYPE:Advance Sigma10
HFDTM100GPSDATUM:WGS-84
HFCIDCOMPETITIONID:0000
HFCCLCOMPETITION CLASS:Paraglider (Standard)
HFSITSITE:UNKNOWN
HFDTE200120
B1824273259331S06108350WA0010800075
B1824283259332S06108350WA0010800075
B1824293259332S06108350WA0010700074
B1824303259332S06108349WA0010800075
B1824313259331S06108349WA0010900076
B1824323259331S06108349WA0010700074
B1824333259330S06108348WA0010600073
B1824343259330S06108347WA0010700074
B1824353259330S06108346WA0010800076
B1824363259330S06108345WA0011000078
B1824373259330S06108344WA0011400081
B1824383259328S06108343WA0011500082
B1824393259327S06108341WA0011600082
B1824403259325S06108340WA0011800083
B1824413259323S06108338WA0012000083
B1824423259322S06108336WA0012100083
B1824433259320S06108334WA0012200084
B1824443259319S06108332WA0012500086
B1824453259317S06108330WA0012700088
B1824463259315S06108329WA0013000092
B1824473259313S06108327WA0013100093
B1824483259312S06108323WA0013200094
B1824493259315S06108318WA0013300095
B1824503259313S06108315WA0013600098
B1824513259312S06108313WA0013900101
B1824523259311S06108310WA0014300105
B1824533259311S06108307WA0014500107
B1824543259311S06108304WA0014700109
B1824553259310S06108300WA0014800110
B1824563259309S06108296WA0015200114
B1824573259307S06108293WA0015600118
B1824583259305S06108292WA0016000122
B1824593259303S06108291WA0016500127
B1825003259302S06108289WA0016700129
B1825013259300S06108287WA0016900131
B1825023259297S06108285WA0017100133
B1825033259295S06108282WA0017300135
B1825043259293S06108279WA0017700139
B1825053259292S06108276WA0018200144
B1825063259291S06108273WA0018600148
B1825073259290S06108270WA0018800150
B1825083259290S06108267WA0019100153
B1825093259289S06108264WA0019400156
B1825103259288S06108261WA0019900161
B1825113259289S06108260WA0020600168
B1825123259290S06108257WA0021000172
B1825133259291S06108256WA0021200174
B1825143259292S06108254WA0021300175
B1825153259292S06108251WA0021400176
B1825163259292S06108248WA0021600178
B1825173259291S06108244WA0021800180
B1825183259292S06108241WA0022100183
B1825193259292S06108238WA0022500187
B1825203259291S06108235WA0022600188
B1825213259290S06108231WA0022600188
B1825223259290S06108227WA0022700189
B1825233259290S06108223WA0023000191
B1825243259290S06108220WA0023300195
B1825253259290S06108217WA0023600198
B1825263259291S06108214WA0023700199
B1825273259291S06108211WA0023800200
B1825283259291S06108207WA0023900201
B1825293259292S06108203WA0024100203
B1825303259292S06108199WA0024200204
B1825313259292S06108195WA0024600208
B1825323259292S06108191WA0024700209
B1825333259292S06108188WA0024900211
B1825343259291S06108186WA0025100213
B1825353259289S06108183WA0025300215
B1825363259287S06108180WA0025700219
B1825373259287S06108176WA0026000222
B1825383259286S06108174WA0026400226
B1825393259284S06108172WA0026900231
B1825403259281S06108171WA0027200234
B1825413259278S06108170WA0027600238
B1825423259277S06108168WA0027800240
B1825433259276S06108166WA0028100243
B1825443259275S06108163WA0028500247
B1825453259274S06108161WA0028800250
B1825463259274S06108158WA0029000252
B1825473259274S06108155WA0029100253
B1825483259274S06108150WA0029500257
B1825493259272S06108147WA0029900260
B1825503259271S06108144WA0030100262
B1825513259270S06108142WA0030400266
B1825523259269S06108139WA0030800270
B1825533259268S06108136WA0031200274
B1825543259267S06108133WA0031500277
B1825553259266S06108130WA0031800280
B1825563259265S06108128WA0032200284
B1825573259265S06108126WA0032600288
B1825583259264S06108124WA0033000292
B1825593259263S06108122WA0033100293
B1826003259262S06108119WA0033400295
B1826013259261S06108116WA0033700299
B1826023259260S06108113WA0034100302
B1826033259259S06108110WA0034400306
B1826043259259S06108108WA0034600308
B1826053259258S06108106WA0034900311
B1826063259257S06108103WA0035100313
B1826073259256S06108100WA0035100313
B1826083259255S06108096WA0035400316
B1826093259254S06108093WA0035900321
B1826103259254S06108089WA0036300325
B1826113259253S06108086WA0036600328
B1826123259252S06108082WA0036800330
B1826133259252S06108078WA0037200334
B1826143259251S06108075WA0037600338
B1826153259251S06108071WA0038100342
B1826163259250S06108068WA0038400346
B1826173259250S06108064WA0038700349
B1826183259249S06108061WA0039100353
B1826193259248S06108058WA0039500357
B1826203259247S06108054WA0039900361
B1826213259247S06108051WA0040200364
B1826223259246S06108048WA0040700368
B1826233259245S06108045WA0041100373
B1826243259244S06108042WA0041500377
B1826253259244S06108039WA0041800380
B1826263259243S06108037WA0042200384
B1826273259242S06108035WA0042400386
B1826283259241S06108032WA0042800390
B1826293259239S06108029WA0043200394
B1826303259238S06108025WA0043500397
B1826313259236S06108023WA0043800400
B1826323259235S06108020WA0044300405
B1826333259233S06108016WA0044800410
B1826343259232S06108013WA0045100413
B1826353259231S06108010WA0045500417
B1826363259229S06108007WA0045900421
B1826373259227S06108004WA0046300425
B1826383259226S06108000WA0046700429
B1826393259225S06107996WA0047200434
B1826403259224S06107993WA0047600438
B1826413259223S06107990WA0047900441
B1826423259221S06107987WA0048200444
B1826433259219S06107984WA0048700449
B1826443259218S06107980WA0049100453
B1826453259217S06107977WA0049500457
B1826463259216S06107974WA0050000462
B1826473259214S06107971WA0050300465
B1826483259212S06107968WA0050700469
B1826493259209S06107965WA0051200474
B1826503259207S06107963WA0051600478
B1826513259206S06107961WA0052100483
B1826523259203S06107958WA0052500487
B1826533259202S06107955WA0053000491
B1826543259200S06107952WA0053300495
B1826553259198S06107950WA0053600498
B1826563259197S06107946WA0054000502
B1826573259196S06107943WA0054400506
B1826583259195S06107939WA0054900511
B1826593259194S06107936WA0055400515
B1827003259192S06107933WA0055800520
B1827013259192S06107929WA0056400526
B1827023259192S06107926WA0056800530
B1827033259192S06107922WA0057300535
B1827043259191S06107918WA0057700539
B1827053259189S06107915WA0058100543
B1827063259187S06107912WA0058600548
B1827073259187S06107909WA0059100553
B1827083259185S06107906WA0059600557
B1827093259183S06107902WA0059900561
B1827103259182S06107898WA0060200564
B1827113259180S06107894WA0060500567
B1827123259179S06107890WA0060900571
B1827133259177S06107886WA0061300575
B1827143259176S06107880WA0061700579
B1827153259174S06107876WA0062100582
B1827163259173S06107871WA0062600588
B1827173259172S06107866WA0062900591
B1827183259172S06107861WA0063300595
B1827193259171S06107856WA0063800600
B1827203259170S06107851WA0064100603
B1827213259169S06107846WA0064500607
B1827223259169S06107841WA0065000612
B1827233259168S06107837WA0065400616
B1827243259167S06107832WA0065700619
B1827253259166S06107826WA0066100623
B1827263259166S06107820WA0066600628
B1827273259166S06107815WA0067200634
B1827283259165S06107810WA0067500637
B1827293259165S06107804WA0068000642
B1827303259164S06107799WA0068400646
B1827313259165S06107793WA0068800650
B1827323259165S06107788WA0069300655
B1827333259163S06107784WA0069700659
B1827343259161S06107780WA0070100663
B1827353259159S06107775WA0070400666
B1827363259158S06107771WA0070900671
B1827373259156S06107766WA0071200674
B1827383259154S06107762WA0071700679
B1827393259152S06107758WA0072300685
B1827403259150S06107753WA0072700689
B1827413259148S06107749WA0073000692
B1827423259146S06107746WA0073300695
B1827433259144S06107741WA0073700699
B1827443259143S06107737WA0074200704
B1827453259142S06107732WA0074500707
B1827463259141S06107727WA0074700709
B1827473259140S06107722WA0075100713
B1827483259140S06107717WA0075500717
B1827493259139S06107712WA0075800720
B1827503259138S06107707WA0076000722
B1827513259138S06107702WA0076300725
B1827523259141S06107696WA0076600728
B1827533259141S06107690WA0076900731
B1827543259141S06107686WA0077300735
B1827553259140S06107680WA0077600738
B1827563259140S06107675WA0077800740
B1827573259140S06107669WA0078200744
B1827583259141S06107665WA0078700749
B1827593259142S06107660WA0079000752
B1828003259140S06107656WA0079300755
B1828013259138S06107652WA0079500756
B1828023259136S06107647WA0079700758
B1828033259135S06107643WA0080000762
B1828043259134S06107638WA0080400766
B1828053259133S06107632WA0080700769
B1828063259131S06107627WA0081000771
B1828073259130S06107622WA0081200774
B1828083259128S06107617WA0081500777
B1828093259128S06107612WA0081800780
B1828103259127S06107607WA0082100783
B1828113259125S06107603WA0082400786
B1828123259125S06107597WA0082800790
B1828133259125S06107592WA0083300795
B1828143259124S06107587WA0083600798
B1828153259124S06107581WA0083900801
B1828163259124S06107576WA0084200804
B1828173259125S06107570WA0084500806
B1828183259125S06107565WA0084700809
B1828193259125S06107559WA0084900810
B1828203259127S06107551WA0084900811
B1828213259129S06107543WA0084900811
B1828223259131S06107536WA0084900811
B1828233259134S06107528WA0085000812
B1828243259137S06107522WA0084900811
B1828253259139S06107515WA0085100813
B1828263259141S06107508WA0085000812
B1828273259142S06107502WA0085300815
B1828283259143S06107496WA0085100813
B1828293259145S06107489WA0084800810
B1828303259153S06107482WA0084700809
B1828313259157S06107477WA0084800810
B1828323259160S06107473WA0084900811
B1828333259163S06107470WA0084800810
B1828343259166S06107466WA0084600808
B1828353259169S06107462WA0084400806
B1828363259172S06107457WA0084300805
B1828373259174S06107452WA0084200804
B1828383259176S06107448WA0084100803
B1828393259177S06107443WA0084000802
B1828403259181S06107440WA0083900801
B1828413259184S06107435WA0083700799
B1828423259190S06107432WA0083500797
B1828433259194S06107429WA0083300795
B1828443259200S06107428WA0083100793
B1828453259206S06107429WA0083000792
B1828463259212S06107429WA0083000792
B1828473259219S06107432WA0082800790
B1828483259224S06107435WA0082700789
B1828493259228S06107439WA0082500787
B1828503259231S06107450WA0082300785
B1828513259238S06107459WA0082100783
B1828523259238S06107459WA0082000782
B1828533259238S06107459WA0081900781
B1828543259238S06107459WA0081900781
B1828553259238S06107459WA0081800780
B1828563259238S06107459WA0081600778
B1828573259238S06107459WA0081500777
B1828583259238S06107459WA0081300775
B1828593259238S06107459WA0081200774
B1829003259238S06107459WA0081100773
B1829013259238S06107459WA0081000772
B1829023259238S06107459WA0080900771
B1829033259238S06107459WA0080700769
B1829043259238S06107459WA0080600768
B1829053259238S06107459WA0080500766
B1829063259238S06107459WA0080300765
B1829073259238S06107459WA0080200764
B1829083259238S06107459WA0080100763
B1829093259238S06107459WA0080000762
B1829103259238S06107459WA0079800760
B1829113259238S06107459WA0079600758
B1829123259370S06107625WA0079500757
B1829133259374S06107632WA0079400756
B1829143259377S06107639WA0079300755
B1829153259379S06107646WA0079200754
B1829163259383S06107654WA0079000752
B1829173259386S06107662WA0078900751
B1829183259390S06107670WA0078800750
B1829193259394S06107677WA0078700749
B1829203259397S06107684WA0078500747
B1829213259403S06107691WA0078400746
B1829223259407S06107698WA0078300745
B1829233259411S06107706WA0078100743
B1829243259415S06107713WA0078000742
B1829253259420S06107720WA0077900741
B1829263259426S06107728WA0077700739
B1829273259431S06107734WA0077600738
B1829283259437S06107742WA0077500737
B1829293259442S06107749WA0077400735
B1829303259447S06107756WA0077200734
B1829313259453S06107763WA0077100733
B1829323259457S06107771WA0077000732
B1829333259463S06107778WA0076900731
B1829343259469S06107785WA0076800730
B1829353259474S06107792WA0076600728
B1829363259479S06107799WA0076500727
B1829373259484S06107806WA0076400726
B1829383259489S06107814WA0076300725
B1829393259494S06107821WA0076200724
B1829403259498S06107828WA0076000722
B1829413259503S06107835WA0075900721
B1829423259508S06107842WA0075800720
B1829433259514S06107850WA0075700719
B1829443259519S06107856WA0075500717
B1829453259525S06107864WA0075400716
B1829463259531S06107871WA0075300715
B1829473259535S06107878WA0075200714
B1829483259540S06107885WA0075000712
B1829493259545S06107892WA0074800710
B1829503259550S06107899WA0074600708
B1829513259557S06107906WA0074400706
B1829523259561S06107914WA0074200704
B1829533259566S06107921WA0074000702
B1829543259572S06107929WA0073900700
B1829553259577S06107936WA0073600698
B1829563259583S06107943WA0073400696
B1829573259589S06107951WA0073300694
B1829583259596S06107958WA0073100693
B1829593259596S06107958WA0073000692
B1830003259596S06107958WA0072800690
B1830013259596S06107958WA0072700689
B1830023259621S06107988WA0072500687
B1830033259627S06107996WA0072400686
B1830043259633S06108003WA0072200684
B1830053259638S06108011WA0072100682
B1830063259644S06108019WA0071900681
B1830073259649S06108027WA0071800679
B1830083259654S06108035WA0071700678
B1830093259659S06108043WA0071600678
B1830103259664S06108050WA0071500677
B1830113259669S06108058WA0071400676
B1830123259674S06108065WA0071300675
B1830133259680S06108072WA0071200674
B1830143259685S06108080WA0071000672
B1830153259690S06108088WA0070900671
B1830163259695S06108095WA0070800670
B1830173259700S06108104WA0070700669
B1830183259704S06108112WA0070600668
B1830193259710S06108120WA0070600668
B1830203259714S06108128WA0070500667
B1830213259718S06108136WA0070400666
B1830223259721S06108144WA0070400665
B1830233259724S06108150WA0070300665
B1830243259727S06108159WA0070100663
B1830253259730S06108168WA0070000662
B1830263259734S06108177WA0069900661
B1830273259737S06108186WA0069900661
B1830283259740S06108194WA0069900660
B1830293259743S06108202WA0069800660
B1830303259747S06108211WA0069700659
B1830313259750S06108220WA0069500657
B1830323259753S06108228WA0069500657
B1830333259757S06108237WA0069400656
B1830343259762S06108245WA0069400655
B1830353259766S06108253WA0069300655
B1830363259771S06108261WA0069200653
B1830373259776S06108270WA0069000652
B1830383259781S06108278WA0068900651
B1830393259786S06108287WA0068800650
B1830403259791S06108294WA0068700649
B1830413259797S06108303WA0068700649
B1830423259802S06108311WA0068600648
B1830433259808S06108319WA0068500646
B1830443259813S06108328WA0068300645
B1830453259820S06108336WA0068200644
B1830463259826S06108345WA0068100643
B1830473259832S06108354WA0068000642
B1830483259838S06108363WA0067900641
B1830493259844S06108372WA0067900640
B1830503259850S06108381WA0067800640
B1830513259856S06108390WA0067700639
B1830523259863S06108398WA0067700639
B1830533259863S06108398WA0067700639
B1830543259863S06108398WA0067700639
B1830553259863S06108398WA0067500637
B1830563259863S06108398WA0067400636
B1830573259896S06108440WA0067200634
B1830583259902S06108448WA0067200633
B1830593259908S06108456WA0067100633
B1831003259914S06108464WA0067100633
B1831013259920S06108472WA0067000632
B1831023259925S06108480WA0066900631
B1831033259930S06108488WA0066700629
B1831043259935S06108497WA0066600627
B1831053259940S06108506WA0066500627
B1831063259946S06108514WA0066400626
B1831073259952S06108522WA0066300625
B1831083259957S06108531WA0066100623
B1831093259962S06108539WA0066000621
B1831103259968S06108547WA0065800620
B1831113259972S06108555WA0065600618
B1831123259978S06108563WA0065500617
B1831133259984S06108572WA0065400616
B1831143259990S06108580WA0065400616
B1831153259996S06108588WA0065300615
B1831163300002S06108596WA0065200614
B1831173300008S06108604WA0065100613
B1831183300013S06108612WA0065000612
B1831193300019S06108620WA0064900611
B1831203300024S06108628WA0064800610
B1831213300030S06108636WA0064700608
B1831223300036S06108644WA0064500607
B1831233300042S06108652WA0064400606
B1831243300048S06108660WA0064300605
B1831253300053S06108668WA0064200604
B1831263300058S06108676WA0064100603
B1831273300063S06108684WA0064000602
B1831283300069S06108692WA0063800600
B1831293300075S06108700WA0063700599
B1831303300081S06108708WA0063600598
B1831313300085S06108715WA0063400596
B1831323300091S06108723WA0063100593
B1831333300096S06108731WA0062900591
B1831343300101S06108739WA0062700588
B1831353300107S06108748WA0062500587
B1831363300107S06108748WA0062400586
B1831373300107S06108748WA0062400586
B1831383300107S06108748WA0062300585
B1831393300107S06108748WA0062200584
B1831403300107S06108748WA0062100583
B1831413300107S06108748WA0061900581
B1831423300107S06108748WA0061800580
B1831433300107S06108748WA0061700579
B1831443300107S06108748WA0061700579
B1831453300107S06108748WA0061700579
B1831463300107S06108748WA0061500577
B1831473300107S06108748WA0061300575
B1831483300107S06108748WA0061100573
B1831493300107S06108748WA0061100573
B1831503300107S06108748WA0061000572
B1831513300107S06108748WA0061000572
B1831523300107S06108748WA0061000572
B1831533300107S06108748WA0060900571
B1831543300107S06108748WA0060700569
B1831553300107S06108748WA0060500567
B1831563300107S06108748WA0060400566
B1831573300107S06108748WA0060200564
B1831583300107S06108748WA0060100563
B1831593300244S06108936WA0060100563
B1832003300247S06108944WA0060100563
B1832013300249S06108951WA0060000561
B1832023300254S06108959WA0059800560
B1832033300257S06108967WA0059700558
B1832043300262S06108976WA0059500557
B1832053300267S06108984WA0059400556
B1832063300270S06108992WA0059300555
B1832073300274S06109000WA0059200554
B1832083300279S06109008WA0059100553
B1832093300283S06109016WA0059000552
B1832103300287S06109024WA0058900551
B1832113300292S06109032WA0058800550
B1832123300296S06109041WA0058700549
B1832133300301S06109049WA0058700549
B1832143300305S06109057WA0058600548
B1832153300309S06109065WA0058500547
B1832163300313S06109074WA0058300545
B1832173300317S06109083WA0058200544
B1832183300320S06109092WA0058100543
B1832193300325S06109101WA0058000542
B1832203300329S06109110WA0057900541
B1832213300333S06109120WA0057700539
B1832223300337S06109129WA0057500537
B1832233300341S06109140WA0057400536
B1832243300346S06109150WA0057400536
B1832253300350S06109160WA0057500537
B1832263300355S06109168WA0057600538
B1832273300359S06109176WA0057600538
B1832283300363S06109184WA0057400536
B1832293300368S06109192WA0057300535
B1832303300373S06109201WA0057100533
B1832313300378S06109210WA0057000532
B1832323300382S06109219WA0057200534
B1832333300388S06109228WA0057300535
B1832343300393S06109236WA0057400536
B1832353300397S06109243WA0057300535
B1832363300401S06109250WA0057200534
B1832373300406S06109259WA0057100533
B1832383300412S06109267WA0057000532
B1832393300417S06109276WA0057000532
B1832403300422S06109284WA0056900531
B1832413300428S06109292WA0056900530
B1832423300433S06109301WA0056800530
B1832433300438S06109310WA0056700529
B1832443300444S06109320WA0056800530
B1832453300450S06109328WA0056800530
B1832463300456S06109336WA0057000532
B1832473300462S06109344WA0057000532
B1832483300467S06109352WA0057000532
B1832493300472S06109360WA0056900531
B1832503300477S06109368WA0056900531
B1832513300482S06109376WA0056900531
B1832523300488S06109385WA0056900531
B1832533300493S06109393WA0057000532
B1832543300499S06109401WA0057000532
B1832553300503S06109409WA0057000532
B1832563300507S06109417WA0056900531
B1832573300510S06109425WA0056900531
B1832583300515S06109434WA0056800530
B1832593300519S06109443WA0056800530
B1833003300525S06109452WA0056700529
B1833013300530S06109461WA0056700529
B1833023300536S06109470WA0056700529
B1833033300541S06109480WA0056700529
B1833043300546S06109489WA0056800530
B1833053300550S06109498WA0056900531
B1833063300556S06109507WA0056900531
B1833073300561S06109516WA0056900531
B1833083300566S06109525WA0056900531
B1833093300571S06109534WA0056900530
B1833103300575S06109543WA0056700529
B1833113300581S06109551WA0056700529
B1833123300586S06109560WA0056600528
B1833133300591S06109568WA0056500527
B1833143300595S06109577WA0056500527
B1833153300600S06109586WA0056300525
B1833163300604S06109594WA0056200523
B1833173300609S06109603WA0055900521
B1833183300613S06109611WA0055700519
B1833193300619S06109620WA0055500517
B1833203300624S06109628WA0055400516
B1833213300630S06109638WA0055300515
B1833223300636S06109647WA0055300515
B1833233300642S06109654WA0055300515
B1833243300646S06109662WA0055100513
B1833253300652S06109670WA0054900511
B1833263300656S06109679WA0054700509
B1833273300661S06109689WA0054500506
B1833283300666S06109698WA0054400506
B1833293300672S06109707WA0054400506
B1833303300677S06109714WA0054400506
B1833313300682S06109722WA0054300505
B1833323300686S06109729WA0054100503
B1833333300692S06109737WA0053800500
B1833343300698S06109746WA0053600498
B1833353300703S06109755WA0053400496
B1833363300708S06109764WA0053300495
B1833373300713S06109772WA0053300495
B1833383300717S06109781WA0053200493
B1833393300721S06109789WA0053100492
B1833403300726S06109798WA0053000492
B1833413300732S06109806WA0052900491
B1833423300737S06109814WA0052800490
B1833433300741S06109822WA0052700489
B1833443300745S06109830WA0052600488
B1833453300750S06109838WA0052400486
B1833463300754S06109847WA0052300484
B1833473300759S06109855WA0052200484
B1833483300764S06109863WA0052100483
B1833493300768S06109871WA0052000482
B1833503300772S06109878WA0051900481
B1833513300777S06109886WA0051700479
B1833523300783S06109895WA0051600478
B1833533300788S06109904WA0051500477
B1833543300792S06109912WA0051500477
B1833553300796S06109920WA0051500477
B1833563300801S06109928WA0051400476
B1833573300806S06109936WA0051300475
B1833583300810S06109945WA0051200474
B1833593300815S06109954WA0051200474
B1834003300819S06109962WA0051200474
B1834013300823S06109970WA0051200474
B1834023300827S06109978WA0051100473
B1834033300832S06109985WA0050900471
B1834043300837S06109993WA0050800470
B1834053300841S06110001WA0050700468
B1834063300846S06110009WA0050500467
B1834073300851S06110017WA0050500467
B1834083300856S06110025WA0050400466
B1834093300862S06110033WA0050400466
B1834103300867S06110042WA0050300465
B1834113300872S06110050WA0050200464
B1834123300878S06110058WA0050200464
B1834133300882S06110066WA0050100463
B1834143300887S06110074WA0050000462
B1834153300894S06110082WA0049900461
B1834163300900S06110089WA0049800460
B1834173300905S06110097WA0049600458
B1834183300911S06110105WA0049400456
B1834193300916S06110114WA0049300455
B1834203300920S06110122WA0049300454
B1834213300927S06110130WA0049200453
B1834223300932S06110137WA0049100452
B1834233300938S06110145WA0048900451
B1834243300944S06110152WA0048700449
B1834253300950S06110160WA0048600448
B1834263300956S06110168WA0048400446
B1834273300962S06110176WA0048300445
B1834283300968S06110184WA0048300445
B1834293300973S06110192WA0048200444
B1834303300978S06110200WA0048000442
B1834313300985S06110207WA0047900441
B1834323300990S06110215WA0047800440
B1834333300996S06110224WA0047800440
B1834343301002S06110231WA0047700439
B1834353301009S06110239WA0047500437
B1834363301015S06110247WA0047400436
B1834373301021S06110254WA0047300435
B1834383301026S06110262WA0047100433
B1834393301031S06110270WA0047100433
B1834403301038S06110278WA0047000432
B1834413301044S06110286WA0046900431
B1834423301050S06110294WA0046800430
B1834433301058S06110301WA0046700429
B1834443301064S06110309WA0046700429
B1834453301071S06110317WA0046600428
B1834463301077S06110325WA0046500427
B1834473301084S06110332WA0046500426
B1834483301090S06110340WA0046400426
B1834493301097S06110348WA0046400425
B1834503301104S06110356WA0046300425
B1834513301111S06110363WA0046200424
B1834523301117S06110371WA0046100423
B1834533301123S06110379WA0046000422
B1834543301130S06110387WA0046000422
B1834553301135S06110394WA0045900421
B1834563301141S06110401WA0045900421
B1834573301147S06110409WA0045800420
B1834583301153S06110415WA0045700419
B1834593301160S06110423WA0045600418
B1835003301167S06110431WA0045600418
B1835013301174S06110438WA0045500417
B1835023301181S06110445WA0045400416
B1835033301188S06110452WA0045400416
B1835043301193S06110459WA0045300415
B1835053301200S06110466WA0045200414
B1835063301205S06110473WA0045100413
B1835073301212S06110480WA0045100413
B1835083301219S06110486WA0045000412
B1835093301225S06110492WA0045000412
B1835103301233S06110498WA0044900411
B1835113301241S06110503WA0044800410
B1835123301248S06110509WA0044600408
B1835133301255S06110516WA0044500407
B1835143301261S06110522WA0044400406
B1835153301268S06110528WA0044300405
B1835163301275S06110533WA0044200404
B1835173301283S06110538WA0044100403
B1835183301290S06110543WA0044100403
B1835193301298S06110549WA0044000402
B1835203301306S06110554WA0043900401
B1835213301314S06110559WA0043800400
B1835223301322S06110563WA0043700399
B1835233301330S06110568WA0043600398
B1835243301338S06110573WA0043500397
B1835253301346S06110578WA0043400396
B1835263301355S06110583WA0043300395
B1835273301363S06110587WA0043200394
B1835283301370S06110593WA0043100393
B1835293301378S06110597WA0042900391
B1835303301387S06110603WA0042900391
B1835313301396S06110608WA0042800390
B1835323301405S06110613WA0042700389
B1835333301414S06110619WA0042600388
B1835343301425S06110624WA0042400386
B1835353301433S06110629WA0042200384
B1835363301441S06110634WA0042100383
B1835373301449S06110639WA0042100383
B1835383301457S06110643WA0042000382
B1835393301465S06110648WA0041900381
B1835403301474S06110653WA0041700379
B1835413301483S06110658WA0041400376
B1835423301492S06110664WA0041300375
B1835433301501S06110669WA0041200374
B1835443301509S06110674WA0041100373
B1835453301517S06110679WA0040900371
B1835463301526S06110684WA0040700369
B1835473301534S06110689WA0040500367
B1835483301543S06110695WA0040400366
B1835493301552S06110702WA0040300365
B1835503301561S06110708WA0040200364
B1835513301570S06110713WA0040200364
B1835523301579S06110719WA0040100363
B1835533301587S06110725WA0040000362
B1835543301596S06110731WA0039900361
B1835553301604S06110737WA0039900360
B1835563301612S06110743WA0039700359
B1835573301620S06110749WA0039700358
B1835583301629S06110755WA0039600358
B1835593301637S06110762WA0039600358
B1836003301645S06110769WA0039700359
B1836013301653S06110774WA0039800360
B1836023301660S06110780WA0039800359
B1836033301668S06110785WA0039700359
B1836043301676S06110790WA0039700359
B1836053301683S06110795WA0039600358
B1836063301691S06110801WA0039600358
B1836073301698S06110806WA0039600358
B1836083301705S06110811WA0039500357
B1836093301713S06110817WA0039500357
B1836103301721S06110822WA0039400356
B1836113301729S06110827WA0039200354
B1836123301737S06110832WA0039100353
B1836133301745S06110837WA0038900351
B1836143301754S06110842WA0038700349
B1836153301763S06110848WA0038600348
B1836163301772S06110854WA0038500347
B1836173301780S06110860WA0038400346
B1836183301788S06110866WA0038300345
B1836193301796S06110872WA0038200344
B1836203301805S06110877WA0038100343
B1836213301813S06110883WA0038000342
B1836223301822S06110889WA0038000342
B1836233301830S06110895WA0037900341
B1836243301838S06110901WA0037900341
B1836253301846S06110906WA0037900340
B1836263301854S06110911WA0037700338
B1836273301863S06110916WA0037400336
B1836283301872S06110921WA0037200334
B1836293301881S06110927WA0037100333
B1836303301890S06110933WA0037100333
B1836313301898S06110938WA0037100333
B1836323301906S06110943WA0037000332
B1836333301915S06110949WA0036900331
B1836343301924S06110954WA0036800330
B1836353301932S06110960WA0036600328
B1836363301941S06110965WA0036500327
B1836373301949S06110971WA0036400326
B1836383301957S06110976WA0036300325
B1836393301966S06110982WA0036200324
B1836403301974S06110987WA0036000322
B1836413301982S06110993WA0035900321
B1836423301991S06110998WA0035700319
B1836433302000S06111004WA0035600318
B1836443302008S06111010WA0035500317
B1836453302016S06111016WA0035300315
B1836463302025S06111022WA0035200314
B1836473302035S06111028WA0035100313
B1836483302043S06111033WA0034900311
B1836493302051S06111039WA0034800310
B1836503302059S06111045WA0034600308
B1836513302068S06111051WA0034500307
B1836523302077S06111057WA0034400305
B1836533302085S06111063WA0034200304
B1836543302093S06111068WA0034100303
B1836553302101S06111074WA0034000302
B1836563302109S06111079WA0033800300
B1836573302117S06111086WA0033600298
B1836583302125S06111093WA0033500297
B1836593302134S06111099WA0033500297
B1837003302142S06111105WA0033300295
B1837013302149S06111111WA0033100293
B1837023302157S06111118WA0033000292
B1837033302165S06111124WA0032900291
B1837043302173S06111131WA0032700289
B1837053302180S06111138WA0032600288
B1837063302187S06111144WA0032500286
B1837073302194S06111150WA0032300284
B1837083302202S06111157WA0032100283
B1837093302209S06111165WA0031900281
B1837103302217S06111171WA0031700279
B1837113302225S06111177WA0031700279
B1837123302232S06111184WA0031500277
B1837133302240S06111189WA0031300275
B1837143302248S06111196WA0031100272
B1837153302256S06111204WA0030900271
B1837163302263S06111212WA0030700269
B1837173302270S06111219WA0030700269
B1837183302278S06111226WA0030600268
B1837193302285S06111233WA0030500267
B1837203302292S06111240WA0030500266
B1837213302299S06111247WA0030300265
B1837223302306S06111254WA0030200264
B1837233302314S06111262WA0030200264
B1837243302321S06111269WA0030300265
B1837253302328S06111274WA0030500266
B1837263302336S06111279WA0030400266
B1837273302344S06111284WA0030400265
B1837283302352S06111289WA0030300265
B1837293302361S06111293WA0030200264
B1837303302369S06111298WA0030100263
B1837313302377S06111303WA0030000262
B1837323302387S06111308WA0029900261
B1837333302395S06111313WA0029800260
B1837343302403S06111319WA0029600258
B1837353302411S06111325WA0029500257
B1837363302419S06111331WA0029300255
B1837373302427S06111337WA0029100253
B1837383302434S06111343WA0029000252
B1837393302442S06111349WA0028900251
B1837403302449S06111356WA0028700249
B1837413302456S06111362WA0028500247
B1837423302463S06111370WA0028400246
B1837433302470S06111378WA0028300245
B1837443302475S06111386WA0028200244
B1837453302479S06111394WA0028100243
B1837463302484S06111401WA0027900241
B1837473302488S06111410WA0027800240
B1837483302493S06111418WA0027700239
B1837493302496S06111426WA0027600238
B1837503302500S06111434WA0027500237
B1837513302505S06111442WA0027300235
B1837523302506S06111451WA0027100233
B1837533302506S06111458WA0027000231
B1837543302503S06111465WA0026800230
B1837553302499S06111470WA0026700229
B1837563302495S06111474WA0026600227
B1837573302495S06111477WA0026400226
B1837583302495S06111477WA0026300224
B1837593302495S06111476WA0026100222
B1838003302493S06111475WA0025900221
B1838013302491S06111472WA0025800220
B1838023302489S06111471WA0025700219
B1838033302489S06111470WA0025600218
B1838043302487S06111468WA0025500217
B1838053302486S06111467WA0025300215
B1838063302484S06111466WA0025200213
B1838073302482S06111466WA0025100213
B1838083302481S06111466WA0025000212
B1838093302479S06111466WA0024900211
B1838103302478S06111466WA0024800210
B1838113302477S06111465WA0024700209
B1838123302475S06111464WA0024500207
B1838133302473S06111463WA0024300205
B1838143302472S06111461WA0024100203
B1838153302470S06111461WA0024200204
B1838163302466S06111463WA0024200204
B1838173302465S06111463WA0024100203
B1838183302463S06111463WA0023900201
B1838193302461S06111463WA0023800200
B1838203302460S06111462WA0023600198
B1838213302458S06111461WA0023500197
B1838223302456S06111460WA0023500197
B1838233302455S06111459WA0023400196
B1838243302454S06111458WA0023300195
B1838253302452S06111457WA0023200194
B1838263302451S06111456WA0023000192
B1838273302449S06111455WA0023000192
B1838283302449S06111454WA0023100193
B1838293302449S06111453WA0023100192
B1838303302449S06111452WA0023000192
B1838313302448S06111452WA0022800190
B1838323302448S06111452WA0022500187
B1838333302447S06111450WA0022300185
B1838343302447S06111449WA0022100183
B1838353302446S06111447WA0022000182
B1838363302445S06111445WA0021900181
B1838373302444S06111444WA0021700179
B1838383302443S06111442WA0021600178
B1838393302442S06111441WA0021400176
B1838403302441S06111440WA0021200174
B1838413302439S06111438WA0021100173
B1838423302437S06111438WA0021200174
B1838433302435S06111437WA0021100173
B1838443302434S06111437WA0021000172
B1838453302433S06111436WA0020800170
B1838463302432S06111434WA0020700169
B1838473302431S06111431WA0020600168
B1838483302430S06111430WA0020500166
B1838493302428S06111428WA0020300165
B1838503302426S06111425WA0020200164
B1838513302425S06111423WA0020100163
B1838523302424S06111421WA0020000162
B1838533302423S06111419WA0019900161
B1838543302422S06111417WA0019700159
B1838553302421S06111415WA0019500157
B1838563302419S06111414WA0019300155
B1838573302418S06111411WA0019100153
B1838583302417S06111409WA0019100153
B1838593302416S06111407WA0019000152
B1839003302414S06111406WA0018800150
B1839013302413S06111403WA0018600148
B1839023302412S06111401WA0018400146
B1839033302410S06111399WA0018100143
B1839043302408S06111397WA0017900141
B1839053302407S06111396WA0017800140
B1839063302405S06111394WA0017600138
B1839073302403S06111394WA0017400136
B1839083302402S06111392WA0017200134
B1839093302400S06111390WA0017000132
B1839103302399S06111389WA0016800129
B1839113302396S06111387WA0016600127
B1839123302394S06111387WA0016500127
B1839133302393S06111386WA0016600128
B1839143302393S06111385WA0016500127
B1839153302392S06111384WA0016400126
B1839163302390S06111382WA0016000122
B1839173302388S06111380WA0015800119
B1839183302386S06111379WA0015600118
B1839193302384S06111377WA0015400116
B1839203302383S06111375WA0015300115
B1839213302380S06111375WA0015300115
B1839223302379S06111375WA0015300115
B1839233302377S06111374WA0015200114
B1839243302376S06111372WA0015100113
B1839253302375S06111371WA0014900111
B1839263302374S06111370WA0014800110
B1839273302372S06111369WA0014700109
B1839283302371S06111368WA0014600108
B1839293302370S06111366WA0014400106
B1839303302369S06111363WA0014300105
B1839313302369S06111361WA0014200104
B1839323302367S06111357WA0014100103
B1839333302366S06111355WA0014200104
B1839343302364S06111353WA0014200104
B1839353302363S06111351WA0014300105
B1839363302364S06111349WA0014300105
B1839373302366S06111346WA0014200104
B1839383302368S06111343WA0014100102
B1839393302369S06111341WA0013800100
B1839403302369S06111339WA0013600098
B1839413302368S06111337WA0013400096
B1839423302367S06111335WA0013300095
B1839433302367S06111333WA0013300095
B1839443302366S06111331WA0013200093
B1839453302366S06111331WA0013100093
B1839463302366S06111330WA0012900091
B1839473302366S06111329WA0012800090
B1839483302366S06111329WA0012700089
B1839493302366S06111329WA0012600088
B1839503302366S06111329WA0012400086
B1839513302366S06111329WA0012300085
B1839523302364S06111329WA0012100083
B1839533302363S06111328WA0012000082
B1839543302363S06111328WA0011900081
B1839553302363S06111328WA0011800080
B1839563302363S06111328WA0011700079
B1839573302363S06111327WA0011900080
B1839583302365S06111326WA0011900081
B1839593302365S06111326WA0011800080
B1840003302364S06111327WA0011800080
B1840013302364S06111327WA0011800080
B1840023302364S06111327WA0011800080
B1840033302363S06111327WA0011800080
B1840043302361S06111327WA0011800080
B1840053302361S06111327WA0011800080
B1840063302361S06111327WA0011800080
B1840073302361S06111328WA0011800080
B1840083302359S06111330WA0011800080
B1840093302357S06111331WA0011800080
B1840103302357S06111331WA0011800080
B1840113302356S06111330WA0011800080
B1840123302355S06111331WA0011800080
B1840133302355S06111331WA0011800080
B1840143302355S06111331WA0011800080
B1840153302354S06111331WA0011800080
B1840163302354S06111332WA0011800080
B1840173302354S06111332WA0011800080
B1840183302352S06111333WA0011800080
B1840193302351S06111334WA0011800080
B1840203302348S06111335WA0011800080
B1840213302349S06111335WA0011800080
B1840223302348S06111335WA0011800080
B1840233302348S06111335WA0011800080
B1840243302348S06111335WA0011800080
B1840253302347S06111336WA0011800080
B1840263302347S06111336WA0011800080
B1840273302347S06111337WA0011800080
B1840283302347S06111336WA0011800080
B1840293302348S06111335WA0011800080
B1840303302349S06111335WA0011700079
B1840313302350S06111335WA0011700079
B1840323302350S06111334WA0011800079
B1840333302349S06111335WA0011700079
B1840343302349S06111334WA0011700079
B1840353302349S06111334WA0011700079
B1840363302348S06111334WA0011700079
B1840373302349S06111334WA0011800080
B1840383302342S06111337WA0011800080
B1840393302342S06111337WA0011700079
B1840403302342S06111336WA0011700079
B1840413302342S06111335WA0011800079
B1840423302341S06111335WA0011800080
B1840433302340S06111335WA0011600078
B1840443302337S06111334WA0011700079
B1840453302337S06111334WA0011800080
B1840463302336S06111334WA0011800079
B1840473302336S06111333WA0011700079
B1840483302336S06111332WA0011800080
B1840493302336S06111332WA0011800080
B1840503302337S06111331WA0011800080
B1840513302337S06111331WA0011800080
B1840523302337S06111332WA0011800080
B1840533302337S06111331WA0011800080
B1840543302336S06111335WA0011800080
B1840553302336S06111337WA0011900081
B1840563302336S06111337WA0011800080
B1840573302334S06111339WA0011800080
B1840583302333S06111340WA0011900081
B1840593302332S06111340WA0011800080
B1841003302332S06111342WA0011800080
B1841013302330S06111343WA0011900081
B1841023302330S06111342WA0011800080
B1841033302329S06111342WA0011800080
B1841043302330S06111341WA0011800080
B1841053302330S06111342WA0011800080
B1841063302330S06111342WA0011800080
B1841073302329S06111343WA0011800080
B1841083302330S06111341WA0011800080
B1841093302330S06111342WA0011800080
B1841103302330S06111341WA0011800080
LXSX;GF:1.4
G2345A9E4478DA4D1B8A05E77EDECAEFA
