AXSX003 SKYTRAXX V3.0.16c SN:00000380
HFPLTPILOT:Sepp Bucher
HFGTYGLIDERTYPE:Advance Sigma10
HFDTM100GPSDATUM:WGS-84
HFCIDCOMPETITIONID:0000
HFCCLCOMPETITION CLASS:Paraglider (Standard)
HFSITSITE:UNKNOWN
HFDTE061020
C0610201302180000000001061006B.tsk
C4532759N00752518ETAKEOFF
C4533342N00752486ESTART
C4537982N00759319ETURN
C4533687N00755390ETURN
C4531402N00753815ETURN
C4527635N00759959ETURN
C4532474N00752668ETURN
C4530834N00749002ETURN
C4525774N00748920EFINISH
C4525774N00748920ELANDING
B1331434532759N00752518EA0123701236
B1331444532759N00752518EA0123801236
B1331454532759N00752518EA0123701236
B1331464532759N00752518EA0123701236
B1331474532759N00752518EA0123701236
B1331484532759N00752518EA0123701236
B1331494532759N00752518EA0123701235
B1331504532758N00752518EA0123601235
B1331514532757N00752517EA0123701236
B1331524532757N00752518EA0123801236
B1331534532756N00752517EA0123701236
B1331544532756N00752516EA0123601234
B1331554532754N00752515EA0123301232
B1331564532753N00752514EA0123101230
B1331574532750N00752513EA0123101233
B1331584532745N00752512EA0123001234
B1331594532739N00752512EA0122901233
B1332004532735N00752512EA0123001234
B1332014532731N00752513EA0123101235
B1332024532727N00752514EA0123001234
B1332034532723N00752514EA0123001234
B1332044532719N00752515EA0122901233
B1332054532714N00752515EA0122901233
B1332064532710N00752515EA0122801232
B1332074532706N00752516EA0122801232
B1332084532701N00752516EA0122801232
B1332094532697N00752517EA0122701231
B1332104532692N00752518EA0122701231
B1332114532687N00752519EA0122701231
B1332124532682N00752519EA0122701231
B1332134532677N00752520EA0122601230
B1332144532672N00752520EA0122501229
B1332154532668N00752521EA0122501229
B1332164532663N00752522EA0122401228
B1332174532658N00752522EA0122401228
B1332184532653N00752524EA0122301227
B1332194532648N00752525EA0122201226
B1332204532644N00752526EA0122201226
B1332214532639N00752527EA0122201226
B1332224532634N00752528EA0122201226
B1332234532629N00752528EA0122101225
B1332244532625N00752529EA0122001224
B1332254532620N00752530EA0121901223
B1332264532614N00752531EA0121801222
B1332274532609N00752532EA0121801222
B1332284532604N00752533EA0121801222
B1332294532601N00752534EA0121701221
B1332304532596N00752536EA0121501219
B1332314532591N00752537EA0121401218
B1332324532586N00752539EA0121201216
B1332334532581N00752540EA0121201216
B1332344532576N00752542EA0121201216
B1332354532572N00752544EA0121101215
B1332364532567N00752545EA0121001214
B1332374532563N00752547EA0120901213
B1332384532558N00752548EA0120701211
B1332394532553N00752550EA0120601210
B1332404532548N00752552EA0120501209
B1332414532544N00752554EA0120501209
B1332424532539N00752556EA0120501209
B1332434532536N00752557EA0120301207
B1332444532531N00752559EA0120101205
B1332454532527N00752562EA0119901203
B1332464532522N00752564EA0119701201
B1332474532517N00752566EA0119601200
B1332484532513N00752568EA0119601200
B1332494532508N00752570EA0119501199
B1332504532504N00752572EA0119401198
B1332514532500N00752575EA0119201196
B1332524532495N00752577EA0119001194
B1332534532490N00752579EA0118901193
B1332544532485N00752580EA0118901193
B1332554532480N00752582EA0118901193
B1332564532476N00752584EA0118801192
B1332574532472N00752585EA0118801192
B1332584532467N00752587EA0118601190
B1332594532462N00752588EA0118501189
B1333004532458N00752590EA0118401188
B1333014532453N00752591EA0118301187
B1333024532448N00752593EA0118301187
B1333034532444N00752594EA0118201186
B1333044532440N00752595EA0118001184
B1333054532436N00752596EA0117801182
B1333064532431N00752598EA0117501179
B1333074532426N00752600EA0117301177
B1333084532420N00752601EA0117301177
B1333094532416N00752603EA0117301177
B1333104532411N00752604EA0117301177
B1333114532406N00752605EA0117201176
B1333124532402N00752607EA0117001174
B1333134532397N00752609EA0116801172
B1333144532392N00752611EA0116801172
B1333154532387N00752613EA0116701171
B1333164532383N00752616EA0116701171
B1333174532379N00752618EA0116601170
B1333184532375N00752621EA0116401168
B1333194532371N00752623EA0116301167
B1333204532366N00752626EA0116101165
B1333214532361N00752629EA0116001164
B1333224532357N00752631EA0115901163
B1333234532352N00752633EA0115901163
B1333244532348N00752636EA0115701161
B1333254532343N00752638EA0115501159
B1333264532338N00752640EA0115301157
B1333274532333N00752643EA0115101155
B1333284532329N00752645EA0115001154
B1333294532324N00752648EA0115001154
B1333304532319N00752651EA0114901153
B1333314532316N00752653EA0114801152
B1333324532312N00752656EA0114501149
B1333334532308N00752658EA0114101145
B1333344532303N00752661EA0113701141
B1333354532298N00752664EA0113501139
B1333364532292N00752666EA0113301137
B1333374532287N00752668EA0113201136
B1333384532281N00752669EA0113201136
B1333394532276N00752670EA0113101135
B1333404532272N00752672EA0113001134
B1333414532268N00752673EA0112901133
B1333424532264N00752673EA0112601130
B1333434532259N00752674EA0112401128
B1333444532254N00752675EA0112201126
B1333454532249N00752677EA0112101125
B1333464532245N00752678EA0112001124
B1333474532241N00752679EA0111801122
B1333484532236N00752679EA0111601120
B1333494532231N00752680EA0111401118
B1333504532227N00752681EA0111301117
B1333514532222N00752682EA0111201116
B1333524532217N00752684EA0111101115
B1333534532213N00752685EA0110901113
B1333544532208N00752686EA0110801112
B1333554532203N00752688EA0110601110
B1333564532198N00752690EA0110401108
B1333574532193N00752693EA0110201107
B1333584532189N00752695EA0110101105
B1333594532183N00752696EA0109901103
B1334004532178N00752698EA0109801102
B1334014532172N00752701EA0109801102
B1334024532168N00752703EA0109801102
B1334034532163N00752705EA0109901103
B1334044532158N00752706EA0109801102
B1334054532153N00752707EA0109701101
B1334064532148N00752709EA0109501099
B1334074532143N00752711EA0109401098
B1334084532138N00752713EA0109301097
B1334094532133N00752715EA0109201096
B1334104532128N00752716EA0109201096
B1334114532123N00752718EA0109101095
B1334124532119N00752720EA0108901093
B1334134532114N00752722EA0108801092
B1334144532109N00752725EA0108801092
B1334154532105N00752727EA0108801092
B1334164532100N00752730EA0108601091
B1334174532096N00752733EA0108501089
B1334184532091N00752737EA0108301087
B1334194532085N00752741EA0108301087
B1334204532081N00752744EA0108401088
B1334214532077N00752747EA0108501089
B1334224532073N00752749EA0108501089
B1334234532070N00752751EA0108301087
B1334244532066N00752754EA0108101085
B1334254532062N00752757EA0107701081
B1334264532057N00752759EA0107401078
B1334274532051N00752762EA0107301077
B1334284532046N00752764EA0107201076
B1334294532043N00752767EA0107101075
B1334304532039N00752770EA0106901073
B1334314532035N00752772EA0106601070
B1334324532031N00752775EA0106201066
B1334334532026N00752777EA0105901063
B1334344532021N00752781EA0105701061
B1334354532016N00752785EA0105401058
B1334364532010N00752789EA0105201056
B1334374532005N00752793EA0105001054
B1334384532000N00752796EA0104901053
B1334394531995N00752799EA0104901053
B1334404531989N00752803EA0104601050
B1334414531984N00752807EA0104501049
B1334424531979N00752810EA0104401048
B1334434531974N00752813EA0104301047
B1334444531969N00752816EA0104201046
B1334454531964N00752819EA0103901043
B1334464531959N00752822EA0103701041
B1334474531954N00752825EA0103501039
B1334484531948N00752828EA0103401038
B1334494531942N00752831EA0103201036
B1334504531937N00752835EA0103101035
B1334514531931N00752838EA0103001034
B1334524531926N00752842EA0102801032
B1334534531921N00752845EA0102701031
B1334544531916N00752849EA0102601030
B1334554531910N00752852EA0102401028
B1334564531905N00752856EA0102301027
B1334574531900N00752860EA0102201026
B1334584531895N00752863EA0102101025
B1334594531890N00752867EA0101901023
B1335004531885N00752871EA0101701021
B1335014531880N00752874EA0101501019
B1335024531875N00752878EA0101501019
B1335034531870N00752881EA0101301018
B1335044531865N00752885EA0101101015
B1335054531861N00752889EA0100901013
B1335064531856N00752893EA0100801012
B1335074531851N00752896EA0100601011
B1335084531846N00752900EA0100501009
B1335094531841N00752904EA0100301007
B1335104531837N00752908EA0100201006
B1335114531832N00752913EA0100001004
B1335124531828N00752917EA0099801002
B1335134531823N00752921EA0099701001
B1335144531818N00752926EA0099500999
B1335154531814N00752930EA0099300997
B1335164531809N00752935EA0099200996
B1335174531804N00752939EA0099100995
B1335184531800N00752944EA0099000994
B1335194531795N00752948EA0098900993
B1335204531791N00752953EA0098700991
B1335214531787N00752957EA0098500989
B1335224531782N00752962EA0098300987
B1335234531777N00752966EA0098200986
B1335244531772N00752971EA0097900983
B1335254531768N00752976EA0097800982
B1335264531763N00752980EA0097700981
B1335274531758N00752985EA0097500979
B1335284531753N00752990EA0097300977
B1335294531748N00752995EA0097100975
B1335304531744N00753000EA0097000974
B1335314531739N00753006EA0096900973
B1335324531734N00753011EA0096900973
B1335334531729N00753016EA0096800972
B1335344531725N00753020EA0096700971
B1335354531721N00753025EA0096600970
B1335364531716N00753030EA0096500969
B1335374531712N00753035EA0096500969
B1335384531709N00753040EA0096500969
B1335394531706N00753043EA0096500969
B1335404531703N00753047EA0096300967
B1335414531700N00753050EA0096100965
B1335424531696N00753054EA0095900963
B1335434531692N00753059EA0095700961
B1335444531689N00753064EA0095700961
B1335454531685N00753068EA0095700961
B1335464531683N00753072EA0095500959
B1335474531680N00753076EA0095400958
B1335484531677N00753081EA0095200956
B1335494531674N00753087EA0094900953
B1335504531671N00753092EA0094800952
B1335514531667N00753097EA0094800952
B1335524531664N00753101EA0094800952
B1335534531661N00753105EA0094800952
B1335544531658N00753109EA0094800952
B1335554531656N00753113EA0094600950
B1335564531652N00753117EA0094500949
B1335574531649N00753121EA0094400948
B1335584531647N00753126EA0094300947
B1335594531644N00753130EA0094200946
B1336004531642N00753134EA0094100945
B1336014531640N00753138EA0093900943
B1336024531637N00753143EA0093600940
B1336034531634N00753147EA0093300937
B1336044531631N00753152EA0093100935
B1336054531628N00753157EA0093000934
B1336064531625N00753161EA0092900933
B1336074531622N00753165EA0092700931
B1336084531619N00753169EA0092600930
B1336094531615N00753173EA0092300927
B1336104531611N00753177EA0092100925
B1336114531607N00753180EA0091900923
B1336124531604N00753185EA0091800922
B1336134531601N00753189EA0091600920
B1336144531598N00753192EA0091300917
B1336154531594N00753196EA0091200916
B1336164531590N00753201EA0090900913
B1336174531586N00753205EA0090800912
B1336184531583N00753209EA0090700911
B1336194531580N00753213EA0090500909
B1336204531577N00753218EA0090300907
B1336214531573N00753222EA0090100905
B1336224531569N00753226EA0090000904
B1336234531565N00753230EA0089800902
B1336244531562N00753235EA0089600900
B1336254531558N00753239EA0089500899
B1336264531554N00753243EA0089400898
B1336274531550N00753246EA0089200896
B1336284531547N00753250EA0089100895
B1336294531543N00753254EA0088700892
B1336304531539N00753258EA0088500889
B1336314531535N00753262EA0088200886
B1336324531531N00753266EA0087900883
B1336334531527N00753270EA0087700881
B1336344531523N00753273EA0087500879
B1336354531518N00753277EA0087300877
B1336364531513N00753280EA0087200876
B1336374531508N00753282EA0087000874
B1336384531504N00753283EA0086900873
B1336394531498N00753282EA0086700871
B1336404531492N00753280EA0086400868
B1336414531487N00753277EA0086100865
B1336424531482N00753272EA0085900863
B1336434531477N00753266EA0085600860
B1336444531472N00753259EA0085400858
B1336454531468N00753253EA0085200856
B1336464531463N00753246EA0084900853
B1336474531458N00753239EA0084700851
B1336484531454N00753232EA0084500849
B1336494531450N00753225EA0084200846
B1336504531445N00753217EA0083900843
B1336514531440N00753209EA0083500839
B1336524531435N00753200EA0083200836
B1336534531430N00753191EA0083100835
B1336544531425N00753182EA0082900833
B1336554531421N00753173EA0082800832
B1336564531417N00753165EA0082600830
B1336574531413N00753156EA0082400828
B1336584531409N00753147EA0082000824
B1336594531405N00753138EA0081800822
B1337004531401N00753128EA0081600820
B1337014531397N00753119EA0081500819
B1337024531394N00753110EA0081400818
B1337034531390N00753102EA0081200816
B1337044531387N00753094EA0081100815
B1337054531383N00753086EA0080900813
B1337064531380N00753077EA0080600810
B1337074531377N00753067EA0080400808
B1337084531374N00753057EA0080200806
B1337094531372N00753048EA0080100805
B1337104531369N00753039EA0079900803
B1337114531367N00753030EA0079700801
B1337124531364N00753020EA0079500799
B1337134531362N00753010EA0079300797
B1337144531360N00753000EA0079200796
B1337154531358N00752990EA0079000794
B1337164531356N00752981EA0078900793
B1337174531355N00752971EA0078700791
B1337184531353N00752962EA0078400788
B1337194531352N00752952EA0078200786
B1337204531351N00752942EA0078000784
B1337214531349N00752933EA0077900783
B1337224531347N00752924EA0077700781
B1337234531345N00752915EA0077500779
B1337244531343N00752906EA0077200776
B1337254531342N00752896EA0077000774
B1337264531340N00752886EA0076700771
B1337274531338N00752876EA0076400768
B1337284531337N00752866EA0076300767
B1337294531336N00752857EA0076100765
B1337304531335N00752848EA0075900763
B1337314531333N00752839EA0075600760
B1337324531330N00752828EA0075200756
B1337334531329N00752817EA0074800752
B1337344531327N00752805EA0074700751
B1337354531325N00752794EA0074500749
B1337364531323N00752784EA0074300748
B1337374531321N00752774EA0074200746
B1337384531319N00752764EA0073900743
B1337394531318N00752754EA0073700741
B1337404531316N00752743EA0073500739
B1337414531314N00752733EA0073300737
B1337424531313N00752723EA0073200736
B1337434531312N00752713EA0073100735
B1337444531311N00752704EA0073000734
B1337454531310N00752695EA0072900733
B1337464531309N00752686EA0072800732
B1337474531309N00752678EA0072600730
B1337484531309N00752669EA0072300727
B1337494531309N00752660EA0072000724
B1337504531309N00752650EA0071800722
B1337514531309N00752640EA0071600720
B1337524531309N00752629EA0071500719
B1337534531310N00752619EA0071300717
B1337544531310N00752609EA0071400718
B1337554531309N00752599EA0071400718
B1337564531309N00752591EA0071300717
B1337574531308N00752582EA0071100715
B1337584531308N00752573EA0070900713
B1337594531307N00752563EA0070700711
B1338004531307N00752553EA0070400708
B1338014531308N00752542EA0070200706
B1338024531309N00752531EA0070100705
B1338034531310N00752521EA0070000704
B1338044531310N00752511EA0070000704
B1338054531310N00752502EA0069800702
B1338064531310N00752493EA0069600700
B1338074531310N00752483EA0069500699
B1338084531310N00752474EA0069400698
B1338094531310N00752465EA0069200696
B1338104531311N00752457EA0069000694
B1338114531311N00752448EA0068700692
B1338124531311N00752438EA0068400688
B1338134531311N00752428EA0068200686
B1338144531311N00752418EA0067900683
B1338154531311N00752408EA0067700681
B1338164531311N00752398EA0067600680
B1338174531310N00752388EA0067400678
B1338184531310N00752378EA0067100675
B1338194531310N00752367EA0066800672
B1338204531310N00752357EA0066500669
B1338214531310N00752346EA0066300667
B1338224531309N00752336EA0066000664
B1338234531308N00752325EA0065700661
B1338244531308N00752314EA0065300657
B1338254531307N00752302EA0065100655
B1338264531307N00752291EA0064900653
B1338274531307N00752280EA0064700651
B1338284531307N00752269EA0064500649
B1338294531306N00752258EA0064200646
B1338304531306N00752246EA0063900643
B1338314531306N00752234EA0063700641
B1338324531306N00752222EA0063500639
B1338334531306N00752211EA0063300637
B1338344531306N00752199EA0063200636
B1338354531307N00752188EA0063000634
B1338364531307N00752176EA0062900633
B1338374531307N00752165EA0062600630
B1338384531307N00752153EA0062400628
B1338394531307N00752141EA0062300627
B1338404531308N00752130EA0062200626
B1338414531309N00752120EA0062200626
B1338424531309N00752111EA0062200626
B1338434531309N00752101EA0062000624
B1338444531310N00752091EA0061800622
B1338454531311N00752081EA0061800622
B1338464531313N00752072EA0061900623
B1338474531315N00752065EA0061900624
B1338484531317N00752059EA0061900623
B1338494531318N00752052EA0061600620
B1338504531320N00752044EA0061300617
B1338514531322N00752035EA0060900613
B1338524531324N00752026EA0060800612
B1338534531326N00752017EA0060700611
B1338544531328N00752009EA0060600610
B1338554531330N00752002EA0060300607
B1338564531332N00751994EA0060000604
B1338574531333N00751984EA0059700601
B1338584531336N00751974EA0059500599
B1338594531338N00751965EA0059500599
B1339004531340N00751957EA0059500599
B1339014531342N00751949EA0059300597
B1339024531344N00751942EA0059100595
B1339034531347N00751933EA0058900593
B1339044531349N00751924EA0058700591
B1339054531351N00751915EA0058600590
B1339064531353N00751906EA0058500589
B1339074531355N00751899EA0058300587
B1339084531356N00751890EA0058000584
B1339094531358N00751881EA0057700581
B1339104531359N00751872EA0057400578
B1339114531361N00751862EA0057200576
B1339124531362N00751852EA0057100575
B1339134531363N00751843EA0057000574
B1339144531364N00751835EA0056800572
B1339154531366N00751827EA0056600570
B1339164531367N00751817EA0056200566
B1339174531369N00751807EA0055900563
B1339184531371N00751797EA0055700562
B1339194531373N00751788EA0055700561
B1339204531374N00751779EA0055700561
B1339214531376N00751771EA0055600560
B1339224531376N00751762EA0055300557
B1339234531378N00751753EA0055200556
B1339244531379N00751743EA0055100555
B1339254531381N00751735EA0055100555
B1339264531382N00751727EA0055200556
B1339274531383N00751719EA0055200556
B1339284531385N00751712EA0055100555
B1339294531387N00751704EA0054900553
B1339304531388N00751696EA0054800552
B1339314531390N00751688EA0054700551
B1339324531390N00751680EA0054700551
B1339334531391N00751673EA0054600550
B1339344531392N00751665EA0054500549
B1339354531393N00751658EA0054300547
B1339364531394N00751649EA0054100545
B1339374531395N00751641EA0054000544
B1339384531398N00751633EA0053800543
B1339394531399N00751625EA0053700541
B1339404531400N00751617EA0053600540
B1339414531401N00751609EA0053300537
B1339424531403N00751600EA0053100535
B1339434531405N00751591EA0052800532
B1339444531406N00751582EA0052700531
B1339454531407N00751574EA0052400528
B1339464531408N00751566EA0052100525
B1339474531409N00751558EA0051900523
B1339484531410N00751551EA0051700521
B1339494531413N00751543EA0051500519
B1339504531415N00751536EA0051400518
B1339514531417N00751528EA0051300517
B1339524531418N00751521EA0051100515
B1339534531420N00751513EA0050900513
B1339544531422N00751505EA0050700511
B1339554531423N00751496EA0050500509
B1339564531424N00751487EA0050400508
B1339574531425N00751479EA0050400508
B1339584531425N00751471EA0050200506
B1339594531426N00751464EA0050000504
B1340004531427N00751456EA0049600500
B1340014531428N00751447EA0049300497
B1340024531429N00751438EA0049300497
B1340034531430N00751429EA0049200496
B1340044531430N00751421EA0049000494
B1340054531431N00751413EA0048700491
B1340064531432N00751405EA0048600490
B1340074531433N00751396EA0048300487
B1340084531433N00751388EA0048100486
B1340094531433N00751379EA0048000484
B1340104531432N00751372EA0047900483
B1340114531431N00751363EA0047700481
B1340124531430N00751355EA0047600480
B1340134531428N00751347EA0047500479
B1340144531426N00751339EA0047400478
B1340154531424N00751332EA0047300477
B1340164531421N00751325EA0047200476
B1340174531419N00751318EA0047000474
B1340184531417N00751311EA0046900473
B1340194531414N00751304EA0046800472
B1340204531410N00751297EA0046600470
B1340214531407N00751290EA0046500469
B1340224531405N00751283EA0046300467
B1340234531402N00751276EA0046200466
B1340244531399N00751269EA0046100465
B1340254531395N00751261EA0045900463
B1340264531393N00751254EA0045800462
B1340274531390N00751246EA0045700461
B1340284531387N00751239EA0045600460
B1340294531384N00751232EA0045500459
B1340304531381N00751224EA0045400458
B1340314531379N00751217EA0045300457
B1340324531376N00751210EA0045100455
B1340334531374N00751202EA0045000454
B1340344531371N00751195EA0044800452
B1340354531367N00751187EA0044700451
B1340364531364N00751179EA0044600450
B1340374531361N00751172EA0044500449
B1340384531357N00751165EA0044400448
B1340394531354N00751158EA0044200446
B1340404531350N00751151EA0044100445
B1340414531347N00751144EA0043900443
B1340424531343N00751137EA0043800442
B1340434531340N00751130EA0043700441
B1340444531337N00751123EA0043600440
B1340454531333N00751118EA0043500439
B1340464531330N00751111EA0043200436
B1340474531327N00751105EA0043000434
B1340484531323N00751098EA0042900433
B1340494531319N00751091EA0042800432
B1340504531316N00751085EA0042700431
B1340514531312N00751080EA0042600430
B1340524531309N00751075EA0042500429
B1340534531305N00751070EA0042300427
B1340544531301N00751065EA0042200426
B1340554531296N00751060EA0042100425
B1340564531292N00751056EA0042100425
B1340574531288N00751052EA0042000424
B1340584531284N00751048EA0041900423
B1340594531279N00751044EA0041800422
B1341004531274N00751040EA0041600420
B1341014531269N00751036EA0041600420
B1341024531264N00751032EA0041700421
B1341034531259N00751027EA0041700421
B1341044531255N00751022EA0041900423
B1341054531251N00751018EA0042000424
B1341064531247N00751016EA0041900423
B1341074531243N00751013EA0041900423
B1341084531239N00751010EA0041700421
B1341094531234N00751006EA0041700421
B1341104531230N00751002EA0041600420
B1341114531226N00750999EA0041600420
B1341124531221N00750996EA0041500419
B1341134531217N00750992EA0041400418
B1341144531212N00750988EA0041300417
B1341154531208N00750985EA0041200416
B1341164531203N00750981EA0041100415
B1341174531198N00750978EA0041100415
B1341184531193N00750973EA0041100415
B1341194531189N00750969EA0041200416
B1341204531184N00750965EA0041200416
B1341214531180N00750961EA0041100415
B1341224531176N00750958EA0041100415
B1341234531171N00750954EA0041100415
B1341244531165N00750950EA0041100415
B1341254531161N00750946EA0041300417
B1341264531156N00750942EA0041500419
B1341274531152N00750938EA0041500419
B1341284531149N00750933EA0041600420
B1341294531146N00750927EA0041600420
B1341304531143N00750920EA0041700421
B1341314531141N00750912EA0041700421
B1341324531140N00750905EA0041700421
B1341334531139N00750897EA0041700421
B1341344531140N00750889EA0041700421
B1341354531142N00750880EA0041600420
B1341364531144N00750872EA0041500419
B1341374531147N00750865EA0041400418
B1341384531152N00750859EA0041300417
B1341394531156N00750854EA0041200416
B1341404531162N00750850EA0041100415
B1341414531167N00750847EA0041000414
B1341424531172N00750845EA0040900413
B1341434531178N00750845EA0040800412
B1341444531183N00750847EA0040800412
B1341454531187N00750850EA0040700411
B1341464531190N00750855EA0040700411
B1341474531192N00750860EA0040700411
B1341484531193N00750864EA0040800412
B1341494531193N00750869EA0040900413
B1341504531191N00750874EA0040900413
B1341514531190N00750878EA0040900413
B1341524531188N00750882EA0041000414
B1341534531186N00750887EA0041000414
B1341544531184N00750891EA0041100415
B1341554531182N00750895EA0041100415
B1341564531179N00750899EA0041200416
B1341574531177N00750903EA0041300417
B1341584531174N00750906EA0041400418
B1341594531171N00750908EA0041400418
B1342004531168N00750910EA0041400418
B1342014531165N00750912EA0041500419
B1342024531160N00750912EA0041500419
B1342034531155N00750910EA0041500419
B1342044531151N00750907EA0041600420
B1342054531147N00750902EA0041700421
B1342064531143N00750896EA0041700421
B1342074531142N00750889EA0041800422
B1342084531141N00750882EA0041700421
B1342094531141N00750874EA0041700421
B1342104531141N00750865EA0041700421
B1342114531143N00750856EA0041600420
B1342124531146N00750849EA0041600420
B1342134531150N00750842EA0041500419
B1342144531155N00750838EA0041300417
B1342154531161N00750835EA0041300417
B1342164531167N00750834EA0041300417
B1342174531171N00750835EA0041300417
B1342184531176N00750837EA0041300417
B1342194531179N00750840EA0041300417
B1342204531182N00750843EA0041400418
B1342214531184N00750848EA0041400418
B1342224531185N00750853EA0041400418
B1342234531186N00750858EA0041400418
B1342244531184N00750863EA0041400418
B1342254531183N00750867EA0041500419
B1342264531182N00750871EA0041500419
B1342274531179N00750875EA0041500419
B1342284531177N00750879EA0041500419
B1342294531174N00750882EA0041500419
B1342304531171N00750885EA0041500419
B1342314531168N00750888EA0041500419
B1342324531165N00750890EA0041500419
B1342334531162N00750892EA0041400418
B1342344531158N00750895EA0041400418
B1342354531154N00750897EA0041300417
B1342364531151N00750900EA0041400418
B1342374531147N00750902EA0041400418
B1342384531144N00750903EA0041400418
B1342394531141N00750904EA0041400418
B1342404531137N00750905EA0041400418
B1342414531133N00750906EA0041400418
B1342424531129N00750907EA0041300417
B1342434531124N00750909EA0041300417
B1342444531121N00750909EA0041300417
B1342454531117N00750909EA0041300417
B1342464531113N00750907EA0041300417
B1342474531108N00750905EA0041200416
B1342484531103N00750902EA0041100415
B1342494531099N00750898EA0041000414
B1342504531095N00750893EA0041000414
B1342514531091N00750888EA0041000414
B1342524531087N00750882EA0040900413
B1342534531084N00750876EA0040800412
B1342544531080N00750868EA0040700411
B1342554531077N00750861EA0040600410
B1342564531075N00750852EA0040600410
B1342574531073N00750844EA0040500409
B1342584531071N00750836EA0040400408
B1342594531069N00750827EA0040400408
B1343004531067N00750819EA0040300407
B1343014531065N00750811EA0040200406
B1343024531063N00750803EA0040100405
B1343034531063N00750794EA0040100405
B1343044531063N00750786EA0040000404
B1343054531065N00750778EA0039900403
B1343064531067N00750769EA0039700401
B1343074531070N00750762EA0039600400
B1343084531074N00750754EA0039600400
B1343094531078N00750747EA0039500399
B1343104531083N00750741EA0039500399
B1343114531087N00750735EA0039400398
B1343124531093N00750730EA0039400398
B1343134531098N00750725EA0039200396
B1343144531103N00750719EA0039200396
B1343154531109N00750714EA0039100395
B1343164531116N00750709EA0038900393
B1343174531123N00750705EA0038800392
B1343184531129N00750702EA0038800392
B1343194531135N00750698EA0038700391
B1343204531142N00750695EA0038700391
B1343214531149N00750693EA0038600390
B1343224531155N00750690EA0038500389
B1343234531161N00750688EA0038500389
B1343244531168N00750686EA0038400388
B1343254531174N00750683EA0038400388
B1343264531180N00750681EA0038300387
B1343274531186N00750679EA0038100385
B1343284531192N00750678EA0038000384
B1343294531199N00750676EA0037900383
B1343304531206N00750674EA0037800382
B1343314531212N00750673EA0037700381
B1343324531219N00750670EA0037500379
B1343334531226N00750669EA0037400378
B1343344531232N00750667EA0037200376
B1343354531239N00750667EA0037000374
B1343364531246N00750666EA0036900373
B1343374531253N00750664EA0036900373
B1343384531260N00750662EA0036800372
B1343394531266N00750660EA0036700371
B1343404531272N00750659EA0036700371
B1343414531278N00750657EA0036500369
B1343424531284N00750654EA0036200366
B1343434531290N00750651EA0035900363
B1343444531298N00750648EA0035700361
B1343454531305N00750647EA0035500359
B1343464531311N00750646EA0035400358
B1343474531318N00750644EA0035200356
B1343484531325N00750643EA0035000354
B1343494531332N00750642EA0034900353
B1343504531339N00750643EA0034800352
B1343514531345N00750643EA0034700351
B1343524531351N00750644EA0034600350
B1343534531357N00750644EA0034500349
B1343544531364N00750645EA0034300347
B1343554531370N00750646EA0034100345
B1343564531376N00750647EA0034000344
B1343574531382N00750648EA0033900343
B1343584531389N00750649EA0033700341
B1343594531395N00750651EA0033600340
B1344004531401N00750653EA0033500339
B1344014531407N00750656EA0033400338
B1344024531413N00750659EA0033400338
B1344034531418N00750662EA0033400338
B1344044531423N00750665EA0033300337
B1344054531428N00750668EA0033300337
B1344064531432N00750672EA0033200336
B1344074531435N00750676EA0033100335
B1344084531439N00750680EA0033100335
B1344094531442N00750684EA0033100335
B1344104531445N00750687EA0033000334
B1344114531448N00750691EA0032900333
B1344124531451N00750696EA0032800332
B1344134531455N00750702EA0032800332
B1344144531458N00750708EA0032800332
B1344154531460N00750713EA0032800332
B1344164531462N00750718EA0032800332
B1344174531464N00750722EA0032700331
B1344184531466N00750727EA0032600331
B1344194531469N00750731EA0032600330
B1344204531471N00750736EA0032500329
B1344214531473N00750740EA0032400328
B1344224531476N00750745EA0032400328
B1344234531477N00750750EA0032300327
B1344244531479N00750755EA0032300327
B1344254531482N00750759EA0032200326
B1344264531483N00750764EA0032200326
B1344274531485N00750768EA0032100325
B1344284531488N00750772EA0032000324
B1344294531490N00750777EA0031900323
B1344304531492N00750782EA0031800322
B1344314531493N00750787EA0031800322
B1344324531494N00750792EA0031700321
B1344334531495N00750796EA0031700321
B1344344531496N00750800EA0031600320
B1344354531496N00750804EA0031500319
B1344364531494N00750809EA0031400318
B1344374531491N00750812EA0031200316
B1344384531487N00750813EA0031100315
B1344394531483N00750812EA0031000314
B1344404531479N00750809EA0030900313
B1344414531475N00750805EA0030800312
B1344424531471N00750799EA0030700311
B1344434531468N00750793EA0030600310
B1344444531465N00750786EA0030500309
B1344454531462N00750779EA0030500309
B1344464531460N00750771EA0030500309
B1344474531458N00750764EA0030400308
B1344484531455N00750757EA0030400308
B1344494531453N00750751EA0030300307
B1344504531450N00750745EA0030300307
B1344514531447N00750741EA0030200306
B1344524531443N00750739EA0030100305
B1344534531439N00750739EA0030000304
B1344544531436N00750742EA0029900303
B1344554531435N00750747EA0029800302
B1344564531435N00750752EA0029800302
B1344574531436N00750757EA0029700301
B1344584531437N00750762EA0029600300
B1344594531439N00750766EA0029500299
B1345004531440N00750771EA0029500299
B1345014531441N00750775EA0029400298
B1345024531442N00750780EA0029300298
B1345034531444N00750785EA0029300297
B1345044531445N00750790EA0029200296
B1345054531445N00750795EA0029100295
B1345064531444N00750800EA0029000294
B1345074531440N00750804EA0028800292
B1345084531436N00750805EA0028700291
B1345094531431N00750803EA0028600290
B1345104531427N00750800EA0028700291
B1345114531424N00750796EA0028700291
B1345124531421N00750792EA0028700291
B1345134531419N00750788EA0028600290
B1345144531415N00750784EA0028400288
B1345154531411N00750782EA0028300287
B1345164531407N00750783EA0028100285
B1345174531404N00750786EA0027900283
B1345184531401N00750790EA0027700281
B1345194531399N00750794EA0027700281
B1345204531397N00750798EA0027700281
B1345214531395N00750801EA0027600280
B1345224531393N00750804EA0027500279
B1345234531392N00750807EA0027300277
B1345244531390N00750811EA0027300277
B1345254531387N00750813EA0027300277
B1345264531386N00750814EA0027200276
B1345274531384N00750816EA0027100275
B1345284531382N00750818EA0026800272
B1345294531379N00750821EA0026500269
B1345304531376N00750823EA0026300267
B1345314531372N00750825EA0026100265
B1345324531368N00750827EA0025800263
B1345334531364N00750829EA0025800262
B1345344531360N00750831EA0025700261
B1345354531357N00750834EA0025600261
B1345364531354N00750836EA0025700261
B1345374531351N00750838EA0025500259
B1345384531348N00750839EA0025300257
B1345394531345N00750841EA0025200256
B1345404531343N00750843EA0025200256
B1345414531341N00750844EA0025300257
B1345424531340N00750844EA0025300257
B1345434531339N00750844EA0025300257
B1345444531338N00750844EA0025300257
B1345454531338N00750844EA0025300257
B1345464531337N00750845EA0025300257
B1345474531336N00750844EA0025300257
B1345484531336N00750844EA0025300257
B1345494531336N00750844EA0025300257
B1345504531336N00750845EA0025300257
B1345514531337N00750845EA0025300257
B1345524531336N00750845EA0025300257
B1345534531336N00750845EA0025300257
B1345544531336N00750845EA0025300257
B1345554531336N00750845EA0025300257
B1345564531336N00750845EA0025300257
B1345574531336N00750845EA0025300257
B1345584531336N00750845EA0025300257
B1345594531336N00750846EA0025300257
B1346004531336N00750845EA0025300257
B1346014531336N00750845EA0025300257
B1346024531336N00750845EA0025300257
B1346034531336N00750845EA0025300257
B1346044531336N00750845EA0025300257
B1346054531336N00750845EA0025300257
B1346064531336N00750845EA0025300257
B1346074531336N00750845EA0025300257
B1346084531337N00750845EA0025300257
B1346094531337N00750846EA0025300257
B1346104531337N00750847EA0025300257
B1346114531337N00750846EA0025300257
B1346124531338N00750847EA0025300257
B1346134531338N00750847EA0025300257
B1346144531339N00750847EA0025300257
B1346154531339N00750847EA0025300257
B1346164531339N00750847EA0025300257
B1346174531339N00750847EA0025300257
B1346184531339N00750847EA0025300257
B1346194531339N00750848EA0025300257
B1346204531339N00750848EA0025300257
B1346214531338N00750848EA0025300257
B1346224531338N00750848EA0025300257
B1346234531336N00750848EA0025300257
B1346244531336N00750848EA0025300257
B1346254531335N00750849EA0025300257
B1346264531334N00750849EA0025300257
B1346274531333N00750850EA0025300257
B1346284531333N00750850EA0025300257
B1346294531333N00750850EA0025300257
B1346304531332N00750850EA0025300257
B1346314531331N00750850EA0025300257
B1346324531330N00750851EA0025300257
B1346334531330N00750851EA0025300257
B1346344531329N00750852EA0025300257
B1346354531328N00750852EA0025300257
B1346364531328N00750852EA0025300257
B1346374531327N00750852EA0025300257
B1346384531326N00750853EA0025300257
B1346394531326N00750853EA0025300257
B1346404531325N00750854EA0025300257
B1346414531324N00750854EA0025300257
B1346424531323N00750855EA0025300257
B1346434531323N00750854EA0025300257
B1346444531322N00750854EA0025300257
B1346454531321N00750855EA0025300257
B1346464531321N00750855EA0025300257
B1346474531320N00750856EA0025300257
B1346484531319N00750856EA0025300257
B1346494531318N00750856EA0025300257
B1346504531318N00750857EA0025300257
B1346514531317N00750857EA0025300257
B1346524531317N00750858EA0025300257
B1346534531316N00750858EA0025300257
B1346544531316N00750858EA0025300257
B1346554531315N00750859EA0025300257
B1346564531315N00750859EA0025300257
B1346574531314N00750859EA0025300257
B1346584531314N00750860EA0025300257
B1346594531312N00750860EA0025300257
B1347004531312N00750860EA0025300257
B1347014531311N00750860EA0025300257
B1347024531311N00750861EA0025300257
B1347034531310N00750861EA0025300257
B1347044531309N00750861EA0025300257
B1347054531309N00750861EA0025300257
B1347064531308N00750862EA0025300257
B1347074531307N00750862EA0025300257
B1347084531306N00750862EA0025300257
B1347094531306N00750862EA0025300257
B1347104531305N00750862EA0025300257
B1347114531304N00750863EA0025300257
B1347124531303N00750863EA0025300257
B1347134531302N00750864EA0025300257
B1347144531301N00750864EA0025300257
B1347154531300N00750864EA0025300257
B1347164531300N00750865EA0025300257
B1347174531299N00750865EA0025300257
B1347184531299N00750866EA0025300257
B1347194531298N00750866EA0025300257
B1347204531297N00750866EA0025300257
B1347214531296N00750866EA0025300257
B1347224531296N00750866EA0025300257
B1347234531295N00750866EA0025300257
B1347244531294N00750866EA0025200256
B1347254531293N00750867EA0025300257
B1347264531292N00750867EA0025300257
B1347274531292N00750867EA0025200257
B1347284531291N00750868EA0025300257
B1347294531290N00750868EA0025200256
B1347304531290N00750869EA0025300257
B1347314531289N00750869EA0025200257
B1347324531289N00750869EA0025300257
B1347334531288N00750869EA0025300257
B1347344531288N00750869EA0025300257
B1347354531287N00750869EA0025300257
B1347364531287N00750870EA0025200256
B1347374531286N00750870EA0025200257
B1347384531285N00750870EA0025200257
B1347394531285N00750871EA0025200256
B1347404531284N00750872EA0025200257
B1347414531284N00750872EA0025200256
B1347424531284N00750873EA0025300257
B1347434531283N00750873EA0025200256
LXSX;GF:1.2
G37996C2ED4480569A6F7FF95F8CD5C39
