AXSX003 SKYTRAXX V3.0.15 SN:00000380
HFPLTPILOT:Sepp Bucher
HFGTYGLIDERTYPE:Advance Sigma10
HFDTM100GPSDATUM:WGS-84
HFCIDCOMPETITIONID:0000
HFCCLCOMPETITION CLASS:Paraglider (Standard)
HFSITSITE:UNKNOWN
HFDTE180120
C180120190618000000000102P0118.tsk
C3113569S05912686WTAKEOFF
C3112319S05911889WSTART
C3134681S05953302WTURN
C3141558S06015374WTURN
C3142919S06030553WFINISH
C3142919S06030553WLANDING
B1921143113569S05912686WA0005800074
B1921153113569S05912686WA0005800074
B1921163113569S05912686WA0005800074
B1921173113569S05912686WA0005800074
B1921183113570S05912686WA0005800074
B1921193113569S05912686WA0005800074
B1921203113569S05912686WA0005800074
B1921213113569S05912686WA0005800074
B1921223113568S05912685WA0005700073
B1921233113567S05912683WA0005700073
B1921243113566S05912682WA0005700073
B1921253113564S05912680WA0005700074
B1921263113561S05912678WA0005600072
B1921273113559S05912677WA0005700073
B1921283113554S05912674WA0005900074
B1921293113549S05912672WA0006200077
B1921303113546S05912670WA0006800084
B1921313113542S05912669WA0007300088
B1921323113538S05912667WA0007400090
B1921333113533S05912665WA0007500091
B1921343113529S05912663WA0007900094
B1921353113525S05912662WA0008200097
B1921363113521S05912660WA0008400100
B1921373113517S05912658WA0008600102
B1921383113513S05912655WA0008800103
B1921393113509S05912653WA0008900105
B1921403113505S05912650WA0009200108
B1921413113500S05912648WA0009600111
B1921423113497S05912645WA0010000116
B1921433113493S05912643WA0010300119
B1921443113490S05912640WA0010600121
B1921453113486S05912637WA0010800123
B1921463113482S05912634WA0011000126
B1921473113479S05912631WA0011200128
B1921483113475S05912628WA0011500131
B1921493113471S05912626WA0011800133
B1921503113468S05912623WA0012000135
B1921513113464S05912620WA0012200137
B1921523113460S05912616WA0012500140
B1921533113456S05912613WA0012800144
B1921543113452S05912611WA0013200148
B1921553113448S05912608WA0013600152
B1921563113444S05912605WA0013800154
B1921573113441S05912602WA0014100156
B1921583113438S05912600WA0014500160
B1921593113434S05912597WA0014900164
B1922003113431S05912594WA0015300168
B1922013113428S05912592WA0015500171
B1922023113425S05912589WA0015800173
B1922033113421S05912586WA0016100176
B1922043113418S05912583WA0016400180
B1922053113415S05912579WA0016900185
B1922063113412S05912577WA0017300188
B1922073113409S05912573WA0017600192
B1922083113405S05912570WA0017800194
B1922093113402S05912568WA0018100196
B1922103113399S05912565WA0018400200
B1922113113395S05912563WA0018700202
B1922123113391S05912561WA0018800204
B1922133113387S05912559WA0019300208
B1922143113384S05912556WA0019600212
B1922153113381S05912554WA0019900215
B1922163113377S05912552WA0020100217
B1922173113373S05912551WA0020300219
B1922183113368S05912549WA0020600222
B1922193113364S05912548WA0021100227
B1922203113360S05912548WA0021600232
B1922213113355S05912548WA0021900235
B1922223113352S05912546WA0022000236
B1922233113346S05912543WA0022200237
B1922243113341S05912542WA0022700243
B1922253113336S05912540WA0023200248
B1922263113333S05912539WA0023700252
B1922273113330S05912537WA0023900254
B1922283113326S05912533WA0024000256
B1922293113321S05912530WA0024400260
B1922303113317S05912527WA0024800264
B1922313113314S05912524WA0025300269
B1922323113311S05912521WA0025800273
B1922333113308S05912518WA0026100277
B1922343113304S05912515WA0026300278
B1922353113300S05912512WA0026600282
B1922363113297S05912508WA0027200287
B1922373113293S05912506WA0027700292
B1922383113289S05912503WA0028000296
B1922393113286S05912499WA0028400300
B1922403113282S05912496WA0028900304
B1922413113278S05912492WA0029400309
B1922423113274S05912489WA0029900314
B1922433113270S05912486WA0030400320
B1922443113268S05912482WA0030900325
B1922453113264S05912478WA0031300328
B1922463113261S05912474WA0031600332
B1922473113257S05912471WA0032100337
B1922483113253S05912468WA0032600341
B1922493113249S05912465WA0033000346
B1922503113245S05912462WA0033400350
B1922513113242S05912459WA0033900355
B1922523113238S05912456WA0034400360
B1922533113235S05912452WA0034800363
B1922543113231S05912449WA0035200368
B1922553113227S05912446WA0035700373
B1922563113223S05912442WA0036100376
B1922573113220S05912439WA0036400380
B1922583113216S05912435WA0036900385
B1922593113213S05912432WA0037400390
B1923003113210S05912428WA0037900394
B1923013113207S05912424WA0038300398
B1923023113203S05912421WA0038600402
B1923033113200S05912417WA0039000406
B1923043113197S05912412WA0039400410
B1923053113194S05912409WA0039900414
B1923063113190S05912404WA0040300419
B1923073113187S05912400WA0040800423
B1923083113185S05912397WA0041200427
B1923093113181S05912393WA0041500431
B1923103113178S05912389WA0041900435
B1923113113175S05912385WA0042300439
B1923123113172S05912381WA0042800444
B1923133113169S05912377WA0043200448
B1923143113166S05912373WA0043700453
B1923153113164S05912369WA0044100457
B1923163113161S05912365WA0044500461
B1923173113158S05912360WA0045000465
B1923183113156S05912356WA0045500470
B1923193113153S05912352WA0045900475
B1923203113151S05912347WA0046400479
B1923213113149S05912343WA0046800484
B1923223113147S05912338WA0047300488
B1923233113144S05912335WA0047700492
B1923243113141S05912331WA0048100496
B1923253113137S05912328WA0048500501
B1923263113134S05912325WA0049000505
B1923273113130S05912322WA0049500511
B1923283113127S05912319WA0050000515
B1923293113123S05912316WA0050400520
B1923303113120S05912313WA0050900524
B1923313113116S05912311WA0051400530
B1923323113114S05912308WA0051900534
B1923333113111S05912305WA0052200538
B1923343113108S05912302WA0052600541
B1923353113105S05912298WA0052900545
B1923363113101S05912295WA0053400549
B1923373113098S05912291WA0053900555
B1923383113096S05912288WA0054300558
B1923393113093S05912284WA0054800563
B1923403113091S05912281WA0055300568
B1923413113088S05912277WA0055700573
B1923423113086S05912272WA0056200577
B1923433113083S05912269WA0056700583
B1923443113081S05912266WA0057200588
B1923453113078S05912262WA0057700592
B1923463113075S05912259WA0058100597
B1923473113071S05912257WA0058500601
B1923483113067S05912254WA0059000605
B1923493113063S05912251WA0059500610
B1923503113060S05912249WA0060100616
B1923513113056S05912247WA0060600622
B1923523113052S05912244WA0061100626
B1923533113049S05912242WA0061600632
B1923543113046S05912240WA0062200637
B1923553113042S05912238WA0062500641
B1923563113039S05912235WA0063000645
B1923573113036S05912233WA0063400650
B1923583113032S05912230WA0063900654
B1923593113029S05912227WA0064300659
B1924003113025S05912225WA0064900665
B1924013113022S05912222WA0065400670
B1924023113019S05912220WA0065900675
B1924033113015S05912217WA0066300678
B1924043113011S05912214WA0066800683
B1924053113008S05912211WA0067400689
B1924063113006S05912208WA0067900695
B1924073113003S05912205WA0068300699
B1924083113000S05912202WA0068700702
B1924093112998S05912199WA0069100706
B1924103112995S05912195WA0069600711
B1924113112993S05912192WA0069900715
B1924123112990S05912188WA0070300718
B1924133112988S05912185WA0070700723
B1924143112986S05912182WA0071100727
B1924153112983S05912179WA0071400730
B1924163112981S05912176WA0071800733
B1924173112978S05912172WA0072200738
B1924183112976S05912169WA0072500741
B1924193112974S05912166WA0072900745
B1924203112972S05912162WA0073400750
B1924213112970S05912159WA0073800754
B1924223112967S05912156WA0074100757
B1924233112965S05912153WA0074500760
B1924243112962S05912150WA0074800763
B1924253112960S05912146WA0075100767
B1924263112958S05912143WA0075500771
B1924273112955S05912140WA0075900775
B1924283112953S05912137WA0076300778
B1924293112950S05912134WA0076700783
B1924303112947S05912131WA0077000786
B1924313112943S05912129WA0077300789
B1924323112940S05912126WA0077600792
B1924333112937S05912124WA0078100796
B1924343112934S05912121WA0078400800
B1924353112931S05912119WA0078800804
B1924363112928S05912115WA0079200808
B1924373112925S05912112WA0079500811
B1924383112923S05912109WA0079900814
B1924393112920S05912106WA0080200817
B1924403112918S05912103WA0080600821
B1924413112916S05912100WA0080900825
B1924423112913S05912097WA0081200828
B1924433112910S05912094WA0081500831
B1924443112907S05912091WA0081800834
B1924453112905S05912089WA0082100837
B1924463112902S05912086WA0082400839
B1924473112899S05912083WA0082700842
B1924483112896S05912080WA0083000846
B1924493112894S05912076WA0083400849
B1924503112892S05912073WA0083700852
B1924513112890S05912069WA0084000855
B1924523112887S05912066WA0084300859
B1924533112885S05912063WA0084600861
B1924543112882S05912060WA0084900864
B1924553112879S05912058WA0085100867
B1924563112876S05912055WA0085400870
B1924573112873S05912052WA0085700873
B1924583112870S05912049WA0086000876
B1924593112867S05912046WA0086500880
B1925003112865S05912044WA0086900884
B1925013112861S05912042WA0087300888
B1925023112858S05912040WA0087500890
B1925033112855S05912037WA0087800893
B1925043112852S05912035WA0088100897
B1925053112849S05912032WA0088400900
B1925063112845S05912029WA0088800903
B1925073112843S05912026WA0089200907
B1925083112840S05912023WA0089500911
B1925093112837S05912021WA0089900914
B1925103112834S05912019WA0090200918
B1925113112831S05912016WA0090600921
B1925123112828S05912013WA0090800924
B1925133112825S05912010WA0091100926
B1925143112823S05912007WA0091400930
B1925153112820S05912004WA0091800933
B1925163112818S05912001WA0092200938
B1925173112815S05911999WA0092500940
B1925183112812S05911997WA0092800943
B1925193112808S05911994WA0093200947
B1925203112805S05911992WA0093500951
B1925213112802S05911989WA0093900954
B1925223112799S05911986WA0094300958
B1925233112796S05911983WA0094600962
B1925243112793S05911980WA0094900965
B1925253112790S05911978WA0095400969
B1925263112788S05911975WA0095700973
B1925273112785S05911972WA0096000976
B1925283112782S05911970WA0096300978
B1925293112779S05911967WA0096600982
B1925303112775S05911964WA0097000985
B1925313112772S05911961WA0097400990
B1925323112770S05911958WA0097800994
B1925333112767S05911954WA0098100997
B1925343112764S05911951WA0098401000
B1925353112762S05911947WA0098901004
B1925363112759S05911944WA0099201008
B1925373112756S05911941WA0099701013
B1925383112753S05911939WA0100001015
B1925393112751S05911938WA0100201018
B1925403112748S05911936WA0100401019
B1925413112744S05911934WA0100601022
B1925423112741S05911932WA0100901025
B1925433112738S05911931WA0101101027
B1925443112735S05911930WA0101401030
B1925453112732S05911928WA0101601032
B1925463112731S05911926WA0101701033
B1925473112729S05911926WA0101701033
B1925483112728S05911925WA0101601032
B1925493112727S05911925WA0101401029
B1925503112725S05911923WA0101101027
B1925513112723S05911921WA0100901025
B1925523112721S05911919WA0100901024
B1925533112719S05911918WA0100901024
B1925543112717S05911917WA0100801024
B1925553112716S05911916WA0100701022
B1925563112715S05911914WA0100401020
B1925573112713S05911913WA0100201018
B1925583112711S05911912WA0100101016
B1925593112709S05911910WA0100001016
B1926003112707S05911908WA0099901015
B1926013112706S05911908WA0099801014
B1926023112705S05911906WA0099701012
B1926033112703S05911905WA0099401010
B1926043112701S05911904WA0099201008
B1926053112700S05911902WA0099201008
B1926063112698S05911901WA0099101006
B1926073112696S05911900WA0099001005
B1926083112694S05911900WA0098901004
B1926093112692S05911901WA0098701003
B1926103112689S05911901WA0098501001
B1926113112687S05911901WA0098300999
B1926123112684S05911902WA0098200998
B1926133112682S05911902WA0098100996
B1926143112679S05911902WA0097900995
B1926153112677S05911903WA0097800993
B1926163112674S05911904WA0097600992
B1926173112672S05911904WA0097500990
B1926183112669S05911904WA0097300989
B1926193112666S05911905WA0097200988
B1926203112664S05911905WA0097100987
B1926213112661S05911905WA0097100986
B1926223112659S05911906WA0096900985
B1926233112656S05911907WA0096800984
B1926243112654S05911908WA0096700983
B1926253112651S05911911WA0096600981
B1926263112649S05911915WA0096400980
B1926273112647S05911921WA0096200978
B1926283112645S05911927WA0096100976
B1926293112645S05911935WA0095900975
B1926303112646S05911943WA0095800973
B1926313112647S05911951WA0095600971
B1926323112650S05911960WA0095400970
B1926333112654S05911969WA0095300968
B1926343112659S05911976WA0095100967
B1926353112665S05911984WA0095000965
B1926363112671S05911990WA0094800964
B1926373112678S05911996WA0094700962
B1926383112685S05912001WA0094400960
B1926393112693S05912006WA0094200958
B1926403112700S05912012WA0094000956
B1926413112708S05912017WA0093900954
B1926423112716S05912023WA0093700953
B1926433112724S05912028WA0093700952
B1926443112731S05912034WA0093600951
B1926453112739S05912039WA0093400950
B1926463112746S05912045WA0093300948
B1926473112754S05912051WA0093100947
B1926483112761S05912057WA0093000945
B1926493112769S05912063WA0092800944
B1926503112776S05912068WA0092700943
B1926513112783S05912074WA0092600942
B1926523112791S05912080WA0092400940
B1926533112798S05912086WA0092300938
B1926543112806S05912092WA0092100936
B1926553112813S05912099WA0091900935
B1926563112821S05912105WA0091800934
B1926573112828S05912111WA0091700933
B1926583112835S05912117WA0091600932
B1926593112843S05912122WA0091500930
B1927003112850S05912129WA0091300929
B1927013112857S05912135WA0091200927
B1927023112865S05912141WA0091000926
B1927033112873S05912147WA0090900925
B1927043112880S05912153WA0090800924
B1927053112887S05912160WA0090700923
B1927063112895S05912166WA0090600922
B1927073112902S05912172WA0090500920
B1927083112910S05912178WA0090400919
B1927093112917S05912184WA0090300918
B1927103112925S05912190WA0090200917
B1927113112932S05912196WA0090000916
B1927123112940S05912203WA0089900914
B1927133112947S05912209WA0089800913
B1927143112955S05912214WA0089700912
B1927153112962S05912221WA0089600911
B1927163112970S05912227WA0089500910
B1927173112977S05912232WA0089300909
B1927183112985S05912239WA0089200908
B1927193112992S05912245WA0089100907
B1927203113000S05912251WA0089000905
B1927213113007S05912257WA0088900904
B1927223113014S05912264WA0088800904
B1927233113021S05912270WA0088700903
B1927243113029S05912277WA0088600902
B1927253113036S05912283WA0088500900
B1927263113043S05912290WA0088300899
B1927273113051S05912295WA0088200898
B1927283113058S05912302WA0088100897
B1927293113065S05912308WA0088000896
B1927303113072S05912315WA0087900895
B1927313113080S05912321WA0087800894
B1927323113087S05912327WA0087700893
B1927333113094S05912333WA0087600892
B1927343113102S05912339WA0087400890
B1927353113109S05912346WA0087300889
B1927363113116S05912352WA0087200888
B1927373113123S05912358WA0087100887
B1927383113130S05912364WA0087000885
B1927393113138S05912370WA0086800884
B1927403113145S05912375WA0086700883
B1927413113153S05912382WA0086600882
B1927423113160S05912388WA0086500881
B1927433113167S05912393WA0086400879
B1927443113175S05912400WA0086300878
B1927453113182S05912406WA0086200877
B1927463113189S05912412WA0086100876
B1927473113197S05912418WA0086000875
B1927483113204S05912424WA0085900874
B1927493113211S05912430WA0085800873
B1927503113219S05912436WA0085600872
B1927513113227S05912441WA0085500871
B1927523113234S05912446WA0085500870
B1927533113242S05912452WA0085300869
B1927543113249S05912457WA0085100867
B1927553113257S05912463WA0085100867
B1927563113264S05912469WA0085000866
B1927573113271S05912475WA0084800864
B1927583113279S05912480WA0084700863
B1927593113286S05912486WA0084600862
B1928003113294S05912492WA0084500860
B1928013113301S05912498WA0084400859
B1928023113308S05912503WA0084200858
B1928033113315S05912509WA0084100856
B1928043113323S05912515WA0083900855
B1928053113330S05912521WA0083800853
B1928063113337S05912527WA0083600852
B1928073113345S05912533WA0083500851
B1928083113352S05912539WA0083400849
B1928093113359S05912544WA0083200848
B1928103113367S05912550WA0083100846
B1928113113374S05912557WA0082900845
B1928123113382S05912562WA0082800843
B1928133113389S05912569WA0082600842
B1928143113396S05912575WA0082600841
B1928153113403S05912581WA0082400840
B1928163113410S05912587WA0082200838
B1928173113418S05912593WA0082100836
B1928183113425S05912599WA0082000835
B1928193113432S05912605WA0081800834
B1928203113439S05912612WA0081700832
B1928213113446S05912619WA0081500831
B1928223113453S05912625WA0081400830
B1928233113460S05912631WA0081300828
B1928243113467S05912637WA0081100827
B1928253113474S05912644WA0081000826
B1928263113481S05912650WA0080900824
B1928273113488S05912656WA0080700823
B1928283113495S05912662WA0080600822
B1928293113502S05912668WA0080500820
B1928303113509S05912674WA0080400819
B1928313113517S05912680WA0080200818
B1928323113524S05912686WA0080100817
B1928333113531S05912692WA0080000815
B1928343113538S05912698WA0079800814
B1928353113545S05912704WA0079700813
B1928363113552S05912709WA0079600812
B1928373113560S05912715WA0079500810
B1928383113567S05912721WA0079300809
B1928393113574S05912726WA0079200808
B1928403113582S05912732WA0079100807
B1928413113589S05912737WA0079000806
B1928423113596S05912743WA0078900805
B1928433113603S05912748WA0078800804
B1928443113610S05912754WA0078700802
B1928453113617S05912759WA0078600801
B1928463113625S05912764WA0078500801
B1928473113632S05912770WA0078400800
B1928483113639S05912775WA0078300798
B1928493113647S05912781WA0078100797
B1928503113654S05912786WA0078100796
B1928513113661S05912792WA0078000795
B1928523113669S05912797WA0077900794
B1928533113676S05912802WA0077800793
B1928543113683S05912807WA0077700793
B1928553113691S05912813WA0077600792
B1928563113698S05912818WA0077500791
B1928573113705S05912824WA0077400790
B1928583113713S05912829WA0077400789
B1928593113720S05912835WA0077300788
B1929003113727S05912840WA0077100787
B1929013113734S05912845WA0077000786
B1929023113742S05912851WA0076900785
B1929033113750S05912855WA0076900784
B1929043113757S05912861WA0076800783
B1929053113764S05912866WA0076700782
B1929063113772S05912872WA0076600781
B1929073113779S05912877WA0076500781
B1929083113786S05912882WA0076400780
B1929093113794S05912888WA0076300779
B1929103113801S05912893WA0076200778
B1929113113809S05912898WA0076100777
B1929123113816S05912903WA0076000776
B1929133113823S05912908WA0075900775
B1929143113831S05912914WA0075800773
B1929153113838S05912919WA0075700773
B1929163113846S05912924WA0075600772
B1929173113853S05912929WA0075600771
B1929183113860S05912934WA0075500770
B1929193113867S05912939WA0075400769
B1929203113874S05912944WA0075300768
B1929213113882S05912950WA0075200767
B1929223113889S05912954WA0075100766
B1929233113896S05912960WA0075000766
B1929243113904S05912965WA0074900765
B1929253113911S05912970WA0074800764
B1929263113918S05912976WA0074700763
B1929273113926S05912981WA0074600762
B1929283113933S05912986WA0074500761
B1929293113940S05912991WA0074500760
B1929303113947S05912996WA0074400760
B1929313113955S05913001WA0074300759
B1929323113962S05913006WA0074200758
B1929333113969S05913012WA0074100757
B1929343113976S05913018WA0074000755
B1929353113983S05913023WA0073900755
B1929363113991S05913029WA0073800754
B1929373113998S05913034WA0073700753
B1929383114005S05913040WA0073700752
B1929393114012S05913045WA0073500751
B1929403114019S05913050WA0073400750
B1929413114026S05913056WA0073400749
B1929423114034S05913062WA0073300748
B1929433114041S05913067WA0073200748
B1929443114048S05913073WA0073100747
B1929453114055S05913078WA0073000745
B1929463114062S05913084WA0072900744
B1929473114069S05913089WA0072700742
B1929483114077S05913094WA0072600741
B1929493114084S05913100WA0072500740
B1929503114092S05913105WA0072400739
B1929513114099S05913110WA0072300739
B1929523114106S05913115WA0072300738
B1929533114113S05913120WA0072100737
B1929543114120S05913125WA0072000735
B1929553114127S05913130WA0071900734
B1929563114134S05913135WA0071800734
B1929573114142S05913141WA0071700733
B1929583114149S05913146WA0071600732
B1929593114156S05913151WA0071500731
B1930003114163S05913156WA0071400730
B1930013114170S05913161WA0071300729
B1930023114178S05913165WA0071200727
B1930033114185S05913170WA0071100727
B1930043114192S05913175WA0071000726
B1930053114198S05913181WA0070900725
B1930063114205S05913186WA0070800724
B1930073114212S05913191WA0070700723
B1930083114220S05913196WA0070600722
B1930093114227S05913201WA0070600721
B1930103114233S05913206WA0070500720
B1930113114240S05913212WA0070400719
B1930123114247S05913217WA0070300718
B1930133114254S05913222WA0070100717
B1930143114261S05913228WA0070100716
B1930153114268S05913233WA0070000716
B1930163114275S05913238WA0070000715
B1930173114282S05913243WA0069900715
B1930183114288S05913248WA0069800714
B1930193114295S05913252WA0069600712
B1930203114302S05913257WA0069500711
B1930213114309S05913262WA0069500710
B1930223114315S05913267WA0069400709
B1930233114322S05913272WA0069300708
B1930243114329S05913277WA0069200707
B1930253114336S05913281WA0069100706
B1930263114342S05913286WA0069000705
B1930273114349S05913290WA0068900704
B1930283114356S05913296WA0068800703
B1930293114363S05913300WA0068600702
B1930303114369S05913305WA0068400700
B1930313114376S05913310WA0068300699
B1930323114383S05913315WA0068300698
B1930333114389S05913320WA0068200697
B1930343114396S05913325WA0068100696
B1930353114403S05913330WA0068000696
B1930363114409S05913334WA0067900694
B1930373114416S05913339WA0067700693
B1930383114423S05913344WA0067600692
B1930393114429S05913349WA0067500691
B1930403114436S05913354WA0067400690
B1930413114443S05913358WA0067300688
B1930423114450S05913363WA0067200687
B1930433114457S05913367WA0067000686
B1930443114463S05913372WA0066800684
B1930453114470S05913377WA0066700682
B1930463114477S05913381WA0066600681
B1930473114484S05913385WA0066400680
B1930483114491S05913390WA0066300679
B1930493114498S05913393WA0066200677
B1930503114505S05913398WA0066000676
B1930513114511S05913402WA0065800674
B1930523114519S05913406WA0065600672
B1930533114526S05913411WA0065500670
B1930543114533S05913415WA0065300669
B1930553114540S05913419WA0065200668
B1930563114547S05913424WA0065100667
B1930573114554S05913428WA0064900665
B1930583114561S05913432WA0064800664
B1930593114567S05913437WA0064600662
B1931003114574S05913440WA0064500660
B1931013114581S05913445WA0064400659
B1931023114588S05913449WA0064200658
B1931033114595S05913454WA0064100657
B1931043114602S05913458WA0063900655
B1931053114608S05913462WA0063800653
B1931063114615S05913465WA0063600652
B1931073114622S05913469WA0063400650
B1931083114629S05913472WA0063200648
B1931093114636S05913476WA0063100646
B1931103114644S05913480WA0062900645
B1931113114650S05913484WA0062800644
B1931123114657S05913488WA0062600642
B1931133114664S05913492WA0062500640
B1931143114671S05913496WA0062300639
B1931153114678S05913501WA0062200638
B1931163114685S05913505WA0062100637
B1931173114691S05913509WA0062000636
B1931183114698S05913513WA0061900634
B1931193114704S05913517WA0061700633
B1931203114711S05913521WA0061600631
B1931213114718S05913524WA0061500630
B1931223114724S05913528WA0061400630
B1931233114731S05913532WA0061300629
B1931243114738S05913535WA0061100627
B1931253114744S05913539WA0061000626
B1931263114751S05913543WA0060900624
B1931273114758S05913547WA0060800623
B1931283114764S05913551WA0060700623
B1931293114771S05913555WA0060600622
B1931303114777S05913559WA0060500621
B1931313114783S05913562WA0060400619
B1931323114790S05913567WA0060200617
B1931333114797S05913570WA0060100616
B1931343114804S05913574WA0059900615
B1931353114812S05913578WA0059800614
B1931363114818S05913582WA0059700613
B1931373114825S05913586WA0059600611
B1931383114832S05913590WA0059300609
B1931393114839S05913595WA0059000606
B1931403114846S05913599WA0058800604
B1931413114854S05913603WA0058700602
B1931423114861S05913607WA0058500601
B1931433114867S05913612WA0058400600
B1931443114874S05913616WA0058300599
B1931453114881S05913620WA0058100597
B1931463114888S05913624WA0057900594
B1931473114896S05913628WA0057600592
B1931483114903S05913633WA0057500590
B1931493114910S05913637WA0057300589
B1931503114917S05913641WA0057100587
B1931513114925S05913645WA0057000585
B1931523114932S05913649WA0056800583
B1931533114939S05913653WA0056600581
B1931543114946S05913658WA0056400579
B1931553114953S05913662WA0056200578
B1931563114960S05913666WA0056000576
B1931573114968S05913670WA0055900574
B1931583114975S05913674WA0055700572
B1931593114982S05913678WA0055500570
B1932003114989S05913683WA0055300569
B1932013114997S05913686WA0055100567
B1932023115004S05913691WA0055000566
B1932033115011S05913695WA0054900564
B1932043115018S05913700WA0054700562
B1932053115024S05913706WA0054500561
B1932063115031S05913711WA0054300559
B1932073115039S05913716WA0054200558
B1932083115046S05913721WA0054100556
B1932093115053S05913726WA0053900555
B1932103115060S05913732WA0053800553
B1932113115066S05913737WA0053700552
B1932123115073S05913742WA0053600551
B1932133115080S05913748WA0053400550
B1932143115087S05913753WA0053300548
B1932153115093S05913758WA0053100547
B1932163115100S05913764WA0053000546
B1932173115107S05913769WA0052900544
B1932183115114S05913774WA0052700543
B1932193115121S05913779WA0052600542
B1932203115127S05913784WA0052500541
B1932213115134S05913789WA0052500540
B1932223115141S05913794WA0052400539
B1932233115147S05913798WA0052200538
B1932243115154S05913802WA0052100537
B1932253115161S05913807WA0052000535
B1932263115168S05913811WA0051800534
B1932273115174S05913816WA0051700533
B1932283115180S05913821WA0051600532
B1932293115187S05913825WA0051500530
B1932303115194S05913829WA0051300529
B1932313115200S05913835WA0051200528
B1932323115207S05913840WA0051100527
B1932333115213S05913845WA0051100527
B1932343115219S05913850WA0051100526
B1932353115226S05913855WA0051000525
B1932363115233S05913860WA0050900524
B1932373115239S05913866WA0050800523
B1932383115246S05913871WA0050800523
B1932393115252S05913876WA0050700523
B1932403115259S05913881WA0050600522
B1932413115265S05913886WA0050500521
B1932423115271S05913891WA0050400519
B1932433115278S05913896WA0050200518
B1932443115285S05913901WA0050200517
B1932453115291S05913906WA0050100517
B1932463115298S05913911WA0050000516
B1932473115304S05913916WA0049900515
B1932483115310S05913922WA0049900514
B1932493115317S05913927WA0049700513
B1932503115324S05913932WA0049600511
B1932513115331S05913937WA0049400510
B1932523115337S05913942WA0049300509
B1932533115344S05913947WA0049200508
B1932543115350S05913952WA0049000506
B1932553115356S05913957WA0048800504
B1932563115363S05913963WA0048600502
B1932573115370S05913968WA0048400500
B1932583115376S05913974WA0048300499
B1932593115383S05913979WA0048300498
B1933003115389S05913985WA0048200498
B1933013115396S05913990WA0048100497
B1933023115403S05913995WA0048000496
B1933033115409S05914000WA0047800494
B1933043115416S05914006WA0047700493
B1933053115422S05914012WA0047700492
B1933063115429S05914018WA0047600492
B1933073115436S05914023WA0047600491
B1933083115442S05914028WA0047400490
B1933093115449S05914034WA0047300489
B1933103115455S05914039WA0047200487
B1933113115462S05914045WA0047100487
B1933123115469S05914051WA0047000486
B1933133115475S05914056WA0047000486
B1933143115481S05914062WA0046900485
B1933153115488S05914067WA0046800483
B1933163115494S05914073WA0046700482
B1933173115501S05914079WA0046600481
B1933183115508S05914084WA0046500481
B1933193115514S05914089WA0046500480
B1933203115521S05914095WA0046400479
B1933213115528S05914100WA0046300478
B1933223115534S05914106WA0046200478
B1933233115541S05914111WA0046200477
B1933243115548S05914117WA0046100476
B1933253115554S05914122WA0045900475
B1933263115561S05914128WA0045800473
B1933273115567S05914134WA0045600472
B1933283115574S05914140WA0045500471
B1933293115581S05914145WA0045400470
B1933303115587S05914150WA0045300469
B1933313115594S05914155WA0045300468
B1933323115601S05914160WA0045200468
B1933333115607S05914165WA0045100466
B1933343115614S05914170WA0044900465
B1933353115621S05914174WA0044800463
B1933363115628S05914179WA0044700462
B1933373115635S05914184WA0044600462
B1933383115641S05914188WA0044600462
B1933393115648S05914193WA0044600461
B1933403115654S05914198WA0044400460
B1933413115660S05914203WA0044300458
B1933423115667S05914208WA0044100457
B1933433115673S05914212WA0044000456
B1933443115680S05914217WA0043900455
B1933453115686S05914221WA0043900454
B1933463115692S05914226WA0043700453
B1933473115699S05914230WA0043600452
B1933483115705S05914234WA0043400450
B1933493115712S05914238WA0043300449
B1933503115719S05914242WA0043200447
B1933513115726S05914247WA0043100447
B1933523115732S05914250WA0043000446
B1933533115738S05914255WA0042900444
B1933543115745S05914259WA0042800443
B1933553115751S05914263WA0042600442
B1933563115758S05914267WA0042400440
B1933573115765S05914271WA0042300439
B1933583115772S05914275WA0042300438
B1933593115779S05914280WA0042200437
B1934003115785S05914285WA0042100437
B1934013115791S05914289WA0042000436
B1934023115798S05914293WA0041900435
B1934033115805S05914297WA0041800434
B1934043115812S05914302WA0041700433
B1934053115819S05914306WA0041700432
B1934063115825S05914309WA0041700432
B1934073115832S05914314WA0041700432
B1934083115838S05914317WA0041500431
B1934093115844S05914321WA0041400430
B1934103115851S05914325WA0041300429
B1934113115858S05914330WA0041200427
B1934123115865S05914333WA0041000426
B1934133115872S05914337WA0040900425
B1934143115878S05914341WA0040900424
B1934153115885S05914345WA0040800424
B1934163115891S05914350WA0040700423
B1934173115897S05914353WA0040600422
B1934183115904S05914358WA0040500421
B1934193115911S05914361WA0040400420
B1934203115917S05914365WA0040300419
B1934213115923S05914369WA0040300418
B1934223115929S05914373WA0040200417
B1934233115936S05914377WA0040100416
B1934243115942S05914381WA0039900415
B1934253115948S05914385WA0039900415
B1934263115954S05914389WA0039800414
B1934273115960S05914393WA0039600412
B1934283115966S05914397WA0039400410
B1934293115972S05914402WA0039300408
B1934303115979S05914407WA0039100407
B1934313115985S05914411WA0039000406
B1934323115991S05914415WA0038900405
B1934333115997S05914420WA0038800403
B1934343116003S05914425WA0038600402
B1934353116009S05914429WA0038400400
B1934363116016S05914434WA0038300398
B1934373116022S05914438WA0038200397
B1934383116028S05914442WA0038100396
B1934393116034S05914446WA0038000395
B1934403116040S05914450WA0037900394
B1934413116046S05914454WA0037700393
B1934423116052S05914458WA0037500391
B1934433116059S05914462WA0037300388
B1934443116065S05914466WA0037100387
B1934453116072S05914470WA0037000386
B1934463116078S05914474WA0036900385
B1934473116084S05914477WA0036800384
B1934483116090S05914481WA0036700383
B1934493116096S05914484WA0036600381
B1934503116102S05914488WA0036400380
B1934513116108S05914492WA0036300379
B1934523116115S05914497WA0036100377
B1934533116121S05914501WA0036000376
B1934543116127S05914505WA0035900374
B1934553116133S05914509WA0035700373
B1934563116139S05914514WA0035600371
B1934573116145S05914518WA0035400370
B1934583116152S05914523WA0035300368
B1934593116158S05914527WA0035100367
B1935003116164S05914532WA0035000366
B1935013116170S05914537WA0034900365
B1935023116176S05914541WA0034800363
B1935033116182S05914545WA0034700362
B1935043116188S05914549WA0034500361
B1935053116195S05914554WA0034400360
B1935063116200S05914558WA0034300358
B1935073116206S05914563WA0034200357
B1935083116212S05914568WA0034000356
B1935093116218S05914572WA0033900355
B1935103116224S05914576WA0033700353
B1935113116230S05914580WA0033500351
B1935123116236S05914585WA0033400349
B1935133116242S05914590WA0033200348
B1935143116248S05914595WA0033100347
B1935153116254S05914599WA0032900345
B1935163116260S05914603WA0032800343
B1935173116266S05914607WA0032600341
B1935183116272S05914612WA0032400339
B1935193116279S05914617WA0032200337
B1935203116285S05914621WA0032000336
B1935213116291S05914624WA0032000335
B1935223116297S05914628WA0032000335
B1935233116303S05914632WA0031800334
B1935243116309S05914636WA0031700332
B1935253116315S05914640WA0031600331
B1935263116321S05914642WA0031500331
B1935273116328S05914646WA0031500331
B1935283116333S05914649WA0031500331
B1935293116339S05914653WA0031400330
B1935303116345S05914657WA0031300329
B1935313116352S05914660WA0031200328
B1935323116358S05914664WA0031100327
B1935333116364S05914668WA0031100327
B1935343116370S05914673WA0031100326
B1935353116375S05914678WA0031000325
B1935363116381S05914683WA0030900324
B1935373116387S05914688WA0030800323
B1935383116393S05914693WA0030800323
B1935393116399S05914698WA0030700323
B1935403116405S05914704WA0030700322
B1935413116410S05914709WA0030700322
B1935423116415S05914714WA0030600322
B1935433116421S05914719WA0030500321
B1935443116427S05914724WA0030400319
B1935453116432S05914730WA0030300318
B1935463116438S05914735WA0030200318
B1935473116443S05914741WA0030200317
B1935483116448S05914746WA0030000316
B1935493116454S05914751WA0029800314
B1935503116459S05914757WA0029700313
B1935513116465S05914763WA0029600311
B1935523116470S05914769WA0029400310
B1935533116476S05914774WA0029300308
B1935543116481S05914781WA0029200307
B1935553116486S05914787WA0029100306
B1935563116492S05914792WA0029000306
B1935573116497S05914798WA0029000305
B1935583116502S05914804WA0028900304
B1935593116508S05914810WA0028800304
B1936003116513S05914816WA0028700303
B1936013116519S05914821WA0028700302
B1936023116524S05914827WA0028500301
B1936033116529S05914833WA0028400300
B1936043116535S05914840WA0028300298
B1936053116540S05914846WA0028200297
B1936063116546S05914853WA0028100297
B1936073116551S05914858WA0028100296
B1936083116556S05914864WA0027900295
B1936093116561S05914869WA0027700293
B1936103116566S05914875WA0027400290
B1936113116572S05914881WA0027200288
B1936123116578S05914888WA0027000286
B1936133116584S05914894WA0027000285
B1936143116589S05914900WA0026800284
B1936153116595S05914905WA0026600282
B1936163116600S05914910WA0026400280
B1936173116606S05914916WA0026200277
B1936183116612S05914922WA0026100276
B1936193116618S05914928WA0026000275
B1936203116624S05914934WA0025800274
B1936213116629S05914940WA0025700273
B1936223116635S05914947WA0025600272
B1936233116640S05914953WA0025500270
B1936243116645S05914960WA0025300269
B1936253116651S05914967WA0025200268
B1936263116657S05914973WA0025200268
B1936273116662S05914978WA0025200268
B1936283116668S05914984WA0025200267
B1936293116673S05914990WA0025100267
B1936303116678S05914996WA0025000265
B1936313116683S05915003WA0024700263
B1936323116689S05915009WA0024600262
B1936333116695S05915016WA0024600261
B1936343116701S05915022WA0024500261
B1936353116706S05915028WA0024500261
B1936363116712S05915034WA0024500260
B1936373116717S05915040WA0024300259
B1936383116722S05915045WA0024100256
B1936393116728S05915051WA0024000256
B1936403116733S05915057WA0024000255
B1936413116738S05915063WA0023800254
B1936423116743S05915070WA0023700253
B1936433116748S05915077WA0023600251
B1936443116751S05915085WA0023700253
B1936453116754S05915092WA0023900255
B1936463116758S05915099WA0023900254
B1936473116762S05915105WA0023800254
B1936483116766S05915111WA0023700253
B1936493116771S05915118WA0023700252
B1936503116776S05915125WA0023600252
B1936513116781S05915130WA0023600251
B1936523116786S05915136WA0023500251
B1936533116792S05915143WA0023400249
B1936543116796S05915149WA0023200248
B1936553116801S05915155WA0023100246
B1936563116806S05915162WA0023000245
B1936573116811S05915168WA0022900245
B1936583116817S05915173WA0022800244
B1936593116822S05915179WA0022700243
B1937003116826S05915184WA0022600241
B1937013116832S05915190WA0022400240
B1937023116837S05915195WA0022300238
B1937033116843S05915200WA0022200238
B1937043116848S05915205WA0022200237
B1937053116853S05915209WA0022100237
B1937063116859S05915214WA0022100236
B1937073116864S05915219WA0022000236
B1937083116870S05915224WA0021900235
B1937093116875S05915229WA0021800234
B1937103116880S05915234WA0021700233
B1937113116885S05915240WA0021600231
B1937123116891S05915246WA0021500230
B1937133116896S05915252WA0021400230
B1937143116901S05915258WA0021400229
B1937153116906S05915263WA0021300228
B1937163116911S05915268WA0021200227
B1937173116916S05915271WA0021000226
B1937183116922S05915275WA0020800224
B1937193116928S05915279WA0020600222
B1937203116934S05915283WA0020400220
B1937213116940S05915288WA0020300218
B1937223116946S05915293WA0020200218
B1937233116951S05915297WA0020100217
B1937243116957S05915302WA0020000215
B1937253116963S05915306WA0019800214
B1937263116968S05915312WA0019600211
B1937273116974S05915317WA0019400210
B1937283116979S05915323WA0019400209
B1937293116984S05915330WA0019300209
B1937303116988S05915336WA0019200208
B1937313116992S05915343WA0019100207
B1937323116996S05915350WA0019000205
B1937333117000S05915356WA0018800204
B1937343117003S05915364WA0018700203
B1937353117007S05915371WA0018600201
B1937363117009S05915378WA0018400200
B1937373117011S05915386WA0018300199
B1937383117012S05915393WA0018100197
B1937393117013S05915400WA0018000196
B1937403117015S05915407WA0017900194
B1937413117016S05915415WA0017800193
B1937423117016S05915421WA0017600192
B1937433117016S05915429WA0017500191
B1937443117016S05915436WA0017400190
B1937453117015S05915444WA0017400190
B1937463117015S05915450WA0017400190
B1937473117015S05915457WA0017300189
B1937483117014S05915463WA0017200188
B1937493117014S05915470WA0017000186
B1937503117014S05915477WA0016900185
B1937513117013S05915484WA0016900184
B1937523117013S05915491WA0016800184
B1937533117012S05915498WA0016800183
B1937543117011S05915504WA0016600182
B1937553117009S05915509WA0016500180
B1937563117006S05915514WA0016300179
B1937573117002S05915517WA0016200178
B1937583116998S05915519WA0016100177
B1937593116994S05915520WA0016000176
B1938003116990S05915519WA0016000176
B1938013116987S05915519WA0015900175
B1938023116984S05915518WA0016000175
B1938033116981S05915517WA0016000175
B1938043116978S05915515WA0015900175
B1938053116975S05915514WA0015800174
B1938063116972S05915512WA0015700173
B1938073116968S05915511WA0015700172
B1938083116965S05915510WA0015600172
B1938093116962S05915509WA0015600171
B1938103116959S05915508WA0015500170
B1938113116957S05915507WA0015300169
B1938123116954S05915505WA0015100167
B1938133116951S05915504WA0015000165
B1938143116948S05915502WA0014800164
B1938153116944S05915500WA0014700163
B1938163116941S05915498WA0014600162
B1938173116939S05915496WA0014500160
B1938183116936S05915494WA0014300158
B1938193116932S05915492WA0014000156
B1938203116928S05915490WA0013900154
B1938213116923S05915488WA0013800153
B1938223116919S05915486WA0013700153
B1938233116916S05915484WA0013700152
B1938243116913S05915482WA0013500151
B1938253116909S05915480WA0013400149
B1938263116906S05915479WA0013200147
B1938273116902S05915477WA0013000146
B1938283116898S05915476WA0013000146
B1938293116895S05915473WA0013000145
B1938303116892S05915471WA0012900144
B1938313116890S05915468WA0012900144
B1938323116887S05915465WA0012800144
B1938333116885S05915463WA0012800144
B1938343116884S05915462WA0012800143
B1938353116882S05915460WA0012700143
B1938363116880S05915458WA0012600142
B1938373116878S05915455WA0012500141
B1938383116876S05915452WA0012400140
B1938393116876S05915448WA0012400139
B1938403116878S05915444WA0012200138
B1938413116879S05915440WA0012200137
B1938423116880S05915436WA0012100136
B1938433116881S05915434WA0012000135
B1938443116883S05915430WA0011800134
B1938453116883S05915427WA0011600132
B1938463116884S05915424WA0011500130
B1938473116883S05915421WA0011300128
B1938483116881S05915419WA0011100127
B1938493116878S05915418WA0010900125
B1938503116875S05915418WA0010700123
B1938513116872S05915419WA0010700122
B1938523116868S05915420WA0010600121
B1938533116865S05915420WA0010500121
B1938543116862S05915421WA0010500120
B1938553116859S05915423WA0010400120
B1938563116856S05915424WA0010300119
B1938573116853S05915426WA0010300118
B1938583116850S05915427WA0010200118
B1938593116847S05915429WA0010200118
B1939003116845S05915430WA0010200117
B1939013116842S05915430WA0010100117
B1939023116839S05915431WA0010000115
B1939033116837S05915431WA0009800114
B1939043116834S05915431WA0009600112
B1939053116831S05915431WA0009400110
B1939063116828S05915431WA0009400109
B1939073116824S05915431WA0009300108
B1939083116822S05915430WA0009300109
B1939093116819S05915430WA0009400109
B1939103116817S05915430WA0009300109
B1939113116815S05915430WA0009200108
B1939123116813S05915430WA0009100107
B1939133116810S05915429WA0009000105
B1939143116808S05915427WA0008900104
B1939153116806S05915425WA0008800104
B1939163116804S05915425WA0008700103
B1939173116802S05915424WA0008500101
B1939183116800S05915424WA0008400100
B1939193116797S05915423WA0008400100
B1939203116795S05915422WA0008300099
B1939213116793S05915422WA0008200098
B1939223116791S05915421WA0008100097
B1939233116789S05915420WA0008000095
B1939243116788S05915419WA0007800093
B1939253116786S05915417WA0007700092
B1939263116784S05915415WA0007600092
B1939273116783S05915414WA0007600091
B1939283116781S05915413WA0007400089
B1939293116779S05915413WA0007200088
B1939303116777S05915412WA0007100087
B1939313116774S05915411WA0007100086
B1939323116772S05915409WA0007000086
B1939333116771S05915408WA0007000085
B1939343116769S05915407WA0006800084
B1939353116767S05915405WA0006600081
B1939363116765S05915403WA0006200078
B1939373116762S05915401WA0006100077
B1939383116760S05915399WA0006100077
B1939393116758S05915399WA0006300078
B1939403116757S05915399WA0006300078
B1939413116756S05915399WA0006200078
B1939423116756S05915399WA0006200077
B1939433116756S05915399WA0006200078
B1939443116756S05915400WA0006200078
B1939453116756S05915401WA0006200078
B1939463116757S05915402WA0006200078
B1939473116758S05915402WA0006200078
B1939483116758S05915402WA0006200078
B1939493116758S05915402WA0006200078
B1939503116758S05915402WA0006200078
B1939513116758S05915402WA0006200078
B1939523116758S05915402WA0006200078
B1939533116758S05915403WA0006200078
B1939543116759S05915403WA0006200078
B1939553116759S05915403WA0006200078
B1939563116759S05915405WA0006200078
B1939573116759S05915404WA0006200078
B1939583116759S05915405WA0006200078
B1939593116759S05915405WA0006200078
B1940003116759S05915406WA0006200078
B1940013116758S05915405WA0006200078
B1940023116758S05915404WA0006200078
B1940033116757S05915404WA0006200078
B1940043116757S05915404WA0006200078
B1940053116757S05915403WA0006200078
B1940063116757S05915403WA0006200078
B1940073116756S05915402WA0006200078
B1940083116756S05915402WA0006200078
B1940093116756S05915402WA0006200078
B1940103116758S05915405WA0006200078
B1940113116758S05915405WA0006200078
B1940123116759S05915406WA0006200078
B1940133116758S05915405WA0006200078
B1940143116759S05915406WA0006200078
B1940153116758S05915406WA0006200078
B1940163116758S05915404WA0006200078
B1940173116758S05915404WA0006200078
B1940183116758S05915404WA0006200078
B1940193116757S05915401WA0006200078
B1940203116757S05915401WA0006200078
B1940213116756S05915400WA0006200078
B1940223116754S05915397WA0006200078
B1940233116754S05915396WA0006200078
B1940243116753S05915395WA0006200078
B1940253116753S05915395WA0006200078
B1940263116752S05915393WA0006200078
B1940273116752S05915393WA0006200078
B1940283116753S05915394WA0006200078
B1940293116753S05915393WA0006200078
B1940303116752S05915393WA0006200078
B1940313116752S05915393WA0006200078
B1940323116752S05915393WA0006200078
B1940333116752S05915393WA0006200078
B1940343116753S05915393WA0006200078
LXSX;GF:1.2
GAF6D9AE9B17848428494A2D3D0761E37
