AXSX003 SKYTRAXX V3.0.16c SN:00000380
HFPLTPILOT:Sepp Bucher
HFGTYGLIDERTYPE:Advance Sigma10
HFDTM100GPSDATUM:WGS-84
HFCIDCOMPETITIONID:0000
HFCCLCOMPETITION CLASS:Paraglider (Standard)
HFSITSITE:UNKNOWN
HFDTE071020
B1252394545163N00813318EA0123901247
B1252404545164N00813318EA0123901247
B1252414545164N00813318EA0124001247
B1252424545164N00813318EA0123901247
B1252434545164N00813318EA0123901247
B1252444545164N00813318EA0123901247
B1252454545164N00813318EA0123901247
B1252464545163N00813318EA0123901247
B1252474545163N00813318EA0123901246
B1252484545164N00813318EA0123901247
B1252494545163N00813319EA0123801246
B1252504545162N00813320EA0123601244
B1252514545161N00813322EA0123601244
B1252524545159N00813324EA0123501243
B1252534545156N00813327EA0123501244
B1252544545153N00813329EA0123601244
B1252554545150N00813331EA0123601245
B1252564545146N00813333EA0123701246
B1252574545143N00813336EA0123801247
B1252584545141N00813339EA0123901248
B1252594545141N00813343EA0123901248
B1253004545140N00813348EA0124001249
B1253014545140N00813353EA0124101250
B1253024545140N00813358EA0124201250
B1253034545140N00813362EA0124101249
B1253044545141N00813367EA0124001248
B1253054545141N00813372EA0123901248
B1253064545142N00813377EA0123601245
B1253074545141N00813383EA0123601244
B1253084545141N00813389EA0123501244
B1253094545140N00813394EA0123501244
B1253104545139N00813399EA0123601245
B1253114545138N00813403EA0123601245
B1253124545137N00813408EA0123701246
B1253134545138N00813413EA0123701246
B1253144545138N00813419EA0123801246
B1253154545138N00813424EA0123901247
B1253164545138N00813429EA0123901247
B1253174545136N00813433EA0123901247
B1253184545134N00813436EA0123901248
B1253194545130N00813437EA0124001248
B1253204545127N00813436EA0124201250
B1253214545124N00813432EA0124201250
B1253224545121N00813427EA0124201251
B1253234545120N00813420EA0124301252
B1253244545119N00813413EA0124401253
B1253254545118N00813406EA0124501254
B1253264545117N00813401EA0124501253
B1253274545114N00813397EA0124401253
B1253284545110N00813393EA0124401252
B1253294545106N00813392EA0124401253
B1253304545103N00813392EA0124501254
B1253314545101N00813394EA0124601255
B1253324545100N00813397EA0124601254
B1253334545099N00813401EA0124601255
B1253344545099N00813406EA0124701255
B1253354545100N00813411EA0124701256
B1253364545103N00813416EA0124701255
B1253374545108N00813419EA0124601255
B1253384545114N00813422EA0124701255
B1253394545119N00813422EA0124801256
B1253404545125N00813421EA0124901257
B1253414545130N00813417EA0125001258
B1253424545136N00813413EA0125001259
B1253434545142N00813410EA0125101260
B1253444545148N00813407EA0125101260
B1253454545154N00813407EA0125101259
B1253464545161N00813408EA0125101260
B1253474545166N00813411EA0125201260
B1253484545170N00813416EA0125201261
B1253494545171N00813422EA0125101260
B1253504545170N00813428EA0125101259
B1253514545168N00813432EA0125101260
B1253524545165N00813434EA0125201260
B1253534545162N00813434EA0125301261
B1253544545159N00813433EA0125401263
B1253554545156N00813430EA0125501263
B1253564545154N00813425EA0125501263
B1253574545152N00813418EA0125501263
B1253584545152N00813410EA0125501263
B1253594545151N00813400EA0125601264
B1254004545151N00813392EA0125701266
B1254014545151N00813384EA0125801267
B1254024545150N00813378EA0125801266
B1254034545147N00813374EA0125801266
B1254044545145N00813370EA0125801266
B1254054545142N00813367EA0125801267
B1254064545139N00813366EA0125901268
B1254074545137N00813367EA0125901268
B1254084545135N00813370EA0125901268
B1254094545134N00813375EA0125901268
B1254104545135N00813379EA0126001268
B1254114545136N00813384EA0126001269
B1254124545139N00813388EA0126101269
B1254134545143N00813391EA0126001269
B1254144545147N00813394EA0126001269
B1254154545153N00813397EA0126101269
B1254164545159N00813399EA0126201270
B1254174545164N00813402EA0126301271
B1254184545168N00813406EA0126301272
B1254194545170N00813410EA0126201271
B1254204545170N00813416EA0126101270
B1254214545168N00813420EA0126001268
B1254224545165N00813422EA0125901268
B1254234545161N00813422EA0125901267
B1254244545158N00813420EA0125901267
B1254254545154N00813415EA0125901268
B1254264545151N00813409EA0126001268
B1254274545150N00813402EA0126001269
B1254284545149N00813395EA0126101270
B1254294545149N00813387EA0126101270
B1254304545149N00813379EA0126101270
B1254314545148N00813371EA0126201270
B1254324545146N00813364EA0126301272
B1254334545144N00813358EA0126401273
B1254344545142N00813354EA0126501274
B1254354545139N00813352EA0126501274
B1254364545137N00813352EA0126601274
B1254374545134N00813353EA0126601275
B1254384545132N00813356EA0126701275
B1254394545131N00813360EA0126701276
B1254404545132N00813365EA0126701276
B1254414545134N00813370EA0126801276
B1254424545138N00813375EA0126801277
B1254434545143N00813379EA0126901277
B1254444545148N00813380EA0126901278
B1254454545154N00813381EA0126901278
B1254464545161N00813381EA0126901278
B1254474545167N00813381EA0127001278
B1254484545173N00813383EA0127001278
B1254494545178N00813387EA0127001278
B1254504545181N00813392EA0126901278
B1254514545183N00813399EA0126901278
B1254524545182N00813404EA0126901278
B1254534545180N00813408EA0126901278
B1254544545178N00813409EA0126901278
B1254554545175N00813409EA0126901278
B1254564545171N00813406EA0126901277
B1254574545168N00813402EA0126901278
B1254584545165N00813396EA0127001278
B1254594545164N00813389EA0127001279
B1255004545162N00813382EA0127101280
B1255014545161N00813376EA0127101280
B1255024545159N00813371EA0127101280
B1255034545157N00813365EA0127101280
B1255044545155N00813359EA0127201280
B1255054545153N00813354EA0127201281
B1255064545150N00813351EA0127401282
B1255074545148N00813348EA0127501283
B1255084545145N00813347EA0127601285
B1255094545143N00813347EA0127701286
B1255104545141N00813349EA0127701286
B1255114545140N00813353EA0127801286
B1255124545140N00813358EA0127801286
B1255134545143N00813364EA0127801287
B1255144545146N00813370EA0127801287
B1255154545151N00813375EA0127901288
B1255164545158N00813379EA0128101289
B1255174545163N00813383EA0128201291
B1255184545167N00813388EA0128301292
B1255194545169N00813393EA0128401293
B1255204545171N00813398EA0128401293
B1255214545170N00813404EA0128601294
B1255224545169N00813408EA0128701296
B1255234545168N00813410EA0128801297
B1255244545165N00813411EA0128901297
B1255254545163N00813409EA0128901297
B1255264545161N00813404EA0128901297
B1255274545160N00813398EA0128901297
B1255284545160N00813391EA0128901298
B1255294545160N00813384EA0129001299
B1255304545161N00813377EA0129101300
B1255314545162N00813369EA0129201301
B1255324545162N00813363EA0129301302
B1255334545161N00813356EA0129301302
B1255344545160N00813350EA0129401303
B1255354545158N00813345EA0129501303
B1255364545156N00813341EA0129601304
B1255374545153N00813339EA0129501304
B1255384545151N00813340EA0129401303
B1255394545149N00813343EA0129301302
B1255404545148N00813348EA0129301302
B1255414545149N00813354EA0129401302
B1255424545150N00813360EA0129401303
B1255434545153N00813365EA0129401302
B1255444545157N00813370EA0129301302
B1255454545162N00813375EA0129301301
B1255464545168N00813378EA0129201301
B1255474545173N00813381EA0129101300
B1255484545179N00813384EA0129001299
B1255494545184N00813388EA0128801297
B1255504545190N00813393EA0128701295
B1255514545193N00813400EA0128501294
B1255524545195N00813408EA0128401293
B1255534545196N00813414EA0128401293
B1255544545195N00813420EA0128501293
B1255554545194N00813424EA0128401293
B1255564545192N00813426EA0128401293
B1255574545190N00813426EA0128201291
B1255584545187N00813424EA0128001289
B1255594545184N00813421EA0127801287
B1256004545182N00813416EA0127701285
B1256014545180N00813411EA0127601285
B1256024545178N00813406EA0127501284
B1256034545176N00813402EA0127401283
B1256044545174N00813398EA0127301282
B1256054545171N00813394EA0127301281
B1256064545169N00813390EA0127201281
B1256074545166N00813385EA0127201281
B1256084545165N00813380EA0127201280
B1256094545163N00813375EA0127201280
B1256104545161N00813370EA0127201280
B1256114545159N00813365EA0127201281
B1256124545157N00813360EA0127301282
B1256134545155N00813355EA0127401283
B1256144545153N00813352EA0127501284
B1256154545150N00813349EA0127601285
B1256164545148N00813346EA0127801286
B1256174545146N00813343EA0127901288
B1256184545145N00813341EA0128001289
B1256194545143N00813339EA0128101289
B1256204545140N00813337EA0128201291
B1256214545138N00813335EA0128301292
B1256224545137N00813334EA0128301292
B1256234545135N00813332EA0128201291
B1256244545134N00813332EA0128101289
B1256254545132N00813334EA0127801287
B1256264545130N00813338EA0127601284
B1256274545129N00813343EA0127501284
B1256284545129N00813350EA0127401282
B1256294545131N00813357EA0127301282
B1256304545134N00813364EA0127301282
B1256314545137N00813370EA0127401282
B1256324545141N00813376EA0127401283
B1256334545144N00813382EA0127301282
B1256344545146N00813389EA0127201281
B1256354545147N00813395EA0127001279
B1256364545146N00813402EA0127001278
B1256374545144N00813406EA0127001279
B1256384545143N00813408EA0126901278
B1256394545140N00813408EA0126801277
B1256404545138N00813407EA0126801277
B1256414545136N00813405EA0126801276
B1256424545133N00813402EA0126701276
B1256434545132N00813398EA0126601274
B1256444545131N00813393EA0126501273
B1256454545130N00813387EA0126401272
B1256464545130N00813381EA0126301272
B1256474545130N00813376EA0126201271
B1256484545129N00813371EA0126101269
B1256494545128N00813365EA0126001268
B1256504545127N00813360EA0125901268
B1256514545125N00813354EA0125901268
B1256524545122N00813350EA0126001268
B1256534545120N00813349EA0126001269
B1256544545117N00813349EA0126001268
B1256554545115N00813350EA0125901268
B1256564545112N00813351EA0125801267
B1256574545109N00813354EA0125601265
B1256584545107N00813359EA0125301262
B1256594545107N00813366EA0125101259
B1257004545108N00813373EA0124901258
B1257014545110N00813381EA0124901257
B1257024545112N00813387EA0124801257
B1257034545115N00813392EA0124701256
B1257044545119N00813398EA0124601254
B1257054545122N00813404EA0124401253
B1257064545127N00813411EA0124301252
B1257074545130N00813418EA0124301252
B1257084545133N00813425EA0124301252
B1257094545133N00813431EA0124301252
B1257104545133N00813438EA0124101250
B1257114545133N00813444EA0124001248
B1257124545132N00813451EA0123801247
B1257134545131N00813457EA0123601245
B1257144545129N00813464EA0123501244
B1257154545127N00813470EA0123601244
B1257164545125N00813476EA0123701245
B1257174545124N00813481EA0123801246
B1257184545123N00813486EA0123801247
B1257194545122N00813491EA0123801247
B1257204545120N00813497EA0123801246
B1257214545119N00813503EA0123701246
B1257224545116N00813509EA0123701245
B1257234545113N00813513EA0123601245
B1257244545110N00813517EA0123601245
B1257254545106N00813520EA0123601245
B1257264545103N00813522EA0123601244
B1257274545100N00813523EA0123601244
B1257284545098N00813523EA0123501244
B1257294545096N00813522EA0123501244
B1257304545094N00813522EA0123401243
B1257314545093N00813522EA0123301241
B1257324545090N00813524EA0123101239
B1257334545088N00813528EA0122901237
B1257344545087N00813534EA0122801236
B1257354545087N00813541EA0122701236
B1257364545087N00813548EA0122701236
B1257374545088N00813555EA0122801236
B1257384545089N00813563EA0122801236
B1257394545089N00813571EA0122701236
B1257404545091N00813579EA0122801236
B1257414545091N00813587EA0122801236
B1257424545091N00813594EA0122801237
B1257434545091N00813600EA0122801236
B1257444545090N00813607EA0122801236
B1257454545090N00813613EA0122701236
B1257464545090N00813619EA0122701235
B1257474545089N00813624EA0122501234
B1257484545088N00813629EA0122301231
B1257494545087N00813635EA0122001229
B1257504545086N00813641EA0121801227
B1257514545084N00813648EA0121701226
B1257524545083N00813654EA0121601225
B1257534545082N00813659EA0121501224
B1257544545081N00813665EA0121401222
B1257554545079N00813670EA0121201220
B1257564545077N00813675EA0121001219
B1257574545074N00813681EA0121001218
B1257584545071N00813685EA0121001219
B1257594545068N00813689EA0121101219
B1258004545066N00813693EA0121101219
B1258014545064N00813697EA0121001219
B1258024545061N00813702EA0121001219
B1258034545060N00813708EA0121101219
B1258044545059N00813715EA0121001219
B1258054545058N00813721EA0121001219
B1258064545057N00813727EA0121001218
B1258074545056N00813732EA0120901218
B1258084545054N00813737EA0120901218
B1258094545052N00813743EA0120801217
B1258104545051N00813749EA0120701216
B1258114545049N00813754EA0120801216
B1258124545048N00813760EA0120901217
B1258134545046N00813765EA0120801217
B1258144545044N00813770EA0120801217
B1258154545043N00813776EA0120801216
B1258164545041N00813781EA0120801216
B1258174545040N00813786EA0120801217
B1258184545039N00813790EA0120801216
B1258194545037N00813794EA0120701216
B1258204545036N00813798EA0120701215
B1258214545034N00813802EA0120501214
B1258224545032N00813806EA0120401212
B1258234545030N00813812EA0120301211
B1258244545029N00813818EA0120201211
B1258254545028N00813824EA0120101210
B1258264545027N00813830EA0120101209
B1258274545027N00813836EA0119901208
B1258284545026N00813842EA0119701206
B1258294545025N00813847EA0119501204
B1258304545023N00813853EA0119401203
B1258314545021N00813857EA0119401202
B1258324545019N00813862EA0119301201
B1258334545017N00813866EA0119201201
B1258344545015N00813870EA0119101199
B1258354545013N00813874EA0118901198
B1258364545010N00813878EA0118801197
B1258374545007N00813882EA0118701195
B1258384545005N00813886EA0118501194
B1258394545003N00813891EA0118401192
B1258404545000N00813896EA0118201191
B1258414544997N00813901EA0118101189
B1258424544994N00813906EA0118001188
B1258434544992N00813911EA0117801187
B1258444544989N00813916EA0117701185
B1258454544987N00813922EA0117601184
B1258464544985N00813927EA0117501184
B1258474544984N00813933EA0117401183
B1258484544982N00813938EA0117301182
B1258494544981N00813944EA0117201181
B1258504544979N00813949EA0117001179
B1258514544978N00813955EA0116901178
B1258524544978N00813962EA0116801176
B1258534544976N00813968EA0116701175
B1258544544975N00813974EA0116501174
B1258554544973N00813979EA0116501173
B1258564544971N00813984EA0116401172
B1258574544970N00813989EA0116201171
B1258584544968N00813994EA0116001169
B1258594544965N00813999EA0115901168
B1259004544963N00814005EA0115801167
B1259014544962N00814010EA0115801166
B1259024544960N00814016EA0115701165
B1259034544959N00814022EA0115601165
B1259044544958N00814028EA0115501163
B1259054544957N00814033EA0115301162
B1259064544955N00814040EA0115201160
B1259074544954N00814046EA0115001159
B1259084544952N00814052EA0114901158
B1259094544950N00814059EA0114901157
B1259104544949N00814065EA0114701156
B1259114544947N00814071EA0114601155
B1259124544946N00814078EA0114601155
B1259134544945N00814084EA0114501154
B1259144544944N00814091EA0114401153
B1259154544943N00814097EA0114301152
B1259164544942N00814103EA0114201151
B1259174544941N00814110EA0114101149
B1259184544940N00814116EA0114001148
B1259194544939N00814122EA0113901147
B1259204544937N00814128EA0113801146
B1259214544935N00814134EA0113701145
B1259224544934N00814141EA0113601144
B1259234544933N00814147EA0113501144
B1259244544932N00814154EA0113401143
B1259254544930N00814160EA0113301142
B1259264544929N00814165EA0113201140
B1259274544927N00814171EA0113001139
B1259284544924N00814176EA0112901138
B1259294544922N00814181EA0112801137
B1259304544919N00814186EA0112701136
B1259314544917N00814191EA0112601134
B1259324544915N00814196EA0112501133
B1259334544913N00814202EA0112301132
B1259344544911N00814208EA0112201130
B1259354544909N00814215EA0112001129
B1259364544908N00814222EA0111901128
B1259374544908N00814229EA0111801127
B1259384544909N00814237EA0111701126
B1259394544910N00814245EA0111601124
B1259404544912N00814252EA0111501123
B1259414544914N00814260EA0111301122
B1259424544917N00814267EA0111201120
B1259434544921N00814275EA0111001119
B1259444544925N00814282EA0110801117
B1259454544929N00814289EA0110601115
B1259464544933N00814296EA0110501113
B1259474544936N00814303EA0110301111
B1259484544940N00814311EA0110001109
B1259494544944N00814319EA0109801106
B1259504544947N00814327EA0109601105
B1259514544951N00814335EA0109601104
B1259524544954N00814343EA0109501104
B1259534544957N00814351EA0109401103
B1259544544961N00814359EA0109301102
B1259554544965N00814366EA0109201100
B1259564544969N00814373EA0109001098
B1259574544972N00814381EA0108801097
B1259584544975N00814389EA0108601095
B1259594544977N00814398EA0108501094
B1300004544979N00814406EA0108401093
B1300014544982N00814414EA0108301092
B1300024544984N00814423EA0108201091
B1300034544986N00814431EA0108101090
B1300044544988N00814439EA0108001088
B1300054544991N00814447EA0107801087
B1300064544993N00814456EA0107601085
B1300074544995N00814465EA0107401082
B1300084544996N00814474EA0107201081
B1300094544997N00814483EA0107101079
B1300104545000N00814491EA0106901078
B1300114545003N00814499EA0106801077
B1300124545005N00814507EA0106601075
B1300134545007N00814516EA0106501073
B1300144545009N00814524EA0106401072
B1300154545011N00814533EA0106301071
B1300164545014N00814541EA0106301071
B1300174545016N00814549EA0106201071
B1300184545019N00814556EA0106101070
B1300194545021N00814563EA0105901068
B1300204545022N00814571EA0105701065
B1300214545024N00814580EA0105501064
B1300224545026N00814590EA0105401063
B1300234545028N00814598EA0105301062
B1300244545030N00814606EA0105201061
B1300254545032N00814615EA0105101060
B1300264545035N00814623EA0105001058
B1300274545038N00814633EA0104901058
B1300284545040N00814642EA0104901058
B1300294545041N00814651EA0105001058
B1300304545042N00814658EA0104901058
B1300314545044N00814666EA0104901057
B1300324545045N00814674EA0104701056
B1300334545046N00814682EA0104501054
B1300344545046N00814691EA0104501053
B1300354545046N00814700EA0104501054
B1300364545046N00814708EA0104601055
B1300374545047N00814716EA0104801056
B1300384545048N00814723EA0104801056
B1300394545049N00814729EA0104701055
B1300404545049N00814737EA0104501054
B1300414545049N00814745EA0104401052
B1300424545049N00814754EA0104201051
B1300434545049N00814763EA0104201050
B1300444545049N00814771EA0104101050
B1300454545049N00814779EA0104101049
B1300464545050N00814788EA0103901048
B1300474545049N00814797EA0103701046
B1300484545049N00814805EA0103601045
B1300494545048N00814814EA0103601045
B1300504545048N00814822EA0103601045
B1300514545048N00814829EA0103501044
B1300524545047N00814836EA0103301042
B1300534545047N00814843EA0103201041
B1300544545046N00814851EA0103001039
B1300554545046N00814859EA0102801037
B1300564545047N00814867EA0102701035
B1300574545047N00814874EA0102501034
B1300584545048N00814881EA0102301032
B1300594545048N00814889EA0102101029
B1301004545049N00814898EA0101901027
B1301014545052N00814906EA0101701026
B1301024545055N00814914EA0101601025
B1301034545059N00814921EA0101501023
B1301044545063N00814928EA0101301021
B1301054545068N00814934EA0101201020
B1301064545075N00814940EA0101001019
B1301074545081N00814945EA0100701016
B1301084545087N00814949EA0100601014
B1301094545094N00814952EA0100401013
B1301104545101N00814955EA0100201011
B1301114545108N00814957EA0100101009
B1301124545115N00814958EA0099901008
B1301134545122N00814960EA0099701005
B1301144545129N00814961EA0099501003
B1301154545136N00814963EA0099301002
B1301164545143N00814964EA0099100999
B1301174545150N00814966EA0098900997
B1301184545157N00814967EA0098700996
B1301194545165N00814969EA0098500994
B1301204545172N00814970EA0098300992
B1301214545180N00814971EA0098100990
B1301224545187N00814973EA0098000989
B1301234545195N00814975EA0097900988
B1301244545203N00814976EA0097800987
B1301254545210N00814978EA0097600985
B1301264545217N00814980EA0097500984
B1301274545225N00814981EA0097400982
B1301284545231N00814984EA0097300981
B1301294545239N00814985EA0097200980
B1301304545246N00814986EA0097000979
B1301314545253N00814987EA0096900977
B1301324545260N00814988EA0096800976
B1301334545267N00814988EA0096700975
B1301344545274N00814989EA0096400973
B1301354545281N00814989EA0096200971
B1301364545289N00814989EA0096000969
B1301374545296N00814990EA0095900968
B1301384545304N00814990EA0095900967
B1301394545311N00814990EA0095800966
B1301404545317N00814991EA0095600965
B1301414545324N00814992EA0095400962
B1301424545331N00814992EA0095100960
B1301434545337N00814993EA0094900958
B1301444545345N00814993EA0094700955
B1301454545352N00814993EA0094400953
B1301464545359N00814994EA0094300952
B1301474545367N00814994EA0094200950
B1301484545374N00814994EA0094000949
B1301494545380N00814994EA0093800947
B1301504545387N00814995EA0093700945
B1301514545395N00814996EA0093500943
B1301524545402N00814996EA0093300942
B1301534545409N00814995EA0093200940
B1301544545417N00814995EA0093100940
B1301554545423N00814995EA0093000939
B1301564545430N00814996EA0092900937
B1301574545436N00814997EA0092700936
B1301584545443N00814997EA0092400933
B1301594545450N00814996EA0092200931
B1302004545458N00814995EA0092100930
B1302014545464N00814995EA0092000929
B1302024545471N00814994EA0092000929
B1302034545478N00814993EA0091900928
B1302044545485N00814993EA0091800926
B1302054545492N00814992EA0091600924
B1302064545499N00814992EA0091400923
B1302074545506N00814992EA0091300922
B1302084545513N00814992EA0091300921
B1302094545520N00814991EA0091200921
B1302104545527N00814990EA0091100920
B1302114545535N00814990EA0091100919
B1302124545542N00814990EA0091000919
B1302134545549N00814989EA0091000918
B1302144545557N00814989EA0090900918
B1302154545564N00814989EA0090900917
B1302164545571N00814989EA0090700915
B1302174545578N00814989EA0090600914
B1302184545585N00814989EA0090400913
B1302194545593N00814989EA0090200911
B1302204545601N00814989EA0090000909
B1302214545608N00814989EA0089800907
B1302224545616N00814989EA0089700906
B1302234545623N00814989EA0089600904
B1302244545631N00814989EA0089400903
B1302254545639N00814990EA0089300901
B1302264545646N00814991EA0089200900
B1302274545654N00814992EA0089100900
B1302284545661N00814993EA0089000899
B1302294545669N00814993EA0088900898
B1302304545675N00814993EA0088700896
B1302314545683N00814992EA0088600895
B1302324545691N00814992EA0088500894
B1302334545698N00814991EA0088500894
B1302344545706N00814989EA0088500893
B1302354545713N00814988EA0088400893
B1302364545719N00814986EA0088300892
B1302374545726N00814984EA0088100889
B1302384545733N00814982EA0087800887
B1302394545740N00814981EA0087600885
B1302404545748N00814981EA0087500883
B1302414545755N00814981EA0087400882
B1302424545762N00814982EA0087300881
B1302434545770N00814983EA0087100880
B1302444545776N00814985EA0086900878
B1302454545783N00814987EA0086700876
B1302464545790N00814990EA0086600874
B1302474545797N00814994EA0086300872
B1302484545804N00814998EA0086000868
B1302494545810N00815002EA0085800866
B1302504545816N00815007EA0085600865
B1302514545822N00815012EA0085500863
B1302524545828N00815018EA0085300861
B1302534545833N00815024EA0085200861
B1302544545838N00815031EA0085100860
B1302554545844N00815038EA0085000859
B1302564545849N00815045EA0085000859
B1302574545853N00815052EA0084900858
B1302584545857N00815058EA0084800856
B1302594545860N00815065EA0084700855
B1303004545864N00815072EA0084600854
B1303014545868N00815080EA0084400853
B1303024545872N00815087EA0084400852
B1303034545877N00815094EA0084300852
B1303044545881N00815100EA0084300851
B1303054545886N00815106EA0084100850
B1303064545891N00815112EA0084000848
B1303074545897N00815118EA0083800846
B1303084545902N00815125EA0083600845
B1303094545907N00815133EA0083500843
B1303104545911N00815141EA0083400843
B1303114545915N00815149EA0083400843
B1303124545919N00815156EA0083500843
B1303134545923N00815163EA0083400843
B1303144545927N00815170EA0083400842
B1303154545930N00815178EA0083200841
B1303164545933N00815187EA0083000839
B1303174545935N00815195EA0082900838
B1303184545937N00815204EA0082900837
B1303194545937N00815211EA0082800837
B1303204545938N00815219EA0082700835
B1303214545938N00815226EA0082500833
B1303224545938N00815232EA0082300831
B1303234545938N00815239EA0082100829
B1303244545937N00815245EA0081800826
B1303254545935N00815252EA0081600824
B1303264545935N00815259EA0081300822
B1303274545934N00815265EA0081100819
B1303284545932N00815272EA0080800817
B1303294545930N00815278EA0080700815
B1303304545928N00815284EA0080500814
B1303314545926N00815291EA0080400812
B1303324545924N00815299EA0080300812
B1303334545924N00815307EA0080300811
B1303344545923N00815314EA0080300812
B1303354545922N00815320EA0080400813
B1303364545921N00815326EA0080500813
B1303374545920N00815332EA0080500814
B1303384545920N00815337EA0080400813
B1303394545920N00815343EA0080300811
B1303404545919N00815350EA0080200810
B1303414545919N00815357EA0080100810
B1303424545919N00815364EA0080000809
B1303434545918N00815371EA0080000808
B1303444545916N00815378EA0080000808
B1303454545915N00815385EA0080000809
B1303464545914N00815390EA0080100809
B1303474545913N00815395EA0080000809
B1303484545912N00815399EA0079900808
B1303494545911N00815404EA0079800807
B1303504545909N00815408EA0079700806
B1303514545907N00815413EA0079500804
B1303524545905N00815418EA0079500803
B1303534545903N00815422EA0079500803
B1303544545901N00815427EA0079400803
B1303554545900N00815433EA0079300802
B1303564545900N00815439EA0079200801
B1303574545898N00815444EA0079100800
B1303584545897N00815450EA0079000798
B1303594545896N00815456EA0078900798
B1304004545894N00815463EA0078700796
B1304014545893N00815469EA0078600795
B1304024545891N00815474EA0078600794
B1304034545890N00815479EA0078500793
B1304044545888N00815484EA0078300792
B1304054545885N00815488EA0078200791
B1304064545883N00815493EA0078100790
B1304074545881N00815498EA0078000789
B1304084545878N00815502EA0077900788
B1304094545876N00815507EA0077900787
B1304104545875N00815512EA0077700785
B1304114545874N00815518EA0077400783
B1304124545872N00815524EA0077200781
B1304134545870N00815529EA0077100780
B1304144545869N00815536EA0077000779
B1304154545868N00815543EA0076900778
B1304164545868N00815549EA0076800777
B1304174545868N00815556EA0076700776
B1304184545868N00815563EA0076500774
B1304194545867N00815569EA0076300772
B1304204545866N00815576EA0076000769
B1304214545865N00815584EA0075800767
B1304224545864N00815590EA0075600765
B1304234545863N00815597EA0075500764
B1304244545862N00815604EA0075400763
B1304254545862N00815611EA0075200761
B1304264545863N00815618EA0075100759
B1304274545865N00815626EA0074900757
B1304284545868N00815634EA0074700756
B1304294545871N00815642EA0074600755
B1304304545875N00815649EA0074500754
B1304314545879N00815656EA0074400752
B1304324545885N00815662EA0074200751
B1304334545891N00815667EA0074100750
B1304344545899N00815670EA0074000748
B1304354545907N00815671EA0073900748
B1304364545915N00815669EA0073800747
B1304374545921N00815666EA0073700746
B1304384545928N00815660EA0073600745
B1304394545933N00815654EA0073500744
B1304404545935N00815646EA0073500743
B1304414545938N00815639EA0073400742
B1304424545938N00815633EA0073200741
B1304434545937N00815629EA0073100740
B1304444545935N00815625EA0072900738
B1304454545933N00815623EA0072800737
B1304464545930N00815621EA0072600735
B1304474545927N00815620EA0072500733
B1304484545924N00815620EA0072300732
B1304494545921N00815619EA0072200730
B1304504545919N00815620EA0072000729
B1304514545916N00815621EA0071800727
B1304524545913N00815623EA0071700725
B1304534545909N00815625EA0071500723
B1304544545905N00815625EA0071300721
B1304554545901N00815624EA0071200721
B1304564545898N00815624EA0071200720
B1304574545895N00815623EA0071100720
B1304584545892N00815622EA0071000718
B1304594545889N00815621EA0070800716
B1305004545885N00815620EA0070600715
B1305014545882N00815617EA0070500713
B1305024545879N00815616EA0070400712
B1305034545876N00815614EA0070300712
B1305044545873N00815613EA0070200711
B1305054545870N00815612EA0070100709
B1305064545867N00815610EA0069900707
B1305074545864N00815609EA0069700706
B1305084545860N00815608EA0069600705
B1305094545857N00815607EA0069500704
B1305104545854N00815606EA0069400703
B1305114545851N00815605EA0069300702
B1305124545848N00815605EA0069100700
B1305134545845N00815604EA0069000698
B1305144545842N00815604EA0068800697
B1305154545838N00815605EA0068700696
B1305164545835N00815606EA0068600694
B1305174545832N00815606EA0068400693
B1305184545829N00815607EA0068300692
B1305194545826N00815607EA0068200690
B1305204545823N00815607EA0068000689
B1305214545820N00815607EA0067900687
B1305224545816N00815606EA0067700686
B1305234545813N00815605EA0067600684
B1305244545810N00815604EA0067500683
B1305254545807N00815603EA0067300682
B1305264545804N00815603EA0067200681
B1305274545801N00815602EA0067000679
B1305284545798N00815602EA0066900678
B1305294545795N00815601EA0066700676
B1305304545792N00815600EA0066600675
B1305314545789N00815599EA0066500674
B1305324545787N00815600EA0066400673
B1305334545784N00815602EA0066300671
B1305344545782N00815606EA0066000669
B1305354545781N00815611EA0065900667
B1305364545780N00815618EA0065800666
B1305374545782N00815625EA0065700666
B1305384545784N00815632EA0065700665
B1305394545788N00815638EA0065600664
B1305404545794N00815643EA0065400663
B1305414545800N00815647EA0065300662
B1305424545807N00815651EA0065400662
B1305434545814N00815653EA0065400663
B1305444545821N00815653EA0065400662
B1305454545829N00815652EA0065300662
B1305464545835N00815649EA0065200660
B1305474545842N00815645EA0065000658
B1305484545848N00815640EA0064700656
B1305494545853N00815633EA0064600654
B1305504545856N00815626EA0064300652
B1305514545858N00815618EA0064200650
B1305524545858N00815612EA0064000649
B1305534545858N00815606EA0063900648
B1305544545857N00815601EA0063700646
B1305554545856N00815598EA0063600644
B1305564545853N00815596EA0063400643
B1305574545850N00815596EA0063200641
B1305584545847N00815598EA0063100640
B1305594545844N00815600EA0063200640
B1306004545842N00815601EA0063100640
B1306014545839N00815601EA0063000639
B1306024545836N00815602EA0062800637
B1306034545834N00815603EA0062700636
B1306044545831N00815604EA0062600635
B1306054545828N00815604EA0062500634
B1306064545826N00815604EA0062400633
B1306074545823N00815603EA0062200630
B1306084545820N00815602EA0062000628
B1306094545817N00815602EA0061800626
B1306104545813N00815602EA0061600625
B1306114545810N00815602EA0061500624
B1306124545807N00815602EA0061500624
B1306134545804N00815600EA0061400623
B1306144545801N00815599EA0061400622
B1306154545799N00815598EA0061200621
B1306164545796N00815597EA0061000619
B1306174545793N00815597EA0060800617
B1306184545790N00815597EA0060600615
B1306194545787N00815598EA0060500614
B1306204545785N00815600EA0060300612
B1306214545783N00815605EA0060100610
B1306224545782N00815612EA0059900607
B1306234545783N00815619EA0059700606
B1306244545784N00815626EA0059700606
B1306254545788N00815632EA0059600605
B1306264545791N00815639EA0059500604
B1306274545796N00815645EA0059300602
B1306284545801N00815652EA0059200601
B1306294545806N00815658EA0059100600
B1306304545811N00815664EA0059000599
B1306314545816N00815670EA0058800597
B1306324545822N00815675EA0058700595
B1306334545828N00815680EA0058500594
B1306344545835N00815683EA0058300592
B1306354545841N00815686EA0058200590
B1306364545849N00815687EA0058100589
B1306374545856N00815688EA0057900588
B1306384545863N00815689EA0057800586
B1306394545871N00815688EA0057600585
B1306404545878N00815686EA0057400583
B1306414545885N00815684EA0057200581
B1306424545893N00815682EA0057000578
B1306434545900N00815680EA0056800577
B1306444545908N00815677EA0056700575
B1306454545916N00815675EA0056500574
B1306464545923N00815672EA0056500573
B1306474545931N00815670EA0056400572
B1306484545938N00815667EA0056300572
B1306494545945N00815665EA0056200571
B1306504545953N00815662EA0056200571
B1306514545962N00815660EA0056300571
B1306524545969N00815658EA0056300571
B1306534545976N00815656EA0056400572
B1306544545983N00815654EA0056400573
B1306554545990N00815652EA0056400572
B1306564545997N00815650EA0056200571
B1306574546004N00815648EA0056100569
B1306584546012N00815647EA0055900568
B1306594546019N00815645EA0055800566
B1307004546027N00815643EA0055700566
B1307014546035N00815642EA0055700566
B1307024546042N00815641EA0055700566
B1307034546049N00815640EA0055600565
B1307044546057N00815639EA0055600565
B1307054546064N00815639EA0055500564
B1307064546071N00815639EA0055500564
B1307074546079N00815639EA0055500563
B1307084546085N00815639EA0055500563
B1307094546093N00815639EA0055400563
B1307104546100N00815639EA0055400563
B1307114546107N00815639EA0055600564
B1307124546114N00815640EA0055700565
B1307134546121N00815642EA0055800566
B1307144546127N00815644EA0055800567
B1307154546134N00815647EA0055800567
B1307164546140N00815650EA0055800567
B1307174546146N00815654EA0055800567
B1307184546152N00815659EA0055800567
B1307194546158N00815664EA0055900567
B1307204546164N00815670EA0055900568
B1307214546169N00815675EA0055900568
B1307224546174N00815679EA0055800567
B1307234546179N00815684EA0055600565
B1307244546183N00815689EA0055400563
B1307254546187N00815694EA0055100560
B1307264546192N00815700EA0054900557
B1307274546197N00815706EA0054700555
B1307284546201N00815713EA0054400553
B1307294546205N00815720EA0054200551
B1307304546208N00815727EA0054100549
B1307314546212N00815734EA0054000548
B1307324546216N00815742EA0053800547
B1307334546219N00815749EA0053700546
B1307344546222N00815756EA0053600544
B1307354546224N00815763EA0053400543
B1307364546226N00815770EA0053300541
B1307374546228N00815778EA0053100540
B1307384546231N00815785EA0053000539
B1307394546234N00815793EA0052900537
B1307404546236N00815799EA0052700536
B1307414546238N00815806EA0052600535
B1307424546240N00815812EA0052500533
B1307434546242N00815818EA0052300532
B1307444546243N00815824EA0052100530
B1307454546242N00815829EA0051900528
B1307464546240N00815832EA0051700526
B1307474546237N00815833EA0051400523
B1307484546234N00815830EA0051200521
B1307494546232N00815825EA0051100519
B1307504546230N00815818EA0050900518
B1307514546230N00815812EA0050900517
B1307524546230N00815806EA0050700516
B1307534546228N00815800EA0050500514
B1307544546228N00815795EA0050400512
B1307554546227N00815788EA0050200511
B1307564546226N00815781EA0050100509
B1307574546226N00815774EA0049900508
B1307584546225N00815768EA0049900508
B1307594546224N00815763EA0049800507
B1308004546223N00815758EA0049600505
B1308014546222N00815753EA0049400503
B1308024546221N00815747EA0049300501
B1308034546219N00815742EA0049200500
B1308044546218N00815737EA0049000499
B1308054546216N00815733EA0048900498
B1308064546215N00815728EA0048800497
B1308074546213N00815723EA0048700496
B1308084546213N00815717EA0048600494
B1308094546212N00815710EA0048500494
B1308104546211N00815705EA0048400493
B1308114546209N00815700EA0048300492
B1308124546208N00815696EA0048200491
B1308134546206N00815692EA0048200490
B1308144546205N00815688EA0048100489
B1308154546202N00815687EA0048000488
B1308164546200N00815688EA0047800486
B1308174546197N00815690EA0047600485
B1308184546196N00815694EA0047500484
B1308194546195N00815699EA0047400482
B1308204546196N00815705EA0047300481
B1308214546197N00815711EA0047200480
B1308224546199N00815718EA0047100480
B1308234546202N00815723EA0047100480
B1308244546205N00815729EA0047000478
B1308254546207N00815735EA0046800477
B1308264546208N00815742EA0046700475
B1308274546210N00815748EA0046600474
B1308284546211N00815755EA0046500474
B1308294546212N00815760EA0046600474
B1308304546211N00815764EA0046500473
B1308314546210N00815766EA0046200471
B1308324546208N00815766EA0045900468
B1308334546205N00815763EA0045700466
B1308344546204N00815757EA0045500464
B1308354546203N00815750EA0045300462
B1308364546204N00815743EA0045300462
B1308374546205N00815736EA0045200461
B1308384546206N00815730EA0045100460
B1308394546206N00815724EA0044900458
B1308404546206N00815718EA0044800456
B1308414546204N00815713EA0044600455
B1308424546201N00815710EA0044500453
B1308434546198N00815711EA0044400453
B1308444546196N00815714EA0044300452
B1308454546194N00815719EA0044200450
B1308464546194N00815725EA0044100449
B1308474546194N00815731EA0044000449
B1308484546196N00815737EA0043900447
B1308494546198N00815744EA0043600445
B1308504546202N00815751EA0043500444
B1308514546205N00815757EA0043400443
B1308524546206N00815763EA0043400442
B1308534546208N00815768EA0043200441
B1308544546208N00815773EA0043100440
B1308554546209N00815778EA0043000439
B1308564546208N00815782EA0042800437
B1308574546206N00815784EA0042600435
B1308584546203N00815782EA0042400433
B1308594546201N00815778EA0042300432
B1309004546199N00815772EA0042300432
B1309014546198N00815767EA0042300432
B1309024546198N00815763EA0042200431
B1309034546197N00815760EA0042100430
B1309044546195N00815757EA0042000428
B1309054546193N00815754EA0041800426
B1309064546190N00815753EA0041500424
B1309074546187N00815754EA0041300422
B1309084546186N00815755EA0041200421
B1309094546184N00815757EA0041000419
B1309104546182N00815758EA0040900418
B1309114546180N00815759EA0040700416
B1309124546178N00815761EA0040600414
B1309134546177N00815763EA0040400413
B1309144546175N00815765EA0040200411
B1309154546172N00815766EA0040000408
B1309164546170N00815767EA0039800407
B1309174546168N00815768EA0039800406
B1309184546165N00815769EA0039800406
B1309194546164N00815769EA0039600405
B1309204546162N00815769EA0039400403
B1309214546159N00815769EA0039200401
B1309224546157N00815768EA0039200401
B1309234546155N00815768EA0039300402
B1309244546153N00815768EA0039300402
B1309254546151N00815769EA0039100400
B1309264546149N00815770EA0038900398
B1309274546147N00815770EA0038900398
B1309284546146N00815770EA0039100400
B1309294546146N00815770EA0039100400
B1309304546145N00815769EA0039100399
B1309314546145N00815770EA0039000399
B1309324546144N00815770EA0039000399
B1309334546144N00815770EA0039100399
B1309344546143N00815770EA0039100399
B1309354546143N00815770EA0039000399
B1309364546143N00815770EA0039100399
B1309374546143N00815770EA0039000399
B1309384546143N00815771EA0039100399
B1309394546143N00815771EA0039100399
B1309404546143N00815771EA0039100399
B1309414546143N00815771EA0039100399
B1309424546143N00815771EA0039100399
B1309434546143N00815771EA0039100399
B1309444546143N00815772EA0039100399
B1309454546143N00815772EA0039100399
B1309464546143N00815772EA0039100399
B1309474546143N00815772EA0039100399
B1309484546143N00815772EA0039000399
B1309494546143N00815772EA0039100399
B1309504546143N00815773EA0039100399
B1309514546143N00815773EA0039100399
B1309524546143N00815773EA0039100399
B1309534546143N00815773EA0039100399
B1309544546143N00815773EA0039100399
B1309554546143N00815773EA0039100399
B1309564546143N00815773EA0039100399
B1309574546143N00815774EA0039100399
B1309584546143N00815774EA0039000399
B1309594546143N00815773EA0039000399
B1310004546143N00815773EA0039100399
B1310014546143N00815773EA0039100399
B1310024546143N00815773EA0039100399
B1310034546143N00815773EA0039100399
B1310044546143N00815773EA0039100399
B1310054546143N00815773EA0039100399
B1310064546143N00815773EA0039100399
B1310074546143N00815773EA0039100399
B1310084546143N00815773EA0039100399
B1310094546143N00815773EA0039100399
B1310104546143N00815773EA0039000399
B1310114546143N00815773EA0039000399
B1310124546143N00815772EA0039100399
B1310134546143N00815772EA0039100399
B1310144546143N00815772EA0039000399
B1310154546143N00815772EA0039100399
B1310164546143N00815772EA0039100399
B1310174546143N00815772EA0039100399
B1310184546144N00815772EA0039100399
B1310194546144N00815772EA0039100399
B1310204546144N00815772EA0039100399
B1310214546144N00815772EA0039100399
B1310224546143N00815772EA0039100399
B1310234546143N00815772EA0039100399
B1310244546143N00815772EA0039100399
B1310254546143N00815772EA0039100399
B1310264546144N00815772EA0039100399
B1310274546144N00815773EA0039100399
B1310284546145N00815772EA0039100399
B1310294546145N00815772EA0039100399
B1310304546145N00815772EA0039100399
B1310314546145N00815772EA0039100399
B1310324546146N00815772EA0039100399
B1310334546146N00815772EA0039100399
B1310344546146N00815772EA0039100399
B1310354546146N00815772EA0039100399
B1310364546146N00815772EA0039100399
B1310374546146N00815772EA0039100399
B1310384546146N00815772EA0039100399
B1310394546146N00815772EA0039100399
B1310404546146N00815772EA0039100399
B1310414546146N00815773EA0039100399
B1310424546146N00815773EA0039100399
B1310434546146N00815773EA0039100399
B1310444546146N00815773EA0039100399
B1310454546146N00815773EA0039100399
B1310464546146N00815773EA0039100399
B1310474546146N00815774EA0039100399
B1310484546146N00815774EA0039100399
B1310494546146N00815774EA0039100399
B1310504546146N00815774EA0039100399
B1310514546146N00815774EA0039000399
B1310524546146N00815775EA0039000399
B1310534546145N00815774EA0039000399
B1310544546145N00815774EA0039000399
B1310554546144N00815774EA0039000399
B1310564546144N00815773EA0039000399
B1310574546143N00815773EA0039000399
B1310584546143N00815772EA0039000399
B1310594546143N00815771EA0039000399
B1311004546143N00815771EA0039000399
B1311014546142N00815770EA0039000399
B1311024546142N00815769EA0039000399
B1311034546142N00815769EA0039000399
B1311044546142N00815768EA0039000399
B1311054546142N00815767EA0039100399
B1311064546142N00815766EA0039000399
B1311074546142N00815766EA0039000399
B1311084546142N00815765EA0039000399
B1311094546142N00815765EA0039100399
B1311104546141N00815765EA0039100399
B1311114546141N00815765EA0039000399
B1311124546141N00815765EA0039000399
B1311134546141N00815764EA0039000399
B1311144546141N00815764EA0039000399
B1311154546141N00815764EA0039000399
B1311164546141N00815764EA0039000399
LXSX;GF:1.2
GFEA1EF3D4F1FC0265B4DF1E7714B7C54
