AXSX003 SKYTRAXX V3.0.16c SN:00000380
HFPLTPILOT:Sepp Bucher
HFGTYGLIDERTYPE:Advance Sigma11
HFDTM100GPSDATUM:WGS-84
HFCIDCOMPETITIONID:0000
HFCCLCOMPETITION CLASS:Paraglider (Standard)
HFSITSITE:Bornes
HFDTE030621
B1056214127834N00657831WA0109101134
B1056224127835N00657831WA0109101134
B1056234127835N00657831WA0109001133
B1056244127834N00657832WA0109101134
B1056254127834N00657833WA0109101134
B1056264127835N00657834WA0108901132
B1056274127835N00657835WA0108901132
B1056284127836N00657836WA0108901132
B1056294127837N00657838WA0108601130
B1056304127838N00657840WA0108601129
B1056314127839N00657843WA0108601132
B1056324127841N00657846WA0108801137
B1056334127842N00657851WA0108501136
B1056344127843N00657855WA0108301137
B1056354127845N00657861WA0108301138
B1056364127845N00657867WA0108201140
B1056374127846N00657873WA0108101139
B1056384127847N00657878WA0108201140
B1056394127847N00657883WA0108301141
B1056404127848N00657887WA0108401143
B1056414127848N00657892WA0108501143
B1056424127849N00657896WA0108401142
B1056434127850N00657900WA0108301141
B1056444127851N00657906WA0108101139
B1056454127851N00657912WA0108101139
B1056464127852N00657917WA0108101139
B1056474127854N00657923WA0108101139
B1056484127854N00657928WA0108101139
B1056494127855N00657933WA0108101139
B1056504127856N00657938WA0108101139
B1056514127857N00657943WA0108101139
B1056524127858N00657948WA0108201140
B1056534127860N00657953WA0108201140
B1056544127861N00657958WA0108201140
B1056554127861N00657964WA0108301141
B1056564127862N00657969WA0108301141
B1056574127863N00657974WA0108401142
B1056584127864N00657979WA0108601144
B1056594127864N00657983WA0108601144
B1057004127865N00657987WA0108601144
B1057014127866N00657991WA0108501143
B1057024127867N00657996WA0108501143
B1057034127868N00658001WA0108301141
B1057044127870N00658008WA0108201140
B1057054127872N00658014WA0108101139
B1057064127874N00658019WA0108101139
B1057074127876N00658024WA0108001138
B1057084127877N00658029WA0107801136
B1057094127880N00658033WA0107501133
B1057104127883N00658039WA0107201130
B1057114127885N00658046WA0107001128
B1057124127888N00658053WA0106901127
B1057134127890N00658060WA0106901127
B1057144127893N00658066WA0106901127
B1057154127895N00658072WA0106801126
B1057164127897N00658078WA0106701125
B1057174127900N00658084WA0106501123
B1057184127902N00658090WA0106301121
B1057194127905N00658097WA0106101119
B1057204127908N00658103WA0106001118
B1057214127910N00658109WA0105801116
B1057224127912N00658115WA0105601114
B1057234127913N00658122WA0105501113
B1057244127915N00658127WA0105401112
B1057254127916N00658133WA0105201110
B1057264127918N00658138WA0105001108
B1057274127920N00658143WA0104801106
B1057284127922N00658149WA0104601104
B1057294127923N00658155WA0104401102
B1057304127925N00658161WA0104301101
B1057314127927N00658166WA0104201100
B1057324127929N00658172WA0104101099
B1057334127931N00658178WA0103901097
B1057344127932N00658184WA0103801096
B1057354127934N00658191WA0103701095
B1057364127935N00658197WA0103601094
B1057374127938N00658204WA0103501093
B1057384127939N00658210WA0103401092
B1057394127941N00658216WA0103201090
B1057404127942N00658222WA0103101089
B1057414127944N00658228WA0102901087
B1057424127947N00658234WA0102701085
B1057434127949N00658240WA0102501083
B1057444127950N00658246WA0102301081
B1057454127952N00658252WA0102201080
B1057464127954N00658258WA0102001078
B1057474127957N00658264WA0102001078
B1057484127959N00658269WA0102201080
B1057494127960N00658274WA0102401082
B1057504127962N00658278WA0102501083
B1057514127964N00658282WA0102501083
B1057524127966N00658287WA0102601084
B1057534127967N00658292WA0102501083
B1057544127969N00658298WA0102601084
B1057554127970N00658303WA0102701085
B1057564127972N00658308WA0102901087
B1057574127974N00658312WA0103101089
B1057584127976N00658316WA0103201090
B1057594127977N00658321WA0103501093
B1058004127978N00658325WA0103701095
B1058014127979N00658329WA0103801096
B1058024127979N00658332WA0103901097
B1058034127981N00658336WA0104101099
B1058044127983N00658340WA0104201100
B1058054127985N00658344WA0104401102
B1058064127987N00658348WA0104501103
B1058074127988N00658352WA0104701105
B1058084127991N00658356WA0105001108
B1058094127993N00658359WA0105101109
B1058104127995N00658364WA0105201110
B1058114127996N00658368WA0105301111
B1058124127997N00658373WA0105501113
B1058134127998N00658379WA0105601114
B1058144127999N00658384WA0105701115
B1058154128000N00658388WA0105901117
B1058164128003N00658391WA0106001118
B1058174128006N00658393WA0106001118
B1058184128010N00658393WA0106201120
B1058194128015N00658392WA0106201120
B1058204128019N00658389WA0106301121
B1058214128022N00658384WA0106401122
B1058224128025N00658377WA0106401122
B1058234128025N00658368WA0106501123
B1058244128023N00658359WA0106601124
B1058254128020N00658352WA0106701125
B1058264128016N00658346WA0106701125
B1058274128010N00658343WA0106801126
B1058284128005N00658343WA0107001128
B1058294128000N00658344WA0107201130
B1058304127997N00658346WA0107301131
B1058314127994N00658348WA0107401132
B1058324127991N00658350WA0107401132
B1058334127987N00658352WA0107401132
B1058344127982N00658355WA0107301131
B1058354127978N00658357WA0107301131
B1058364127975N00658361WA0107301131
B1058374127972N00658365WA0107201130
B1058384127970N00658370WA0107201130
B1058394127968N00658374WA0107201130
B1058404127967N00658378WA0107201130
B1058414127966N00658382WA0107101129
B1058424127967N00658387WA0107101129
B1058434127969N00658391WA0107001128
B1058444127971N00658395WA0107101129
B1058454127974N00658398WA0107101129
B1058464127976N00658401WA0107101129
B1058474127979N00658404WA0107201130
B1058484127982N00658406WA0107301131
B1058494127986N00658409WA0107401132
B1058504127989N00658412WA0107501133
B1058514127992N00658415WA0107501134
B1058524127995N00658417WA0107701135
B1058534127998N00658420WA0107701136
B1058544128001N00658422WA0107801136
B1058554128005N00658424WA0107901137
B1058564128009N00658426WA0107901137
B1058574128013N00658427WA0108001138
B1058584128017N00658428WA0108001138
B1058594128022N00658427WA0108101139
B1059004128026N00658425WA0108201140
B1059014128031N00658421WA0108401142
B1059024128035N00658416WA0108501143
B1059034128038N00658410WA0108601144
B1059044128040N00658402WA0108801146
B1059054128039N00658395WA0108801146
B1059064128037N00658388WA0108701145
B1059074128033N00658382WA0108601144
B1059084128027N00658378WA0108801146
B1059094128022N00658376WA0108901147
B1059104128018N00658376WA0109001148
B1059114128014N00658379WA0109001149
B1059124128013N00658384WA0109101149
B1059134128013N00658388WA0109201150
B1059144128015N00658393WA0109201150
B1059154128018N00658396WA0109301151
B1059164128022N00658397WA0109301151
B1059174128027N00658398WA0109401152
B1059184128032N00658398WA0109601154
B1059194128037N00658397WA0109701155
B1059204128042N00658396WA0109801156
B1059214128046N00658394WA0109901158
B1059224128050N00658391WA0109901157
B1059234128053N00658387WA0109801156
B1059244128056N00658380WA0109601154
B1059254128057N00658372WA0109501153
B1059264128058N00658363WA0109601154
B1059274128056N00658355WA0109701155
B1059284128054N00658349WA0109701155
B1059294128051N00658343WA0109601154
B1059304128048N00658337WA0109501153
B1059314128043N00658332WA0109401153
B1059324128038N00658328WA0109301152
B1059334128032N00658325WA0109301151
B1059344128026N00658324WA0109401152
B1059354128021N00658323WA0109501153
B1059364128016N00658323WA0109701155
B1059374128012N00658323WA0109901157
B1059384128008N00658323WA0109901157
B1059394128004N00658323WA0109901157
B1059404128000N00658323WA0109801156
B1059414127996N00658324WA0109801156
B1059424127992N00658325WA0109701155
B1059434127989N00658328WA0109501153
B1059444127985N00658332WA0109401152
B1059454127982N00658337WA0109401152
B1059464127979N00658341WA0109301151
B1059474127976N00658345WA0109401152
B1059484127974N00658349WA0109301151
B1059494127972N00658353WA0109301151
B1059504127969N00658358WA0109301151
B1059514127966N00658363WA0109201150
B1059524127963N00658368WA0109201150
B1059534127961N00658373WA0109501153
B1059544127960N00658378WA0109801156
B1059554127960N00658382WA0110001158
B1059564127959N00658387WA0110001158
B1059574127957N00658391WA0110201160
B1059584127956N00658396WA0110301161
B1059594127955N00658401WA0110401162
B1100004127955N00658406WA0110501163
B1100014127957N00658410WA0110701165
B1100024127960N00658413WA0110801166
B1100034127964N00658414WA0110901167
B1100044127969N00658414WA0111001168
B1100054127974N00658410WA0111101169
B1100064127978N00658405WA0111401172
B1100074127981N00658399WA0111601174
B1100084127981N00658392WA0111701175
B1100094127980N00658386WA0111801176
B1100104127978N00658379WA0111801176
B1100114127975N00658373WA0111901177
B1100124127972N00658367WA0112101179
B1100134127967N00658361WA0112401182
B1100144127961N00658358WA0112601184
B1100154127956N00658357WA0112801186
B1100164127951N00658359WA0112901187
B1100174127946N00658361WA0113201190
B1100184127943N00658364WA0113501193
B1100194127941N00658368WA0113501193
B1100204127940N00658371WA0113601194
B1100214127939N00658376WA0113701195
B1100224127940N00658380WA0113701195
B1100234127941N00658385WA0113801196
B1100244127944N00658389WA0114001198
B1100254127949N00658392WA0114201200
B1100264127953N00658392WA0114301201
B1100274127957N00658391WA0114501203
B1100284127961N00658387WA0114701205
B1100294127964N00658381WA0114701206
B1100304127965N00658374WA0114801206
B1100314127964N00658367WA0114901207
B1100324127962N00658359WA0115001208
B1100334127958N00658352WA0115101209
B1100344127953N00658348WA0115201210
B1100354127947N00658346WA0115401212
B1100364127941N00658346WA0115601214
B1100374127937N00658349WA0115701215
B1100384127933N00658353WA0115901217
B1100394127931N00658357WA0116101219
B1100404127929N00658362WA0116301221
B1100414127928N00658367WA0116601224
B1100424127928N00658372WA0116701225
B1100434127929N00658376WA0116901227
B1100444127931N00658379WA0117001228
B1100454127933N00658381WA0117101229
B1100464127937N00658382WA0117201230
B1100474127941N00658380WA0117301231
B1100484127944N00658377WA0117401232
B1100494127948N00658371WA0117501233
B1100504127949N00658364WA0117601234
B1100514127949N00658356WA0117601234
B1100524127947N00658348WA0117601234
B1100534127943N00658340WA0117601234
B1100544127938N00658333WA0117701235
B1100554127932N00658329WA0117901237
B1100564127926N00658328WA0118101239
B1100574127921N00658328WA0118301241
B1100584127917N00658331WA0118501243
B1100594127914N00658334WA0118601244
B1101004127912N00658338WA0118701245
B1101014127912N00658343WA0118701245
B1101024127912N00658347WA0118701245
B1101034127914N00658352WA0118801246
B1101044127916N00658355WA0118901247
B1101054127919N00658359WA0119001248
B1101064127922N00658361WA0119101249
B1101074127926N00658362WA0119201250
B1101084127930N00658362WA0119301251
B1101094127935N00658361WA0119301251
B1101104127940N00658358WA0119401252
B1101114127943N00658352WA0119401252
B1101124127945N00658345WA0119501253
B1101134127945N00658337WA0119601254
B1101144127944N00658329WA0119701255
B1101154127942N00658322WA0119701255
B1101164127939N00658315WA0119701255
B1101174127934N00658310WA0119701255
B1101184127928N00658306WA0119701255
B1101194127921N00658305WA0119801256
B1101204127916N00658305WA0119901257
B1101214127911N00658306WA0120101259
B1101224127906N00658309WA0120301261
B1101234127901N00658313WA0120501263
B1101244127898N00658318WA0120601264
B1101254127895N00658323WA0120801266
B1101264127895N00658330WA0121001268
B1101274127895N00658336WA0121201270
B1101284127897N00658340WA0121401272
B1101294127900N00658343WA0121501273
B1101304127904N00658343WA0121601274
B1101314127908N00658341WA0121601274
B1101324127913N00658337WA0121701275
B1101334127915N00658331WA0121701275
B1101344127916N00658324WA0121701275
B1101354127915N00658316WA0121701275
B1101364127913N00658308WA0121601274
B1101374127910N00658301WA0121601274
B1101384127905N00658295WA0121601274
B1101394127899N00658291WA0121701275
B1101404127893N00658291WA0121701275
B1101414127886N00658293WA0121701275
B1101424127881N00658297WA0122001278
B1101434127877N00658301WA0122101279
B1101444127874N00658306WA0122301281
B1101454127872N00658310WA0122501283
B1101464127869N00658314WA0122701285
B1101474127868N00658319WA0122801286
B1101484127868N00658324WA0122901287
B1101494127869N00658328WA0123001288
B1101504127870N00658333WA0123001288
B1101514127871N00658337WA0123101289
B1101524127872N00658341WA0123201290
B1101534127873N00658345WA0123301291
B1101544127875N00658349WA0123401292
B1101554127876N00658353WA0123401292
B1101564127879N00658355WA0123501293
B1101574127882N00658357WA0123501293
B1101584127886N00658358WA0123401292
B1101594127891N00658357WA0123401292
B1102004127895N00658354WA0123301291
B1102014127899N00658350WA0123301291
B1102024127903N00658344WA0123401292
B1102034127905N00658337WA0123501293
B1102044127907N00658331WA0123701295
B1102054127908N00658323WA0123801296
B1102064127907N00658316WA0123901297
B1102074127905N00658309WA0124001298
B1102084127901N00658302WA0124101299
B1102094127897N00658296WA0124101299
B1102104127891N00658293WA0124201300
B1102114127885N00658293WA0124201300
B1102124127880N00658296WA0124201300
B1102134127876N00658300WA0124301301
B1102144127873N00658305WA0124401302
B1102154127872N00658312WA0124501303
B1102164127872N00658317WA0124501303
B1102174127874N00658323WA0124601304
B1102184127877N00658326WA0124601304
B1102194127881N00658329WA0124601305
B1102204127885N00658329WA0124601304
B1102214127890N00658329WA0124601304
B1102224127895N00658328WA0124601304
B1102234127899N00658327WA0124601304
B1102244127903N00658327WA0124601304
B1102254127908N00658325WA0124601304
B1102264127913N00658322WA0124501303
B1102274127917N00658317WA0124601304
B1102284127921N00658310WA0124601304
B1102294127924N00658303WA0124701305
B1102304127926N00658296WA0124701305
B1102314127928N00658288WA0124701305
B1102324127931N00658281WA0124701305
B1102334127933N00658273WA0124701305
B1102344127935N00658265WA0124701305
B1102354127936N00658257WA0124701305
B1102364127937N00658249WA0124801306
B1102374127937N00658241WA0124901307
B1102384127936N00658232WA0124901307
B1102394127935N00658224WA0124901307
B1102404127934N00658215WA0125001308
B1102414127931N00658207WA0125101309
B1102424127928N00658199WA0125201310
B1102434127924N00658192WA0125301311
B1102444127919N00658186WA0125401312
B1102454127914N00658182WA0125401312
B1102464127909N00658179WA0125401312
B1102474127904N00658179WA0125401312
B1102484127899N00658180WA0125301311
B1102494127895N00658184WA0125301311
B1102504127891N00658189WA0125501313
B1102514127890N00658193WA0125601314
B1102524127891N00658198WA0125701315
B1102534127893N00658200WA0125801316
B1102544127895N00658202WA0125801316
B1102554127899N00658204WA0125801316
B1102564127904N00658203WA0125901317
B1102574127908N00658201WA0126001318
B1102584127912N00658197WA0126001318
B1102594127915N00658191WA0126101319
B1103004127917N00658184WA0126201320
B1103014127919N00658177WA0126301321
B1103024127919N00658168WA0126401322
B1103034127919N00658159WA0126501323
B1103044127916N00658151WA0126501323
B1103054127913N00658144WA0126401322
B1103064127909N00658139WA0126201320
B1103074127904N00658136WA0126001318
B1103084127898N00658133WA0125801316
B1103094127892N00658133WA0125701315
B1103104127887N00658134WA0125701315
B1103114127882N00658137WA0125701315
B1103124127879N00658141WA0125801316
B1103134127877N00658146WA0125901317
B1103144127876N00658151WA0125901317
B1103154127877N00658154WA0125901317
B1103164127879N00658158WA0125901317
B1103174127881N00658160WA0125801316
B1103184127884N00658161WA0125801316
B1103194127888N00658162WA0125801316
B1103204127893N00658161WA0125801316
B1103214127897N00658159WA0125801316
B1103224127901N00658156WA0125801316
B1103234127905N00658152WA0125801316
B1103244127908N00658146WA0125801316
B1103254127911N00658139WA0125901317
B1103264127914N00658131WA0125901317
B1103274127916N00658124WA0126001318
B1103284127917N00658116WA0126201320
B1103294127917N00658109WA0126101319
B1103304127918N00658103WA0125901317
B1103314127919N00658096WA0125601314
B1103324127921N00658089WA0125401312
B1103334127924N00658082WA0125201311
B1103344127928N00658075WA0125101309
B1103354127932N00658071WA0125101309
B1103364127937N00658068WA0125001308
B1103374127941N00658067WA0124801306
B1103384127945N00658066WA0124601304
B1103394127950N00658067WA0124301301
B1103404127955N00658070WA0124001298
B1103414127960N00658072WA0123701295
B1103424127966N00658074WA0123601294
B1103434127971N00658077WA0123501293
B1103444127975N00658080WA0123401292
B1103454127979N00658082WA0123201290
B1103464127984N00658084WA0123001288
B1103474127989N00658086WA0122701285
B1103484127993N00658087WA0122601284
B1103494127998N00658089WA0122401282
B1103504128002N00658092WA0122201280
B1103514128006N00658096WA0121901277
B1103524128010N00658098WA0121801276
B1103534128014N00658101WA0121501273
B1103544128019N00658104WA0121301271
B1103554128023N00658107WA0121001268
B1103564128027N00658111WA0120901267
B1103574128032N00658113WA0120701265
B1103584128036N00658116WA0120601264
B1103594128041N00658118WA0120401262
B1104004128045N00658121WA0120201260
B1104014128049N00658124WA0120001258
B1104024128054N00658126WA0119701255
B1104034128059N00658128WA0119601254
B1104044128063N00658131WA0119401252
B1104054128067N00658134WA0119201250
B1104064128072N00658137WA0119001248
B1104074128076N00658139WA0118801246
B1104084128081N00658142WA0118601244
B1104094128086N00658144WA0118501243
B1104104128091N00658146WA0118301241
B1104114128096N00658148WA0118201240
B1104124128100N00658149WA0118101239
B1104134128106N00658150WA0118001238
B1104144128110N00658151WA0117901237
B1104154128115N00658152WA0117801236
B1104164128120N00658153WA0117701235
B1104174128125N00658155WA0117501233
B1104184128129N00658158WA0117201230
B1104194128134N00658159WA0117101229
B1104204128139N00658161WA0117001228
B1104214128144N00658162WA0116901227
B1104224128148N00658163WA0116701225
B1104234128153N00658165WA0116401222
B1104244128158N00658167WA0116301221
B1104254128163N00658169WA0116101219
B1104264128168N00658171WA0115901217
B1104274128172N00658172WA0115801216
B1104284128177N00658174WA0115601214
B1104294128182N00658176WA0115501213
B1104304128186N00658179WA0115201210
B1104314128191N00658181WA0115101209
B1104324128195N00658183WA0115001208
B1104334128200N00658185WA0114901207
B1104344128204N00658187WA0114801206
B1104354128208N00658190WA0114501203
B1104364128212N00658194WA0114401202
B1104374128215N00658198WA0114301201
B1104384128219N00658201WA0114201200
B1104394128222N00658205WA0114101199
B1104404128225N00658210WA0114001198
B1104414128228N00658215WA0113801196
B1104424128231N00658219WA0113701195
B1104434128233N00658224WA0113501193
B1104444128236N00658229WA0113401192
B1104454128239N00658234WA0113301191
B1104464128241N00658239WA0113201190
B1104474128244N00658244WA0113001188
B1104484128246N00658249WA0112801186
B1104494128249N00658254WA0112801186
B1104504128251N00658259WA0112601184
B1104514128253N00658264WA0112501183
B1104524128256N00658269WA0112301181
B1104534128259N00658273WA0112101179
B1104544128262N00658278WA0111801176
B1104554128265N00658283WA0111701175
B1104564128268N00658287WA0111501173
B1104574128271N00658292WA0111301171
B1104584128274N00658296WA0111201170
B1104594128277N00658301WA0111001168
B1105004128280N00658305WA0110801166
B1105014128284N00658309WA0110701165
B1105024128287N00658313WA0110501163
B1105034128290N00658318WA0110301161
B1105044128293N00658323WA0110101159
B1105054128296N00658328WA0109901157
B1105064128300N00658332WA0109701155
B1105074128304N00658337WA0109601154
B1105084128307N00658341WA0109501153
B1105094128311N00658345WA0109401152
B1105104128313N00658349WA0109201150
B1105114128317N00658353WA0109001148
B1105124128321N00658357WA0108901147
B1105134128324N00658361WA0108701145
B1105144128328N00658366WA0108601144
B1105154128331N00658370WA0108401142
B1105164128334N00658374WA0108401142
B1105174128337N00658377WA0108301141
B1105184128340N00658381WA0108201140
B1105194128343N00658385WA0108101139
B1105204128346N00658389WA0107901137
B1105214128349N00658393WA0107801137
B1105224128353N00658397WA0107701135
B1105234128356N00658400WA0107601134
B1105244128360N00658402WA0107501133
B1105254128363N00658405WA0107301131
B1105264128368N00658408WA0107101129
B1105274128372N00658412WA0106901127
B1105284128375N00658415WA0106701125
B1105294128380N00658418WA0106601124
B1105304128384N00658421WA0106401122
B1105314128388N00658423WA0106201120
B1105324128392N00658427WA0106001118
B1105334128396N00658430WA0105901117
B1105344128400N00658433WA0105701115
B1105354128404N00658436WA0105601114
B1105364128408N00658439WA0105401112
B1105374128412N00658442WA0105201110
B1105384128415N00658446WA0105001108
B1105394128420N00658450WA0104701105
B1105404128424N00658453WA0104601104
B1105414128428N00658456WA0104601104
B1105424128432N00658459WA0104501103
B1105434128436N00658462WA0104201100
B1105444128439N00658465WA0104001098
B1105454128443N00658468WA0103801096
B1105464128448N00658472WA0103601094
B1105474128453N00658475WA0103501093
B1105484128458N00658477WA0103501093
B1105494128461N00658478WA0103301091
B1105504128466N00658480WA0103101089
B1105514128470N00658482WA0102801086
B1105524128475N00658485WA0102401082
B1105534128480N00658488WA0102201080
B1105544128484N00658491WA0102201080
B1105554128488N00658494WA0102101079
B1105564128493N00658496WA0102001078
B1105574128496N00658499WA0101701075
B1105584128501N00658502WA0101501073
B1105594128506N00658505WA0101201070
B1106004128511N00658508WA0101101069
B1106014128515N00658511WA0101001068
B1106024128520N00658514WA0100901067
B1106034128523N00658517WA0100801066
B1106044128527N00658520WA0100601064
B1106054128531N00658523WA0100401062
B1106064128535N00658526WA0100201060
B1106074128539N00658529WA0100001058
B1106084128543N00658532WA0099801056
B1106094128547N00658535WA0099701055
B1106104128551N00658539WA0099601054
B1106114128555N00658542WA0099401052
B1106124128559N00658546WA0099201050
B1106134128562N00658549WA0099001048
B1106144128567N00658553WA0098801046
B1106154128571N00658556WA0098701045
B1106164128575N00658558WA0098601044
B1106174128579N00658561WA0098401042
B1106184128583N00658563WA0098201040
B1106194128587N00658565WA0097901037
B1106204128592N00658567WA0097701035
B1106214128598N00658570WA0097501033
B1106224128602N00658572WA0097301031
B1106234128607N00658574WA0097201030
B1106244128612N00658576WA0097001028
B1106254128616N00658579WA0096801026
B1106264128621N00658581WA0096601024
B1106274128626N00658584WA0096401022
B1106284128631N00658586WA0096301021
B1106294128636N00658589WA0096101019
B1106304128641N00658591WA0096001018
B1106314128645N00658593WA0095801016
B1106324128650N00658594WA0095801016
B1106334128655N00658595WA0095701015
B1106344128661N00658597WA0095601014
B1106354128666N00658598WA0095401012
B1106364128671N00658598WA0095301011
B1106374128676N00658598WA0095301011
B1106384128682N00658598WA0095201010
B1106394128686N00658599WA0095101009
B1106404128692N00658600WA0095101009
B1106414128697N00658601WA0094901007
B1106424128703N00658602WA0094801006
B1106434128708N00658602WA0094701005
B1106444128713N00658604WA0094601004
B1106454128719N00658606WA0094501003
B1106464128725N00658607WA0094401002
B1106474128730N00658607WA0094401002
B1106484128735N00658607WA0094401002
B1106494128741N00658607WA0094301001
B1106504128747N00658607WA0094201000
B1106514128753N00658607WA0094201000
B1106524128759N00658607WA0094201000
B1106534128765N00658607WA0094201000
B1106544128770N00658608WA0094301001
B1106554128775N00658608WA0094301001
B1106564128780N00658608WA0094301001
B1106574128786N00658608WA0094301001
B1106584128792N00658609WA0094301001
B1106594128798N00658609WA0094401002
B1107004128804N00658610WA0094601004
B1107014128809N00658610WA0094801006
B1107024128814N00658609WA0095001008
B1107034128820N00658607WA0095001008
B1107044128825N00658606WA0095101009
B1107054128831N00658605WA0095101009
B1107064128836N00658603WA0095201010
B1107074128842N00658601WA0095301011
B1107084128848N00658598WA0095601014
B1107094128853N00658596WA0095801016
B1107104128857N00658595WA0096101019
B1107114128861N00658594WA0096301021
B1107124128865N00658594WA0096301021
B1107134128869N00658596WA0096301021
B1107144128872N00658600WA0096301021
B1107154128874N00658606WA0096201020
B1107164128873N00658613WA0096201020
B1107174128872N00658619WA0096301021
B1107184128868N00658622WA0096601024
B1107194128864N00658623WA0096701025
B1107204128861N00658623WA0096801026
B1107214128857N00658622WA0097001028
B1107224128853N00658619WA0097201030
B1107234128850N00658612WA0097201030
B1107244128849N00658604WA0097001028
B1107254128850N00658595WA0097201030
B1107264128853N00658588WA0097501033
B1107274128855N00658583WA0097701035
B1107284128858N00658578WA0097901037
B1107294128861N00658574WA0097901037
B1107304128866N00658569WA0098001038
B1107314128871N00658567WA0098001038
B1107324128876N00658566WA0098201040
B1107334128881N00658566WA0098401042
B1107344128885N00658568WA0098701045
B1107354128888N00658570WA0098901047
B1107364128892N00658573WA0099001048
B1107374128895N00658577WA0099101049
B1107384128897N00658581WA0099201050
B1107394128897N00658586WA0099401052
B1107404128897N00658591WA0099501053
B1107414128895N00658596WA0099601054
B1107424128894N00658600WA0099601054
B1107434128891N00658604WA0099701055
B1107444128887N00658606WA0099801056
B1107454128882N00658606WA0099801056
B1107464128877N00658604WA0099901057
B1107474128874N00658601WA0100101059
B1107484128872N00658595WA0100201060
B1107494128871N00658588WA0100201060
B1107504128871N00658580WA0100301061
B1107514128872N00658573WA0100401062
B1107524128874N00658566WA0100501063
B1107534128878N00658559WA0100601064
B1107544128883N00658554WA0100601064
B1107554128889N00658552WA0100701065
B1107564128895N00658553WA0101001068
B1107574128899N00658554WA0101301071
B1107584128904N00658554WA0101601074
B1107594128908N00658554WA0101901077
B1108004128912N00658555WA0102101079
B1108014128916N00658557WA0102201080
B1108024128920N00658561WA0102301081
B1108034128923N00658565WA0102501083
B1108044128925N00658571WA0102701085
B1108054128925N00658576WA0102901087
B1108064128924N00658580WA0103001088
B1108074128923N00658583WA0103101089
B1108084128921N00658586WA0103201090
B1108094128919N00658588WA0103201090
B1108104128916N00658589WA0103101089
B1108114128911N00658588WA0102901087
B1108124128905N00658586WA0102901087
B1108134128899N00658582WA0103101089
B1108144128895N00658578WA0103401092
B1108154128893N00658573WA0103601094
B1108164128891N00658567WA0103701095
B1108174128890N00658560WA0103701095
B1108184128891N00658552WA0103701095
B1108194128892N00658544WA0103701095
B1108204128896N00658537WA0103601095
B1108214128901N00658532WA0103701095
B1108224128907N00658529WA0103801096
B1108234128913N00658527WA0104101099
B1108244128918N00658527WA0104501103
B1108254128922N00658527WA0104801106
B1108264128926N00658528WA0105001108
B1108274128929N00658528WA0105101109
B1108284128934N00658529WA0105101109
B1108294128939N00658529WA0105101109
B1108304128945N00658529WA0105201110
B1108314128951N00658529WA0105601114
B1108324128956N00658532WA0105801116
B1108334128959N00658535WA0106001118
B1108344128961N00658540WA0106101119
B1108354128963N00658546WA0106201120
B1108364128963N00658552WA0106301121
B1108374128961N00658558WA0106501123
B1108384128958N00658563WA0106601124
B1108394128953N00658564WA0106701125
B1108404128948N00658564WA0106801126
B1108414128944N00658562WA0107001128
B1108424128940N00658558WA0107001128
B1108434128938N00658553WA0106901127
B1108444128935N00658546WA0106901127
B1108454128936N00658537WA0107001128
B1108464128938N00658529WA0107001128
B1108474128942N00658522WA0107101129
B1108484128947N00658518WA0107201130
B1108494128952N00658516WA0107401132
B1108504128957N00658515WA0107601134
B1108514128961N00658516WA0107701135
B1108524128966N00658518WA0107901137
B1108534128970N00658521WA0108101139
B1108544128973N00658526WA0108301141
B1108554128975N00658531WA0108501143
B1108564128975N00658537WA0108701145
B1108574128974N00658542WA0108801146
B1108584128972N00658546WA0108901147
B1108594128968N00658550WA0108901147
B1109004128963N00658552WA0109001148
B1109014128958N00658551WA0109101149
B1109024128953N00658547WA0109001148
B1109034128948N00658542WA0109101149
B1109044128945N00658535WA0109301151
B1109054128944N00658529WA0109401152
B1109064128944N00658522WA0109301151
B1109074128947N00658514WA0109301151
B1109084128951N00658507WA0109301151
B1109094128955N00658502WA0109401152
B1109104128960N00658499WA0109601154
B1109114128965N00658497WA0109801156
B1109124128970N00658496WA0109901157
B1109134128975N00658497WA0110001158
B1109144128979N00658500WA0110201160
B1109154128983N00658504WA0110201160
B1109164128986N00658509WA0110401162
B1109174128988N00658514WA0110601164
B1109184128988N00658519WA0110701165
B1109194128987N00658524WA0110601164
B1109204128985N00658529WA0110501163
B1109214128981N00658533WA0110501163
B1109224128977N00658536WA0110501163
B1109234128971N00658537WA0110501163
B1109244128965N00658535WA0110401162
B1109254128960N00658532WA0110401162
B1109264128955N00658526WA0110401162
B1109274128951N00658519WA0110401162
B1109284128948N00658511WA0110401162
B1109294128947N00658503WA0110401162
B1109304128947N00658495WA0110401162
B1109314128949N00658488WA0110401162
B1109324128952N00658481WA0110301161
B1109334128956N00658476WA0110201160
B1109344128962N00658472WA0110301161
B1109354128968N00658471WA0110401162
B1109364128975N00658471WA0110401162
B1109374128980N00658472WA0110601164
B1109384128985N00658472WA0110801166
B1109394128990N00658473WA0111001168
B1109404128996N00658475WA0110901168
B1109414129001N00658477WA0110901167
B1109424129006N00658479WA0111201170
B1109434129010N00658481WA0111401172
B1109444129014N00658483WA0111401172
B1109454129016N00658486WA0111401172
B1109464129019N00658489WA0111201170
B1109474129022N00658494WA0111101169
B1109484129026N00658499WA0111101169
B1109494129029N00658503WA0111001168
B1109504129032N00658507WA0111101169
B1109514129035N00658510WA0111101169
B1109524129038N00658513WA0111101169
B1109534129042N00658516WA0111001168
B1109544129046N00658520WA0111001168
B1109554129050N00658523WA0111101169
B1109564129054N00658526WA0111301171
B1109574129058N00658529WA0111401172
B1109584129062N00658532WA0111501173
B1109594129065N00658535WA0111501173
B1110004129070N00658539WA0111601174
B1110014129074N00658542WA0111801176
B1110024129078N00658545WA0112101179
B1110034129081N00658547WA0112401182
B1110044129084N00658549WA0112501183
B1110054129089N00658551WA0112601184
B1110064129094N00658551WA0112601184
B1110074129100N00658550WA0112501183
B1110084129107N00658546WA0112601185
B1110094129113N00658541WA0112801186
B1110104129117N00658534WA0113101189
B1110114129120N00658527WA0113201190
B1110124129122N00658519WA0113401192
B1110134129124N00658510WA0113401192
B1110144129124N00658502WA0113501193
B1110154129122N00658494WA0113501193
B1110164129119N00658486WA0113401192
B1110174129115N00658480WA0113401192
B1110184129110N00658476WA0113601194
B1110194129105N00658473WA0113701195
B1110204129100N00658472WA0113701195
B1110214129096N00658472WA0113701195
B1110224129091N00658473WA0113701195
B1110234129087N00658477WA0113801196
B1110244129085N00658482WA0113801196
B1110254129084N00658488WA0113901197
B1110264129085N00658494WA0114001198
B1110274129087N00658499WA0114201200
B1110284129088N00658504WA0114401202
B1110294129090N00658509WA0114601204
B1110304129092N00658513WA0114901207
B1110314129094N00658516WA0115001208
B1110324129096N00658520WA0115001208
B1110334129099N00658525WA0115001208
B1110344129102N00658530WA0115001208
B1110354129106N00658534WA0115201210
B1110364129110N00658537WA0115401212
B1110374129115N00658539WA0115501213
B1110384129121N00658540WA0115501213
B1110394129127N00658539WA0115501213
B1110404129134N00658536WA0115601214
B1110414129141N00658531WA0115701215
B1110424129146N00658525WA0115901217
B1110434129150N00658517WA0116101219
B1110444129153N00658509WA0116201220
B1110454129156N00658500WA0116401222
B1110464129157N00658492WA0116501223
B1110474129157N00658484WA0116601224
B1110484129156N00658475WA0116601224
B1110494129154N00658467WA0116701225
B1110504129151N00658460WA0116801226
B1110514129147N00658454WA0117001228
B1110524129144N00658450WA0117001228
B1110534129140N00658448WA0117101229
B1110544129135N00658447WA0117301231
B1110554129131N00658448WA0117401232
B1110564129128N00658450WA0117401232
B1110574129125N00658454WA0117401232
B1110584129123N00658459WA0117501233
B1110594129123N00658465WA0117701235
B1111004129124N00658470WA0117901237
B1111014129127N00658475WA0118001238
B1111024129131N00658480WA0118101239
B1111034129136N00658483WA0118201240
B1111044129142N00658485WA0118401242
B1111054129147N00658486WA0118601244
B1111064129154N00658484WA0118801246
B1111074129160N00658481WA0118901247
B1111084129165N00658476WA0119001248
B1111094129170N00658470WA0119201250
B1111104129174N00658463WA0119301251
B1111114129178N00658455WA0119401252
B1111124129180N00658447WA0119401252
B1111134129180N00658438WA0119401252
B1111144129178N00658430WA0119401252
B1111154129175N00658423WA0119401252
B1111164129171N00658418WA0119401252
B1111174129166N00658416WA0119401252
B1111184129162N00658417WA0119501253
B1111194129158N00658419WA0119501253
B1111204129155N00658422WA0119601254
B1111214129154N00658427WA0119701255
B1111224129153N00658432WA0119901257
B1111234129153N00658438WA0120001258
B1111244129154N00658443WA0120101259
B1111254129156N00658449WA0120401262
B1111264129158N00658454WA0120601264
B1111274129160N00658459WA0120701265
B1111284129162N00658464WA0120801266
B1111294129165N00658468WA0120901267
B1111304129168N00658473WA0121001268
B1111314129172N00658477WA0121001268
B1111324129177N00658480WA0121001268
B1111334129183N00658481WA0121001269
B1111344129188N00658480WA0121001268
B1111354129195N00658477WA0120901267
B1111364129201N00658472WA0120901267
B1111374129206N00658466WA0120901267
B1111384129210N00658460WA0120901267
B1111394129213N00658452WA0120801266
B1111404129216N00658444WA0120801266
B1111414129217N00658436WA0120701265
B1111424129217N00658427WA0120701265
B1111434129215N00658421WA0120801266
B1111444129212N00658416WA0120801266
B1111454129207N00658414WA0120701266
B1111464129203N00658414WA0120801266
B1111474129200N00658416WA0120901267
B1111484129197N00658419WA0121101269
B1111494129195N00658422WA0121201270
B1111504129192N00658425WA0121201270
B1111514129190N00658428WA0121201270
B1111524129188N00658431WA0121201270
B1111534129186N00658435WA0121201270
B1111544129184N00658440WA0121201270
B1111554129181N00658443WA0121301271
B1111564129179N00658447WA0121501273
B1111574129178N00658451WA0121501273
B1111584129176N00658454WA0121601274
B1111594129174N00658456WA0121501273
B1112004129172N00658458WA0121401272
B1112014129169N00658460WA0121101269
B1112024129166N00658463WA0121001268
B1112034129165N00658466WA0120801266
B1112044129163N00658470WA0120801266
B1112054129161N00658475WA0120901267
B1112064129161N00658479WA0120901267
B1112074129160N00658482WA0120901267
B1112084129160N00658486WA0120801266
B1112094129158N00658490WA0120801266
B1112104129157N00658495WA0120701265
B1112114129156N00658500WA0120801266
B1112124129157N00658505WA0120801266
B1112134129158N00658508WA0120801266
B1112144129159N00658512WA0120801266
B1112154129160N00658516WA0120801266
B1112164129161N00658521WA0120701265
B1112174129162N00658526WA0120901267
B1112184129164N00658530WA0120901267
B1112194129166N00658535WA0120901268
B1112204129169N00658538WA0121001268
B1112214129172N00658542WA0121001268
B1112224129177N00658545WA0121101269
B1112234129182N00658547WA0121001268
B1112244129187N00658548WA0121001268
B1112254129194N00658547WA0121101269
B1112264129200N00658546WA0121001268
B1112274129206N00658543WA0120901267
B1112284129211N00658538WA0120801266
B1112294129216N00658532WA0120701265
B1112304129220N00658525WA0120501263
B1112314129224N00658518WA0120301261
B1112324129226N00658509WA0120301261
B1112334129227N00658501WA0120101259
B1112344129227N00658493WA0119901257
B1112354129226N00658485WA0119601254
B1112364129224N00658477WA0119401252
B1112374129222N00658470WA0119201250
B1112384129218N00658465WA0118901247
B1112394129213N00658461WA0118701245
B1112404129209N00658460WA0118501243
B1112414129204N00658460WA0118401242
B1112424129200N00658462WA0118201240
B1112434129196N00658464WA0118101239
B1112444129192N00658468WA0118201240
B1112454129190N00658472WA0118201240
B1112464129188N00658476WA0118201240
B1112474129187N00658481WA0118201240
B1112484129186N00658485WA0118201240
B1112494129186N00658491WA0118201240
B1112504129186N00658496WA0118301241
B1112514129187N00658501WA0118401242
B1112524129187N00658507WA0118501243
B1112534129190N00658511WA0118601244
B1112544129191N00658516WA0118801246
B1112554129192N00658521WA0118801246
B1112564129192N00658526WA0118901247
B1112574129193N00658531WA0118801246
B1112584129193N00658537WA0118901247
B1112594129193N00658542WA0118901247
B1113004129193N00658547WA0118901247
B1113014129193N00658552WA0118901247
B1113024129193N00658556WA0118801247
B1113034129194N00658562WA0118801246
B1113044129196N00658567WA0118801246
B1113054129198N00658573WA0118801246
B1113064129199N00658579WA0118801246
B1113074129201N00658584WA0118901247
B1113084129203N00658589WA0119001248
B1113094129205N00658594WA0119101249
B1113104129209N00658598WA0119201250
B1113114129212N00658602WA0119301251
B1113124129217N00658605WA0119401252
B1113134129222N00658605WA0119401252
B1113144129227N00658604WA0119501253
B1113154129232N00658601WA0119501253
B1113164129237N00658596WA0119401252
B1113174129242N00658589WA0119401252
B1113184129245N00658582WA0119301251
B1113194129246N00658574WA0119201250
B1113204129247N00658565WA0119101249
B1113214129247N00658557WA0119101249
B1113224129245N00658549WA0119101249
B1113234129243N00658542WA0119001248
B1113244129239N00658536WA0118801246
B1113254129234N00658532WA0118801246
B1113264129230N00658530WA0118801246
B1113274129226N00658530WA0118701246
B1113284129222N00658532WA0118701245
B1113294129220N00658535WA0118701245
B1113304129218N00658540WA0118701245
B1113314129218N00658545WA0118701245
B1113324129218N00658550WA0118701245
B1113334129219N00658555WA0118501244
B1113344129220N00658561WA0118501243
B1113354129222N00658566WA0118401242
B1113364129223N00658572WA0118401242
B1113374129225N00658578WA0118301241
B1113384129227N00658584WA0118301241
B1113394129228N00658590WA0118401242
B1113404129230N00658595WA0118401242
B1113414129232N00658600WA0118501243
B1113424129234N00658605WA0118501243
B1113434129236N00658609WA0118301241
B1113444129239N00658615WA0118101240
B1113454129241N00658621WA0118001238
B1113464129243N00658628WA0118001238
B1113474129246N00658634WA0118001238
B1113484129249N00658638WA0118001238
B1113494129252N00658643WA0118001238
B1113504129254N00658647WA0117801236
B1113514129257N00658653WA0117601234
B1113524129260N00658659WA0117401232
B1113534129262N00658665WA0117501233
B1113544129265N00658670WA0117501233
B1113554129267N00658674WA0117501233
B1113564129269N00658678WA0117401232
B1113574129271N00658682WA0117301231
B1113584129273N00658687WA0117101229
B1113594129275N00658692WA0116901227
B1114004129277N00658698WA0116701225
B1114014129279N00658703WA0116601224
B1114024129282N00658708WA0116501223
B1114034129284N00658713WA0116401222
B1114044129287N00658718WA0116201220
B1114054129289N00658723WA0116001218
B1114064129293N00658728WA0115801216
B1114074129296N00658733WA0115601214
B1114084129300N00658738WA0115401212
B1114094129304N00658743WA0115301211
B1114104129309N00658747WA0115301211
B1114114129314N00658751WA0115101209
B1114124129318N00658755WA0115001208
B1114134129323N00658760WA0114801206
B1114144129328N00658764WA0114701205
B1114154129333N00658769WA0114601204
B1114164129338N00658773WA0114601204
B1114174129343N00658777WA0114501203
B1114184129347N00658782WA0114201201
B1114194129350N00658787WA0114001198
B1114204129355N00658793WA0113901197
B1114214129359N00658799WA0113701195
B1114224129364N00658804WA0113501193
B1114234129368N00658809WA0113401192
B1114244129372N00658814WA0113301191
B1114254129376N00658818WA0113101189
B1114264129380N00658823WA0112801186
B1114274129384N00658829WA0112601184
B1114284129388N00658834WA0112501183
B1114294129393N00658839WA0112301181
B1114304129396N00658844WA0112201180
B1114314129399N00658849WA0112201180
B1114324129402N00658853WA0112101179
B1114334129405N00658857WA0112001178
B1114344129409N00658861WA0111801176
B1114354129412N00658864WA0111601174
B1114364129415N00658868WA0111401172
B1114374129418N00658872WA0111201170
B1114384129421N00658876WA0111001168
B1114394129424N00658879WA0110801166
B1114404129428N00658883WA0110601164
B1114414129431N00658886WA0110401162
B1114424129435N00658889WA0110101159
B1114434129438N00658892WA0109801156
B1114444129441N00658896WA0109701155
B1114454129445N00658900WA0109501153
B1114464129448N00658903WA0109501153
B1114474129451N00658906WA0109401152
B1114484129454N00658909WA0109301151
B1114494129457N00658912WA0109101149
B1114504129461N00658915WA0108701145
B1114514129465N00658918WA0108301141
B1114524129469N00658920WA0108101139
B1114534129473N00658923WA0108001138
B1114544129477N00658926WA0107901137
B1114554129480N00658928WA0107701135
B1114564129483N00658929WA0107401132
B1114574129487N00658931WA0107201130
B1114584129491N00658934WA0106901127
B1114594129495N00658936WA0106801126
B1115004129499N00658939WA0106601124
B1115014129502N00658941WA0106401122
B1115024129505N00658944WA0106301121
B1115034129509N00658946WA0106101119
B1115044129512N00658949WA0105801116
B1115054129516N00658952WA0105601114
B1115064129520N00658954WA0105301111
B1115074129523N00658957WA0105001108
B1115084129528N00658959WA0104801106
B1115094129532N00658961WA0104501103
B1115104129536N00658965WA0104101099
B1115114129540N00658969WA0103701095
B1115124129544N00658972WA0103501093
B1115134129548N00658976WA0103301091
B1115144129552N00658979WA0103001088
B1115154129556N00658983WA0102701085
B1115164129560N00658987WA0102301081
B1115174129564N00658990WA0102101080
B1115184129568N00658993WA0101901077
B1115194129572N00658997WA0101701075
B1115204129576N00659000WA0101601074
B1115214129580N00659003WA0101301071
B1115224129585N00659006WA0101101069
B1115234129589N00659009WA0100901067
B1115244129594N00659012WA0100601064
B1115254129598N00659015WA0100301061
B1115264129602N00659019WA0100101059
B1115274129607N00659022WA0099701055
B1115284129611N00659025WA0099401052
B1115294129615N00659028WA0099101049
B1115304129619N00659032WA0098701045
B1115314129623N00659036WA0098401042
B1115324129628N00659040WA0098101039
B1115334129632N00659044WA0097801036
B1115344129636N00659049WA0097601034
B1115354129641N00659053WA0097301031
B1115364129645N00659058WA0097001028
B1115374129649N00659062WA0096801026
B1115384129653N00659067WA0096501023
B1115394129657N00659070WA0096201020
B1115404129662N00659074WA0095701015
B1115414129666N00659078WA0095401012
B1115424129670N00659082WA0095101009
B1115434129675N00659087WA0094901007
B1115444129679N00659091WA0094601005
B1115454129684N00659095WA0094301001
B1115464129688N00659100WA0093900997
B1115474129693N00659105WA0093600994
B1115484129698N00659111WA0093300991
B1115494129702N00659116WA0093100989
B1115504129705N00659122WA0092900987
B1115514129708N00659127WA0092700985
B1115524129712N00659132WA0092400982
B1115534129716N00659137WA0092000978
B1115544129720N00659142WA0091800976
B1115554129724N00659147WA0091600974
B1115564129728N00659152WA0091200971
B1115574129732N00659156WA0090800966
B1115584129735N00659161WA0090400962
B1115594129739N00659166WA0090100959
B1116004129743N00659172WA0089700955
B1116014129746N00659178WA0089200950
B1116024129750N00659184WA0088800946
B1116034129755N00659189WA0088500943
B1116044129760N00659194WA0088400942
B1116054129764N00659200WA0088200940
B1116064129768N00659205WA0088100939
B1116074129772N00659210WA0087800936
B1116084129776N00659213WA0087500933
B1116094129780N00659216WA0087400932
B1116104129783N00659220WA0087100929
B1116114129786N00659224WA0086700925
B1116124129790N00659228WA0086200920
B1116134129794N00659232WA0085900917
B1116144129799N00659236WA0085700915
B1116154129803N00659240WA0085600914
B1116164129807N00659244WA0085400912
B1116174129810N00659249WA0085100909
B1116184129815N00659253WA0084700905
B1116194129820N00659257WA0084500903
B1116204129825N00659262WA0084400902
B1116214129829N00659266WA0084300901
B1116224129832N00659271WA0084100899
B1116234129837N00659275WA0083700895
B1116244129842N00659278WA0083500893
B1116254129846N00659281WA0083500893
B1116264129850N00659284WA0083300891
B1116274129854N00659286WA0082900887
B1116284129858N00659290WA0082400882
B1116294129863N00659293WA0082100879
B1116304129868N00659296WA0081900877
B1116314129873N00659300WA0081700875
B1116324129877N00659303WA0081700875
B1116334129881N00659307WA0081500873
B1116344129886N00659310WA0081100869
B1116354129891N00659313WA0080900867
B1116364129895N00659317WA0080700865
B1116374129900N00659321WA0080600864
B1116384129905N00659324WA0080500863
B1116394129909N00659327WA0080400862
B1116404129914N00659330WA0080200860
B1116414129919N00659332WA0080000858
B1116424129924N00659335WA0079800856
B1116434129930N00659338WA0079700855
B1116444129935N00659341WA0079400852
B1116454129941N00659344WA0079200850
B1116464129946N00659348WA0079100849
B1116474129951N00659350WA0079000848
B1116484129956N00659353WA0078800846
B1116494129961N00659355WA0078600844
B1116504129965N00659358WA0078300841
B1116514129971N00659360WA0078000838
B1116524129977N00659363WA0077800836
B1116534129982N00659365WA0077600834
B1116544129988N00659367WA0077400832
B1116554129993N00659370WA0077300831
B1116564129999N00659373WA0077200830
B1116574130004N00659376WA0076900827
B1116584130009N00659378WA0076600824
B1116594130014N00659381WA0076300821
B1117004130019N00659383WA0076100819
B1117014130024N00659386WA0076000818
B1117024130030N00659388WA0076000818
B1117034130034N00659391WA0075800816
B1117044130039N00659394WA0075600815
B1117054130044N00659396WA0075400812
B1117064130049N00659399WA0075300811
B1117074130055N00659402WA0075200810
B1117084130059N00659404WA0075200810
B1117094130064N00659407WA0075300811
B1117104130068N00659409WA0075100809
B1117114130073N00659412WA0074800806
B1117124130078N00659414WA0074600804
B1117134130083N00659417WA0074400802
B1117144130087N00659421WA0074300801
B1117154130091N00659425WA0074200800
B1117164130095N00659428WA0074100799
B1117174130099N00659430WA0073900797
B1117184130103N00659433WA0073700795
B1117194130106N00659437WA0073300791
B1117204130110N00659441WA0073100789
B1117214130114N00659445WA0072900787
B1117224130118N00659449WA0072700785
B1117234130122N00659454WA0072500783
B1117244130125N00659458WA0072400782
B1117254130128N00659462WA0072300781
B1117264130131N00659467WA0072200780
B1117274130133N00659472WA0072000778
B1117284130135N00659477WA0071900777
B1117294130137N00659482WA0071800776
B1117304130140N00659487WA0071700775
B1117314130142N00659493WA0071600774
B1117324130143N00659499WA0071400772
B1117334130144N00659505WA0071200770
B1117344130146N00659512WA0071200770
B1117354130149N00659519WA0071000768
B1117364130151N00659526WA0070900767
B1117374130153N00659532WA0070800766
B1117384130155N00659538WA0070700765
B1117394130157N00659544WA0070500763
B1117404130159N00659550WA0070300761
B1117414130160N00659555WA0070100759
B1117424130162N00659561WA0070000758
B1117434130165N00659566WA0070000758
B1117444130167N00659571WA0069900757
B1117454130169N00659574WA0069800756
B1117464130171N00659578WA0069500753
B1117474130172N00659582WA0069200750
B1117484130173N00659588WA0069000748
B1117494130175N00659593WA0068800746
B1117504130176N00659598WA0068600744
B1117514130177N00659602WA0068500743
B1117524130178N00659606WA0068300741
B1117534130179N00659611WA0068000738
B1117544130179N00659615WA0067800736
B1117554130180N00659620WA0067500733
B1117564130181N00659624WA0067400732
B1117574130181N00659627WA0067300731
B1117584130182N00659631WA0067100729
B1117594130182N00659634WA0066800726
B1118004130184N00659638WA0066500723
B1118014130184N00659643WA0066200720
B1118024130184N00659648WA0066100719
B1118034130185N00659653WA0066000718
B1118044130186N00659656WA0066000718
B1118054130188N00659660WA0065700716
B1118064130190N00659664WA0065500713
B1118074130191N00659669WA0065200710
B1118084130191N00659675WA0064700705
B1118094130191N00659682WA0064400702
B1118104130191N00659688WA0064100699
B1118114130192N00659694WA0063900697
B1118124130193N00659699WA0063600695
B1118134130194N00659704WA0063300691
B1118144130195N00659709WA0062900687
B1118154130195N00659715WA0062500683
B1118164130196N00659721WA0062000678
B1118174130198N00659727WA0061600674
B1118184130199N00659734WA0061400672
B1118194130201N00659740WA0061100669
B1118204130204N00659746WA0061000668
B1118214130207N00659750WA0060900668
B1118224130209N00659755WA0060800666
B1118234130212N00659760WA0060500663
B1118244130214N00659765WA0060100659
B1118254130217N00659772WA0059700655
B1118264130220N00659778WA0059500653
B1118274130224N00659783WA0059400652
B1118284130227N00659787WA0059300651
B1118294130230N00659791WA0059000648
B1118304130233N00659796WA0058800646
B1118314130237N00659800WA0058500643
B1118324130242N00659804WA0058200640
B1118334130246N00659808WA0058000638
B1118344130250N00659811WA0057800636
B1118354130254N00659814WA0057500633
B1118364130259N00659816WA0057200630
B1118374130264N00659818WA0056900627
B1118384130269N00659819WA0056700625
B1118394130274N00659819WA0056500623
B1118404130279N00659818WA0056400622
B1118414130283N00659817WA0056100619
B1118424130287N00659817WA0055900617
B1118434130291N00659818WA0055700615
B1118444130294N00659821WA0055400612
B1118454130296N00659826WA0055100609
B1118464130296N00659831WA0054800606
B1118474130294N00659836WA0054500603
B1118484130290N00659839WA0054200600
B1118494130286N00659841WA0053900597
B1118504130282N00659842WA0053700595
B1118514130278N00659844WA0053500593
B1118524130275N00659847WA0053200590
B1118534130274N00659851WA0052900587
B1118544130272N00659857WA0052600584
B1118554130271N00659863WA0052400582
B1118564130271N00659869WA0052300581
B1118574130271N00659875WA0052200580
B1118584130272N00659880WA0052100579
B1118594130272N00659886WA0051900577
B1119004130272N00659892WA0051800576
B1119014130271N00659898WA0051500573
B1119024130270N00659903WA0051300571
B1119034130267N00659908WA0051200570
B1119044130264N00659911WA0051000568
B1119054130259N00659912WA0050600564
B1119064130254N00659912WA0050500563
B1119074130250N00659909WA0050200560
B1119084130247N00659905WA0049900557
B1119094130244N00659901WA0049900557
B1119104130241N00659897WA0049800556
B1119114130238N00659894WA0049600554
B1119124130235N00659891WA0049300551
B1119134130231N00659887WA0049000548
B1119144130227N00659884WA0048800546
B1119154130223N00659882WA0048800546
B1119164130220N00659880WA0048900547
B1119174130217N00659878WA0048800546
B1119184130215N00659878WA0048700545
B1119194130213N00659878WA0048800546
B1119204130212N00659877WA0048900547
B1119214130211N00659876WA0048800546
B1119224130210N00659877WA0048800546
B1119234130209N00659878WA0048800546
B1119244130209N00659878WA0048800546
B1119254130208N00659879WA0048800546
B1119264130208N00659880WA0048800546
B1119274130208N00659880WA0048800546
B1119284130208N00659881WA0048900547
B1119294130208N00659881WA0048800547
B1119304130208N00659881WA0048800547
B1119314130208N00659881WA0048800546
B1119324130208N00659882WA0048800546
B1119334130208N00659882WA0048800546
B1119344130208N00659881WA0048800546
B1119354130208N00659881WA0048800546
B1119364130208N00659880WA0048800546
B1119374130208N00659880WA0048800546
B1119384130208N00659880WA0048800546
B1119394130208N00659879WA0048800546
B1119404130208N00659879WA0048800546
B1119414130208N00659879WA0048800546
B1119424130208N00659879WA0048800546
B1119434130208N00659879WA0048800546
B1119444130208N00659879WA0048800546
B1119454130208N00659879WA0048800546
B1119464130208N00659879WA0048800546
B1119474130208N00659879WA0048800546
B1119484130208N00659879WA0048800546
B1119494130208N00659879WA0048800546
B1119504130208N00659879WA0048800546
B1119514130208N00659879WA0048800546
B1119524130208N00659879WA0048800546
B1119534130208N00659879WA0048800546
B1119544130208N00659879WA0048800546
B1119554130208N00659878WA0048800546
B1119564130208N00659878WA0048800546
B1119574130208N00659878WA0048800546
B1119584130208N00659878WA0048800546
B1119594130208N00659878WA0048800546
B1120004130208N00659878WA0048800546
B1120014130208N00659878WA0048800546
B1120024130208N00659878WA0048800546
B1120034130208N00659878WA0048800546
B1120044130208N00659878WA0048800546
B1120054130208N00659877WA0048800546
B1120064130208N00659877WA0048800546
B1120074130208N00659877WA0048800546
B1120084130209N00659877WA0048800546
B1120094130208N00659877WA0048800546
B1120104130208N00659877WA0048800547
B1120114130209N00659877WA0048800546
B1120124130209N00659877WA0048800546
B1120134130208N00659877WA0048800546
B1120144130208N00659877WA0048800547
B1120154130208N00659877WA0048800546
B1120164130208N00659878WA0048800546
B1120174130208N00659877WA0048800546
B1120184130208N00659878WA0048800547
B1120194130208N00659877WA0048800547
B1120204130208N00659877WA0048800546
B1120214130208N00659877WA0048800546
B1120224130208N00659877WA0048800546
B1120234130208N00659878WA0048800546
B1120244130208N00659878WA0048800546
B1120254130208N00659878WA0048800546
B1120264130208N00659878WA0048800546
B1120274130208N00659878WA0048800546
B1120284130208N00659878WA0048900547
B1120294130208N00659878WA0048800546
B1120304130208N00659878WA0048800546
B1120314130208N00659879WA0048800546
B1120324130208N00659879WA0048800546
B1120334130208N00659879WA0048900547
B1120344130207N00659878WA0048800546
B1120354130208N00659878WA0048800546
B1120364130208N00659878WA0048800546
B1120374130208N00659878WA0048800546
B1120384130208N00659878WA0048800546
B1120394130208N00659878WA0048800546
B1120404130208N00659878WA0048800546
B1120414130208N00659878WA0048800546
B1120424130208N00659878WA0048800546
B1120434130208N00659877WA0048800546
B1120444130208N00659877WA0048800546
B1120454130208N00659877WA0048800546
B1120464130208N00659877WA0048800546
B1120474130208N00659876WA0048800546
B1120484130208N00659876WA0048800546
B1120494130208N00659876WA0048800546
B1120504130208N00659877WA0048800546
B1120514130208N00659877WA0048800546
B1120524130208N00659877WA0048900547
B1120534130208N00659877WA0048800546
B1120544130208N00659877WA0048800546
B1120554130208N00659877WA0048800546
B1120564130208N00659877WA0048800546
B1120574130208N00659877WA0048800546
B1120584130208N00659877WA0048800546
B1120594130208N00659877WA0048800546
B1121004130208N00659877WA0048800546
B1121014130208N00659876WA0048800546
B1121024130208N00659876WA0048800546
B1121034130208N00659876WA0048800546
B1121044130208N00659876WA0048800546
B1121054130208N00659876WA0048800546
B1121064130208N00659875WA0048800546
B1121074130208N00659875WA0048800546
B1121084130208N00659875WA0048800546
B1121094130208N00659875WA0048800546
B1121104130208N00659875WA0048800546
B1121114130208N00659875WA0048800546
B1121124130208N00659875WA0048800546
B1121134130208N00659875WA0048800546
LXSX;GF:1.4
G48B1D9948B47459FF63C1B1439F44C10
