AXSX003 SKYTRAXX V3.0.16c SN:00000380
HFPLTPILOT:Sepp Bucher
HFGTYGLIDERTYPE:Advance Sigma11
HFDTM100GPSDATUM:WGS-84
HFCIDCOMPETITIONID:0000
HFCCLCOMPETITION CLASS:Paraglider (Standard)
HFSITSITE:Korce-2.9km
HFDTE190621
B1306234036614N02048823EA0130901320
B1306244036615N02048823EA0130901320
B1306254036615N02048823EA0130801320
B1306264036615N02048823EA0130901320
B1306274036615N02048823EA0130901320
B1306284036615N02048823EA0130901320
B1306294036615N02048823EA0130801319
B1306304036614N02048823EA0130801320
B1306314036614N02048824EA0130801320
B1306324036615N02048823EA0130701318
B1306334036616N02048823EA0130701318
B1306344036617N02048823EA0130701319
B1306354036618N02048822EA0130601317
B1306364036620N02048820EA0130401316
B1306374036622N02048819EA0130301319
B1306384036624N02048816EA0130501326
B1306394036625N02048811EA0130401325
B1306404036628N02048807EA0130401325
B1306414036630N02048803EA0130501325
B1306424036632N02048801EA0130401325
B1306434036636N02048799EA0130401325
B1306444036640N02048798EA0130401325
B1306454036644N02048798EA0130501326
B1306464036647N02048798EA0130601327
B1306474036652N02048798EA0130701328
B1306484036655N02048799EA0130801329
B1306494036658N02048800EA0130701328
B1306504036661N02048801EA0130601327
B1306514036664N02048800EA0130501326
B1306524036668N02048799EA0130401325
B1306534036673N02048797EA0130501326
B1306544036676N02048796EA0130601326
B1306554036679N02048797EA0130701327
B1306564036681N02048797EA0130601327
B1306574036684N02048797EA0130401325
B1306584036689N02048796EA0130201323
B1306594036694N02048796EA0130301324
B1307004036699N02048795EA0130501325
B1307014036702N02048793EA0130801329
B1307024036705N02048792EA0131001331
B1307034036706N02048792EA0131001331
B1307044036708N02048793EA0130801329
B1307054036711N02048794EA0130501325
B1307064036715N02048794EA0130101322
B1307074036719N02048794EA0130001321
B1307084036723N02048794EA0130001321
B1307094036726N02048793EA0130001321
B1307104036728N02048793EA0130001321
B1307114036731N02048792EA0129801319
B1307124036734N02048791EA0129501316
B1307134036738N02048790EA0129301314
B1307144036742N02048788EA0129301314
B1307154036745N02048785EA0129401315
B1307164036746N02048781EA0129401315
B1307174036746N02048777EA0129201313
B1307184036744N02048771EA0129001311
B1307194036742N02048765EA0128901310
B1307204036738N02048760EA0128801309
B1307214036732N02048757EA0128601307
B1307224036725N02048755EA0128401305
B1307234036718N02048754EA0128301303
B1307244036712N02048753EA0128201303
B1307254036705N02048752EA0128101302
B1307264036698N02048751EA0127901300
B1307274036690N02048750EA0127601297
B1307284036682N02048749EA0127401295
B1307294036675N02048746EA0127201293
B1307304036668N02048742EA0127301294
B1307314036660N02048738EA0127501296
B1307324036654N02048734EA0127601297
B1307334036648N02048732EA0127901300
B1307344036643N02048730EA0128101302
B1307354036637N02048729EA0128201303
B1307364036631N02048728EA0128301304
B1307374036625N02048725EA0128501306
B1307384036621N02048720EA0128501306
B1307394036618N02048715EA0128701308
B1307404036618N02048709EA0128801309
B1307414036620N02048705EA0128901310
B1307424036623N02048703EA0129001311
B1307434036626N02048703EA0129001311
B1307444036629N02048706EA0129001311
B1307454036631N02048710EA0128901310
B1307464036632N02048717EA0129001311
B1307474036632N02048725EA0129201313
B1307484036629N02048732EA0129401315
B1307494036624N02048737EA0129401315
B1307504036618N02048739EA0129501315
B1307514036611N02048741EA0129501316
B1307524036605N02048739EA0129501316
B1307534036599N02048736EA0129501316
B1307544036594N02048730EA0129501316
B1307554036590N02048724EA0129701318
B1307564036588N02048717EA0130001320
B1307574036586N02048711EA0130201323
B1307584036584N02048706EA0130401325
B1307594036583N02048702EA0130301324
B1308004036584N02048699EA0129901320
B1308014036585N02048695EA0129501316
B1308024036588N02048691EA0129201313
B1308034036592N02048688EA0129101312
B1308044036595N02048685EA0129001311
B1308054036597N02048681EA0129101312
B1308064036598N02048677EA0129101312
B1308074036600N02048674EA0129001311
B1308084036601N02048671EA0129001311
B1308094036603N02048668EA0128701308
B1308104036606N02048666EA0128501306
B1308114036609N02048666EA0128401305
B1308124036613N02048668EA0128301304
B1308134036615N02048673EA0128201303
B1308144036617N02048679EA0128201303
B1308154036618N02048687EA0128301304
B1308164036617N02048696EA0128401305
B1308174036614N02048704EA0128401304
B1308184036608N02048710EA0128401305
B1308194036601N02048713EA0128401304
B1308204036594N02048714EA0128201303
B1308214036587N02048712EA0128201303
B1308224036581N02048708EA0128301304
B1308234036579N02048702EA0128201303
B1308244036579N02048697EA0128201302
B1308254036582N02048694EA0128101302
B1308264036586N02048693EA0128101302
B1308274036590N02048694EA0128101302
B1308284036593N02048697EA0128401305
B1308294036597N02048701EA0128601307
B1308304036599N02048706EA0128801309
B1308314036601N02048710EA0128901310
B1308324036602N02048716EA0128901310
B1308334036602N02048723EA0128901310
B1308344036600N02048731EA0128901309
B1308354036596N02048740EA0128901309
B1308364036590N02048746EA0128901309
B1308374036582N02048748EA0128801309
B1308384036575N02048744EA0128601307
B1308394036571N02048738EA0128601307
B1308404036568N02048731EA0128901310
B1308414036566N02048725EA0129201313
B1308424036564N02048721EA0129401315
B1308434036561N02048717EA0129401315
B1308444036557N02048712EA0129601316
B1308454036553N02048705EA0129701318
B1308464036550N02048698EA0129901320
B1308474036548N02048692EA0130201323
B1308484036546N02048688EA0130201323
B1308494036544N02048684EA0130101322
B1308504036541N02048679EA0129901320
B1308514036538N02048674EA0129501315
B1308524036536N02048667EA0128901310
B1308534036533N02048660EA0128501306
B1308544036530N02048653EA0128301304
B1308554036526N02048646EA0128101302
B1308564036523N02048639EA0127901300
B1308574036519N02048632EA0127701298
B1308584036516N02048624EA0127501296
B1308594036513N02048616EA0127501296
B1309004036509N02048609EA0127501296
B1309014036506N02048601EA0127401295
B1309024036502N02048594EA0127401295
B1309034036498N02048588EA0127401295
B1309044036495N02048583EA0127401294
B1309054036491N02048577EA0127201293
B1309064036488N02048571EA0126901290
B1309074036485N02048564EA0126801289
B1309084036480N02048557EA0126601287
B1309094036475N02048550EA0126401285
B1309104036471N02048544EA0126301284
B1309114036467N02048537EA0126301284
B1309124036462N02048530EA0126101282
B1309134036458N02048523EA0126001281
B1309144036454N02048516EA0125801279
B1309154036450N02048509EA0125701278
B1309164036446N02048503EA0125601277
B1309174036442N02048497EA0125601277
B1309184036438N02048492EA0125401275
B1309194036435N02048487EA0125201273
B1309204036431N02048481EA0125001270
B1309214036428N02048474EA0124701268
B1309224036424N02048468EA0124501266
B1309234036420N02048461EA0124301264
B1309244036416N02048455EA0124201263
B1309254036413N02048449EA0124001261
B1309264036409N02048442EA0123701258
B1309274036406N02048436EA0123501255
B1309284036402N02048429EA0123201253
B1309294036398N02048422EA0123001251
B1309304036395N02048415EA0122901249
B1309314036391N02048408EA0122801248
B1309324036387N02048402EA0122701248
B1309334036384N02048395EA0122601246
B1309344036381N02048389EA0122401245
B1309354036377N02048382EA0122201243
B1309364036374N02048376EA0122101242
B1309374036371N02048370EA0121901240
B1309384036367N02048363EA0121701238
B1309394036363N02048357EA0121501236
B1309404036359N02048351EA0121301234
B1309414036355N02048345EA0121101232
B1309424036351N02048339EA0121001231
B1309434036348N02048333EA0120901230
B1309444036345N02048328EA0120801229
B1309454036342N02048323EA0120701228
B1309464036338N02048317EA0120501225
B1309474036335N02048312EA0120201223
B1309484036332N02048306EA0120001221
B1309494036329N02048301EA0119801219
B1309504036326N02048295EA0119601217
B1309514036324N02048289EA0119401215
B1309524036321N02048283EA0119201213
B1309534036317N02048277EA0119101212
B1309544036314N02048272EA0118901210
B1309554036311N02048267EA0118701208
B1309564036308N02048261EA0118401205
B1309574036305N02048254EA0118101202
B1309584036302N02048247EA0118001200
B1309594036299N02048240EA0117701198
B1310004036295N02048233EA0117501196
B1310014036292N02048226EA0117401195
B1310024036289N02048220EA0117301194
B1310034036286N02048213EA0117101192
B1310044036283N02048207EA0116901189
B1310054036279N02048200EA0116701188
B1310064036276N02048193EA0116501186
B1310074036273N02048186EA0116401185
B1310084036270N02048179EA0116201183
B1310094036268N02048172EA0116101182
B1310104036265N02048166EA0115901180
B1310114036262N02048159EA0115801179
B1310124036260N02048151EA0115601177
B1310134036258N02048144EA0115501176
B1310144036255N02048137EA0115301174
B1310154036252N02048130EA0115201173
B1310164036249N02048123EA0115101172
B1310174036246N02048116EA0115001171
B1310184036243N02048109EA0114901170
B1310194036240N02048102EA0114801169
B1310204036238N02048095EA0114801169
B1310214036236N02048089EA0114701168
B1310224036233N02048083EA0114501166
B1310234036231N02048077EA0114201163
B1310244036229N02048070EA0113901160
B1310254036226N02048064EA0113701158
B1310264036223N02048058EA0113601156
B1310274036221N02048052EA0113501156
B1310284036218N02048046EA0113401155
B1310294036215N02048040EA0113401155
B1310304036213N02048034EA0113401154
B1310314036210N02048026EA0113301154
B1310324036208N02048019EA0113401155
B1310334036204N02048012EA0113701158
B1310344036200N02048005EA0113901160
B1310354036197N02047999EA0114201163
B1310364036194N02047995EA0114401165
B1310374036190N02047990EA0114601167
B1310384036187N02047986EA0114601167
B1310394036183N02047981EA0114801168
B1310404036180N02047976EA0115001170
B1310414036178N02047971EA0115101171
B1310424036178N02047965EA0115101172
B1310434036178N02047959EA0115201173
B1310444036181N02047953EA0115301174
B1310454036185N02047949EA0115401175
B1310464036190N02047947EA0115601177
B1310474036195N02047947EA0115801179
B1310484036199N02047950EA0115901180
B1310494036203N02047954EA0116101182
B1310504036205N02047960EA0116201183
B1310514036205N02047966EA0116401185
B1310524036204N02047972EA0116501185
B1310534036200N02047978EA0116501186
B1310544036194N02047981EA0116601187
B1310554036188N02047982EA0116701188
B1310564036181N02047979EA0116801189
B1310574036177N02047974EA0117201192
B1310584036175N02047968EA0117201193
B1310594036175N02047961EA0117401195
B1311004036176N02047956EA0117601197
B1311014036178N02047951EA0117901200
B1311024036181N02047947EA0118001201
B1311034036186N02047945EA0118001201
B1311044036190N02047945EA0118001201
B1311054036195N02047946EA0118101202
B1311064036198N02047950EA0118301204
B1311074036200N02047955EA0118401204
B1311084036199N02047961EA0118401205
B1311094036197N02047966EA0118401205
B1311104036193N02047971EA0118401205
B1311114036189N02047975EA0118501206
B1311124036184N02047977EA0118601207
B1311134036178N02047976EA0118701208
B1311144036172N02047972EA0118701208
B1311154036168N02047967EA0118901210
B1311164036165N02047961EA0119101212
B1311174036162N02047956EA0119401214
B1311184036159N02047951EA0119601217
B1311194036156N02047946EA0119701218
B1311204036153N02047941EA0119801218
B1311214036152N02047934EA0119901220
B1311224036152N02047927EA0119901220
B1311234036154N02047920EA0120001220
B1311244036157N02047915EA0120001221
B1311254036161N02047911EA0120101222
B1311264036166N02047909EA0120201223
B1311274036170N02047910EA0120301223
B1311284036175N02047913EA0120301224
B1311294036178N02047918EA0120501226
B1311304036180N02047924EA0120601227
B1311314036181N02047929EA0120801228
B1311324036180N02047934EA0120901230
B1311334036177N02047939EA0121001230
B1311344036173N02047943EA0120901230
B1311354036168N02047945EA0120901230
B1311364036162N02047945EA0120901230
B1311374036156N02047942EA0121001231
B1311384036152N02047938EA0121101232
B1311394036148N02047933EA0121301233
B1311404036143N02047928EA0121401235
B1311414036139N02047922EA0121501236
B1311424036136N02047916EA0121501235
B1311434036132N02047909EA0121501236
B1311444036129N02047902EA0121601237
B1311454036127N02047895EA0121701238
B1311464036125N02047889EA0121901240
B1311474036124N02047882EA0122001241
B1311484036123N02047875EA0122101241
B1311494036124N02047868EA0122101242
B1311504036125N02047861EA0122201243
B1311514036127N02047855EA0122301243
B1311524036130N02047852EA0122301244
B1311534036133N02047851EA0122301243
B1311544036137N02047853EA0122201243
B1311554036140N02047857EA0122201243
B1311564036141N02047862EA0122301244
B1311574036141N02047869EA0122401245
B1311584036140N02047875EA0122501246
B1311594036137N02047881EA0122701247
B1312004036132N02047886EA0122801249
B1312014036126N02047889EA0122901250
B1312024036119N02047890EA0122901250
B1312034036112N02047889EA0123001251
B1312044036106N02047886EA0123201252
B1312054036101N02047881EA0123201253
B1312064036097N02047875EA0123201253
B1312074036094N02047868EA0123201252
B1312084036093N02047861EA0123101252
B1312094036094N02047854EA0123101252
B1312104036097N02047848EA0123001251
B1312114036100N02047843EA0123101252
B1312124036103N02047840EA0123101252
B1312134036107N02047838EA0123201252
B1312144036110N02047838EA0123201253
B1312154036113N02047839EA0123201253
B1312164036117N02047842EA0123201253
B1312174036120N02047846EA0123301254
B1312184036122N02047851EA0123301254
B1312194036123N02047857EA0123401255
B1312204036123N02047864EA0123601257
B1312214036122N02047870EA0123901259
B1312224036120N02047875EA0123901260
B1312234036117N02047880EA0123901260
B1312244036113N02047884EA0123801259
B1312254036108N02047887EA0123901260
B1312264036101N02047889EA0124001260
B1312274036094N02047888EA0123901260
B1312284036088N02047884EA0123801259
B1312294036083N02047877EA0123901260
B1312304036080N02047871EA0124001260
B1312314036080N02047864EA0124001261
B1312324036081N02047858EA0124001260
B1312334036085N02047854EA0123901260
B1312344036089N02047853EA0123901260
B1312354036093N02047854EA0124001261
B1312364036097N02047856EA0124101262
B1312374036100N02047857EA0124301264
B1312384036103N02047858EA0124301264
B1312394036106N02047860EA0124301264
B1312404036110N02047862EA0124201263
B1312414036114N02047865EA0124401264
B1312424036118N02047868EA0124501266
B1312434036121N02047870EA0124701268
B1312444036124N02047873EA0124801269
B1312454036127N02047876EA0124901270
B1312464036130N02047879EA0125001271
B1312474036134N02047882EA0125101271
B1312484036137N02047886EA0125201273
B1312494036139N02047890EA0125301274
B1312504036140N02047896EA0125301274
B1312514036140N02047901EA0125301274
B1312524036138N02047907EA0125401275
B1312534036134N02047912EA0125401275
B1312544036129N02047916EA0125501276
B1312554036124N02047919EA0125701278
B1312564036119N02047919EA0125801279
B1312574036114N02047916EA0125901280
B1312584036109N02047911EA0125901280
B1312594036106N02047904EA0125901280
B1313004036105N02047897EA0126001281
B1313014036106N02047890EA0126001281
B1313024036108N02047885EA0126101282
B1313034036111N02047881EA0126201283
B1313044036114N02047878EA0126301284
B1313054036118N02047877EA0126301284
B1313064036122N02047879EA0126201283
B1313074036126N02047882EA0126201282
B1313084036129N02047885EA0126301283
B1313094036133N02047889EA0126401285
B1313104036136N02047892EA0126401285
B1313114036139N02047895EA0126501286
B1313124036142N02047899EA0126501286
B1313134036145N02047904EA0126501286
B1313144036147N02047910EA0126601287
B1313154036148N02047916EA0126601287
B1313164036149N02047922EA0126801289
B1313174036149N02047928EA0126901290
B1313184036148N02047934EA0126901290
B1313194036144N02047939EA0126901290
B1313204036140N02047943EA0126901290
B1313214036134N02047945EA0127001291
B1313224036127N02047944EA0127101292
B1313234036122N02047941EA0127401295
B1313244036118N02047937EA0127601297
B1313254036115N02047933EA0127801299
B1313264036113N02047927EA0127901300
B1313274036113N02047921EA0128001301
B1313284036115N02047915EA0128001301
B1313294036118N02047911EA0128001301
B1313304036123N02047911EA0128001301
B1313314036126N02047914EA0128101302
B1313324036128N02047920EA0128101302
B1313334036129N02047926EA0128101302
B1313344036128N02047933EA0128001301
B1313354036125N02047940EA0128101301
B1313364036120N02047946EA0128201303
B1313374036114N02047949EA0128301304
B1313384036108N02047949EA0128501306
B1313394036102N02047946EA0128601306
B1313404036098N02047941EA0128601307
B1313414036096N02047935EA0128601307
B1313424036095N02047928EA0128601307
B1313434036097N02047922EA0128801309
B1313444036099N02047918EA0128901310
B1313454036103N02047917EA0129001311
B1313464036106N02047919EA0129001311
B1313474036109N02047923EA0129001310
B1313484036110N02047929EA0129001311
B1313494036110N02047936EA0128901310
B1313504036107N02047943EA0128901310
B1313514036104N02047950EA0129001311
B1313524036098N02047954EA0129101311
B1313534036093N02047955EA0129101312
B1313544036087N02047952EA0129101311
B1313554036082N02047948EA0129101312
B1313564036079N02047941EA0129101312
B1313574036078N02047934EA0129201312
B1313584036078N02047927EA0129201313
B1313594036079N02047920EA0129201313
B1314004036081N02047914EA0129301314
B1314014036083N02047909EA0129401315
B1314024036086N02047906EA0129501316
B1314034036089N02047903EA0129501316
B1314044036091N02047899EA0129601316
B1314054036094N02047896EA0129501316
B1314064036097N02047894EA0129601317
B1314074036100N02047892EA0129601317
B1314084036103N02047893EA0129601317
B1314094036105N02047897EA0129701318
B1314104036105N02047904EA0129601316
B1314114036102N02047912EA0129501316
B1314124036099N02047920EA0129701318
B1314134036095N02047926EA0129901320
B1314144036092N02047931EA0130001321
B1314154036090N02047936EA0130101322
B1314164036087N02047941EA0130001321
B1314174036083N02047946EA0129901320
B1314184036078N02047950EA0129901320
B1314194036072N02047953EA0129901320
B1314204036066N02047953EA0129901320
B1314214036060N02047949EA0129901320
B1314224036056N02047944EA0130001321
B1314234036053N02047937EA0129901320
B1314244036053N02047930EA0129901320
B1314254036053N02047924EA0129901320
B1314264036055N02047919EA0129901320
B1314274036057N02047914EA0129801319
B1314284036060N02047910EA0129801319
B1314294036063N02047906EA0129901319
B1314304036067N02047905EA0130001321
B1314314036071N02047904EA0130001321
B1314324036075N02047905EA0130101322
B1314334036078N02047907EA0130201323
B1314344036080N02047912EA0130201323
B1314354036081N02047918EA0130201323
B1314364036080N02047925EA0130201323
B1314374036076N02047932EA0130101322
B1314384036071N02047937EA0130101322
B1314394036065N02047940EA0130101322
B1314404036059N02047941EA0130201322
B1314414036053N02047942EA0130201323
B1314424036047N02047941EA0130301324
B1314434036041N02047940EA0130401325
B1314444036035N02047937EA0130401325
B1314454036031N02047932EA0130501326
B1314464036027N02047926EA0130501326
B1314474036027N02047919EA0130501326
B1314484036028N02047913EA0130501326
B1314494036031N02047908EA0130401325
B1314504036036N02047906EA0130501326
B1314514036040N02047907EA0130601327
B1314524036043N02047911EA0130601327
B1314534036045N02047917EA0130601327
B1314544036044N02047925EA0130601327
B1314554036041N02047932EA0130701328
B1314564036036N02047937EA0130801329
B1314574036030N02047941EA0130901330
B1314584036024N02047943EA0130901330
B1314594036018N02047944EA0131001331
B1315004036012N02047942EA0131101332
B1315014036006N02047939EA0131101331
B1315024036002N02047932EA0131001331
B1315034036000N02047924EA0130901330
B1315044035999N02047915EA0130901330
B1315054036001N02047908EA0131001331
B1315064036004N02047903EA0131201333
B1315074036007N02047900EA0131301334
B1315084036011N02047899EA0131401334
B1315094036015N02047901EA0131301334
B1315104036017N02047906EA0131301334
B1315114036019N02047912EA0131201333
B1315124036018N02047920EA0131201333
B1315134036014N02047927EA0131301334
B1315144036009N02047932EA0131401335
B1315154036003N02047934EA0131401335
B1315164035997N02047933EA0131401335
B1315174035992N02047929EA0131301334
B1315184035987N02047924EA0131301334
B1315194035983N02047917EA0131401335
B1315204035981N02047909EA0131401335
B1315214035980N02047902EA0131401335
B1315224035980N02047895EA0131501336
B1315234035981N02047889EA0131601336
B1315244035983N02047884EA0131601337
B1315254035986N02047882EA0131701338
B1315264035990N02047882EA0131701338
B1315274035993N02047885EA0131701338
B1315284035995N02047890EA0131801339
B1315294035995N02047897EA0131801339
B1315304035994N02047905EA0131701338
B1315314035991N02047912EA0131801339
B1315324035986N02047917EA0131901340
B1315334035981N02047921EA0132001341
B1315344035975N02047923EA0132001341
B1315354035970N02047924EA0132001341
B1315364035964N02047926EA0131901340
B1315374035958N02047928EA0132001340
B1315384035951N02047929EA0132001341
B1315394035944N02047928EA0132101341
B1315404035938N02047924EA0132101342
B1315414035934N02047918EA0132201343
B1315424035930N02047911EA0132201343
B1315434035929N02047903EA0132201343
B1315444035930N02047897EA0132301343
B1315454035932N02047892EA0132201343
B1315464035936N02047891EA0132101342
B1315474035939N02047892EA0132101342
B1315484035941N02047895EA0132101342
B1315494035943N02047900EA0132001341
B1315504035943N02047905EA0132001341
B1315514035943N02047911EA0132001341
B1315524035941N02047919EA0131901340
B1315534035938N02047926EA0131901340
B1315544035934N02047932EA0132001341
B1315554035930N02047937EA0132201343
B1315564035926N02047941EA0132201343
B1315574035921N02047944EA0132301343
B1315584035915N02047947EA0132301344
B1315594035910N02047950EA0132301344
B1316004035904N02047951EA0132301344
B1316014035898N02047952EA0132201343
B1316024035891N02047952EA0132201343
B1316034035884N02047952EA0132201343
B1316044035876N02047951EA0132301344
B1316054035870N02047948EA0132301344
B1316064035864N02047944EA0132401345
B1316074035859N02047940EA0132501346
B1316084035855N02047934EA0132501346
B1316094035853N02047928EA0132301344
B1316104035853N02047921EA0132201343
B1316114035855N02047914EA0132101342
B1316124035859N02047911EA0132101342
B1316134035864N02047910EA0132001341
B1316144035869N02047913EA0132101342
B1316154035872N02047918EA0132301344
B1316164035874N02047923EA0132501346
B1316174035874N02047928EA0132501346
B1316184035875N02047934EA0132501346
B1316194035874N02047941EA0132501346
B1316204035872N02047949EA0132401345
B1316214035868N02047957EA0132401345
B1316224035863N02047964EA0132501346
B1316234035857N02047969EA0132801349
B1316244035850N02047972EA0133001351
B1316254035844N02047973EA0132901350
B1316264035837N02047972EA0132901350
B1316274035830N02047970EA0132901350
B1316284035824N02047966EA0132901350
B1316294035819N02047959EA0132801349
B1316304035817N02047952EA0132801349
B1316314035817N02047944EA0132801349
B1316324035818N02047937EA0132801349
B1316334035820N02047932EA0132801349
B1316344035823N02047928EA0132901350
B1316354035827N02047926EA0132901350
B1316364035831N02047925EA0133001351
B1316374035835N02047926EA0133001351
B1316384035839N02047929EA0133001351
B1316394035841N02047934EA0133001351
B1316404035842N02047940EA0132901350
B1316414035842N02047948EA0132901350
B1316424035841N02047955EA0133001351
B1316434035839N02047962EA0133101352
B1316444035836N02047970EA0133101352
B1316454035833N02047977EA0133201353
B1316464035829N02047984EA0133201353
B1316474035825N02047991EA0133301354
B1316484035822N02047998EA0133401355
B1316494035818N02048005EA0133501356
B1316504035812N02048010EA0133501356
B1316514035807N02048015EA0133401355
B1316524035799N02048017EA0133301354
B1316534035793N02048018EA0133301354
B1316544035786N02048018EA0133401354
B1316554035780N02048015EA0133401355
B1316564035774N02048012EA0133401355
B1316574035769N02048008EA0133301353
B1316584035765N02048002EA0133201352
B1316594035762N02047995EA0133101352
B1317004035760N02047988EA0133001351
B1317014035760N02047980EA0133001350
B1317024035761N02047974EA0132901350
B1317034035763N02047969EA0132901350
B1317044035767N02047965EA0133001350
B1317054035771N02047963EA0132901350
B1317064035776N02047964EA0132801349
B1317074035780N02047968EA0132701348
B1317084035783N02047974EA0132701348
B1317094035785N02047981EA0132701348
B1317104035785N02047989EA0132701348
B1317114035783N02047997EA0132801348
B1317124035780N02048004EA0132701348
B1317134035775N02048010EA0132701348
B1317144035769N02048015EA0132701348
B1317154035763N02048017EA0132701348
B1317164035756N02048017EA0132601347
B1317174035749N02048016EA0132401345
B1317184035743N02048014EA0132401345
B1317194035737N02048011EA0132401345
B1317204035731N02048007EA0132301344
B1317214035726N02048002EA0132201343
B1317224035721N02047998EA0132101342
B1317234035715N02047993EA0132001341
B1317244035710N02047988EA0132001341
B1317254035706N02047982EA0132001340
B1317264035701N02047977EA0131901340
B1317274035697N02047972EA0131901340
B1317284035693N02047967EA0131801339
B1317294035689N02047961EA0131801339
B1317304035685N02047956EA0131701338
B1317314035680N02047950EA0131601337
B1317324035676N02047945EA0131601337
B1317334035671N02047939EA0131601337
B1317344035667N02047933EA0131601337
B1317354035664N02047928EA0131701338
B1317364035660N02047923EA0131701338
B1317374035657N02047919EA0131601337
B1317384035653N02047914EA0131501336
B1317394035649N02047909EA0131401335
B1317404035647N02047904EA0131301334
B1317414035644N02047897EA0131101332
B1317424035642N02047891EA0131001331
B1317434035640N02047885EA0131001331
B1317444035638N02047879EA0130901330
B1317454035636N02047874EA0130801329
B1317464035634N02047868EA0130701328
B1317474035632N02047863EA0130601327
B1317484035629N02047857EA0130401325
B1317494035627N02047851EA0130301324
B1317504035625N02047845EA0130201323
B1317514035624N02047839EA0130101322
B1317524035623N02047832EA0129901320
B1317534035623N02047826EA0129701318
B1317544035622N02047819EA0129501316
B1317554035622N02047813EA0129301314
B1317564035622N02047806EA0129201313
B1317574035622N02047800EA0129101312
B1317584035623N02047794EA0129001311
B1317594035624N02047787EA0128801309
B1318004035624N02047780EA0128701308
B1318014035625N02047773EA0128501306
B1318024035625N02047767EA0128401305
B1318034035625N02047760EA0128301304
B1318044035626N02047753EA0128201303
B1318054035627N02047746EA0128101302
B1318064035628N02047740EA0128001301
B1318074035628N02047734EA0127901300
B1318084035628N02047727EA0127801299
B1318094035629N02047721EA0127601297
B1318104035631N02047715EA0127301294
B1318114035634N02047710EA0127201292
B1318124035639N02047706EA0126901290
B1318134035646N02047704EA0126801289
B1318144035652N02047705EA0126701288
B1318154035658N02047708EA0126701288
B1318164035664N02047713EA0126601287
B1318174035669N02047719EA0126401285
B1318184035673N02047726EA0126301284
B1318194035676N02047734EA0126201283
B1318204035679N02047742EA0126101282
B1318214035681N02047750EA0126001281
B1318224035683N02047758EA0125901280
B1318234035684N02047767EA0125701278
B1318244035685N02047775EA0125601277
B1318254035686N02047784EA0125401275
B1318264035685N02047793EA0125301274
B1318274035684N02047801EA0125201273
B1318284035682N02047809EA0125101272
B1318294035680N02047817EA0125001271
B1318304035677N02047825EA0124901270
B1318314035674N02047832EA0124901270
B1318324035671N02047839EA0124801269
B1318334035668N02047846EA0124701268
B1318344035664N02047851EA0124601267
B1318354035660N02047857EA0124501266
B1318364035656N02047862EA0124301264
B1318374035651N02047867EA0124201263
B1318384035646N02047871EA0124001261
B1318394035641N02047873EA0123901260
B1318404035635N02047875EA0123801258
B1318414035630N02047877EA0123701258
B1318424035625N02047878EA0123601257
B1318434035620N02047879EA0123501255
B1318444035614N02047879EA0123301254
B1318454035609N02047878EA0123101252
B1318464035604N02047878EA0123101252
B1318474035599N02047879EA0123001251
B1318484035595N02047879EA0122901250
B1318494035590N02047879EA0122701248
B1318504035585N02047878EA0122501246
B1318514035580N02047877EA0122301244
B1318524035575N02047877EA0122201243
B1318534035570N02047876EA0122101242
B1318544035565N02047876EA0121901240
B1318554035560N02047875EA0121801239
B1318564035555N02047875EA0121701238
B1318574035550N02047875EA0121501236
B1318584035545N02047875EA0121501235
B1318594035540N02047874EA0121301234
B1319004035536N02047873EA0121201233
B1319014035531N02047872EA0121001231
B1319024035526N02047872EA0120801229
B1319034035521N02047871EA0120601226
B1319044035516N02047869EA0120401224
B1319054035511N02047867EA0120201223
B1319064035506N02047866EA0120101222
B1319074035501N02047865EA0119901220
B1319084035496N02047864EA0119601217
B1319094035491N02047862EA0119401214
B1319104035486N02047860EA0119001211
B1319114035481N02047858EA0118801209
B1319124035476N02047857EA0118701208
B1319134035470N02047855EA0118601207
B1319144035465N02047854EA0118501206
B1319154035460N02047852EA0118401205
B1319164035454N02047851EA0118301204
B1319174035449N02047850EA0118201203
B1319184035443N02047848EA0118201202
B1319194035438N02047846EA0118001201
B1319204035433N02047844EA0118101202
B1319214035428N02047842EA0118201203
B1319224035423N02047841EA0118201203
B1319234035419N02047838EA0118201203
B1319244035415N02047836EA0118101201
B1319254035411N02047833EA0118001201
B1319264035406N02047829EA0117901200
B1319274035402N02047826EA0117901200
B1319284035398N02047823EA0117901200
B1319294035394N02047820EA0117901199
B1319304035391N02047817EA0117701198
B1319314035387N02047814EA0117601197
B1319324035382N02047811EA0117601196
B1319334035377N02047808EA0117501196
B1319344035373N02047805EA0117601197
B1319354035369N02047803EA0117601197
B1319364035365N02047800EA0117601197
B1319374035361N02047797EA0117601197
B1319384035357N02047794EA0117501196
B1319394035353N02047790EA0117501196
B1319404035349N02047787EA0117401195
B1319414035346N02047783EA0117501196
B1319424035342N02047779EA0117501196
B1319434035338N02047775EA0117501196
B1319444035335N02047771EA0117501196
B1319454035331N02047767EA0117501196
B1319464035327N02047764EA0117501196
B1319474035324N02047760EA0117401195
B1319484035320N02047755EA0117301194
B1319494035316N02047751EA0117301194
B1319504035312N02047747EA0117401194
B1319514035308N02047743EA0117301194
B1319524035304N02047739EA0117301194
B1319534035302N02047734EA0117301194
B1319544035299N02047729EA0117301194
B1319554035296N02047724EA0117401194
B1319564035293N02047719EA0117401195
B1319574035289N02047714EA0117401195
B1319584035287N02047710EA0117401195
B1319594035284N02047704EA0117401195
B1320004035282N02047698EA0117301194
B1320014035279N02047692EA0117301194
B1320024035276N02047687EA0117401194
B1320034035273N02047682EA0117601197
B1320044035271N02047677EA0117901200
B1320054035270N02047673EA0118101202
B1320064035270N02047670EA0118101202
B1320074035269N02047666EA0118101201
B1320084035267N02047662EA0118001201
B1320094035265N02047658EA0117901200
B1320104035262N02047655EA0117901200
B1320114035258N02047654EA0117801199
B1320124035253N02047653EA0117801199
B1320134035248N02047654EA0117701198
B1320144035244N02047656EA0117801198
B1320154035239N02047659EA0117801199
B1320164035235N02047664EA0117801199
B1320174035231N02047670EA0117901200
B1320184035228N02047677EA0117901200
B1320194035226N02047684EA0117901200
B1320204035224N02047692EA0117801199
B1320214035223N02047700EA0117701197
B1320224035222N02047708EA0117501196
B1320234035222N02047717EA0117501195
B1320244035223N02047726EA0117401195
B1320254035225N02047735EA0117401195
B1320264035228N02047743EA0117401195
B1320274035231N02047750EA0117401194
B1320284035235N02047756EA0117301194
B1320294035240N02047762EA0117201193
B1320304035245N02047766EA0117101192
B1320314035251N02047768EA0117101192
B1320324035258N02047768EA0117101192
B1320334035263N02047766EA0117101192
B1320344035269N02047765EA0117201193
B1320354035274N02047764EA0117301194
B1320364035279N02047763EA0117301193
B1320374035284N02047762EA0117201193
B1320384035290N02047760EA0117101192
B1320394035295N02047756EA0117101192
B1320404035300N02047753EA0117201193
B1320414035305N02047750EA0117401195
B1320424035310N02047747EA0117601197
B1320434035314N02047744EA0117601197
B1320444035318N02047741EA0117601197
B1320454035323N02047739EA0117501196
B1320464035328N02047737EA0117401195
B1320474035334N02047735EA0117301194
B1320484035340N02047733EA0117301194
B1320494035346N02047730EA0117401195
B1320504035351N02047728EA0117501196
B1320514035356N02047727EA0117601197
B1320524035361N02047725EA0117701197
B1320534035365N02047722EA0117601196
B1320544035370N02047718EA0117501196
B1320554035374N02047713EA0117501196
B1320564035378N02047709EA0117701198
B1320574035384N02047706EA0118001201
B1320584035389N02047706EA0118201203
B1320594035395N02047710EA0118301203
B1321004035400N02047715EA0118301204
B1321014035405N02047722EA0118401205
B1321024035408N02047729EA0118401205
B1321034035412N02047736EA0118501206
B1321044035414N02047744EA0118601207
B1321054035415N02047753EA0118601207
B1321064035414N02047761EA0118601207
B1321074035410N02047766EA0118601207
B1321084035406N02047769EA0118701208
B1321094035402N02047768EA0118801209
B1321104035399N02047765EA0118901210
B1321114035397N02047760EA0119101212
B1321124035397N02047756EA0119201213
B1321134035397N02047751EA0119401215
B1321144035399N02047746EA0119601217
B1321154035402N02047742EA0119701218
B1321164035406N02047739EA0119701218
B1321174035412N02047738EA0119801218
B1321184035418N02047741EA0119801219
B1321194035424N02047745EA0119701218
B1321204035428N02047753EA0119601217
B1321214035431N02047762EA0119601216
B1321224035432N02047772EA0119501215
B1321234035430N02047781EA0119501216
B1321244035427N02047788EA0119501215
B1321254035423N02047793EA0119501216
B1321264035418N02047795EA0119701218
B1321274035414N02047795EA0119901220
B1321284035411N02047794EA0120101222
B1321294035408N02047792EA0120201223
B1321304035406N02047790EA0120301224
B1321314035404N02047787EA0120401225
B1321324035402N02047782EA0120501226
B1321334035402N02047777EA0120601227
B1321344035405N02047772EA0120701228
B1321354035410N02047769EA0120701228
B1321364035416N02047768EA0120801229
B1321374035423N02047771EA0120801229
B1321384035428N02047776EA0120801229
B1321394035432N02047782EA0120801229
B1321404035434N02047790EA0120801229
B1321414035434N02047799EA0120601227
B1321424035432N02047807EA0120501226
B1321434035427N02047813EA0120401225
B1321444035421N02047815EA0120501226
B1321454035416N02047815EA0120501225
B1321464035410N02047815EA0120701228
B1321474035406N02047815EA0120901230
B1321484035402N02047815EA0121101232
B1321494035399N02047814EA0121201233
B1321504035395N02047812EA0121201232
B1321514035392N02047809EA0121401235
B1321524035389N02047805EA0121601237
B1321534035387N02047802EA0121901240
B1321544035385N02047798EA0122301243
B1321554035385N02047794EA0122501245
B1321564035385N02047790EA0122601247
B1321574035387N02047786EA0122601247
B1321584035389N02047783EA0122501246
B1321594035394N02047782EA0122301244
B1322004035400N02047783EA0122201243
B1322014035405N02047788EA0122101242
B1322024035408N02047797EA0122001241
B1322034035410N02047807EA0121801239
B1322044035409N02047816EA0121601237
B1322054035407N02047824EA0121701238
B1322064035403N02047830EA0121701238
B1322074035398N02047832EA0121601237
B1322084035395N02047832EA0121701238
B1322094035391N02047830EA0121901240
B1322104035389N02047827EA0121901240
B1322114035387N02047824EA0122101242
B1322124035385N02047821EA0122201243
B1322134035384N02047817EA0122301244
B1322144035382N02047812EA0122401245
B1322154035379N02047808EA0122401244
B1322164035376N02047804EA0122401245
B1322174035372N02047802EA0122501246
B1322184035370N02047799EA0122701248
B1322194035368N02047794EA0122701248
B1322204035366N02047790EA0122801249
B1322214035365N02047785EA0122801249
B1322224035365N02047781EA0122901250
B1322234035366N02047777EA0122801249
B1322244035368N02047773EA0122701248
B1322254035371N02047770EA0122501246
B1322264035376N02047769EA0122401245
B1322274035382N02047770EA0122301244
B1322284035388N02047774EA0122201243
B1322294035392N02047781EA0122101242
B1322304035394N02047791EA0122001240
B1322314035393N02047800EA0121801239
B1322324035390N02047808EA0121701238
B1322334035386N02047815EA0121701238
B1322344035382N02047820EA0121801239
B1322354035378N02047825EA0121901240
B1322364035373N02047829EA0121901240
B1322374035369N02047832EA0121901240
B1322384035364N02047835EA0121901240
B1322394035359N02047836EA0122001241
B1322404035354N02047836EA0122201243
B1322414035349N02047835EA0122401245
B1322424035346N02047833EA0122601247
B1322434035342N02047831EA0122901250
B1322444035339N02047829EA0123201253
B1322454035337N02047826EA0123401255
B1322464035336N02047822EA0123401255
B1322474035337N02047817EA0123501256
B1322484035341N02047813EA0123601257
B1322494035346N02047811EA0123801258
B1322504035352N02047813EA0123901260
B1322514035357N02047818EA0123901260
B1322524035362N02047826EA0124001261
B1322534035365N02047835EA0124101262
B1322544035365N02047844EA0124101262
B1322554035361N02047852EA0124101262
B1322564035355N02047856EA0124001261
B1322574035349N02047858EA0124201263
B1322584035343N02047859EA0124501266
B1322594035339N02047860EA0124801269
B1323004035335N02047860EA0125101272
B1323014035332N02047860EA0125201273
B1323024035328N02047859EA0125201273
B1323034035326N02047855EA0125301274
B1323044035326N02047850EA0125401275
B1323054035328N02047845EA0125501276
B1323064035333N02047844EA0125601277
B1323074035340N02047847EA0125601277
B1323084035345N02047853EA0125801279
B1323094035348N02047863EA0126001280
B1323104035348N02047872EA0126101281
B1323114035345N02047881EA0126101282
B1323124035339N02047886EA0126001281
B1323134035333N02047887EA0126101282
B1323144035328N02047887EA0126401284
B1323154035323N02047885EA0126601287
B1323164035320N02047884EA0126901290
B1323174035317N02047882EA0127001290
B1323184035314N02047880EA0126901290
B1323194035312N02047878EA0126901289
B1323204035311N02047874EA0126801289
B1323214035311N02047868EA0126701287
B1323224035313N02047863EA0126601287
B1323234035317N02047858EA0126501286
B1323244035322N02047856EA0126501286
B1323254035328N02047856EA0126501285
B1323264035333N02047858EA0126401285
B1323274035338N02047860EA0126401285
B1323284035343N02047862EA0126301284
B1323294035348N02047864EA0126201283
B1323304035354N02047867EA0126101282
B1323314035359N02047870EA0126101282
B1323324035365N02047873EA0126101282
B1323334035370N02047876EA0126201283
B1323344035375N02047880EA0126201283
B1323354035379N02047885EA0126201283
B1323364035383N02047892EA0126101282
B1323374035387N02047899EA0126101281
B1323384035390N02047906EA0126201283
B1323394035393N02047914EA0126201283
B1323404035395N02047921EA0126301284
B1323414035396N02047928EA0126401285
B1323424035397N02047936EA0126501286
B1323434035397N02047945EA0126601287
B1323444035396N02047953EA0126701288
B1323454035394N02047961EA0126801289
B1323464035390N02047967EA0127101291
B1323474035386N02047970EA0127201293
B1323484035382N02047969EA0127301294
B1323494035379N02047965EA0127401295
B1323504035379N02047959EA0127401295
B1323514035382N02047953EA0127601297
B1323524035387N02047950EA0127801299
B1323534035393N02047951EA0128001301
B1323544035398N02047954EA0128101302
B1323554035404N02047960EA0128201303
B1323564035407N02047966EA0128301304
B1323574035410N02047974EA0128301304
B1323584035410N02047982EA0128201303
B1323594035409N02047990EA0128201303
B1324004035407N02047999EA0128301304
B1324014035403N02048005EA0128601307
B1324024035397N02048008EA0128901310
B1324034035393N02048008EA0129201313
B1324044035389N02048007EA0129401315
B1324054035386N02048003EA0129701318
B1324064035385N02047999EA0129801319
B1324074035386N02047994EA0129901320
B1324084035388N02047989EA0130101322
B1324094035391N02047985EA0130201323
B1324104035395N02047983EA0130201323
B1324114035399N02047982EA0130301324
B1324124035404N02047983EA0130201323
B1324134035409N02047987EA0130001321
B1324144035414N02047994EA0129901320
B1324154035416N02048002EA0129801319
B1324164035417N02048012EA0129701318
B1324174035415N02048021EA0129901319
B1324184035411N02048029EA0130001321
B1324194035407N02048035EA0130301324
B1324204035402N02048039EA0130501326
B1324214035398N02048043EA0130701328
B1324224035394N02048045EA0131001331
B1324234035391N02048045EA0131101332
B1324244035388N02048043EA0131201333
B1324254035387N02048039EA0131301333
B1324264035388N02048035EA0131301333
B1324274035390N02048031EA0131201333
B1324284035394N02048028EA0131301333
B1324294035399N02048027EA0131401335
B1324304035404N02048027EA0131401335
B1324314035409N02048031EA0131401335
B1324324035414N02048037EA0131301334
B1324334035417N02048046EA0131201333
B1324344035418N02048057EA0131201333
B1324354035416N02048068EA0131401335
B1324364035413N02048075EA0131601337
B1324374035409N02048080EA0131801339
B1324384035405N02048081EA0131901340
B1324394035401N02048081EA0131901340
B1324404035398N02048079EA0132001341
B1324414035396N02048076EA0132001341
B1324424035395N02048073EA0132001341
B1324434035394N02048069EA0131901340
B1324444035393N02048065EA0131901340
B1324454035392N02048060EA0131901340
B1324464035391N02048056EA0131901340
B1324474035391N02048052EA0131901340
B1324484035391N02048048EA0131901340
B1324494035392N02048045EA0131801339
B1324504035395N02048043EA0131701338
B1324514035399N02048041EA0131501336
B1324524035405N02048041EA0131301334
B1324534035411N02048044EA0131201333
B1324544035416N02048051EA0131201333
B1324554035420N02048058EA0131101332
B1324564035422N02048068EA0131001330
B1324574035423N02048077EA0131001330
B1324584035421N02048086EA0130901330
B1324594035417N02048094EA0130901329
B1325004035413N02048099EA0130701328
B1325014035407N02048102EA0130601327
B1325024035402N02048103EA0130601327
B1325034035397N02048102EA0130501326
B1325044035393N02048101EA0130501326
B1325054035389N02048099EA0130401325
B1325064035387N02048096EA0130301324
B1325074035384N02048093EA0130101322
B1325084035380N02048090EA0130001321
B1325094035377N02048088EA0129801319
B1325104035374N02048085EA0129601317
B1325114035370N02048082EA0129501316
B1325124035367N02048080EA0129501316
B1325134035362N02048078EA0129501316
B1325144035358N02048077EA0129401315
B1325154035355N02048075EA0129401315
B1325164035351N02048074EA0129301314
B1325174035348N02048072EA0129201313
B1325184035345N02048070EA0129001311
B1325194035340N02048069EA0128801309
B1325204035336N02048068EA0128701308
B1325214035332N02048067EA0128601307
B1325224035327N02048066EA0128601307
B1325234035324N02048066EA0128501306
B1325244035320N02048065EA0128401305
B1325254035315N02048064EA0128201303
B1325264035310N02048063EA0128001301
B1325274035305N02048063EA0127901300
B1325284035301N02048062EA0127801299
B1325294035297N02048061EA0127701298
B1325304035293N02048060EA0127601297
B1325314035289N02048059EA0127401295
B1325324035285N02048058EA0127201293
B1325334035280N02048056EA0127001291
B1325344035276N02048055EA0126901290
B1325354035271N02048054EA0126901290
B1325364035266N02048053EA0126901290
B1325374035262N02048052EA0126801289
B1325384035259N02048052EA0126801289
B1325394035255N02048051EA0126701288
B1325404035251N02048050EA0126501286
B1325414035246N02048050EA0126301284
B1325424035241N02048050EA0126301284
B1325434035238N02048051EA0126201283
B1325444035234N02048051EA0126001281
B1325454035230N02048050EA0125901280
B1325464035227N02048050EA0125701278
B1325474035222N02048049EA0125501276
B1325484035218N02048048EA0125501276
B1325494035214N02048047EA0125401275
B1325504035210N02048047EA0125401275
B1325514035207N02048046EA0125301274
B1325524035203N02048046EA0125201273
B1325534035200N02048045EA0125101272
B1325544035196N02048044EA0125101272
B1325554035192N02048043EA0125301273
B1325564035189N02048043EA0125301274
B1325574035187N02048043EA0125301274
B1325584035184N02048042EA0125101272
B1325594035181N02048041EA0124901270
B1326004035177N02048039EA0124701268
B1326014035173N02048038EA0124601267
B1326024035169N02048038EA0124501266
B1326034035166N02048037EA0124501266
B1326044035162N02048037EA0124401265
B1326054035159N02048035EA0124301264
B1326064035156N02048033EA0124101262
B1326074035152N02048032EA0124001261
B1326084035148N02048030EA0124001261
B1326094035143N02048030EA0124001261
B1326104035138N02048030EA0124001261
B1326114035134N02048029EA0124001261
B1326124035130N02048027EA0124101261
B1326134035126N02048027EA0124201263
B1326144035122N02048027EA0124101262
B1326154035118N02048028EA0124001261
B1326164035114N02048029EA0124101262
B1326174035110N02048029EA0124101262
B1326184035106N02048029EA0124101262
B1326194035102N02048029EA0124201263
B1326204035098N02048029EA0124201263
B1326214035094N02048029EA0124301263
B1326224035090N02048029EA0124301263
B1326234035086N02048030EA0124201263
B1326244035081N02048030EA0124201263
B1326254035077N02048029EA0124201263
B1326264035072N02048028EA0124201263
B1326274035068N02048027EA0124201263
B1326284035064N02048026EA0124201263
B1326294035060N02048025EA0124201263
B1326304035056N02048023EA0124101262
B1326314035052N02048022EA0124001261
B1326324035047N02048021EA0123901260
B1326334035041N02048021EA0123801259
B1326344035036N02048021EA0123901259
B1326354035031N02048019EA0123901260
B1326364035027N02048016EA0123801259
B1326374035023N02048014EA0123801259
B1326384035019N02048013EA0123701258
B1326394035015N02048012EA0123401255
B1326404035011N02048010EA0123201253
B1326414035008N02048008EA0123001251
B1326424035004N02048004EA0122801249
B1326434035000N02048000EA0122701248
B1326444034996N02047995EA0122601247
B1326454034992N02047990EA0122501246
B1326464034989N02047987EA0122501246
B1326474034985N02047983EA0122301244
B1326484034982N02047980EA0122201243
B1326494034977N02047977EA0122101242
B1326504034972N02047973EA0122101242
B1326514034966N02047970EA0122401245
B1326524034961N02047968EA0122801249
B1326534034958N02047965EA0123001250
B1326544034956N02047963EA0122901250
B1326554034954N02047959EA0122701248
B1326564034952N02047955EA0122601247
B1326574034949N02047950EA0122401245
B1326584034946N02047946EA0122301244
B1326594034943N02047942EA0122201243
B1327004034940N02047939EA0122201243
B1327014034937N02047936EA0122101241
B1327024034934N02047933EA0121901239
B1327034034930N02047930EA0121601237
B1327044034925N02047928EA0121401235
B1327054034920N02047925EA0121201233
B1327064034915N02047923EA0121101232
B1327074034910N02047920EA0121001231
B1327084034906N02047918EA0120901230
B1327094034901N02047916EA0120801229
B1327104034896N02047913EA0120701228
B1327114034892N02047910EA0120601227
B1327124034888N02047907EA0120501225
B1327134034883N02047903EA0120401225
B1327144034879N02047899EA0120301224
B1327154034875N02047895EA0120301224
B1327164034873N02047890EA0120301224
B1327174034871N02047885EA0120201223
B1327184034869N02047879EA0120101222
B1327194034867N02047874EA0120101222
B1327204034865N02047868EA0120001221
B1327214034864N02047862EA0119901219
B1327224034863N02047856EA0119801219
B1327234034863N02047851EA0119601217
B1327244034862N02047845EA0119501216
B1327254034862N02047840EA0119401215
B1327264034861N02047834EA0119301214
B1327274034859N02047829EA0119301214
B1327284034857N02047823EA0119201213
B1327294034855N02047818EA0119201213
B1327304034852N02047813EA0119101212
B1327314034849N02047808EA0118901210
B1327324034846N02047803EA0118801209
B1327334034842N02047799EA0118701208
B1327344034839N02047794EA0118501205
B1327354034835N02047789EA0118301204
B1327364034831N02047784EA0118201203
B1327374034828N02047780EA0118001201
B1327384034824N02047776EA0117901199
B1327394034820N02047772EA0117701197
B1327404034816N02047768EA0117401195
B1327414034812N02047763EA0117201193
B1327424034808N02047758EA0117101192
B1327434034804N02047753EA0117001191
B1327444034800N02047748EA0117001191
B1327454034795N02047743EA0116901190
B1327464034790N02047738EA0116801189
B1327474034786N02047733EA0116801189
B1327484034781N02047729EA0116701188
B1327494034777N02047724EA0116601187
B1327504034773N02047719EA0116501186
B1327514034769N02047713EA0116401185
B1327524034765N02047707EA0116301184
B1327534034762N02047701EA0116401185
B1327544034758N02047696EA0116401184
B1327554034755N02047692EA0116301184
B1327564034752N02047688EA0116201183
B1327574034749N02047683EA0116101182
B1327584034746N02047679EA0115901180
B1327594034743N02047674EA0115701178
B1328004034740N02047669EA0115501176
B1328014034738N02047665EA0115401175
B1328024034735N02047660EA0115201173
B1328034034734N02047655EA0114901170
B1328044034732N02047649EA0114601167
B1328054034730N02047642EA0114401165
B1328064034728N02047636EA0114201163
B1328074034726N02047630EA0114001161
B1328084034723N02047624EA0113901160
B1328094034720N02047619EA0113601157
B1328104034717N02047613EA0113401155
B1328114034714N02047607EA0113201153
B1328124034710N02047601EA0113101151
B1328134034707N02047596EA0112901150
B1328144034703N02047591EA0112801149
B1328154034699N02047587EA0112501146
B1328164034696N02047582EA0112201143
B1328174034692N02047577EA0111901140
B1328184034688N02047573EA0111501136
B1328194034684N02047567EA0111201133
B1328204034681N02047562EA0110901130
B1328214034678N02047555EA0110801129
B1328224034677N02047549EA0110601127
B1328234034676N02047543EA0110301124
B1328244034676N02047536EA0110001121
B1328254034677N02047529EA0109701118
B1328264034677N02047521EA0109401115
B1328274034678N02047514EA0109201113
B1328284034679N02047506EA0108901110
B1328294034680N02047499EA0108701108
B1328304034681N02047491EA0108701108
B1328314034682N02047485EA0108601107
B1328324034684N02047479EA0108401105
B1328334034685N02047473EA0108101102
B1328344034686N02047466EA0107701098
B1328354034687N02047459EA0107401095
B1328364034688N02047452EA0107201093
B1328374034688N02047445EA0107001091
B1328384034690N02047439EA0106801089
B1328394034691N02047432EA0106601087
B1328404034693N02047426EA0106301084
B1328414034694N02047419EA0106101082
B1328424034695N02047413EA0106001081
B1328434034696N02047407EA0105901080
B1328444034697N02047402EA0105701078
B1328454034698N02047395EA0105401075
B1328464034699N02047389EA0105201073
B1328474034701N02047382EA0105001071
B1328484034702N02047375EA0104901070
B1328494034703N02047369EA0104901070
B1328504034704N02047363EA0104901070
B1328514034705N02047357EA0104801069
B1328524034705N02047351EA0104601066
B1328534034706N02047344EA0104201063
B1328544034708N02047338EA0104201063
B1328554034710N02047332EA0104101062
B1328564034712N02047327EA0104101062
B1328574034713N02047322EA0103901060
B1328584034714N02047317EA0103701058
B1328594034716N02047311EA0103601057
B1329004034717N02047304EA0103301054
B1329014034719N02047298EA0103101052
B1329024034720N02047292EA0103001051
B1329034034721N02047287EA0102801049
B1329044034723N02047281EA0102601047
B1329054034723N02047274EA0102401045
B1329064034724N02047267EA0102201043
B1329074034725N02047260EA0102001041
B1329084034726N02047253EA0101901040
B1329094034727N02047246EA0101801038
B1329104034727N02047239EA0101601037
B1329114034727N02047232EA0101401035
B1329124034727N02047225EA0101201033
B1329134034727N02047217EA0101101032
B1329144034727N02047208EA0100901030
B1329154034728N02047200EA0100801029
B1329164034727N02047193EA0100701027
B1329174034727N02047186EA0100501026
B1329184034728N02047179EA0100301024
B1329194034729N02047172EA0100101022
B1329204034732N02047166EA0099901020
B1329214034734N02047159EA0099701018
B1329224034735N02047153EA0099501016
B1329234034736N02047147EA0099301014
B1329244034736N02047140EA0099101012
B1329254034736N02047133EA0098901010
B1329264034736N02047126EA0098701008
B1329274034736N02047118EA0098501006
B1329284034735N02047111EA0098401005
B1329294034735N02047103EA0098301004
B1329304034736N02047096EA0098201003
B1329314034736N02047090EA0098001001
B1329324034736N02047083EA0097901000
B1329334034738N02047077EA0097700998
B1329344034740N02047071EA0097500996
B1329354034743N02047067EA0097300994
B1329364034748N02047065EA0097000991
B1329374034753N02047066EA0096700988
B1329384034758N02047069EA0096500986
B1329394034763N02047072EA0096400985
B1329404034767N02047075EA0096400985
B1329414034771N02047078EA0096200983
B1329424034775N02047081EA0096100981
B1329434034778N02047085EA0095900979
B1329444034781N02047091EA0095600977
B1329454034783N02047096EA0095500975
B1329464034786N02047102EA0095300973
B1329474034788N02047107EA0095100972
B1329484034790N02047113EA0094900970
B1329494034793N02047118EA0094700968
B1329504034796N02047123EA0094600966
B1329514034799N02047128EA0094400965
B1329524034802N02047133EA0094300963
B1329534034806N02047138EA0094100962
B1329544034809N02047143EA0094000961
B1329554034812N02047147EA0093900960
B1329564034815N02047151EA0093800959
B1329574034818N02047155EA0093600957
B1329584034822N02047157EA0093500956
B1329594034827N02047159EA0093300954
B1330004034831N02047160EA0093200953
B1330014034835N02047159EA0093000951
B1330024034840N02047156EA0092700948
B1330034034843N02047151EA0092500946
B1330044034845N02047145EA0092200943
B1330054034846N02047137EA0092100942
B1330064034845N02047130EA0091900940
B1330074034843N02047123EA0091600937
B1330084034840N02047117EA0091500936
B1330094034838N02047112EA0091600937
B1330104034834N02047108EA0091500936
B1330114034831N02047104EA0091300933
B1330124034829N02047099EA0091100931
B1330134034827N02047094EA0091000931
B1330144034826N02047090EA0091000931
B1330154034825N02047088EA0091100932
B1330164034825N02047086EA0091100932
B1330174034825N02047085EA0091100932
B1330184034825N02047084EA0091100932
B1330194034824N02047084EA0091100932
B1330204034824N02047084EA0091100931
B1330214034824N02047084EA0091100931
B1330224034824N02047084EA0091100931
B1330234034824N02047084EA0091100932
B1330244034824N02047084EA0091000931
B1330254034824N02047084EA0091100931
B1330264034824N02047084EA0091000931
B1330274034825N02047084EA0091000931
B1330284034824N02047083EA0091000931
B1330294034824N02047084EA0091000931
B1330304034824N02047084EA0091100931
B1330314034824N02047084EA0091000931
B1330324034824N02047084EA0091000931
B1330334034824N02047084EA0091000931
B1330344034824N02047084EA0091100931
B1330354034825N02047084EA0091000931
B1330364034825N02047084EA0091000931
B1330374034824N02047084EA0091000931
B1330384034824N02047083EA0091000931
B1330394034824N02047083EA0091100931
B1330404034824N02047083EA0091000931
B1330414034824N02047083EA0091000931
B1330424034824N02047083EA0091000931
B1330434034824N02047083EA0091000931
B1330444034825N02047083EA0091000931
B1330454034825N02047083EA0091000931
B1330464034825N02047083EA0091000931
B1330474034825N02047083EA0091000931
B1330484034825N02047083EA0091000931
B1330494034824N02047083EA0091000931
B1330504034824N02047083EA0091000931
B1330514034824N02047083EA0091000931
B1330524034824N02047083EA0091100931
B1330534034824N02047083EA0091100931
B1330544034824N02047083EA0091100931
B1330554034824N02047084EA0091000931
B1330564034823N02047084EA0091100931
B1330574034823N02047085EA0091000931
B1330584034823N02047085EA0091000931
B1330594034822N02047085EA0091000931
B1331004034822N02047084EA0091100931
B1331014034822N02047083EA0091100932
B1331024034822N02047083EA0091100932
B1331034034822N02047083EA0091000931
B1331044034822N02047083EA0091000931
B1331054034822N02047083EA0091000931
B1331064034822N02047082EA0091000931
B1331074034822N02047082EA0091000931
B1331084034822N02047082EA0091000931
B1331094034822N02047082EA0091000931
B1331104034822N02047082EA0091000931
B1331114034822N02047081EA0091000931
B1331124034823N02047081EA0091000931
B1331134034823N02047080EA0091000931
B1331144034824N02047080EA0091000931
B1331154034824N02047079EA0091000931
B1331164034824N02047078EA0091000931
B1331174034824N02047078EA0091000931
B1331184034825N02047078EA0091000931
B1331194034825N02047077EA0091000931
B1331204034826N02047076EA0091000931
B1331214034826N02047076EA0091000931
B1331224034826N02047075EA0091000931
B1331234034827N02047074EA0091000931
B1331244034827N02047074EA0091000931
B1331254034828N02047073EA0091000930
B1331264034828N02047072EA0091000930
B1331274034829N02047071EA0091000930
B1331284034829N02047071EA0091000931
B1331294034829N02047069EA0091000930
B1331304034830N02047068EA0090900930
B1331314034830N02047067EA0090900930
B1331324034830N02047067EA0090900930
B1331334034830N02047066EA0090900930
B1331344034831N02047064EA0090900930
B1331354034831N02047064EA0090900930
B1331364034831N02047063EA0090900930
B1331374034831N02047062EA0090900930
B1331384034831N02047061EA0090900930
B1331394034832N02047061EA0090900930
B1331404034832N02047060EA0090900930
B1331414034833N02047059EA0090900930
B1331424034833N02047058EA0090900930
B1331434034833N02047058EA0090900930
B1331444034833N02047057EA0090900930
B1331454034834N02047057EA0090900930
B1331464034834N02047056EA0090900930
B1331474034834N02047055EA0090900930
B1331484034834N02047055EA0090900930
B1331494034835N02047054EA0090900929
B1331504034835N02047053EA0090900930
B1331514034836N02047053EA0090900930
B1331524034837N02047053EA0090900930
B1331534034837N02047052EA0090800929
B1331544034837N02047052EA0090900930
B1331554034838N02047052EA0090900929
B1331564034838N02047052EA0090900930
B1331574034839N02047052EA0090900930
B1331584034839N02047051EA0090800929
B1331594034840N02047051EA0090800929
B1332004034841N02047052EA0090900929
B1332014034841N02047052EA0090900929
B1332024034842N02047052EA0090800929
B1332034034842N02047053EA0090900929
B1332044034842N02047053EA0090900930
B1332054034842N02047053EA0090900930
B1332064034842N02047053EA0090900930
B1332074034841N02047053EA0090900929
B1332084034841N02047053EA0090800929
LXSX;GF:1.5
GB875308AC76D34A98CD4E0720CD150DD
