AXSX003 SKYTRAXX V3.0.16c SN:00000380
HFPLTPILOT:Sepp Bucher
HFGTYGLIDERTYPE:Advance Sigma11
HFDTM100GPSDATUM:WGS-84
HFCIDCOMPETITIONID:0000
HFCCLCOMPETITION CLASS:Paraglider (Standard)
HFSITSITE:Galicica
HFDTE210621
C210621160942000000000100a20210621.tsk
C4057277N02048726ETAKEOFF
C4057241N02048903ESTART
C4104921N02048043EFINISH
C4104921N02048043ELANDING
B1616094057277N02048726EA0150801539
B1616104057277N02048727EA0150801539
B1616114057277N02048727EA0150801539
B1616124057277N02048727EA0150801539
B1616134057277N02048726EA0150701539
B1616144057276N02048726EA0150701539
B1616154057276N02048726EA0150801539
B1616164057277N02048726EA0150601537
B1616174057278N02048725EA0150501536
B1616184057279N02048723EA0150401536
B1616194057280N02048720EA0150501537
B1616204057281N02048716EA0150501541
B1616214057282N02048711EA0150401543
B1616224057283N02048705EA0150601548
B1616234057285N02048701EA0150601551
B1616244057288N02048697EA0150701555
B1616254057291N02048695EA0150801556
B1616264057295N02048693EA0150901557
B1616274057299N02048691EA0151101559
B1616284057302N02048689EA0151301561
B1616294057306N02048687EA0151501564
B1616304057311N02048687EA0151601565
B1616314057315N02048688EA0151801566
B1616324057319N02048692EA0151901567
B1616334057323N02048695EA0152001568
B1616344057327N02048698EA0152101570
B1616354057331N02048700EA0152101569
B1616364057334N02048701EA0152101569
B1616374057338N02048701EA0152201570
B1616384057341N02048700EA0152201570
B1616394057342N02048697EA0152201570
B1616404057343N02048694EA0152101570
B1616414057342N02048690EA0152101569
B1616424057339N02048686EA0152101569
B1616434057334N02048684EA0152201570
B1616444057328N02048684EA0152201570
B1616454057322N02048685EA0152301571
B1616464057316N02048689EA0152401572
B1616474057309N02048694EA0152501574
B1616484057304N02048700EA0152701575
B1616494057299N02048707EA0152801576
B1616504057293N02048713EA0153001578
B1616514057288N02048719EA0153201580
B1616524057283N02048724EA0153401582
B1616534057278N02048728EA0153501584
B1616544057273N02048730EA0153601584
B1616554057269N02048730EA0153501584
B1616564057264N02048729EA0153501584
B1616574057261N02048725EA0153601584
B1616584057261N02048720EA0153701585
B1616594057262N02048716EA0153701585
B1617004057266N02048714EA0153701586
B1617014057271N02048714EA0153901587
B1617024057275N02048715EA0154101589
B1617034057279N02048717EA0154301591
B1617044057282N02048718EA0154401592
B1617054057286N02048718EA0154401592
B1617064057290N02048719EA0154401592
B1617074057294N02048719EA0154401592
B1617084057299N02048719EA0154601594
B1617094057304N02048719EA0154701595
B1617104057308N02048721EA0154801596
B1617114057312N02048723EA0154801596
B1617124057315N02048724EA0154701595
B1617134057320N02048724EA0154501593
B1617144057325N02048723EA0154401593
B1617154057330N02048722EA0154501593
B1617164057334N02048721EA0154701595
B1617174057338N02048721EA0154801596
B1617184057341N02048721EA0154801597
B1617194057345N02048721EA0154801596
B1617204057348N02048720EA0154601595
B1617214057353N02048719EA0154601594
B1617224057358N02048719EA0154601594
B1617234057362N02048720EA0154601595
B1617244057367N02048720EA0154701595
B1617254057371N02048721EA0154701595
B1617264057375N02048721EA0154701595
B1617274057380N02048722EA0154601595
B1617284057385N02048722EA0154601594
B1617294057391N02048723EA0154601594
B1617304057396N02048723EA0154701595
B1617314057400N02048724EA0154801596
B1617324057404N02048725EA0154801596
B1617334057408N02048726EA0154801596
B1617344057412N02048726EA0154701596
B1617354057417N02048726EA0154701596
B1617364057421N02048726EA0154801596
B1617374057425N02048725EA0154901597
B1617384057429N02048726EA0155001598
B1617394057433N02048726EA0155101599
B1617404057437N02048726EA0155201601
B1617414057440N02048726EA0155301601
B1617424057443N02048726EA0155301601
B1617434057447N02048724EA0155401602
B1617444057449N02048722EA0155401602
B1617454057451N02048719EA0155501603
B1617464057451N02048716EA0155501604
B1617474057450N02048712EA0155501603
B1617484057448N02048709EA0155601604
B1617494057447N02048706EA0155601604
B1617504057443N02048703EA0155601605
B1617514057439N02048700EA0155801606
B1617524057435N02048698EA0156001608
B1617534057432N02048697EA0156101609
B1617544057428N02048696EA0156101609
B1617554057425N02048695EA0156101609
B1617564057421N02048694EA0156001608
B1617574057415N02048692EA0155801606
B1617584057410N02048691EA0155701605
B1617594057404N02048690EA0155801606
B1618004057399N02048689EA0155901607
B1618014057395N02048689EA0155901607
B1618024057390N02048688EA0155901607
B1618034057385N02048688EA0155901608
B1618044057380N02048686EA0156001608
B1618054057375N02048685EA0156101609
B1618064057372N02048681EA0156101610
B1618074057370N02048677EA0156101609
B1618084057370N02048673EA0156101609
B1618094057372N02048669EA0156001608
B1618104057375N02048666EA0156001608
B1618114057379N02048665EA0156101609
B1618124057384N02048666EA0156101609
B1618134057389N02048667EA0156001609
B1618144057393N02048668EA0156001608
B1618154057398N02048670EA0156001608
B1618164057403N02048673EA0155901608
B1618174057409N02048676EA0155901607
B1618184057414N02048680EA0155901608
B1618194057419N02048684EA0156001609
B1618204057424N02048687EA0156101609
B1618214057429N02048690EA0156201611
B1618224057434N02048694EA0156301612
B1618234057439N02048697EA0156501613
B1618244057443N02048702EA0156601614
B1618254057448N02048706EA0156701615
B1618264057453N02048710EA0156901617
B1618274057458N02048713EA0156901617
B1618284057463N02048716EA0157001618
B1618294057467N02048716EA0157101619
B1618304057471N02048715EA0157001618
B1618314057473N02048711EA0156801616
B1618324057474N02048706EA0156601615
B1618334057472N02048701EA0156601614
B1618344057469N02048697EA0156601614
B1618354057464N02048696EA0156601614
B1618364057458N02048696EA0156601614
B1618374057453N02048697EA0156601615
B1618384057448N02048699EA0156601615
B1618394057443N02048700EA0156601615
B1618404057437N02048703EA0156601615
B1618414057430N02048705EA0156801616
B1618424057424N02048708EA0157001618
B1618434057419N02048710EA0157201620
B1618444057414N02048712EA0157401622
B1618454057410N02048713EA0157401623
B1618464057405N02048715EA0157501623
B1618474057399N02048717EA0157501623
B1618484057393N02048719EA0157501623
B1618494057386N02048721EA0157601624
B1618504057380N02048724EA0157601625
B1618514057375N02048726EA0157701625
B1618524057369N02048728EA0157601625
B1618534057363N02048728EA0157701625
B1618544057358N02048728EA0157701625
B1618554057353N02048726EA0157601625
B1618564057351N02048723EA0157601625
B1618574057349N02048720EA0157501624
B1618584057350N02048716EA0157501623
B1618594057352N02048712EA0157401622
B1619004057356N02048710EA0157401622
B1619014057361N02048710EA0157301621
B1619024057366N02048712EA0157301621
B1619034057372N02048714EA0157301621
B1619044057377N02048716EA0157301621
B1619054057382N02048719EA0157301622
B1619064057388N02048722EA0157401622
B1619074057393N02048725EA0157401622
B1619084057398N02048728EA0157501623
B1619094057403N02048730EA0157501623
B1619104057408N02048732EA0157501623
B1619114057413N02048734EA0157401623
B1619124057418N02048736EA0157401622
B1619134057424N02048739EA0157401622
B1619144057430N02048741EA0157301621
B1619154057435N02048743EA0157301621
B1619164057441N02048744EA0157301621
B1619174057446N02048746EA0157201620
B1619184057451N02048748EA0157101619
B1619194057456N02048748EA0157101619
B1619204057461N02048749EA0157001618
B1619214057466N02048748EA0157001618
B1619224057470N02048747EA0157001619
B1619234057473N02048745EA0157001619
B1619244057476N02048742EA0156901617
B1619254057478N02048738EA0156901617
B1619264057478N02048734EA0156801616
B1619274057476N02048730EA0156701615
B1619284057473N02048726EA0156601614
B1619294057468N02048724EA0156501614
B1619304057463N02048723EA0156501614
B1619314057459N02048722EA0156601614
B1619324057455N02048720EA0156601614
B1619334057451N02048719EA0156501613
B1619344057446N02048719EA0156401613
B1619354057441N02048719EA0156401612
B1619364057436N02048720EA0156401612
B1619374057430N02048721EA0156501613
B1619384057425N02048722EA0156501613
B1619394057421N02048723EA0156501613
B1619404057415N02048724EA0156501613
B1619414057410N02048724EA0156401613
B1619424057404N02048725EA0156401612
B1619434057398N02048724EA0156401613
B1619444057393N02048723EA0156501613
B1619454057388N02048721EA0156601614
B1619464057383N02048720EA0156601614
B1619474057379N02048718EA0156701615
B1619484057375N02048716EA0156601615
B1619494057371N02048714EA0156601614
B1619504057366N02048711EA0156501614
B1619514057362N02048709EA0156501613
B1619524057358N02048707EA0156401613
B1619534057353N02048705EA0156501613
B1619544057348N02048703EA0156401613
B1619554057343N02048701EA0156401612
B1619564057338N02048699EA0156401612
B1619574057334N02048697EA0156401612
B1619584057328N02048695EA0156501613
B1619594057323N02048693EA0156501613
B1620004057319N02048690EA0156601614
B1620014057314N02048688EA0156601614
B1620024057309N02048685EA0156701615
B1620034057305N02048682EA0156801616
B1620044057302N02048679EA0156801616
B1620054057298N02048676EA0156901617
B1620064057294N02048674EA0157001618
B1620074057290N02048671EA0157001619
B1620084057286N02048670EA0157101619
B1620094057282N02048668EA0157101619
B1620104057279N02048666EA0157001618
B1620114057275N02048664EA0156901617
B1620124057271N02048661EA0156801616
B1620134057267N02048658EA0156701615
B1620144057264N02048655EA0156801616
B1620154057260N02048651EA0156801616
B1620164057256N02048648EA0156801616
B1620174057252N02048646EA0156701615
B1620184057248N02048642EA0156601614
B1620194057244N02048639EA0156601614
B1620204057240N02048635EA0156501614
B1620214057235N02048632EA0156501613
B1620224057231N02048629EA0156401613
B1620234057227N02048626EA0156501613
B1620244057222N02048622EA0156501613
B1620254057218N02048619EA0156501613
B1620264057213N02048616EA0156401612
B1620274057209N02048613EA0156401612
B1620284057205N02048611EA0156401612
B1620294057201N02048608EA0156301611
B1620304057196N02048605EA0156201611
B1620314057190N02048602EA0156201610
B1620324057185N02048598EA0156301611
B1620334057181N02048595EA0156501613
B1620344057176N02048592EA0156701615
B1620354057172N02048590EA0156801616
B1620364057168N02048587EA0156901617
B1620374057163N02048584EA0156901617
B1620384057157N02048581EA0157001618
B1620394057152N02048577EA0157101619
B1620404057147N02048575EA0157301621
B1620414057142N02048573EA0157401623
B1620424057137N02048571EA0157501623
B1620434057133N02048570EA0157501623
B1620444057128N02048568EA0157401622
B1620454057124N02048565EA0157301621
B1620464057119N02048562EA0157201620
B1620474057114N02048560EA0157101620
B1620484057110N02048559EA0157101619
B1620494057105N02048556EA0157001618
B1620504057101N02048554EA0156901618
B1620514057097N02048552EA0156801616
B1620524057093N02048550EA0156701615
B1620534057089N02048547EA0156601614
B1620544057085N02048545EA0156501613
B1620554057081N02048542EA0156501613
B1620564057077N02048540EA0156501613
B1620574057073N02048539EA0156501613
B1620584057069N02048538EA0156501613
B1620594057065N02048537EA0156301612
B1621004057061N02048535EA0156101610
B1621014057057N02048532EA0156001608
B1621024057052N02048530EA0155901607
B1621034057048N02048528EA0155801606
B1621044057044N02048525EA0155701605
B1621054057040N02048523EA0155601604
B1621064057036N02048521EA0155501603
B1621074057031N02048518EA0155301602
B1621084057026N02048516EA0155301601
B1621094057021N02048514EA0155301601
B1621104057017N02048512EA0155301602
B1621114057013N02048509EA0155301602
B1621124057009N02048506EA0155401602
B1621134057005N02048504EA0155201601
B1621144057000N02048503EA0155101600
B1621154056996N02048501EA0155001598
B1621164056992N02048498EA0154801596
B1621174056987N02048496EA0154701595
B1621184056983N02048493EA0154601594
B1621194056979N02048491EA0154401592
B1621204056974N02048490EA0154301591
B1621214056970N02048488EA0154101590
B1621224056965N02048486EA0154001589
B1621234056960N02048484EA0153901587
B1621244056956N02048483EA0153701586
B1621254056951N02048481EA0153601585
B1621264056946N02048479EA0153501584
B1621274056942N02048477EA0153501583
B1621284056938N02048475EA0153301581
B1621294056933N02048474EA0153101579
B1621304056928N02048472EA0152901577
B1621314056924N02048470EA0152801576
B1621324056919N02048468EA0152701575
B1621334056914N02048465EA0152501574
B1621344056909N02048463EA0152401572
B1621354056905N02048461EA0152301571
B1621364056901N02048458EA0152101570
B1621374056896N02048456EA0152001568
B1621384056892N02048453EA0151901567
B1621394056887N02048451EA0151701565
B1621404056883N02048449EA0151601564
B1621414056878N02048447EA0151501563
B1621424056873N02048445EA0151401562
B1621434056868N02048443EA0151301561
B1621444056864N02048440EA0151201561
B1621454056859N02048438EA0151101559
B1621464056855N02048436EA0150901557
B1621474056850N02048434EA0150801556
B1621484056845N02048431EA0150601554
B1621494056840N02048429EA0150501553
B1621504056835N02048427EA0150401552
B1621514056829N02048425EA0150301551
B1621524056824N02048423EA0150201551
B1621534056819N02048422EA0150201550
B1621544056814N02048420EA0150201550
B1621554056808N02048417EA0150201550
B1621564056803N02048415EA0150201551
B1621574056799N02048413EA0150401552
B1621584056793N02048411EA0150501554
B1621594056789N02048409EA0150701555
B1622004056785N02048408EA0150901557
B1622014056781N02048407EA0151101559
B1622024056778N02048408EA0151101559
B1622034056774N02048408EA0151101559
B1622044056770N02048408EA0151001558
B1622054056767N02048407EA0150801557
B1622064056763N02048405EA0150701555
B1622074056760N02048402EA0150401553
B1622084056757N02048399EA0150201551
B1622094056753N02048395EA0150101549
B1622104056750N02048391EA0149801546
B1622114056747N02048387EA0149601545
B1622124056743N02048384EA0149501543
B1622134056739N02048381EA0149401542
B1622144056735N02048379EA0149201540
B1622154056730N02048377EA0149001538
B1622164056726N02048376EA0148801536
B1622174056721N02048374EA0148701535
B1622184056716N02048373EA0148601535
B1622194056712N02048371EA0148601535
B1622204056708N02048369EA0148701535
B1622214056703N02048368EA0148801536
B1622224056699N02048367EA0148701535
B1622234056694N02048367EA0148701535
B1622244056690N02048366EA0148601534
B1622254056685N02048365EA0148501534
B1622264056679N02048365EA0148401532
B1622274056674N02048365EA0148201531
B1622284056670N02048365EA0148101529
B1622294056665N02048364EA0148001528
B1622304056659N02048364EA0147801526
B1622314056654N02048363EA0147601524
B1622324056648N02048361EA0147401522
B1622334056643N02048359EA0147301522
B1622344056637N02048356EA0147301522
B1622354056632N02048354EA0147401522
B1622364056627N02048353EA0147401522
B1622374056623N02048351EA0147401522
B1622384056620N02048350EA0147201521
B1622394056615N02048348EA0147001518
B1622404056610N02048346EA0146801516
B1622414056605N02048344EA0146601515
B1622424056601N02048342EA0146601514
B1622434056596N02048340EA0146501514
B1622444056592N02048339EA0146501513
B1622454056588N02048337EA0146401512
B1622464056583N02048336EA0146301512
B1622474056579N02048334EA0146301511
B1622484056574N02048331EA0146201511
B1622494056570N02048329EA0146201510
B1622504056566N02048326EA0146101509
B1622514056562N02048324EA0145901508
B1622524056557N02048321EA0145701505
B1622534056551N02048319EA0145601504
B1622544056546N02048318EA0145401503
B1622554056541N02048317EA0145301502
B1622564056536N02048317EA0145301501
B1622574056531N02048316EA0145101499
B1622584056527N02048314EA0144901497
B1622594056522N02048312EA0144801496
B1623004056517N02048310EA0144601495
B1623014056511N02048307EA0144501493
B1623024056507N02048305EA0144401492
B1623034056502N02048303EA0144301491
B1623044056497N02048301EA0144201490
B1623054056492N02048299EA0143901488
B1623064056487N02048296EA0143801486
B1623074056482N02048294EA0143601485
B1623084056477N02048292EA0143501483
B1623094056472N02048290EA0143401482
B1623104056467N02048288EA0143301481
B1623114056461N02048286EA0143201480
B1623124056456N02048284EA0143201480
B1623134056451N02048282EA0143001478
B1623144056445N02048280EA0142801476
B1623154056440N02048278EA0142601474
B1623164056435N02048276EA0142401472
B1623174056429N02048273EA0142201471
B1623184056423N02048272EA0142201471
B1623194056418N02048270EA0142201470
B1623204056412N02048268EA0142201470
B1623214056407N02048266EA0142101469
B1623224056402N02048264EA0142001468
B1623234056397N02048262EA0141801467
B1623244056392N02048259EA0141801466
B1623254056387N02048257EA0141701465
B1623264056382N02048255EA0141501463
B1623274056377N02048253EA0141401462
B1623284056372N02048250EA0141401462
B1623294056367N02048248EA0141301461
B1623304056362N02048245EA0141301461
B1623314056357N02048243EA0141201460
B1623324056352N02048241EA0141101459
B1623334056346N02048240EA0140901457
B1623344056341N02048239EA0140701455
B1623354056336N02048237EA0140601454
B1623364056330N02048235EA0140401452
B1623374056325N02048232EA0140301451
B1623384056320N02048228EA0140101449
B1623394056315N02048225EA0139901447
B1623404056310N02048222EA0139701446
B1623414056306N02048219EA0139601444
B1623424056301N02048216EA0139301441
B1623434056296N02048211EA0139101439
B1623444056291N02048207EA0138901437
B1623454056285N02048204EA0138701436
B1623464056280N02048201EA0138601434
B1623474056274N02048199EA0138501433
B1623484056269N02048196EA0138301431
B1623494056264N02048192EA0138101429
B1623504056258N02048189EA0138001428
B1623514056252N02048186EA0137901428
B1623524056246N02048183EA0137901427
B1623534056241N02048179EA0137801427
B1623544056236N02048175EA0137701426
B1623554056230N02048171EA0137501423
B1623564056224N02048167EA0137301421
B1623574056218N02048163EA0137101419
B1623584056213N02048159EA0136901418
B1623594056209N02048154EA0136801416
B1624004056204N02048150EA0136601414
B1624014056199N02048146EA0136401412
B1624024056194N02048141EA0136101409
B1624034056189N02048137EA0135901407
B1624044056184N02048132EA0135701406
B1624054056179N02048127EA0135601404
B1624064056174N02048123EA0135401402
B1624074056169N02048119EA0135201400
B1624084056164N02048113EA0135101399
B1624094056159N02048108EA0135001398
B1624104056154N02048103EA0134901398
B1624114056150N02048098EA0134801397
B1624124056144N02048093EA0134701395
B1624134056140N02048088EA0134501393
B1624144056135N02048082EA0134301391
B1624154056130N02048078EA0134101389
B1624164056125N02048073EA0133901387
B1624174056120N02048067EA0133801386
B1624184056115N02048061EA0133701385
B1624194056110N02048055EA0133601384
B1624204056105N02048049EA0133601384
B1624214056101N02048043EA0133601384
B1624224056097N02048038EA0133501383
B1624234056093N02048033EA0133301381
B1624244056089N02048028EA0133101379
B1624254056085N02048021EA0132801377
B1624264056079N02048015EA0132601374
B1624274056075N02048009EA0132501374
B1624284056071N02048002EA0132501373
B1624294056067N02047995EA0132401373
B1624304056063N02047990EA0132301371
B1624314056060N02047983EA0132001368
B1624324056056N02047977EA0131801366
B1624334056051N02047970EA0131501364
B1624344056047N02047963EA0131401363
B1624354056043N02047956EA0131401362
B1624364056039N02047950EA0131301361
B1624374056035N02047944EA0131101359
B1624384056031N02047938EA0130901357
B1624394056027N02047931EA0130701355
B1624404056023N02047925EA0130501353
B1624414056018N02047919EA0130401352
B1624424056014N02047912EA0130301351
B1624434056011N02047906EA0130101349
B1624444056007N02047901EA0129901347
B1624454056003N02047895EA0129701345
B1624464055998N02047890EA0129501343
B1624474055994N02047884EA0129301342
B1624484055990N02047878EA0129101340
B1624494055985N02047871EA0128901337
B1624504055980N02047865EA0128801336
B1624514055975N02047860EA0128701335
B1624524055971N02047853EA0128501333
B1624534055966N02047846EA0128401332
B1624544055962N02047839EA0128401332
B1624554055957N02047832EA0128401332
B1624564055953N02047826EA0128301332
B1624574055949N02047821EA0128201330
B1624584055945N02047814EA0128001328
B1624594055940N02047808EA0127801326
B1625004055936N02047802EA0127601324
B1625014055932N02047796EA0127501323
B1625024055928N02047789EA0127401322
B1625034055924N02047783EA0127201320
B1625044055920N02047777EA0126901318
B1625054055916N02047771EA0126701315
B1625064055913N02047765EA0126501314
B1625074055909N02047758EA0126301312
B1625084055906N02047752EA0126101309
B1625094055902N02047745EA0125901307
B1625104055898N02047738EA0125601305
B1625114055894N02047731EA0125401302
B1625124055890N02047724EA0125201300
B1625134055885N02047717EA0125101299
B1625144055881N02047711EA0125001298
B1625154055877N02047704EA0124901297
B1625164055873N02047698EA0124701296
B1625174055870N02047691EA0124601294
B1625184055865N02047684EA0124401292
B1625194055861N02047677EA0124201291
B1625204055857N02047671EA0124101289
B1625214055853N02047665EA0124001288
B1625224055849N02047659EA0123901287
B1625234055845N02047653EA0123801286
B1625244055841N02047647EA0123601284
B1625254055837N02047641EA0123401283
B1625264055832N02047635EA0123301282
B1625274055828N02047628EA0123301281
B1625284055823N02047622EA0123301281
B1625294055819N02047616EA0123401282
B1625304055816N02047611EA0123401283
B1625314055812N02047605EA0123401282
B1625324055808N02047600EA0123301281
B1625334055805N02047594EA0123101279
B1625344055801N02047588EA0123001278
B1625354055797N02047581EA0122901277
B1625364055793N02047575EA0123001278
B1625374055789N02047569EA0122901278
B1625384055785N02047564EA0122901277
B1625394055782N02047560EA0122801276
B1625404055778N02047554EA0122601274
B1625414055774N02047548EA0122301271
B1625424055770N02047542EA0122101269
B1625434055766N02047536EA0122001269
B1625444055762N02047531EA0122001268
B1625454055758N02047525EA0121901267
B1625464055755N02047518EA0121801266
B1625474055751N02047512EA0121601264
B1625484055747N02047506EA0121501263
B1625494055743N02047500EA0121401262
B1625504055740N02047494EA0121301261
B1625514055735N02047488EA0121201260
B1625524055731N02047482EA0121201260
B1625534055727N02047476EA0121101259
B1625544055724N02047470EA0121001258
B1625554055720N02047464EA0120801257
B1625564055716N02047459EA0120701255
B1625574055711N02047453EA0120601254
B1625584055707N02047447EA0120501253
B1625594055703N02047442EA0120301251
B1626004055699N02047437EA0120201250
B1626014055695N02047432EA0120001248
B1626024055692N02047427EA0119801246
B1626034055688N02047421EA0119601244
B1626044055684N02047415EA0119401243
B1626054055680N02047409EA0119401242
B1626064055676N02047403EA0119401242
B1626074055673N02047398EA0119401242
B1626084055669N02047393EA0119301241
B1626094055665N02047387EA0119201240
B1626104055661N02047382EA0119201240
B1626114055657N02047376EA0119101239
B1626124055653N02047371EA0119001238
B1626134055650N02047366EA0118901237
B1626144055646N02047362EA0118801236
B1626154055642N02047357EA0118601234
B1626164055638N02047352EA0118401232
B1626174055635N02047345EA0118201231
B1626184055631N02047340EA0118101230
B1626194055627N02047335EA0118001229
B1626204055624N02047330EA0117801227
B1626214055620N02047325EA0117601224
B1626224055616N02047319EA0117301222
B1626234055613N02047313EA0117201220
B1626244055608N02047307EA0117101220
B1626254055605N02047301EA0117101219
B1626264055602N02047295EA0116901218
B1626274055598N02047289EA0116801216
B1626284055595N02047283EA0116601214
B1626294055591N02047276EA0116501213
B1626304055587N02047270EA0116401212
B1626314055584N02047264EA0116401212
B1626324055581N02047259EA0116301211
B1626334055577N02047254EA0116101210
B1626344055573N02047249EA0116001208
B1626354055569N02047243EA0115801206
B1626364055565N02047237EA0115601204
B1626374055561N02047231EA0115501203
B1626384055557N02047226EA0115401202
B1626394055553N02047221EA0115301201
B1626404055548N02047215EA0115201200
B1626414055545N02047209EA0115001198
B1626424055540N02047203EA0114901197
B1626434055536N02047198EA0114801196
B1626444055532N02047192EA0114701195
B1626454055528N02047186EA0114601194
B1626464055524N02047180EA0114401192
B1626474055520N02047175EA0114201190
B1626484055516N02047169EA0114001189
B1626494055512N02047163EA0113901187
B1626504055508N02047157EA0113701185
B1626514055504N02047151EA0113501184
B1626524055500N02047145EA0113401182
B1626534055496N02047140EA0113301181
B1626544055492N02047133EA0113101179
B1626554055488N02047127EA0113001178
B1626564055484N02047121EA0112901177
B1626574055481N02047115EA0112801176
B1626584055477N02047109EA0112701175
B1626594055473N02047104EA0112601174
B1627004055469N02047098EA0112501173
B1627014055464N02047093EA0112401172
B1627024055460N02047087EA0112401172
B1627034055456N02047082EA0112301171
B1627044055452N02047077EA0112201170
B1627054055448N02047071EA0112001168
B1627064055444N02047067EA0111901167
B1627074055440N02047062EA0111801166
B1627084055436N02047057EA0111601164
B1627094055432N02047051EA0111401163
B1627104055428N02047044EA0111401162
B1627114055424N02047039EA0111301162
B1627124055420N02047033EA0111301161
B1627134055416N02047028EA0111101159
B1627144055413N02047023EA0110901157
B1627154055409N02047017EA0110701155
B1627164055405N02047012EA0110501154
B1627174055400N02047007EA0110401153
B1627184055396N02047001EA0110401152
B1627194055392N02046996EA0110301151
B1627204055388N02046991EA0110201151
B1627214055384N02046987EA0110101150
B1627224055380N02046982EA0110001148
B1627234055376N02046977EA0109801146
B1627244055372N02046972EA0109601145
B1627254055368N02046966EA0109501143
B1627264055363N02046961EA0109401142
B1627274055359N02046956EA0109401142
B1627284055355N02046952EA0109301141
B1627294055351N02046947EA0109101140
B1627304055347N02046941EA0109001138
B1627314055343N02046937EA0108901137
B1627324055339N02046932EA0108801136
B1627334055334N02046927EA0108701135
B1627344055331N02046921EA0108601134
B1627354055327N02046917EA0108501133
B1627364055322N02046912EA0108301131
B1627374055318N02046906EA0108201130
B1627384055313N02046901EA0108101129
B1627394055308N02046896EA0108001129
B1627404055304N02046891EA0108001129
B1627414055301N02046886EA0108001128
B1627424055297N02046880EA0108001128
B1627434055295N02046875EA0108001128
B1627444055293N02046868EA0107801126
B1627454055293N02046860EA0107601125
B1627464055294N02046853EA0107501124
B1627474055297N02046847EA0107501123
B1627484055301N02046841EA0107301122
B1627494055306N02046837EA0107201121
B1627504055311N02046835EA0107101120
B1627514055316N02046834EA0107101119
B1627524055321N02046834EA0107001118
B1627534055327N02046834EA0107001118
B1627544055332N02046833EA0106901117
B1627554055338N02046833EA0106801116
B1627564055343N02046833EA0106701115
B1627574055348N02046834EA0106501113
B1627584055353N02046835EA0106301111
B1627594055359N02046834EA0106201111
B1628004055364N02046834EA0106101110
B1628014055370N02046835EA0106001109
B1628024055375N02046835EA0105901108
B1628034055381N02046836EA0105901107
B1628044055386N02046837EA0105801106
B1628054055391N02046838EA0105601105
B1628064055397N02046840EA0105501103
B1628074055402N02046841EA0105301101
B1628084055408N02046842EA0105101100
B1628094055413N02046843EA0105001099
B1628104055418N02046844EA0104901097
B1628114055424N02046845EA0104801096
B1628124055429N02046847EA0104601094
B1628134055434N02046849EA0104401092
B1628144055440N02046850EA0104301091
B1628154055446N02046851EA0104101089
B1628164055451N02046853EA0104101089
B1628174055456N02046854EA0104101089
B1628184055462N02046855EA0104001088
B1628194055467N02046856EA0103801087
B1628204055472N02046856EA0103801086
B1628214055478N02046857EA0103701085
B1628224055484N02046859EA0103601084
B1628234055489N02046860EA0103701085
B1628244055493N02046862EA0103601085
B1628254055497N02046863EA0103501083
B1628264055501N02046864EA0103301081
B1628274055506N02046866EA0103101079
B1628284055512N02046868EA0102801077
B1628294055518N02046870EA0102701075
B1628304055523N02046872EA0102601075
B1628314055528N02046873EA0102701075
B1628324055533N02046874EA0102701075
B1628334055538N02046876EA0102601074
B1628344055543N02046878EA0102501073
B1628354055548N02046879EA0102401073
B1628364055553N02046882EA0102301071
B1628374055558N02046884EA0102301071
B1628384055563N02046887EA0102201071
B1628394055568N02046889EA0102301071
B1628404055573N02046891EA0102201071
B1628414055578N02046894EA0102201070
B1628424055583N02046895EA0102201070
B1628434055588N02046897EA0102101070
B1628444055594N02046897EA0102101069
B1628454055599N02046898EA0102101069
B1628464055604N02046899EA0101901067
B1628474055609N02046899EA0101801067
B1628484055614N02046900EA0101801066
B1628494055619N02046902EA0101801066
B1628504055624N02046903EA0101701065
B1628514055630N02046905EA0101601064
B1628524055635N02046907EA0101601064
B1628534055640N02046909EA0101501063
B1628544055645N02046911EA0101501063
B1628554055650N02046913EA0101401062
B1628564055655N02046915EA0101401063
B1628574055660N02046917EA0101401062
B1628584055665N02046919EA0101301062
B1628594055671N02046921EA0101301061
B1629004055676N02046923EA0101201061
B1629014055681N02046925EA0101201060
B1629024055686N02046927EA0101201060
B1629034055692N02046929EA0101101060
B1629044055697N02046932EA0101101059
B1629054055702N02046934EA0101101059
B1629064055708N02046936EA0101001059
B1629074055713N02046938EA0101001058
B1629084055718N02046941EA0101001058
B1629094055723N02046943EA0101001058
B1629104055728N02046946EA0101001058
B1629114055733N02046948EA0101001058
B1629124055738N02046950EA0101001058
B1629134055742N02046953EA0101001058
B1629144055747N02046956EA0101001058
B1629154055751N02046959EA0100901057
B1629164055756N02046962EA0100901057
B1629174055761N02046965EA0100901057
B1629184055766N02046967EA0100901058
B1629194055771N02046970EA0101001059
B1629204055775N02046973EA0101101060
B1629214055778N02046977EA0101101060
B1629224055782N02046981EA0101101059
B1629234055785N02046984EA0100901057
B1629244055789N02046987EA0100701056
B1629254055792N02046989EA0100501053
B1629264055797N02046990EA0100401052
B1629274055802N02046990EA0100201050
B1629284055807N02046989EA0100101049
B1629294055811N02046986EA0100101049
B1629304055815N02046982EA0100001048
B1629314055818N02046977EA0099901047
B1629324055821N02046972EA0099701046
B1629334055824N02046965EA0099701045
B1629344055825N02046958EA0099701045
B1629354055825N02046950EA0099701046
B1629364055825N02046943EA0099801046
B1629374055825N02046936EA0099801046
B1629384055825N02046929EA0099701046
B1629394055825N02046923EA0099601045
B1629404055824N02046916EA0099501043
B1629414055822N02046908EA0099301041
B1629424055819N02046901EA0099201040
B1629434055817N02046894EA0099101040
B1629444055814N02046889EA0099001039
B1629454055810N02046883EA0098901037
B1629464055806N02046878EA0098701035
B1629474055801N02046874EA0098501033
B1629484055795N02046871EA0098401032
B1629494055790N02046868EA0098301032
B1629504055784N02046866EA0098201031
B1629514055779N02046866EA0098101030
B1629524055773N02046866EA0098001028
B1629534055768N02046867EA0097901028
B1629544055763N02046869EA0097801027
B1629554055758N02046872EA0097701026
B1629564055753N02046877EA0097701025
B1629574055750N02046882EA0097601024
B1629584055747N02046888EA0097501023
B1629594055746N02046894EA0097401023
B1630004055745N02046900EA0097401022
B1630014055745N02046906EA0097301021
B1630024055747N02046912EA0097101020
B1630034055749N02046917EA0097001018
B1630044055753N02046921EA0096801016
B1630054055757N02046923EA0096801016
B1630064055761N02046925EA0096701015
B1630074055766N02046925EA0096601014
B1630084055770N02046925EA0096501013
B1630094055775N02046926EA0096401012
B1630104055780N02046926EA0096301012
B1630114055785N02046925EA0096201011
B1630124055789N02046924EA0096201011
B1630134055794N02046923EA0096201011
B1630144055798N02046922EA0096201010
B1630154055803N02046921EA0096101010
B1630164055807N02046919EA0096101009
B1630174055812N02046917EA0096001008
B1630184055817N02046915EA0095901007
B1630194055821N02046914EA0095801006
B1630204055826N02046912EA0095801006
B1630214055830N02046909EA0095801006
B1630224055834N02046905EA0095701005
B1630234055837N02046900EA0095601004
B1630244055839N02046894EA0095501003
B1630254055841N02046888EA0095401002
B1630264055843N02046882EA0095301001
B1630274055844N02046876EA0095201000
B1630284055844N02046868EA0095100999
B1630294055843N02046861EA0095000998
B1630304055841N02046854EA0094900998
B1630314055840N02046847EA0094900997
B1630324055838N02046840EA0094800996
B1630334055837N02046832EA0094700995
B1630344055835N02046825EA0094600994
B1630354055834N02046818EA0094500994
B1630364055832N02046811EA0094500993
B1630374055830N02046804EA0094500993
B1630384055828N02046796EA0094500993
B1630394055826N02046789EA0094400992
B1630404055824N02046782EA0094300992
B1630414055822N02046775EA0094300991
B1630424055821N02046768EA0094200991
B1630434055818N02046761EA0094200990
B1630444055817N02046754EA0094100989
B1630454055815N02046747EA0094000988
B1630464055814N02046740EA0093900987
B1630474055813N02046732EA0093800986
B1630484055811N02046725EA0093700985
B1630494055809N02046717EA0093600985
B1630504055807N02046709EA0093600984
B1630514055806N02046702EA0093600984
B1630524055804N02046694EA0093500983
B1630534055802N02046687EA0093400982
B1630544055800N02046680EA0093300981
B1630554055798N02046673EA0093200980
B1630564055796N02046665EA0093200980
B1630574055793N02046658EA0093100979
B1630584055790N02046650EA0093100979
B1630594055787N02046643EA0093000979
B1631004055785N02046635EA0093000979
B1631014055783N02046628EA0093000978
B1631024055781N02046621EA0092900978
B1631034055779N02046614EA0092800976
B1631044055776N02046606EA0092600975
B1631054055774N02046598EA0092500973
B1631064055772N02046590EA0092400972
B1631074055770N02046582EA0092400972
B1631084055768N02046574EA0092400972
B1631094055766N02046566EA0092300972
B1631104055764N02046559EA0092300971
B1631114055762N02046552EA0092200970
B1631124055760N02046544EA0092000969
B1631134055758N02046537EA0091900967
B1631144055756N02046530EA0091700966
B1631154055753N02046522EA0091600964
B1631164055751N02046514EA0091500964
B1631174055749N02046506EA0091500963
B1631184055746N02046499EA0091500963
B1631194055744N02046492EA0091400962
B1631204055742N02046486EA0091200961
B1631214055740N02046479EA0091100959
B1631224055737N02046472EA0090900957
B1631234055735N02046465EA0090700956
B1631244055733N02046458EA0090600954
B1631254055730N02046450EA0090500953
B1631264055728N02046443EA0090400952
B1631274055725N02046435EA0090200950
B1631284055722N02046428EA0090100949
B1631294055720N02046420EA0090000948
B1631304055717N02046412EA0090000948
B1631314055715N02046405EA0089900948
B1631324055712N02046398EA0089900947
B1631334055710N02046391EA0089800946
B1631344055708N02046384EA0089600944
B1631354055706N02046377EA0089400943
B1631364055704N02046369EA0089300941
B1631374055702N02046362EA0089200940
B1631384055700N02046354EA0089100939
B1631394055698N02046346EA0088800937
B1631404055696N02046339EA0088700935
B1631414055694N02046331EA0088500933
B1631424055692N02046323EA0088200931
B1631434055690N02046316EA0088100929
B1631444055688N02046308EA0087900927
B1631454055686N02046300EA0087800926
B1631464055684N02046293EA0087700925
B1631474055682N02046286EA0087600924
B1631484055681N02046278EA0087400922
B1631494055679N02046270EA0087200921
B1631504055678N02046262EA0087100919
B1631514055676N02046254EA0087000918
B1631524055675N02046247EA0086900918
B1631534055672N02046240EA0086800917
B1631544055670N02046232EA0086600915
B1631554055669N02046225EA0086500913
B1631564055668N02046217EA0086400912
B1631574055666N02046210EA0086300911
B1631584055664N02046202EA0086200910
B1631594055662N02046194EA0086000908
B1632004055660N02046186EA0085900907
B1632014055659N02046179EA0085800907
B1632024055658N02046171EA0085700905
B1632034055657N02046163EA0085600904
B1632044055655N02046156EA0085500903
B1632054055653N02046148EA0085400902
B1632064055652N02046141EA0085300901
B1632074055650N02046134EA0085100900
B1632084055647N02046127EA0085000898
B1632094055645N02046120EA0084800897
B1632104055642N02046113EA0084700895
B1632114055639N02046106EA0084600894
B1632124055636N02046100EA0084600894
B1632134055633N02046094EA0084500893
B1632144055629N02046089EA0084400892
B1632154055625N02046084EA0084300891
B1632164055621N02046078EA0084100889
B1632174055618N02046073EA0084000889
B1632184055614N02046068EA0083900887
B1632194055609N02046063EA0083700886
B1632204055605N02046059EA0083600884
B1632214055600N02046055EA0083400883
B1632224055596N02046050EA0083300881
B1632234055591N02046047EA0083200880
B1632244055586N02046043EA0083100879
B1632254055581N02046039EA0082900877
B1632264055576N02046036EA0082800876
B1632274055571N02046033EA0082700875
B1632284055566N02046030EA0082600874
B1632294055561N02046027EA0082400873
B1632304055555N02046025EA0082300872
B1632314055550N02046021EA0082200871
B1632324055545N02046018EA0082200870
B1632334055540N02046014EA0082100870
B1632344055535N02046009EA0082000869
B1632354055529N02046005EA0082000868
B1632364055524N02046002EA0081800867
B1632374055518N02045998EA0081700866
B1632384055513N02045996EA0081600865
B1632394055507N02045993EA0081500864
B1632404055501N02045990EA0081600864
B1632414055495N02045987EA0081600864
B1632424055489N02045984EA0081600864
B1632434055484N02045981EA0081600864
B1632444055479N02045979EA0081600864
B1632454055473N02045976EA0081400862
B1632464055467N02045974EA0081400862
B1632474055462N02045970EA0081300861
B1632484055456N02045967EA0081200860
B1632494055450N02045965EA0081000859
B1632504055445N02045963EA0080900857
B1632514055439N02045962EA0080800856
B1632524055433N02045960EA0080600854
B1632534055428N02045958EA0080400853
B1632544055422N02045956EA0080300851
B1632554055416N02045955EA0080200850
B1632564055410N02045956EA0080100849
B1632574055404N02045959EA0080100849
B1632584055399N02045963EA0080100849
B1632594055395N02045967EA0080100849
B1633004055392N02045971EA0080000849
B1633014055388N02045975EA0080000848
B1633024055384N02045981EA0079800846
B1633034055380N02045986EA0079700845
B1633044055376N02045992EA0079700845
B1633054055372N02045996EA0079700845
B1633064055370N02046002EA0079700845
B1633074055369N02046007EA0079600844
B1633084055370N02046013EA0079400842
B1633094055372N02046019EA0079200840
B1633104055377N02046024EA0079100839
B1633114055382N02046027EA0079000838
B1633124055387N02046027EA0079000838
B1633134055392N02046027EA0078900838
B1633144055396N02046028EA0078900837
B1633154055400N02046027EA0078700836
B1633164055405N02046027EA0078600834
B1633174055410N02046025EA0078400832
B1633184055415N02046023EA0078300831
B1633194055421N02046022EA0078300831
B1633204055426N02046020EA0078400832
B1633214055430N02046020EA0078300831
B1633224055434N02046019EA0078200830
B1633234055439N02046018EA0078100829
B1633244055444N02046018EA0078000828
B1633254055449N02046020EA0077900827
B1633264055452N02046025EA0077700826
B1633274055454N02046033EA0077500823
B1633284055453N02046040EA0077400822
B1633294055451N02046047EA0077300821
B1633304055447N02046053EA0077200820
B1633314055443N02046057EA0077200820
B1633324055438N02046060EA0077200820
B1633334055434N02046063EA0077100820
B1633344055430N02046066EA0077000818
B1633354055425N02046068EA0076900817
B1633364055421N02046071EA0076700816
B1633374055416N02046074EA0076600814
B1633384055411N02046077EA0076500813
B1633394055407N02046080EA0076500813
B1633404055402N02046082EA0076400813
B1633414055398N02046085EA0076400812
B1633424055395N02046089EA0076200811
B1633434055393N02046095EA0076000809
B1633444055394N02046102EA0075800807
B1633454055396N02046109EA0075700805
B1633464055399N02046113EA0075600804
B1633474055404N02046114EA0075500804
B1633484055408N02046113EA0075400803
B1633494055412N02046111EA0075300802
B1633504055415N02046107EA0075200801
B1633514055419N02046103EA0075100799
B1633524055422N02046098EA0075000798
B1633534055425N02046093EA0074800797
B1633544055429N02046090EA0074800796
B1633554055432N02046086EA0074700795
B1633564055436N02046083EA0074600794
B1633574055440N02046082EA0074400793
B1633584055445N02046082EA0074200790
B1633594055449N02046086EA0074000788
B1634004055451N02046093EA0073800786
B1634014055451N02046100EA0073500784
B1634024055448N02046107EA0073400782
B1634034055444N02046112EA0073400782
B1634044055440N02046115EA0073400782
B1634054055435N02046119EA0073400782
B1634064055432N02046122EA0073300781
B1634074055429N02046127EA0073100780
B1634084055427N02046133EA0073000778
B1634094055427N02046140EA0072900777
B1634104055429N02046146EA0072700775
B1634114055432N02046151EA0072500774
B1634124055437N02046152EA0072400772
B1634134055442N02046151EA0072300771
B1634144055447N02046149EA0072300771
B1634154055451N02046146EA0072300771
B1634164055454N02046144EA0072300771
B1634174055458N02046142EA0072200770
B1634184055462N02046140EA0072100769
B1634194055466N02046139EA0072000768
B1634204055470N02046140EA0071800767
B1634214055474N02046142EA0071800766
B1634224055478N02046144EA0071700765
B1634234055482N02046147EA0071600764
B1634244055485N02046152EA0071400763
B1634254055486N02046158EA0071300761
B1634264055487N02046165EA0071200760
B1634274055485N02046172EA0071100759
B1634284055483N02046178EA0071100759
B1634294055481N02046183EA0071000759
B1634304055478N02046188EA0071000759
B1634314055476N02046193EA0070900758
B1634324055476N02046199EA0070800756
B1634334055478N02046205EA0070600754
B1634344055481N02046209EA0070400752
B1634354055486N02046211EA0070300751
B1634364055490N02046212EA0070300751
B1634374055494N02046212EA0070300751
B1634384055497N02046215EA0070200750
B1634394055499N02046218EA0070000748
B1634404055502N02046224EA0069800746
B1634414055502N02046231EA0069700745
B1634424055500N02046237EA0069600744
B1634434055498N02046242EA0069600744
B1634444055496N02046246EA0069500744
B1634454055495N02046251EA0069500743
B1634464055493N02046255EA0069300742
B1634474055491N02046260EA0069200740
B1634484055489N02046265EA0069100739
B1634494055488N02046270EA0069000738
B1634504055488N02046275EA0068800737
B1634514055489N02046280EA0068600735
B1634524055492N02046286EA0068400732
B1634534055495N02046291EA0068200730
B1634544055497N02046296EA0068200730
B1634554055498N02046302EA0068200730
B1634564055499N02046306EA0068100729
B1634574055501N02046311EA0068000728
B1634584055502N02046315EA0067900727
B1634594055504N02046320EA0067800726
B1635004055505N02046324EA0067700725
B1635014055506N02046326EA0067700725
B1635024055507N02046329EA0067800727
B1635034055507N02046330EA0067800727
B1635044055507N02046331EA0067800726
B1635054055507N02046332EA0067800726
B1635064055508N02046333EA0067800726
B1635074055507N02046334EA0067800727
B1635084055507N02046335EA0067800726
B1635094055508N02046335EA0067800726
B1635104055508N02046336EA0067800726
B1635114055509N02046336EA0067800727
B1635124055509N02046336EA0067800726
B1635134055508N02046336EA0067800726
B1635144055508N02046336EA0067800726
B1635154055509N02046336EA0067800726
B1635164055509N02046337EA0067800726
B1635174055509N02046337EA0067800726
B1635184055509N02046337EA0067800726
B1635194055509N02046337EA0067800726
B1635204055509N02046337EA0067800726
B1635214055509N02046337EA0067800726
B1635224055509N02046337EA0067800726
B1635234055509N02046337EA0067800726
B1635244055509N02046337EA0067800726
B1635254055510N02046337EA0067800726
B1635264055510N02046337EA0067800726
B1635274055510N02046337EA0067800726
B1635284055510N02046337EA0067800726
B1635294055510N02046337EA0067800726
B1635304055510N02046337EA0067800726
B1635314055510N02046337EA0067800726
B1635324055510N02046337EA0067800726
B1635334055509N02046337EA0067800726
B1635344055509N02046337EA0067800726
B1635354055509N02046337EA0067800726
B1635364055509N02046337EA0067800726
B1635374055509N02046337EA0067800726
B1635384055509N02046337EA0067800726
B1635394055509N02046337EA0067800726
B1635404055508N02046338EA0067800726
B1635414055508N02046338EA0067800726
B1635424055508N02046339EA0067800726
B1635434055507N02046339EA0067800726
B1635444055507N02046339EA0067800726
B1635454055507N02046339EA0067800726
B1635464055506N02046340EA0067800726
B1635474055506N02046341EA0067800726
B1635484055506N02046341EA0067800726
B1635494055506N02046341EA0067800726
B1635504055506N02046341EA0067800726
B1635514055506N02046341EA0067800726
B1635524055506N02046341EA0067800726
B1635534055505N02046341EA0067800726
B1635544055506N02046342EA0067800726
B1635554055506N02046342EA0067800726
B1635564055506N02046343EA0067800726
B1635574055507N02046343EA0067800726
B1635584055507N02046344EA0067800726
B1635594055507N02046344EA0067800726
B1636004055508N02046345EA0067800726
B1636014055508N02046345EA0067800726
B1636024055509N02046346EA0067800726
B1636034055509N02046347EA0067800726
B1636044055509N02046348EA0067800726
B1636054055509N02046348EA0067800726
B1636064055510N02046349EA0067800726
B1636074055510N02046350EA0067800726
B1636084055510N02046350EA0067800726
B1636094055510N02046351EA0067800726
B1636104055510N02046352EA0067800726
B1636114055511N02046352EA0067800726
B1636124055511N02046353EA0067800726
B1636134055512N02046353EA0067800726
B1636144055512N02046354EA0067800726
B1636154055512N02046355EA0067800726
B1636164055512N02046356EA0067800726
B1636174055513N02046356EA0067800726
B1636184055513N02046357EA0067800726
B1636194055513N02046358EA0067800726
B1636204055514N02046359EA0067800726
B1636214055514N02046359EA0067800726
B1636224055514N02046360EA0067800726
B1636234055514N02046361EA0067800726
B1636244055514N02046362EA0067800726
B1636254055515N02046363EA0067800726
B1636264055515N02046364EA0067800726
B1636274055515N02046364EA0067800726
B1636284055515N02046364EA0067800726
B1636294055515N02046365EA0067800726
B1636304055515N02046366EA0067800726
B1636314055515N02046367EA0067800726
B1636324055516N02046367EA0067800726
B1636334055516N02046367EA0067800726
B1636344055516N02046368EA0067800726
B1636354055516N02046369EA0067800726
B1636364055517N02046370EA0067700726
B1636374055517N02046370EA0067800726
B1636384055517N02046371EA0067800726
B1636394055516N02046372EA0067800726
B1636404055516N02046373EA0067800726
B1636414055516N02046374EA0067800726
B1636424055516N02046374EA0067800726
B1636434055516N02046375EA0067800726
B1636444055516N02046376EA0067800726
B1636454055515N02046377EA0067800726
B1636464055515N02046378EA0067800726
B1636474055515N02046379EA0067800726
B1636484055516N02046379EA0067800726
B1636494055517N02046380EA0067800726
B1636504055517N02046381EA0067800726
B1636514055517N02046381EA0067800726
B1636524055517N02046381EA0067800726
B1636534055517N02046382EA0067800726
B1636544055518N02046382EA0067800726
B1636554055517N02046382EA0067800726
B1636564055518N02046382EA0067800726
B1636574055518N02046382EA0067800726
B1636584055518N02046382EA0067800726
B1636594055518N02046382EA0067800726
B1637004055518N02046383EA0067800726
B1637014055518N02046383EA0067800726
B1637024055518N02046384EA0067800726
B1637034055518N02046384EA0067800726
LXSX;GF:1.3
GE96C0D6C1A50324DC2CD4C5A775D74F3
