AXSX003 SKYTRAXX V3.0.16c SN:00000380
HFPLTPILOT:Sepp Bucher
HFGTYGLIDERTYPE:Advance Sigma11
HFDTM100GPSDATUM:WGS-84
HFCIDCOMPETITIONID:0000
HFCCLCOMPETITION CLASS:Paraglider (Standard)
HFSITSITE:Galicica
HFDTE210621
C210621102656000000000100a20210621.tsk
C4057280N02048726ETAKEOFF
C4057241N02048903ESTART
C4104921N02048043EFINISH
C4104921N02048043ELANDING
B1042414057280N02048726EA0151001539
B1042424057281N02048726EA0151001539
B1042434057280N02048726EA0151001539
B1042444057280N02048726EA0151001539
B1042454057280N02048726EA0151001539
B1042464057280N02048726EA0151001539
B1042474057280N02048726EA0151001539
B1042484057280N02048726EA0151001539
B1042494057280N02048725EA0151001539
B1042504057280N02048726EA0151001539
B1042514057280N02048726EA0151001539
B1042524057279N02048725EA0150801537
B1042534057279N02048723EA0150701537
B1042544057278N02048720EA0150601536
B1042554057277N02048717EA0150701540
B1042564057276N02048713EA0150901545
B1042574057275N02048709EA0150801544
B1042584057274N02048704EA0150801545
B1042594057274N02048700EA0150901545
B1043004057275N02048696EA0151101547
B1043014057274N02048693EA0151201548
B1043024057273N02048690EA0151201548
B1043034057272N02048687EA0151201549
B1043044057269N02048684EA0151301549
B1043054057267N02048681EA0151401550
B1043064057265N02048678EA0151501551
B1043074057261N02048677EA0151701553
B1043084057258N02048676EA0151901555
B1043094057255N02048675EA0152101558
B1043104057252N02048673EA0152401560
B1043114057251N02048671EA0152501561
B1043124057252N02048668EA0152601562
B1043134057254N02048666EA0152801564
B1043144057256N02048665EA0153001567
B1043154057258N02048663EA0153301569
B1043164057258N02048662EA0153501571
B1043174057259N02048661EA0153601573
B1043184057262N02048661EA0153701573
B1043194057266N02048661EA0153701573
B1043204057271N02048662EA0153801574
B1043214057276N02048663EA0154001576
B1043224057280N02048665EA0154201578
B1043234057284N02048666EA0154301579
B1043244057289N02048667EA0154401580
B1043254057295N02048668EA0154501581
B1043264057301N02048669EA0154601582
B1043274057307N02048673EA0154901585
B1043284057313N02048678EA0155201588
B1043294057318N02048682EA0155401590
B1043304057323N02048686EA0155701593
B1043314057326N02048687EA0155901595
B1043324057329N02048686EA0156001596
B1043334057331N02048684EA0156001596
B1043344057333N02048681EA0156201598
B1043354057333N02048679EA0156501601
B1043364057332N02048677EA0156601602
B1043374057329N02048677EA0156601603
B1043384057325N02048678EA0156601602
B1043394057320N02048678EA0156701603
B1043404057315N02048678EA0156801604
B1043414057310N02048679EA0157001606
B1043424057305N02048679EA0157301609
B1043434057300N02048680EA0157601612
B1043444057295N02048680EA0157901615
B1043454057291N02048679EA0158201618
B1043464057288N02048679EA0158501621
B1043474057284N02048678EA0158701624
B1043484057280N02048678EA0158901625
B1043494057277N02048678EA0159001627
B1043504057274N02048677EA0159101628
B1043514057273N02048675EA0159101627
B1043524057272N02048673EA0159001627
B1043534057273N02048670EA0159201628
B1043544057274N02048669EA0159101628
B1043554057275N02048668EA0159301630
B1043564057275N02048668EA0159601632
B1043574057276N02048666EA0159801634
B1043584057274N02048665EA0159701634
B1043594057272N02048664EA0159701634
B1044004057269N02048663EA0159701633
B1044014057267N02048661EA0159701633
B1044024057266N02048658EA0159701633
B1044034057266N02048656EA0159601632
B1044044057268N02048654EA0159501631
B1044054057271N02048653EA0159301630
B1044064057276N02048653EA0159201628
B1044074057281N02048655EA0159301629
B1044084057286N02048658EA0159201628
B1044094057291N02048662EA0159301629
B1044104057294N02048667EA0159301630
B1044114057298N02048672EA0159301629
B1044124057301N02048677EA0159301629
B1044134057305N02048681EA0159201628
B1044144057309N02048687EA0159101627
B1044154057314N02048692EA0159201628
B1044164057318N02048697EA0159201628
B1044174057322N02048701EA0159201629
B1044184057326N02048705EA0159301629
B1044194057331N02048708EA0159301629
B1044204057335N02048711EA0159501631
B1044214057340N02048714EA0159701633
B1044224057344N02048717EA0160001637
B1044234057348N02048720EA0160201638
B1044244057352N02048723EA0160201638
B1044254057356N02048725EA0160201638
B1044264057360N02048729EA0160201638
B1044274057365N02048734EA0160301639
B1044284057369N02048738EA0160401640
B1044294057373N02048741EA0160401641
B1044304057377N02048743EA0160501641
B1044314057380N02048743EA0160501641
B1044324057383N02048743EA0160501641
B1044334057385N02048741EA0160501641
B1044344057384N02048738EA0160501642
B1044354057382N02048736EA0160701644
B1044364057378N02048735EA0160901645
B1044374057373N02048736EA0160901646
B1044384057368N02048739EA0161001646
B1044394057363N02048741EA0160901646
B1044404057358N02048742EA0161001646
B1044414057352N02048743EA0161001646
B1044424057347N02048743EA0161101648
B1044434057341N02048743EA0161301650
B1044444057336N02048743EA0161601652
B1044454057331N02048744EA0161801654
B1044464057327N02048745EA0161901655
B1044474057323N02048746EA0161901655
B1044484057319N02048746EA0161801655
B1044494057316N02048744EA0161701653
B1044504057316N02048741EA0161601653
B1044514057317N02048739EA0161601652
B1044524057320N02048738EA0161601652
B1044534057324N02048738EA0161701653
B1044544057327N02048738EA0162001656
B1044554057331N02048739EA0162201658
B1044564057334N02048741EA0162301659
B1044574057337N02048743EA0162501662
B1044584057341N02048746EA0162601662
B1044594057344N02048750EA0162601663
B1045004057348N02048752EA0162601662
B1045014057353N02048755EA0162601663
B1045024057358N02048757EA0162701663
B1045034057362N02048761EA0163001666
B1045044057366N02048764EA0163101667
B1045054057369N02048767EA0163001666
B1045064057373N02048770EA0162901665
B1045074057377N02048772EA0162801664
B1045084057382N02048771EA0162701663
B1045094057384N02048769EA0162701663
B1045104057385N02048765EA0162801664
B1045114057385N02048762EA0162801665
B1045124057384N02048759EA0162901665
B1045134057383N02048757EA0163001666
B1045144057381N02048755EA0163001666
B1045154057379N02048752EA0163001666
B1045164057377N02048750EA0163001666
B1045174057373N02048748EA0163001667
B1045184057370N02048745EA0163101667
B1045194057368N02048743EA0163201668
B1045204057366N02048741EA0163301669
B1045214057363N02048740EA0163301669
B1045224057360N02048738EA0163301669
B1045234057356N02048737EA0163301669
B1045244057353N02048734EA0163201669
B1045254057349N02048732EA0163301669
B1045264057345N02048730EA0163401670
B1045274057340N02048728EA0163501671
B1045284057336N02048727EA0163601672
B1045294057332N02048725EA0163701673
B1045304057328N02048723EA0163701674
B1045314057324N02048721EA0163801675
B1045324057320N02048718EA0164001676
B1045334057316N02048716EA0164101677
B1045344057312N02048713EA0164201678
B1045354057308N02048710EA0164301679
B1045364057303N02048708EA0164301679
B1045374057299N02048706EA0164301679
B1045384057294N02048704EA0164301680
B1045394057290N02048701EA0164301680
B1045404057285N02048699EA0164401680
B1045414057280N02048697EA0164401680
B1045424057275N02048696EA0164501681
B1045434057270N02048694EA0164601682
B1045444057266N02048691EA0164601683
B1045454057262N02048689EA0164701683
B1045464057258N02048687EA0164801684
B1045474057254N02048685EA0164901685
B1045484057250N02048683EA0164901686
B1045494057246N02048682EA0165001686
B1045504057242N02048680EA0165101687
B1045514057238N02048679EA0165101688
B1045524057234N02048677EA0165201688
B1045534057229N02048675EA0165301689
B1045544057224N02048674EA0165401690
B1045554057219N02048672EA0165601692
B1045564057215N02048671EA0165901695
B1045574057212N02048669EA0166101697
B1045584057209N02048668EA0166201699
B1045594057206N02048667EA0166301699
B1046004057203N02048665EA0166501701
B1046014057201N02048663EA0166401700
B1046024057201N02048660EA0166401700
B1046034057202N02048658EA0166501701
B1046044057206N02048657EA0166801704
B1046054057210N02048657EA0167101708
B1046064057213N02048659EA0167401710
B1046074057216N02048661EA0167501711
B1046084057218N02048664EA0167601712
B1046094057222N02048666EA0167501712
B1046104057227N02048670EA0167501711
B1046114057233N02048675EA0167701713
B1046124057238N02048681EA0167901715
B1046134057242N02048686EA0168201718
B1046144057245N02048689EA0168301720
B1046154057248N02048691EA0168301720
B1046164057251N02048692EA0168401720
B1046174057253N02048691EA0168401720
B1046184057254N02048689EA0168401721
B1046194057253N02048686EA0168501721
B1046204057249N02048684EA0168601722
B1046214057246N02048683EA0168701724
B1046224057244N02048683EA0168901725
B1046234057243N02048682EA0168801724
B1046244057242N02048680EA0168701723
B1046254057239N02048677EA0168501722
B1046264057235N02048674EA0168501721
B1046274057230N02048672EA0168501722
B1046284057225N02048670EA0168701724
B1046294057220N02048669EA0168901725
B1046304057216N02048668EA0169101727
B1046314057212N02048667EA0169201728
B1046324057207N02048667EA0169201728
B1046334057202N02048666EA0169201728
B1046344057197N02048664EA0169201728
B1046354057192N02048663EA0169301729
B1046364057187N02048662EA0169501731
B1046374057182N02048661EA0169601732
B1046384057177N02048661EA0169501731
B1046394057172N02048660EA0169401730
B1046404057167N02048658EA0169401730
B1046414057162N02048656EA0169401731
B1046424057157N02048654EA0169601732
B1046434057152N02048653EA0169801735
B1046444057148N02048652EA0170001736
B1046454057144N02048652EA0170001736
B1046464057140N02048650EA0170001736
B1046474057136N02048649EA0170001737
B1046484057132N02048647EA0170101737
B1046494057127N02048646EA0170201739
B1046504057122N02048646EA0170301739
B1046514057117N02048645EA0170401741
B1046524057112N02048644EA0170501741
B1046534057107N02048642EA0170501742
B1046544057102N02048640EA0170601743
B1046554057097N02048639EA0170701743
B1046564057091N02048637EA0170701743
B1046574057086N02048635EA0170701743
B1046584057081N02048633EA0170701743
B1046594057075N02048631EA0170701744
B1047004057069N02048629EA0170801745
B1047014057062N02048628EA0171001747
B1047024057056N02048628EA0171301749
B1047034057051N02048627EA0171401751
B1047044057047N02048627EA0171601752
B1047054057042N02048627EA0171701754
B1047064057037N02048627EA0171701753
B1047074057031N02048627EA0171701753
B1047084057026N02048627EA0171701753
B1047094057020N02048626EA0171901755
B1047104057016N02048624EA0172001757
B1047114057011N02048623EA0172201759
B1047124057008N02048622EA0172501761
B1047134057003N02048622EA0172601763
B1047144056998N02048622EA0172801764
B1047154056994N02048621EA0172901766
B1047164056989N02048620EA0173101767
B1047174056984N02048619EA0173301769
B1047184056979N02048619EA0173401771
B1047194056973N02048618EA0173601772
B1047204056967N02048618EA0173801774
B1047214056962N02048617EA0174001777
B1047224056956N02048616EA0174301779
B1047234056951N02048615EA0174501781
B1047244056946N02048614EA0174701783
B1047254056941N02048613EA0174901785
B1047264056935N02048612EA0175101787
B1047274056929N02048611EA0175301790
B1047284056924N02048609EA0175601792
B1047294056919N02048608EA0175901795
B1047304056914N02048606EA0176101798
B1047314056909N02048605EA0176401800
B1047324056904N02048603EA0176701803
B1047334056898N02048602EA0176901806
B1047344056893N02048600EA0177201808
B1047354056888N02048599EA0177501811
B1047364056883N02048598EA0177801815
B1047374056878N02048596EA0178101817
B1047384056873N02048595EA0178301819
B1047394056867N02048594EA0178601822
B1047404056862N02048593EA0178901825
B1047414056857N02048592EA0179101827
B1047424056852N02048591EA0179401830
B1047434056846N02048589EA0179601832
B1047444056841N02048588EA0179801834
B1047454056836N02048587EA0180001836
B1047464056830N02048585EA0180201838
B1047474056824N02048584EA0180401841
B1047484056819N02048582EA0180701843
B1047494056814N02048581EA0181001846
B1047504056809N02048579EA0181501851
B1047514056804N02048578EA0181901856
B1047524056800N02048578EA0182401860
B1047534056795N02048578EA0182701863
B1047544056791N02048578EA0182901865
B1047554056786N02048579EA0183001866
B1047564056781N02048578EA0183201868
B1047574056776N02048578EA0183401870
B1047584056770N02048577EA0183601872
B1047594056765N02048577EA0183901875
B1048004056759N02048576EA0184301879
B1048014056754N02048576EA0184701883
B1048024056748N02048575EA0185001886
B1048034056742N02048575EA0185301890
B1048044056737N02048574EA0185601892
B1048054056732N02048574EA0186001896
B1048064056728N02048574EA0186201899
B1048074056725N02048573EA0186501901
B1048084056721N02048573EA0186701903
B1048094056716N02048573EA0186801904
B1048104056711N02048572EA0186901905
B1048114056705N02048571EA0187201908
B1048124056699N02048571EA0187501911
B1048134056694N02048571EA0187901915
B1048144056689N02048571EA0188201919
B1048154056683N02048571EA0188501922
B1048164056678N02048572EA0188801924
B1048174056672N02048572EA0189001926
B1048184056666N02048571EA0189201928
B1048194056660N02048571EA0189401931
B1048204056654N02048571EA0189701933
B1048214056649N02048571EA0190101937
B1048224056644N02048571EA0190401940
B1048234056640N02048571EA0190601942
B1048244056637N02048569EA0190601943
B1048254056634N02048567EA0190701943
B1048264056629N02048564EA0190901945
B1048274056624N02048561EA0191101947
B1048284056617N02048559EA0191401950
B1048294056612N02048558EA0191701954
B1048304056606N02048558EA0192001957
B1048314056601N02048559EA0192301959
B1048324056596N02048560EA0192501961
B1048334056590N02048561EA0192701963
B1048344056584N02048562EA0192901965
B1048354056578N02048564EA0193101968
B1048364056571N02048565EA0193401970
B1048374056565N02048566EA0193601972
B1048384056559N02048567EA0193801974
B1048394056552N02048569EA0194001976
B1048404056545N02048570EA0194101977
B1048414056539N02048571EA0194301980
B1048424056532N02048572EA0194701983
B1048434056526N02048573EA0195101987
B1048444056521N02048574EA0195401991
B1048454056516N02048575EA0195601992
B1048464056511N02048577EA0195701993
B1048474056505N02048579EA0195701993
B1048484056498N02048582EA0195701993
B1048494056492N02048585EA0196001996
B1048504056487N02048588EA0196201998
B1048514056482N02048591EA0196502001
B1048524056478N02048593EA0196802004
B1048534056473N02048593EA0196802004
B1048544056467N02048594EA0196902006
B1048554056461N02048595EA0197102008
B1048564056455N02048596EA0197402010
B1048574056449N02048596EA0197602012
B1048584056444N02048597EA0197802014
B1048594056438N02048597EA0197802015
B1049004056432N02048597EA0198002016
B1049014056426N02048599EA0198202018
B1049024056419N02048600EA0198402020
B1049034056414N02048602EA0198602023
B1049044056409N02048602EA0198802024
B1049054056404N02048602EA0198902026
B1049064056399N02048602EA0199102028
B1049074056393N02048602EA0199402030
B1049084056388N02048602EA0199502032
B1049094056382N02048602EA0199802034
B1049104056377N02048602EA0200002037
B1049114056373N02048602EA0200302039
B1049124056368N02048603EA0200402040
B1049134056363N02048603EA0200402040
B1049144056358N02048604EA0200502041
B1049154056353N02048605EA0200602042
B1049164056347N02048605EA0200702044
B1049174056342N02048605EA0200902045
B1049184056337N02048605EA0201002047
B1049194056332N02048606EA0201102048
B1049204056326N02048607EA0201202048
B1049214056320N02048607EA0201302049
B1049224056315N02048608EA0201402050
B1049234056309N02048610EA0201402051
B1049244056303N02048611EA0201702054
B1049254056298N02048611EA0201902055
B1049264056294N02048609EA0201902055
B1049274056291N02048606EA0201902055
B1049284056291N02048601EA0202002056
B1049294056293N02048596EA0202002056
B1049304056296N02048593EA0202002057
B1049314056302N02048591EA0202102058
B1049324056307N02048592EA0202302059
B1049334056313N02048593EA0202502061
B1049344056318N02048594EA0202602062
B1049354056323N02048597EA0202802064
B1049364056329N02048599EA0203002066
B1049374056334N02048602EA0203202068
B1049384056339N02048606EA0203402070
B1049394056344N02048610EA0203702073
B1049404056349N02048615EA0203902075
B1049414056353N02048620EA0204102077
B1049424056357N02048624EA0204202078
B1049434056361N02048628EA0204302079
B1049444056367N02048633EA0204302080
B1049454056372N02048638EA0204402081
B1049464056377N02048644EA0204702083
B1049474056382N02048649EA0204902085
B1049484056388N02048655EA0205202088
B1049494056393N02048660EA0205402090
B1049504056398N02048665EA0205602093
B1049514056404N02048670EA0205802094
B1049524056410N02048676EA0206002096
B1049534056416N02048683EA0206202098
B1049544056421N02048689EA0206402101
B1049554056426N02048695EA0206802104
B1049564056431N02048700EA0207002106
B1049574056436N02048703EA0207102107
B1049584056441N02048704EA0207102107
B1049594056446N02048703EA0207002106
B1050004056450N02048699EA0206902105
B1050014056453N02048693EA0207102107
B1050024056453N02048688EA0207302110
B1050034056453N02048683EA0207602112
B1050044056451N02048679EA0207702114
B1050054056449N02048677EA0207902115
B1050064056445N02048674EA0207902115
B1050074056440N02048674EA0207902115
B1050084056434N02048675EA0208002116
B1050094056428N02048678EA0208002116
B1050104056423N02048682EA0208102118
B1050114056418N02048686EA0208202118
B1050124056413N02048689EA0208202118
B1050134056408N02048692EA0208102118
B1050144056402N02048694EA0208002116
B1050154056396N02048695EA0207902115
B1050164056389N02048695EA0208002116
B1050174056384N02048694EA0208102117
B1050184056379N02048694EA0208302119
B1050194056376N02048694EA0208402120
B1050204056373N02048694EA0208302119
B1050214056369N02048693EA0208202118
B1050224056364N02048691EA0208102117
B1050234056358N02048689EA0208002116
B1050244056352N02048687EA0207902116
B1050254056345N02048686EA0208002117
B1050264056339N02048685EA0208202118
B1050274056333N02048683EA0208402120
B1050284056328N02048681EA0208402121
B1050294056323N02048678EA0208502121
B1050304056318N02048676EA0208702123
B1050314056312N02048673EA0208902125
B1050324056307N02048670EA0209002126
B1050334056301N02048668EA0209102128
B1050344056296N02048666EA0209302129
B1050354056291N02048663EA0209502131
B1050364056285N02048661EA0209702133
B1050374056280N02048659EA0209802135
B1050384056275N02048657EA0210002136
B1050394056270N02048654EA0210102137
B1050404056266N02048651EA0210202138
B1050414056261N02048648EA0210202138
B1050424056256N02048645EA0210202138
B1050434056251N02048642EA0210302139
B1050444056245N02048638EA0210502141
B1050454056240N02048635EA0210702143
B1050464056235N02048632EA0210802144
B1050474056230N02048629EA0211002146
B1050484056227N02048625EA0211102147
B1050494056224N02048622EA0211202149
B1050504056223N02048619EA0211302149
B1050514056224N02048616EA0211402150
B1050524056225N02048616EA0211602152
B1050534056227N02048616EA0211702153
B1050544056230N02048618EA0211802154
B1050554056232N02048621EA0211902155
B1050564056234N02048625EA0212002156
B1050574056237N02048629EA0212102157
B1050584056239N02048634EA0212202158
B1050594056242N02048638EA0212202159
B1051004056244N02048643EA0212302159
B1051014056246N02048647EA0212402160
B1051024056249N02048651EA0212402160
B1051034056251N02048656EA0212402160
B1051044056254N02048662EA0212502161
B1051054056258N02048667EA0212602162
B1051064056261N02048673EA0212802164
B1051074056264N02048679EA0213102167
B1051084056267N02048685EA0213202168
B1051094056270N02048692EA0213402170
B1051104056272N02048698EA0213602172
B1051114056274N02048703EA0213802174
B1051124056276N02048707EA0213902175
B1051134056277N02048711EA0213802174
B1051144056280N02048716EA0213702173
B1051154056284N02048722EA0213802174
B1051164056288N02048728EA0214002176
B1051174056291N02048733EA0214202179
B1051184056295N02048737EA0214502181
B1051194056298N02048741EA0214702184
B1051204056302N02048746EA0214802185
B1051214056305N02048751EA0214802184
B1051224056309N02048757EA0215002186
B1051234056312N02048763EA0215402190
B1051244056314N02048768EA0215702193
B1051254056317N02048772EA0216002196
B1051264056319N02048777EA0216302199
B1051274056322N02048781EA0216502201
B1051284056324N02048786EA0216702203
B1051294056328N02048789EA0216902205
B1051304056331N02048792EA0217302209
B1051314056334N02048794EA0217602213
B1051324056337N02048796EA0218002217
B1051334056339N02048797EA0218402220
B1051344056342N02048798EA0218702223
B1051354056344N02048798EA0218902226
B1051364056346N02048798EA0219202228
B1051374056348N02048798EA0219402230
B1051384056349N02048797EA0219402230
B1051394056350N02048794EA0219402230
B1051404056350N02048790EA0219502232
B1051414056350N02048786EA0219702233
B1051424056349N02048782EA0220002236
B1051434056348N02048780EA0220202238
B1051444056348N02048777EA0220202238
B1051454056347N02048774EA0220202239
B1051464056346N02048770EA0220202238
B1051474056345N02048765EA0220202239
B1051484056343N02048761EA0220302239
B1051494056342N02048757EA0220502241
B1051504056342N02048755EA0220602243
B1051514056341N02048752EA0220702243
B1051524056341N02048749EA0220702243
B1051534056341N02048745EA0220702243
B1051544056340N02048741EA0220702243
B1051554056340N02048737EA0220802244
B1051564056340N02048733EA0220802244
B1051574056341N02048729EA0220902245
B1051584056341N02048726EA0220902245
B1051594056342N02048723EA0220802245
B1052004056342N02048719EA0220702244
B1052014056342N02048714EA0220602242
B1052024056343N02048709EA0220502242
B1052034056344N02048705EA0220502241
B1052044056344N02048700EA0220502241
B1052054056344N02048695EA0220402241
B1052064056343N02048690EA0220302240
B1052074056343N02048685EA0220302239
B1052084056342N02048679EA0220202238
B1052094056342N02048674EA0220102238
B1052104056342N02048668EA0220102237
B1052114056342N02048663EA0220002236
B1052124056342N02048657EA0219902235
B1052134056342N02048652EA0219702234
B1052144056343N02048646EA0219702233
B1052154056344N02048641EA0219602232
B1052164056344N02048635EA0219602232
B1052174056345N02048630EA0219602232
B1052184056346N02048625EA0219502232
B1052194056347N02048621EA0219502231
B1052204056349N02048617EA0219402230
B1052214056352N02048614EA0219302229
B1052224056356N02048612EA0219102228
B1052234056361N02048612EA0219102227
B1052244056365N02048612EA0219102228
B1052254056369N02048613EA0219202228
B1052264056373N02048613EA0219202228
B1052274056377N02048614EA0219102227
B1052284056381N02048615EA0219002226
B1052294056385N02048616EA0219002226
B1052304056390N02048616EA0218902225
B1052314056394N02048617EA0219002226
B1052324056398N02048617EA0219002226
B1052334056402N02048618EA0218902226
B1052344056407N02048620EA0218902225
B1052354056411N02048622EA0218802225
B1052364056415N02048625EA0218802224
B1052374056421N02048627EA0218802224
B1052384056425N02048631EA0218802225
B1052394056430N02048634EA0218902225
B1052404056434N02048637EA0218902225
B1052414056438N02048640EA0219002226
B1052424056443N02048643EA0219002226
B1052434056447N02048646EA0218902226
B1052444056452N02048649EA0218902226
B1052454056457N02048651EA0218902226
B1052464056461N02048654EA0218902225
B1052474056466N02048657EA0218902225
B1052484056470N02048659EA0218802224
B1052494056475N02048662EA0218702223
B1052504056480N02048664EA0218702223
B1052514056485N02048667EA0218702223
B1052524056490N02048670EA0218702223
B1052534056495N02048672EA0218702223
B1052544056499N02048675EA0218802224
B1052554056504N02048677EA0218802224
B1052564056509N02048680EA0218902225
B1052574056514N02048682EA0219002226
B1052584056518N02048684EA0219102227
B1052594056522N02048686EA0219102228
B1053004056526N02048687EA0219202228
B1053014056531N02048688EA0219202228
B1053024056535N02048688EA0219202228
B1053034056538N02048689EA0219202228
B1053044056543N02048689EA0219202228
B1053054056547N02048690EA0219202228
B1053064056551N02048690EA0219102227
B1053074056555N02048690EA0219102227
B1053084056560N02048691EA0219102227
B1053094056564N02048693EA0219102228
B1053104056568N02048695EA0219102227
B1053114056573N02048698EA0219002226
B1053124056578N02048700EA0219002226
B1053134056583N02048703EA0219002226
B1053144056588N02048706EA0219002226
B1053154056593N02048709EA0219102227
B1053164056598N02048712EA0219102227
B1053174056602N02048716EA0219102228
B1053184056607N02048719EA0219102227
B1053194056612N02048722EA0219002226
B1053204056617N02048725EA0218902226
B1053214056623N02048727EA0218902226
B1053224056628N02048729EA0218902225
B1053234056633N02048731EA0218902225
B1053244056638N02048733EA0218902225
B1053254056643N02048735EA0218902225
B1053264056648N02048736EA0218802225
B1053274056653N02048738EA0218702224
B1053284056658N02048740EA0218702223
B1053294056663N02048742EA0218602223
B1053304056668N02048743EA0218602222
B1053314056673N02048744EA0218602222
B1053324056677N02048746EA0218502221
B1053334056682N02048747EA0218402221
B1053344056686N02048749EA0218302220
B1053354056691N02048750EA0218302219
B1053364056696N02048752EA0218202218
B1053374056701N02048754EA0218102217
B1053384056705N02048756EA0218102217
B1053394056710N02048758EA0218002217
B1053404056715N02048760EA0218002216
B1053414056720N02048763EA0217902216
B1053424056724N02048765EA0217902215
B1053434056728N02048768EA0217902215
B1053444056733N02048770EA0217802214
B1053454056737N02048773EA0217702213
B1053464056742N02048776EA0217602213
B1053474056747N02048778EA0217602212
B1053484056753N02048780EA0217602212
B1053494056758N02048783EA0217602212
B1053504056762N02048786EA0217602213
B1053514056767N02048790EA0217602212
B1053524056772N02048793EA0217502212
B1053534056777N02048797EA0217502211
B1053544056782N02048801EA0217402210
B1053554056787N02048805EA0217302209
B1053564056792N02048810EA0217302209
B1053574056797N02048814EA0217302209
B1053584056802N02048817EA0217302209
B1053594056807N02048821EA0217302209
B1054004056811N02048825EA0217202209
B1054014056816N02048829EA0217202208
B1054024056820N02048833EA0217102207
B1054034056825N02048836EA0217002207
B1054044056829N02048840EA0217002206
B1054054056834N02048843EA0216902205
B1054064056838N02048847EA0216802205
B1054074056843N02048851EA0216802204
B1054084056847N02048854EA0216802204
B1054094056851N02048858EA0216802204
B1054104056854N02048861EA0216702204
B1054114056858N02048865EA0216702203
B1054124056862N02048867EA0216702203
B1054134056866N02048870EA0216602203
B1054144056870N02048873EA0216602202
B1054154056874N02048876EA0216502202
B1054164056878N02048880EA0216502201
B1054174056883N02048883EA0216402200
B1054184056887N02048886EA0216302199
B1054194056891N02048888EA0216302199
B1054204056895N02048891EA0216202198
B1054214056900N02048894EA0216102198
B1054224056904N02048898EA0216002197
B1054234056908N02048901EA0216002196
B1054244056913N02048904EA0215902195
B1054254056917N02048908EA0215802195
B1054264056921N02048912EA0215702194
B1054274056926N02048915EA0215602193
B1054284056930N02048919EA0215502191
B1054294056934N02048922EA0215302190
B1054304056939N02048926EA0215202188
B1054314056943N02048930EA0215102187
B1054324056947N02048934EA0215002186
B1054334056952N02048938EA0214902185
B1054344056956N02048942EA0214702184
B1054354056960N02048946EA0214602183
B1054364056964N02048949EA0214602182
B1054374056968N02048953EA0214502181
B1054384056972N02048957EA0214402180
B1054394056976N02048961EA0214202178
B1054404056980N02048966EA0214102177
B1054414056985N02048970EA0214002176
B1054424056989N02048975EA0213902176
B1054434056992N02048980EA0213902175
B1054444056996N02048985EA0213802174
B1054454056999N02048991EA0213702173
B1054464057003N02048996EA0213502171
B1054474057007N02049002EA0213402170
B1054484057011N02049008EA0213302169
B1054494057014N02049014EA0213202168
B1054504057018N02049020EA0213102168
B1054514057021N02049026EA0213002166
B1054524057025N02049032EA0212802164
B1054534057028N02049037EA0212702163
B1054544057033N02049043EA0212502162
B1054554057037N02049048EA0212502161
B1054564057040N02049054EA0212502161
B1054574057044N02049059EA0212402161
B1054584057047N02049065EA0212402160
B1054594057051N02049070EA0212302159
B1055004057055N02049076EA0212202158
B1055014057058N02049081EA0212102157
B1055024057062N02049087EA0212002156
B1055034057065N02049092EA0211902155
B1055044057069N02049097EA0211802154
B1055054057073N02049102EA0211702153
B1055064057078N02049106EA0211602152
B1055074057082N02049110EA0211602152
B1055084057086N02049114EA0211602152
B1055094057090N02049119EA0211702153
B1055104057094N02049125EA0211702153
B1055114057098N02049131EA0211702153
B1055124057101N02049137EA0211602152
B1055134057106N02049143EA0211502151
B1055144057110N02049148EA0211402150
B1055154057114N02049155EA0211302149
B1055164057118N02049160EA0211302149
B1055174057122N02049165EA0211302149
B1055184057126N02049170EA0211202149
B1055194057130N02049175EA0211202148
B1055204057133N02049179EA0211102147
B1055214057137N02049184EA0211002147
B1055224057141N02049189EA0211002146
B1055234057145N02049194EA0210902145
B1055244057150N02049199EA0210802144
B1055254057154N02049204EA0210702143
B1055264057158N02049209EA0210602142
B1055274057161N02049214EA0210402140
B1055284057166N02049219EA0210102138
B1055294057170N02049224EA0209902135
B1055304057174N02049228EA0209802134
B1055314057179N02049231EA0209702134
B1055324057183N02049234EA0209702134
B1055334057187N02049237EA0209702133
B1055344057192N02049240EA0209502131
B1055354057196N02049244EA0209302130
B1055364057199N02049247EA0209202129
B1055374057203N02049249EA0209102127
B1055384057207N02049252EA0209002126
B1055394057211N02049255EA0208902125
B1055404057215N02049257EA0208802124
B1055414057218N02049259EA0208702123
B1055424057222N02049261EA0208502122
B1055434057226N02049263EA0208502121
B1055444057231N02049265EA0208502121
B1055454057234N02049268EA0208502121
B1055464057238N02049272EA0208502122
B1055474057242N02049275EA0208502121
B1055484057245N02049277EA0208402120
B1055494057249N02049280EA0208302120
B1055504057253N02049282EA0208302119
B1055514057256N02049285EA0208102117
B1055524057260N02049287EA0208102117
B1055534057263N02049289EA0208002116
B1055544057266N02049291EA0208002116
B1055554057269N02049292EA0208002116
B1055564057272N02049294EA0207902116
B1055574057275N02049295EA0207902115
B1055584057278N02049296EA0207802114
B1055594057280N02049297EA0207702113
B1056004057283N02049299EA0207702113
B1056014057286N02049300EA0207602113
B1056024057290N02049301EA0207502112
B1056034057293N02049302EA0207402110
B1056044057296N02049303EA0207302109
B1056054057300N02049304EA0207202108
B1056064057304N02049305EA0207102107
B1056074057307N02049307EA0207002106
B1056084057311N02049308EA0207002106
B1056094057314N02049310EA0206902105
B1056104057318N02049312EA0206802105
B1056114057322N02049314EA0206702103
B1056124057326N02049315EA0206602102
B1056134057329N02049316EA0206502101
B1056144057333N02049317EA0206402100
B1056154057337N02049319EA0206302099
B1056164057340N02049320EA0206102097
B1056174057344N02049321EA0205802095
B1056184057347N02049321EA0205602093
B1056194057351N02049322EA0205502091
B1056204057355N02049323EA0205202089
B1056214057358N02049323EA0205102088
B1056224057362N02049324EA0205002087
B1056234057366N02049325EA0205002086
B1056244057369N02049327EA0204902085
B1056254057372N02049328EA0204902085
B1056264057375N02049330EA0204802084
B1056274057379N02049332EA0204602082
B1056284057383N02049334EA0204502081
B1056294057386N02049336EA0204302079
B1056304057390N02049338EA0204202079
B1056314057393N02049340EA0204202078
B1056324057396N02049342EA0204002076
B1056334057400N02049343EA0203802075
B1056344057403N02049345EA0203702073
B1056354057406N02049345EA0203602072
B1056364057409N02049346EA0203402070
B1056374057412N02049346EA0203302069
B1056384057415N02049347EA0203202068
B1056394057418N02049347EA0203202068
B1056404057420N02049347EA0203002066
B1056414057422N02049345EA0202902065
B1056424057423N02049344EA0202802064
B1056434057425N02049342EA0202602063
B1056444057427N02049340EA0202602062
B1056454057429N02049339EA0202402061
B1056464057430N02049337EA0202302059
B1056474057432N02049334EA0202102057
B1056484057434N02049332EA0202002056
B1056494057436N02049330EA0201802054
B1056504057438N02049328EA0201602052
B1056514057441N02049326EA0201302049
B1056524057443N02049325EA0201102048
B1056534057446N02049323EA0201002046
B1056544057448N02049320EA0200702043
B1056554057449N02049317EA0200202039
B1056564057450N02049313EA0200002036
B1056574057452N02049310EA0199902035
B1056584057454N02049308EA0199702033
B1056594057455N02049305EA0199602032
B1057004057456N02049303EA0199302029
B1057014057458N02049300EA0199002026
B1057024057459N02049297EA0198802024
B1057034057461N02049295EA0198702023
B1057044057462N02049293EA0198602022
B1057054057463N02049291EA0198602023
B1057064057463N02049291EA0198302019
B1057074057464N02049290EA0198002016
B1057084057465N02049289EA0197602012
B1057094057467N02049288EA0197102007
B1057104057469N02049286EA0196702003
B1057114057471N02049284EA0196301999
B1057124057472N02049281EA0196101997
B1057134057473N02049280EA0196201998
B1057144057475N02049279EA0196001996
B1057154057476N02049278EA0195701994
B1057164057478N02049277EA0195401990
B1057174057480N02049275EA0195001986
B1057184057481N02049271EA0194601982
B1057194057483N02049266EA0194401981
B1057204057486N02049262EA0194401980
B1057214057490N02049259EA0194401981
B1057224057494N02049257EA0194501981
B1057234057496N02049253EA0194501981
B1057244057497N02049249EA0194201979
B1057254057498N02049245EA0194201978
B1057264057499N02049242EA0194301979
B1057274057501N02049239EA0194201978
B1057284057504N02049236EA0193901975
B1057294057506N02049232EA0193801974
B1057304057507N02049227EA0193801974
B1057314057507N02049221EA0193901975
B1057324057508N02049217EA0194101978
B1057334057509N02049213EA0194401980
B1057344057510N02049209EA0194501981
B1057354057512N02049205EA0194601982
B1057364057513N02049201EA0194501981
B1057374057513N02049196EA0194601982
B1057384057514N02049192EA0194701983
B1057394057513N02049189EA0194801984
B1057404057513N02049186EA0194801984
B1057414057513N02049182EA0194801984
B1057424057513N02049177EA0194501981
B1057434057513N02049172EA0194301979
B1057444057512N02049166EA0194201978
B1057454057511N02049161EA0194201978
B1057464057510N02049156EA0194301979
B1057474057509N02049153EA0194201978
B1057484057509N02049149EA0194001976
B1057494057509N02049145EA0193801974
B1057504057509N02049141EA0193501971
B1057514057509N02049137EA0193301969
B1057524057510N02049133EA0193001966
B1057534057512N02049128EA0192901966
B1057544057513N02049124EA0192901965
B1057554057515N02049119EA0192901965
B1057564057516N02049114EA0192901966
B1057574057517N02049110EA0193101967
B1057584057516N02049107EA0193401970
B1057594057515N02049105EA0193501971
B1058004057514N02049104EA0193401970
B1058014057514N02049102EA0193201969
B1058024057513N02049100EA0193201968
B1058034057512N02049098EA0193201969
B1058044057511N02049096EA0193201968
B1058054057510N02049095EA0193201968
B1058064057509N02049094EA0193201968
B1058074057509N02049093EA0193101968
B1058084057508N02049092EA0193201968
B1058094057507N02049090EA0193001966
B1058104057507N02049087EA0192901965
B1058114057506N02049085EA0192801965
B1058124057505N02049082EA0192801964
B1058134057505N02049080EA0192701964
B1058144057505N02049078EA0192801964
B1058154057505N02049076EA0192801964
B1058164057505N02049075EA0192601962
B1058174057504N02049074EA0192501962
B1058184057505N02049072EA0192401961
B1058194057504N02049071EA0192301960
B1058204057504N02049069EA0192301959
B1058214057503N02049067EA0192201959
B1058224057502N02049066EA0192001957
B1058234057502N02049064EA0191901956
B1058244057502N02049064EA0191801954
B1058254057502N02049063EA0191601952
B1058264057501N02049061EA0191401950
B1058274057500N02049060EA0191201948
B1058284057499N02049059EA0191201948
B1058294057499N02049058EA0191101948
B1058304057499N02049057EA0191001946
B1058314057498N02049057EA0190801944
B1058324057498N02049056EA0190701943
B1058334057497N02049055EA0190501941
B1058344057498N02049055EA0190401940
B1058354057498N02049055EA0190301939
B1058364057499N02049055EA0190201938
B1058374057501N02049055EA0190001936
B1058384057502N02049054EA0189801934
B1058394057503N02049052EA0189701933
B1058404057504N02049050EA0189601932
B1058414057505N02049047EA0189501931
B1058424057505N02049045EA0189501931
B1058434057505N02049042EA0189501932
B1058444057504N02049040EA0189501931
B1058454057503N02049038EA0189601932
B1058464057503N02049035EA0189601932
B1058474057502N02049033EA0189501931
B1058484057503N02049031EA0189601932
B1058494057503N02049029EA0189601932
B1058504057503N02049027EA0189601932
B1058514057503N02049025EA0189601932
B1058524057503N02049023EA0189601933
B1058534057503N02049021EA0189601932
B1058544057503N02049018EA0189601933
B1058554057503N02049016EA0189701933
B1058564057503N02049014EA0189801934
B1058574057503N02049012EA0189901935
B1058584057503N02049010EA0189901935
B1058594057503N02049008EA0190001936
B1059004057502N02049006EA0190001936
B1059014057502N02049004EA0189901935
B1059024057503N02049002EA0189901935
B1059034057503N02048999EA0189901935
B1059044057503N02048997EA0189901935
B1059054057502N02048995EA0189901936
B1059064057502N02048993EA0189901935
B1059074057502N02048991EA0189901935
B1059084057503N02048989EA0189801935
B1059094057503N02048987EA0189801934
B1059104057503N02048985EA0189601932
B1059114057503N02048983EA0189501931
B1059124057504N02048980EA0189501931
B1059134057504N02048978EA0189301930
B1059144057504N02048976EA0189301929
B1059154057504N02048974EA0189201928
B1059164057503N02048971EA0189001926
B1059174057503N02048969EA0189001926
B1059184057503N02048966EA0188901925
B1059194057503N02048964EA0188801924
B1059204057502N02048961EA0188701923
B1059214057502N02048958EA0188701924
B1059224057502N02048956EA0188801925
B1059234057502N02048954EA0188701923
B1059244057503N02048953EA0188501922
B1059254057503N02048951EA0188401920
B1059264057503N02048948EA0188201918
B1059274057503N02048945EA0188001916
B1059284057502N02048943EA0187901915
B1059294057502N02048941EA0187801914
B1059304057501N02048940EA0187601912
B1059314057501N02048938EA0187301909
B1059324057500N02048936EA0187001906
B1059334057500N02048933EA0186601902
B1059344057500N02048930EA0186301899
B1059354057500N02048926EA0186001897
B1059364057500N02048922EA0185701894
B1059374057500N02048919EA0185701893
B1059384057501N02048917EA0185401890
B1059394057501N02048914EA0185101888
B1059404057501N02048911EA0184701883
B1059414057501N02048909EA0184201878
B1059424057502N02048905EA0183801874
B1059434057503N02048902EA0183701873
B1059444057504N02048898EA0183501872
B1059454057505N02048895EA0183601872
B1059464057506N02048892EA0183801874
B1059474057507N02048889EA0183901875
B1059484057508N02048887EA0183901875
B1059494057509N02048886EA0184001877
B1059504057510N02048886EA0184001876
B1059514057511N02048884EA0183901875
B1059524057513N02048882EA0183701874
B1059534057514N02048878EA0183601872
B1059544057514N02048873EA0183701874
B1059554057515N02048867EA0183901875
B1059564057517N02048862EA0184301879
B1059574057519N02048857EA0184701883
B1059584057520N02048853EA0185001886
B1059594057520N02048849EA0185301889
B1100004057520N02048846EA0185501892
B1100014057521N02048843EA0185701894
B1100024057522N02048840EA0186001897
B1100034057524N02048837EA0186001896
B1100044057525N02048833EA0186001896
B1100054057525N02048829EA0186001897
B1100064057526N02048826EA0186301899
B1100074057525N02048824EA0186601902
B1100084057525N02048823EA0186701903
B1100094057524N02048823EA0186601903
B1100104057522N02048822EA0186501901
B1100114057521N02048820EA0186201898
B1100124057521N02048817EA0185901896
B1100134057521N02048814EA0185801895
B1100144057521N02048811EA0185801894
B1100154057521N02048808EA0186001896
B1100164057521N02048806EA0185901895
B1100174057522N02048803EA0185701894
B1100184057523N02048801EA0185501892
B1100194057524N02048798EA0185401890
B1100204057525N02048795EA0185301889
B1100214057526N02048791EA0185301889
B1100224057525N02048788EA0185201889
B1100234057524N02048785EA0185101888
B1100244057523N02048782EA0185001886
B1100254057522N02048780EA0184701884
B1100264057521N02048777EA0184501881
B1100274057519N02048774EA0184301879
B1100284057519N02048770EA0184001876
B1100294057519N02048766EA0183901876
B1100304057518N02048763EA0184001876
B1100314057517N02048760EA0184101877
B1100324057516N02048758EA0184201878
B1100334057514N02048757EA0184101877
B1100344057512N02048755EA0184001876
B1100354057510N02048753EA0184001876
B1100364057508N02048751EA0184001876
B1100374057506N02048750EA0184001876
B1100384057504N02048748EA0184101877
B1100394057502N02048747EA0184101877
B1100404057500N02048745EA0184001876
B1100414057499N02048744EA0184001876
B1100424057496N02048742EA0184001876
B1100434057494N02048740EA0183901875
B1100444057491N02048738EA0183901875
B1100454057488N02048736EA0183901875
B1100464057485N02048735EA0183901875
B1100474057483N02048733EA0183901875
B1100484057480N02048731EA0183801874
B1100494057477N02048728EA0183801875
B1100504057474N02048726EA0183901875
B1100514057471N02048724EA0183901875
B1100524057468N02048722EA0183901875
B1100534057465N02048720EA0183901875
B1100544057462N02048718EA0183801874
B1100554057459N02048716EA0183801874
B1100564057456N02048713EA0183801874
B1100574057453N02048710EA0183801874
B1100584057450N02048708EA0183701873
B1100594057447N02048706EA0183701874
B1101004057444N02048704EA0183601873
B1101014057441N02048702EA0183501871
B1101024057438N02048699EA0183401870
B1101034057435N02048696EA0183401870
B1101044057432N02048693EA0183301869
B1101054057429N02048691EA0183301869
B1101064057426N02048689EA0183301869
B1101074057423N02048688EA0183301869
B1101084057421N02048686EA0183301869
B1101094057418N02048683EA0183201869
B1101104057415N02048681EA0183201868
B1101114057413N02048678EA0183201868
B1101124057410N02048677EA0183201868
B1101134057408N02048674EA0183201868
B1101144057406N02048672EA0183101868
B1101154057403N02048669EA0183001866
B1101164057400N02048665EA0182901865
B1101174057397N02048662EA0183201868
B1101184057394N02048660EA0183401870
B1101194057392N02048658EA0183401870
B1101204057389N02048655EA0183301870
B1101214057386N02048653EA0183201869
B1101224057383N02048651EA0183201868
B1101234057380N02048649EA0183101867
B1101244057377N02048647EA0183001866
B1101254057374N02048644EA0182901865
B1101264057371N02048642EA0182901866
B1101274057369N02048640EA0183001866
B1101284057367N02048639EA0183101867
B1101294057364N02048639EA0183001866
B1101304057361N02048638EA0182801864
B1101314057358N02048637EA0182701863
B1101324057355N02048635EA0182601862
B1101334057352N02048633EA0182501861
B1101344057348N02048632EA0182501861
B1101354057345N02048630EA0182401860
B1101364057341N02048629EA0182301859
B1101374057338N02048628EA0182201858
B1101384057335N02048627EA0182001857
B1101394057331N02048625EA0181901855
B1101404057328N02048624EA0181801854
B1101414057326N02048622EA0181701853
B1101424057323N02048621EA0181601853
B1101434057320N02048619EA0181601852
B1101444057317N02048618EA0181501851
B1101454057314N02048617EA0181401850
B1101464057312N02048616EA0181301849
B1101474057309N02048615EA0181201848
B1101484057306N02048613EA0181101847
B1101494057304N02048612EA0181001846
B1101504057301N02048610EA0181001846
B1101514057299N02048609EA0180901845
B1101524057296N02048608EA0180701844
B1101534057294N02048607EA0180601842
B1101544057291N02048605EA0180401840
B1101554057289N02048603EA0180301839
B1101564057286N02048601EA0180201839
B1101574057283N02048599EA0180201838
B1101584057280N02048597EA0180201839
B1101594057277N02048596EA0180201839
B1102004057274N02048594EA0180201839
B1102014057271N02048592EA0180201839
B1102024057269N02048590EA0180201838
B1102034057266N02048587EA0180101837
B1102044057264N02048585EA0180101837
B1102054057262N02048582EA0180001836
B1102064057260N02048580EA0180001836
B1102074057257N02048579EA0179901835
B1102084057255N02048577EA0179801834
B1102094057253N02048575EA0179701833
B1102104057251N02048573EA0179601832
B1102114057249N02048571EA0179501831
B1102124057246N02048569EA0179401831
B1102134057243N02048568EA0179401830
B1102144057240N02048566EA0179301829
B1102154057239N02048563EA0179201829
B1102164057237N02048561EA0179301829
B1102174057235N02048559EA0179301829
B1102184057232N02048557EA0179301829
B1102194057229N02048556EA0179301829
B1102204057227N02048555EA0179201828
B1102214057224N02048553EA0179001827
B1102224057222N02048551EA0179001826
B1102234057220N02048548EA0178901825
B1102244057217N02048546EA0178901825
B1102254057215N02048543EA0178801825
B1102264057213N02048541EA0178801824
B1102274057212N02048538EA0178701824
B1102284057210N02048535EA0178601823
B1102294057209N02048532EA0178601822
B1102304057207N02048528EA0178601822
B1102314057205N02048525EA0178601822
B1102324057204N02048523EA0178501821
B1102334057202N02048520EA0178501821
B1102344057200N02048517EA0178401820
B1102354057198N02048513EA0178401820
B1102364057196N02048510EA0178401820
B1102374057194N02048507EA0178401820
B1102384057192N02048505EA0178401820
B1102394057191N02048502EA0178301820
B1102404057189N02048500EA0178201818
B1102414057187N02048497EA0178001816
B1102424057184N02048495EA0177901815
B1102434057181N02048492EA0177801814
B1102444057179N02048490EA0177701813
B1102454057177N02048487EA0177601812
B1102464057174N02048485EA0177501811
B1102474057172N02048483EA0177401810
B1102484057169N02048481EA0177301810
B1102494057168N02048479EA0177201809
B1102504057166N02048476EA0177201808
B1102514057165N02048473EA0177101808
B1102524057163N02048470EA0177101807
B1102534057160N02048468EA0177101807
B1102544057158N02048466EA0177101807
B1102554057155N02048463EA0177001806
B1102564057154N02048461EA0177001806
B1102574057152N02048459EA0176901805
B1102584057150N02048456EA0176701804
B1102594057147N02048453EA0176601802
B1103004057144N02048450EA0176501802
B1103014057141N02048448EA0176601802
B1103024057137N02048446EA0176601802
B1103034057134N02048445EA0176501801
B1103044057130N02048444EA0176501801
B1103054057128N02048443EA0176301799
B1103064057125N02048440EA0176201798
B1103074057122N02048438EA0176101797
B1103084057120N02048436EA0176101797
B1103094057117N02048434EA0176101797
B1103104057115N02048432EA0176101797
B1103114057113N02048431EA0176001796
B1103124057111N02048429EA0175801794
B1103134057109N02048427EA0175701793
B1103144057107N02048424EA0175501791
B1103154057104N02048421EA0175301790
B1103164057102N02048417EA0175301789
B1103174057101N02048414EA0175301789
B1103184057099N02048411EA0175301789
B1103194057096N02048408EA0175101788
B1103204057093N02048405EA0174901786
B1103214057090N02048401EA0174801784
B1103224057087N02048397EA0174601783
B1103234057084N02048394EA0174601783
B1103244057080N02048392EA0174501781
B1103254057076N02048390EA0174401780
B1103264057073N02048388EA0174101777
B1103274057070N02048385EA0173801774
B1103284057068N02048381EA0173501771
B1103294057066N02048376EA0173201769
B1103304057064N02048370EA0173201768
B1103314057063N02048364EA0173101768
B1103324057060N02048360EA0173201769
B1103334057058N02048356EA0173301769
B1103344057057N02048352EA0173201768
B1103354057056N02048347EA0173301770
B1103364057054N02048343EA0173601772
B1103374057052N02048340EA0173901776
B1103384057049N02048337EA0174401780
B1103394057045N02048336EA0174501782
B1103404057043N02048334EA0174601782
B1103414057041N02048331EA0174501781
B1103424057039N02048329EA0174401781
B1103434057037N02048325EA0174601782
B1103444057034N02048322EA0174501782
B1103454057031N02048318EA0174701783
B1103464057029N02048315EA0174901785
B1103474057027N02048312EA0175001786
B1103484057025N02048311EA0175001786
B1103494057023N02048308EA0175001786
B1103504057021N02048306EA0174901785
B1103514057018N02048303EA0175001786
B1103524057015N02048301EA0175001786
B1103534057013N02048298EA0175001786
B1103544057011N02048296EA0175001786
B1103554057008N02048293EA0175201788
B1103564057006N02048291EA0175201788
B1103574057003N02048289EA0175401790
B1103584057000N02048286EA0175601793
B1103594056997N02048284EA0175801794
B1104004056995N02048282EA0175801794
B1104014056993N02048279EA0175801794
B1104024056991N02048277EA0175901795
B1104034056988N02048275EA0176001796
B1104044056984N02048274EA0176201798
B1104054056981N02048272EA0176301799
B1104064056979N02048269EA0176301800
B1104074056978N02048266EA0176401800
B1104084056977N02048262EA0176401800
B1104094056976N02048259EA0176501801
B1104104056973N02048255EA0176501802
B1104114056971N02048251EA0176701803
B1104124056968N02048247EA0176901806
B1104134056965N02048244EA0177201808
B1104144056964N02048242EA0177301809
B1104154056962N02048239EA0177501811
B1104164056960N02048236EA0177601812
B1104174056957N02048232EA0177701813
B1104184056955N02048229EA0177901815
B1104194056952N02048226EA0178201818
B1104204056949N02048223EA0178401820
B1104214056947N02048221EA0178601822
B1104224056945N02048219EA0178701823
B1104234056943N02048219EA0178801824
B1104244056941N02048218EA0178701823
B1104254056939N02048215EA0178701823
B1104264056937N02048213EA0178601822
B1104274056935N02048210EA0178701823
B1104284056932N02048207EA0178801824
B1104294056929N02048205EA0178901825
B1104304056926N02048203EA0179001826
B1104314056924N02048201EA0179001826
B1104324056922N02048199EA0179001826
B1104334056920N02048195EA0178801824
B1104344056918N02048191EA0178601822
B1104354056915N02048188EA0178401821
B1104364056913N02048184EA0178301819
B1104374056911N02048180EA0178101817
B1104384056911N02048176EA0178001817
B1104394056911N02048172EA0178201818
B1104404056910N02048169EA0178401820
B1104414056907N02048166EA0178701823
B1104424056903N02048166EA0178701824
B1104434056900N02048165EA0178601822
B1104444056898N02048163EA0178501821
B1104454056895N02048159EA0178501821
B1104464056892N02048154EA0178401820
B1104474056888N02048149EA0178601822
B1104484056885N02048145EA0178801825
B1104494056883N02048142EA0179101827
B1104504056880N02048139EA0179201829
B1104514056876N02048136EA0179201828
B1104524056873N02048134EA0179101827
B1104534056869N02048130EA0179001827
B1104544056865N02048127EA0179101827
B1104554056861N02048123EA0179201828
B1104564056858N02048120EA0179301829
B1104574056855N02048118EA0179301830
B1104584056852N02048115EA0179301829
B1104594056849N02048112EA0179301829
B1105004056846N02048108EA0179401830
B1105014056843N02048104EA0179401831
B1105024056840N02048101EA0179601832
B1105034056837N02048098EA0179801834
B1105044056835N02048097EA0179901835
B1105054056833N02048096EA0179901836
B1105064056831N02048094EA0179801835
B1105074056828N02048091EA0179601832
B1105084056825N02048087EA0179501831
B1105094056822N02048083EA0179401830
B1105104056819N02048079EA0179401830
B1105114056816N02048075EA0179501831
B1105124056813N02048071EA0179501831
B1105134056809N02048068EA0179501832
B1105144056806N02048064EA0179701833
B1105154056804N02048060EA0179701833
B1105164056800N02048056EA0179801835
B1105174056796N02048051EA0180001837
B1105184056791N02048046EA0180401840
B1105194056787N02048040EA0180901845
B1105204056784N02048036EA0181501851
B1105214056783N02048034EA0181901855
B1105224056781N02048032EA0182201858
B1105234056779N02048029EA0182301859
B1105244056776N02048026EA0182501861
B1105254056774N02048021EA0182601862
B1105264056770N02048017EA0182901865
B1105274056768N02048013EA0183301869
B1105284056765N02048010EA0183501871
B1105294056763N02048007EA0183601873
B1105304056762N02048003EA0183801875
B1105314056759N02047999EA0184001876
B1105324056755N02047995EA0184301879
B1105334056751N02047992EA0184601882
B1105344056748N02047989EA0184801884
B1105354056744N02047987EA0185001886
B1105364056741N02047984EA0185101887
B1105374056738N02047981EA0185201888
B1105384056733N02047977EA0185301889
B1105394056729N02047974EA0185601892
B1105404056725N02047971EA0185801895
B1105414056721N02047969EA0186001897
B1105424056718N02047967EA0186201899
B1105434056715N02047964EA0186401900
B1105444056711N02047961EA0186601902
B1105454056708N02047959EA0186801904
B1105464056705N02047956EA0187001907
B1105474056701N02047954EA0187301910
B1105484056698N02047952EA0187501911
B1105494056695N02047950EA0187601912
B1105504056693N02047947EA0187601912
B1105514056689N02047944EA0187701913
B1105524056686N02047941EA0187801914
B1105534056683N02047937EA0187901915
B1105544056680N02047934EA0188101917
B1105554056676N02047931EA0188201918
B1105564056673N02047929EA0188301919
B1105574056669N02047926EA0188401920
B1105584056665N02047923EA0188501921
B1105594056661N02047920EA0188601922
B1106004056657N02047917EA0188701923
B1106014056653N02047914EA0188801924
B1106024056648N02047911EA0188901925
B1106034056644N02047909EA0188901925
B1106044056640N02047906EA0188901925
B1106054056635N02047903EA0188901926
B1106064056631N02047899EA0189001926
B1106074056626N02047896EA0189001926
B1106084056621N02047894EA0189001927
B1106094056617N02047891EA0189101927
B1106104056613N02047889EA0189101927
B1106114056610N02047886EA0189001926
B1106124056606N02047883EA0188901925
B1106134056602N02047880EA0188801924
B1106144056599N02047877EA0188701923
B1106154056595N02047873EA0188701923
B1106164056591N02047871EA0188601922
B1106174056588N02047868EA0188601922
B1106184056584N02047865EA0188501922
B1106194056580N02047861EA0188501921
B1106204056577N02047858EA0188501921
B1106214056573N02047855EA0188501921
B1106224056570N02047853EA0188501921
B1106234056566N02047851EA0188401920
B1106244056563N02047848EA0188201918
B1106254056559N02047846EA0188001916
B1106264056555N02047843EA0187901916
B1106274056551N02047840EA0188001916
B1106284056546N02047836EA0188001916
B1106294056542N02047833EA0188101917
B1106304056538N02047831EA0188101917
B1106314056535N02047829EA0188001917
B1106324056531N02047827EA0188001917
B1106334056528N02047825EA0187901916
B1106344056524N02047822EA0187901915
B1106354056521N02047820EA0187801914
B1106364056518N02047817EA0187601912
B1106374056515N02047814EA0187601912
B1106384056512N02047812EA0187501911
B1106394056509N02047811EA0187301909
B1106404056506N02047809EA0187001906
B1106414056502N02047806EA0186801904
B1106424056499N02047804EA0186601902
B1106434056496N02047801EA0186401900
B1106444056493N02047799EA0186301899
B1106454056491N02047796EA0186101897
B1106464056488N02047793EA0186001896
B1106474056485N02047789EA0185801895
B1106484056481N02047786EA0185801894
B1106494056477N02047783EA0185701894
B1106504056474N02047780EA0185701893
B1106514056470N02047779EA0185701893
B1106524056466N02047778EA0185601892
B1106534056462N02047777EA0185401890
B1106544056458N02047775EA0185201888
B1106554056453N02047772EA0185101887
B1106564056449N02047770EA0185001887
B1106574056445N02047769EA0185001886
B1106584056442N02047768EA0184801885
B1106594056439N02047766EA0184701883
B1107004056436N02047765EA0184501881
B1107014056432N02047764EA0184201879
B1107024056428N02047762EA0184001877
B1107034056424N02047760EA0183901875
B1107044056421N02047758EA0183701874
B1107054056418N02047756EA0183601872
B1107064056415N02047754EA0183401870
B1107074056411N02047752EA0183301869
B1107084056407N02047750EA0183101867
B1107094056404N02047748EA0183001866
B1107104056400N02047746EA0183001866
B1107114056397N02047745EA0182901865
B1107124056394N02047743EA0182701863
B1107134056391N02047742EA0182501861
B1107144056388N02047739EA0182301860
B1107154056384N02047737EA0182301859
B1107164056381N02047734EA0182301859
B1107174056378N02047733EA0182301859
B1107184056375N02047732EA0182301859
B1107194056371N02047731EA0182201858
B1107204056368N02047730EA0182101857
B1107214056364N02047729EA0182001857
B1107224056361N02047728EA0181901856
B1107234056357N02047727EA0181901855
B1107244056353N02047727EA0181801854
B1107254056349N02047726EA0181701853
B1107264056345N02047724EA0181501851
B1107274056342N02047723EA0181401850
B1107284056339N02047722EA0181301849
B1107294056335N02047720EA0181201848
B1107304056332N02047718EA0181101848
B1107314056330N02047716EA0181001847
B1107324056327N02047714EA0181001846
B1107334056324N02047712EA0181001846
B1107344056321N02047711EA0180901846
B1107354056318N02047709EA0180901845
B1107364056315N02047707EA0180801845
B1107374056312N02047705EA0180801844
B1107384056310N02047701EA0180801844
B1107394056308N02047697EA0180801845
B1107404056307N02047693EA0181001846
B1107414056305N02047691EA0181201848
B1107424056304N02047688EA0181301849
B1107434056302N02047687EA0181401851
B1107444056300N02047685EA0181301850
B1107454056298N02047684EA0181201849
B1107464056297N02047681EA0181101847
B1107474056295N02047678EA0181001846
B1107484056293N02047675EA0180901846
B1107494056291N02047672EA0180901845
B1107504056289N02047669EA0180901845
B1107514056287N02047667EA0180801845
B1107524056285N02047666EA0180801844
B1107534056284N02047664EA0180701843
B1107544056282N02047662EA0180501842
B1107554056280N02047659EA0180401840
B1107564056277N02047656EA0180201839
B1107574056275N02047654EA0180101837
B1107584056273N02047651EA0180001836
B1107594056271N02047648EA0179801834
B1108004056270N02047645EA0179601832
B1108014056269N02047642EA0179301830
B1108024056268N02047638EA0179101828
B1108034056268N02047635EA0179101827
B1108044056267N02047633EA0179001827
B1108054056266N02047631EA0178901825
B1108064056264N02047630EA0178701823
B1108074056263N02047628EA0178401820
B1108084056261N02047626EA0178101817
B1108094056260N02047623EA0177801815
B1108104056258N02047620EA0177601813
B1108114056255N02047617EA0177501811
B1108124056253N02047615EA0177401810
B1108134056250N02047612EA0177101807
B1108144056248N02047609EA0176901805
B1108154056247N02047605EA0176601803
B1108164056246N02047602EA0176401800
B1108174056245N02047598EA0176201798
B1108184056244N02047595EA0176001796
B1108194056243N02047591EA0175801795
B1108204056242N02047588EA0175701793
B1108214056242N02047584EA0175601792
B1108224056240N02047581EA0175601792
B1108234056239N02047578EA0175501791
B1108244056238N02047576EA0175301790
B1108254056237N02047574EA0175101787
B1108264056236N02047572EA0174801784
B1108274056235N02047570EA0174501782
B1108284056233N02047568EA0174201778
B1108294056231N02047565EA0174001776
B1108304056227N02047562EA0173801774
B1108314056225N02047560EA0173501771
B1108324056222N02047557EA0173201769
B1108334056219N02047553EA0173101767
B1108344056217N02047550EA0172901765
B1108354056215N02047547EA0172601762
B1108364056213N02047543EA0172401760
B1108374056211N02047540EA0172201758
B1108384056210N02047536EA0172001756
B1108394056208N02047531EA0171801754
B1108404056206N02047526EA0171601752
B1108414056205N02047522EA0171501751
B1108424056204N02047517EA0171301750
B1108434056203N02047513EA0171101747
B1108444056202N02047508EA0170901746
B1108454056200N02047503EA0170801744
B1108464056198N02047497EA0170701743
B1108474056195N02047492EA0170701743
B1108484056193N02047488EA0170601742
B1108494056190N02047483EA0170401740
B1108504056188N02047477EA0170201738
B1108514056187N02047471EA0170101737
B1108524056185N02047464EA0170001736
B1108534056184N02047458EA0170101737
B1108544056182N02047453EA0170301739
B1108554056181N02047449EA0170301739
B1108564056180N02047445EA0170201738
B1108574056179N02047441EA0170001737
B1108584056178N02047436EA0169901736
B1108594056177N02047431EA0169901736
B1109004056177N02047426EA0170101737
B1109014056175N02047423EA0170201738
B1109024056174N02047421EA0170401740
B1109034056173N02047419EA0170401740
B1109044056172N02047417EA0170501741
B1109054056171N02047415EA0170501741
B1109064056169N02047412EA0170501741
B1109074056169N02047409EA0170501742
B1109084056168N02047407EA0170601742
B1109094056167N02047404EA0170601743
B1109104056167N02047402EA0170701743
B1109114056166N02047399EA0170701743
B1109124056165N02047396EA0170701744
B1109134056164N02047393EA0170801744
B1109144056163N02047390EA0170801744
B1109154056162N02047388EA0170901745
B1109164056161N02047385EA0171001746
B1109174056159N02047383EA0171101747
B1109184056158N02047380EA0171101747
B1109194056157N02047378EA0171001747
B1109204056156N02047375EA0171001747
B1109214056155N02047371EA0171101747
B1109224056154N02047368EA0171201748
B1109234056153N02047364EA0171401750
B1109244056151N02047361EA0171401751
B1109254056149N02047358EA0171601752
B1109264056147N02047355EA0171701753
B1109274056144N02047352EA0171801754
B1109284056143N02047350EA0171901755
B1109294056141N02047347EA0172101757
B1109304056139N02047345EA0172101757
B1109314056137N02047343EA0172201758
B1109324056135N02047340EA0172201758
B1109334056133N02047337EA0172301759
B1109344056132N02047333EA0172401761
B1109354056130N02047331EA0172601762
B1109364056129N02047329EA0172801764
B1109374056128N02047328EA0172901765
B1109384056126N02047326EA0173001766
B1109394056124N02047323EA0173001766
B1109404056122N02047320EA0173001766
B1109414056120N02047317EA0173001766
B1109424056118N02047314EA0173101768
B1109434056116N02047311EA0173201768
B1109444056113N02047308EA0173301769
B1109454056111N02047305EA0173401770
B1109464056109N02047302EA0173601772
B1109474056107N02047300EA0173701773
B1109484056105N02047298EA0173901775
B1109494056102N02047295EA0174001776
B1109504056099N02047292EA0174001776
B1109514056097N02047289EA0174101777
B1109524056095N02047286EA0174201778
B1109534056093N02047283EA0174301779
B1109544056090N02047280EA0174501781
B1109554056088N02047278EA0174601782
B1109564056086N02047275EA0174501781
B1109574056084N02047272EA0174401781
B1109584056082N02047269EA0174501781
B1109594056079N02047265EA0174601782
B1110004056078N02047262EA0174801784
B1110014056076N02047258EA0174901785
B1110024056074N02047256EA0175001787
B1110034056071N02047253EA0175101788
B1110044056068N02047250EA0175201788
B1110054056066N02047246EA0175201788
B1110064056064N02047242EA0175301789
B1110074056062N02047239EA0175501791
B1110084056059N02047236EA0175701793
B1110094056057N02047233EA0175701794
B1110104056054N02047230EA0175801794
B1110114056052N02047226EA0175701793
B1110124056050N02047223EA0175701793
B1110134056049N02047219EA0175801794
B1110144056047N02047216EA0175901795
B1110154056045N02047212EA0176001797
B1110164056042N02047208EA0176101798
B1110174056040N02047205EA0176201798
B1110184056038N02047201EA0176301800
B1110194056036N02047198EA0176501801
B1110204056034N02047195EA0176501802
B1110214056031N02047191EA0176601802
B1110224056029N02047188EA0176601802
B1110234056027N02047184EA0176701803
B1110244056024N02047180EA0176701804
B1110254056021N02047176EA0176801804
B1110264056018N02047172EA0176901805
B1110274056016N02047168EA0176901806
B1110284056013N02047164EA0177101807
B1110294056011N02047160EA0177101808
B1110304056009N02047157EA0177201808
B1110314056007N02047153EA0177201808
B1110324056005N02047149EA0177301809
B1110334056004N02047146EA0177301809
B1110344056001N02047142EA0177401810
B1110354056000N02047138EA0177401810
B1110364055997N02047134EA0177401811
B1110374055996N02047130EA0177401811
B1110384055994N02047126EA0177501811
B1110394055992N02047122EA0177601812
B1110404055990N02047118EA0177601812
B1110414055988N02047114EA0177601812
B1110424055986N02047110EA0177601812
B1110434055984N02047106EA0177601812
B1110444055982N02047102EA0177601813
B1110454055980N02047098EA0177601812
B1110464055978N02047093EA0177601813
B1110474055975N02047089EA0177601812
B1110484055973N02047084EA0177601812
B1110494055971N02047080EA0177701813
B1110504055968N02047075EA0177701814
B1110514055967N02047072EA0177801814
B1110524055964N02047068EA0177701814
B1110534055962N02047064EA0177601813
B1110544055959N02047059EA0177601812
B1110554055957N02047054EA0177501812
B1110564055955N02047050EA0177601812
B1110574055953N02047045EA0177601813
B1110584055950N02047042EA0177701813
B1110594055948N02047038EA0177701813
B1111004055945N02047034EA0177601812
B1111014055943N02047030EA0177501811
B1111024055940N02047025EA0177401811
B1111034055938N02047021EA0177501811
B1111044055936N02047017EA0177501811
B1111054055934N02047014EA0177401811
B1111064055932N02047010EA0177301809
B1111074055930N02047005EA0177201808
B1111084055928N02047001EA0177201808
B1111094055925N02046996EA0177201808
B1111104055924N02046992EA0177201808
B1111114055922N02046989EA0177201809
B1111124055920N02046986EA0177201808
B1111134055918N02046982EA0177001806
B1111144055917N02046978EA0176901805
B1111154055916N02046974EA0176901806
B1111164055915N02046971EA0177101807
B1111174055913N02046967EA0177101807
B1111184055911N02046963EA0177001806
B1111194055909N02046959EA0176901805
B1111204055907N02046955EA0176801804
B1111214055906N02046950EA0176801804
B1111224055904N02046945EA0176801805
B1111234055903N02046941EA0176901805
B1111244055901N02046938EA0176901805
B1111254055899N02046934EA0176801804
B1111264055897N02046929EA0176701803
B1111274055895N02046924EA0176601803
B1111284055894N02046919EA0176501802
B1111294055892N02046915EA0176501801
B1111304055890N02046910EA0176501801
B1111314055888N02046906EA0176601802
B1111324055886N02046901EA0176501801
B1111334055884N02046897EA0176301799
B1111344055882N02046892EA0176301799
B1111354055880N02046886EA0176201798
B1111364055878N02046882EA0176201798
B1111374055876N02046877EA0176101798
B1111384055874N02046872EA0176101797
B1111394055872N02046867EA0176001796
B1111404055870N02046862EA0175901795
B1111414055868N02046857EA0175801794
B1111424055866N02046852EA0175701794
B1111434055864N02046847EA0175701793
B1111444055862N02046843EA0175601792
B1111454055860N02046837EA0175501791
B1111464055857N02046832EA0175401790
B1111474055854N02046827EA0175301789
B1111484055852N02046822EA0175301789
B1111494055850N02046817EA0175201788
B1111504055848N02046813EA0175101787
B1111514055846N02046808EA0175001786
B1111524055843N02046803EA0174801785
B1111534055841N02046798EA0174701784
B1111544055838N02046793EA0174701783
B1111554055835N02046788EA0174601782
B1111564055833N02046783EA0174601782
B1111574055829N02046779EA0174501781
B1111584055827N02046774EA0174301779
B1111594055825N02046769EA0174201778
B1112004055822N02046765EA0174201778
B1112014055821N02046760EA0174101777
B1112024055818N02046756EA0174001776
B1112034055816N02046752EA0173901775
B1112044055813N02046747EA0173801774
B1112054055811N02046743EA0173601773
B1112064055808N02046738EA0173501771
B1112074055807N02046734EA0173401770
B1112084055806N02046730EA0173301769
B1112094055805N02046725EA0173101768
B1112104055804N02046721EA0173001766
B1112114055803N02046717EA0172901765
B1112124055802N02046713EA0172801765
B1112134055802N02046709EA0172801764
B1112144055801N02046705EA0172701763
B1112154055800N02046702EA0172601762
B1112164055800N02046698EA0172601762
B1112174055800N02046695EA0172401761
B1112184055800N02046691EA0172401760
B1112194055800N02046687EA0172301759
B1112204055800N02046684EA0172201759
B1112214055800N02046680EA0172101758
B1112224055800N02046677EA0172001757
B1112234055799N02046673EA0172001756
B1112244055799N02046669EA0171901755
B1112254055798N02046665EA0171901755
B1112264055797N02046661EA0171801754
B1112274055796N02046658EA0171801754
B1112284055795N02046655EA0171701753
B1112294055795N02046651EA0171601752
B1112304055793N02046647EA0171401751
B1112314055793N02046642EA0171401750
B1112324055792N02046638EA0171401750
B1112334055791N02046634EA0171301749
B1112344055789N02046630EA0171301749
B1112354055788N02046626EA0171301749
B1112364055786N02046622EA0171301750
B1112374055784N02046619EA0171301749
B1112384055782N02046615EA0171201748
B1112394055780N02046611EA0171101747
B1112404055779N02046607EA0170901745
B1112414055777N02046603EA0170701743
B1112424055776N02046599EA0170601742
B1112434055775N02046595EA0170501742
B1112444055774N02046591EA0170501741
B1112454055774N02046587EA0170401740
B1112464055774N02046584EA0170301739
B1112474055774N02046581EA0170201738
B1112484055774N02046577EA0170001736
B1112494055773N02046574EA0170001736
B1112504055773N02046570EA0170001736
B1112514055772N02046566EA0170001736
B1112524055770N02046563EA0169901735
B1112534055769N02046560EA0169801734
B1112544055768N02046556EA0169601732
B1112554055767N02046552EA0169401731
B1112564055765N02046547EA0169301730
B1112574055764N02046543EA0169301730
B1112584055762N02046540EA0169401730
B1112594055761N02046537EA0169401730
B1113004055760N02046534EA0169301729
B1113014055759N02046531EA0169101727
B1113024055758N02046527EA0169001726
B1113034055756N02046523EA0169001726
B1113044055755N02046519EA0168901725
B1113054055753N02046516EA0168901725
B1113064055751N02046512EA0168801725
B1113074055748N02046509EA0168701723
B1113084055747N02046505EA0168601722
B1113094055746N02046501EA0168601722
B1113104055745N02046498EA0168601722
B1113114055744N02046497EA0168601723
B1113124055743N02046495EA0168501722
B1113134055743N02046493EA0168401720
B1113144055743N02046490EA0168201718
B1113154055742N02046488EA0168101717
B1113164055742N02046486EA0168001717
B1113174055742N02046484EA0168001716
B1113184055742N02046482EA0167901715
B1113194055741N02046480EA0167801714
B1113204055741N02046478EA0167701713
B1113214055741N02046475EA0167601713
B1113224055741N02046473EA0167601712
B1113234055741N02046471EA0167501712
B1113244055740N02046470EA0167501711
B1113254055740N02046468EA0167401710
B1113264055740N02046466EA0167301709
B1113274055739N02046463EA0167201708
B1113284055740N02046461EA0167101707
B1113294055739N02046458EA0167101707
B1113304055739N02046455EA0167201708
B1113314055738N02046452EA0167101708
B1113324055737N02046450EA0167101707
B1113334055736N02046447EA0167001706
B1113344055735N02046444EA0167001706
B1113354055734N02046441EA0167001706
B1113364055733N02046438EA0166901705
B1113374055731N02046436EA0166801704
B1113384055731N02046433EA0166701703
B1113394055730N02046430EA0166501702
B1113404055730N02046427EA0166401700
B1113414055730N02046424EA0166401700
B1113424055730N02046421EA0166301700
B1113434055730N02046418EA0166301699
B1113444055729N02046415EA0166201698
B1113454055728N02046413EA0166001697
B1113464055728N02046410EA0165801694
B1113474055727N02046406EA0165701693
B1113484055727N02046403EA0165801695
B1113494055726N02046400EA0165701693
B1113504055726N02046398EA0165501691
B1113514055725N02046396EA0165201688
B1113524055725N02046394EA0165001686
B1113534055725N02046391EA0164601683
B1113544055724N02046388EA0164301680
B1113554055723N02046385EA0164101677
B1113564055722N02046382EA0163901675
B1113574055720N02046378EA0163701673
B1113584055719N02046375EA0163501671
B1113594055717N02046372EA0163301670
B1114004055716N02046370EA0163201668
B1114014055715N02046368EA0163101667
B1114024055714N02046366EA0162801664
B1114034055714N02046364EA0162601662
B1114044055713N02046362EA0162301660
B1114054055713N02046360EA0162101657
B1114064055713N02046359EA0161801654
B1114074055713N02046357EA0161501651
B1114084055713N02046355EA0161201649
B1114094055712N02046353EA0161001646
B1114104055712N02046351EA0160801644
B1114114055712N02046349EA0160501642
B1114124055712N02046348EA0160301639
B1114134055712N02046347EA0160101637
B1114144055713N02046346EA0159901635
B1114154055713N02046344EA0159601632
B1114164055714N02046343EA0159301629
B1114174055715N02046341EA0159101627
B1114184055716N02046339EA0158901625
B1114194055717N02046338EA0158601623
B1114204055718N02046336EA0158401621
B1114214055718N02046335EA0158201619
B1114224055719N02046334EA0158001616
B1114234055719N02046333EA0157701614
B1114244055719N02046332EA0157501611
B1114254055719N02046330EA0157201608
B1114264055719N02046328EA0156901606
B1114274055720N02046326EA0156601603
B1114284055721N02046324EA0156401600
B1114294055721N02046323EA0156201599
B1114304055722N02046321EA0156001596
B1114314055722N02046320EA0155701594
B1114324055723N02046318EA0155601592
B1114334055724N02046318EA0155401590
B1114344055725N02046317EA0155401590
B1114354055726N02046317EA0155301589
B1114364055727N02046317EA0155201589
B1114374055727N02046316EA0155101587
B1114384055727N02046315EA0155001586
B1114394055728N02046314EA0155001586
B1114404055728N02046312EA0155001586
B1114414055729N02046311EA0155001587
B1114424055729N02046310EA0155101588
B1114434055729N02046309EA0155201588
B1114444055729N02046308EA0155201589
B1114454055730N02046307EA0155201588
B1114464055731N02046307EA0155101587
B1114474055732N02046306EA0155001586
B1114484055733N02046305EA0154901585
B1114494055734N02046304EA0154901585
B1114504055735N02046303EA0154801584
B1114514055736N02046302EA0154701583
B1114524055737N02046301EA0154501582
B1114534055738N02046300EA0154401580
B1114544055739N02046298EA0154201578
B1114554055740N02046296EA0154101578
B1114564055740N02046295EA0154101577
B1114574055740N02046294EA0154001576
B1114584055740N02046292EA0153801575
B1114594055741N02046291EA0153601573
B1115004055741N02046289EA0153401570
B1115014055742N02046287EA0153201568
B1115024055743N02046285EA0153101567
B1115034055744N02046284EA0153001566
B1115044055744N02046282EA0152901565
B1115054055744N02046281EA0152601563
B1115064055745N02046279EA0152401560
B1115074055746N02046277EA0152301559
B1115084055747N02046275EA0152201558
B1115094055747N02046273EA0152101557
B1115104055747N02046271EA0152101557
B1115114055746N02046270EA0152001557
B1115124055745N02046268EA0151901555
B1115134055745N02046267EA0151801554
B1115144055746N02046267EA0151701553
B1115154055748N02046268EA0151701553
B1115164055750N02046274EA0151401550
B1115174055751N02046284EA0151001547
B1115184055749N02046298EA0150701543
B1115194055743N02046311EA0150301540
B1115204055733N02046318EA0150001536
B1115214055724N02046318EA0149501531
B1115224055720N02046312EA0149001526
B1115234055724N02046309EA0148501521
B1115244055730N02046316EA0148201519
B1115254055732N02046329EA0148001517
B1115264055726N02046344EA0147601512
B1115274055715N02046350EA0147101507
B1115284055707N02046347EA0146701503
B1115294055706N02046341EA0146201498
B1115304055711N02046340EA0145601493
B1115314055716N02046351EA0145201488
B1115324055718N02046366EA0144601483
B1115334055708N02046377EA0144201478
B1115344055699N02046376EA0143701473
B1115354055698N02046370EA0143101468
B1115364055703N02046368EA0142701463
B1115374055709N02046379EA0142401460
B1115384055711N02046394EA0142001457
B1115394055702N02046406EA0141601452
B1115404055691N02046409EA0141101448
B1115414055685N02046404EA0140901445
B1115424055686N02046401EA0140601442
B1115434055690N02046405EA0140301440
B1115444055694N02046417EA0140301439
B1115454055688N02046436EA0140401440
B1115464055683N02046450EA0140301439
B1115474055676N02046462EA0140201439
B1115484055669N02046472EA0140301439
B1115494055664N02046482EA0140201439
B1115504055657N02046491EA0140101437
B1115514055650N02046498EA0139901435
B1115524055642N02046502EA0139501431
B1115534055635N02046501EA0139101428
B1115544055630N02046497EA0138801424
B1115554055629N02046493EA0138801424
B1115564055630N02046490EA0138701424
B1115574055630N02046490EA0138701423
B1115584055631N02046490EA0138601422
B1115594055632N02046490EA0138301420
B1116004055634N02046489EA0138001416
B1116014055636N02046488EA0137801414
B1116024055639N02046487EA0137701413
B1116034055642N02046487EA0137701413
B1116044055645N02046488EA0137701414
B1116054055646N02046488EA0137801414
B1116064055648N02046489EA0137701413
B1116074055649N02046489EA0137401411
B1116084055652N02046489EA0137301409
B1116094055654N02046489EA0137101407
B1116104055657N02046490EA0137001406
B1116114055658N02046490EA0137101407
B1116124055660N02046490EA0137001407
B1116134055660N02046490EA0136901405
B1116144055661N02046490EA0136701403
B1116154055662N02046489EA0136601402
B1116164055663N02046488EA0136501401
B1116174055663N02046486EA0136401400
B1116184055663N02046484EA0136401400
B1116194055664N02046483EA0136401400
B1116204055664N02046481EA0136301399
B1116214055665N02046479EA0136201399
B1116224055665N02046477EA0136101397
B1116234055665N02046474EA0136001397
B1116244055665N02046471EA0136001397
B1116254055666N02046468EA0136101397
B1116264055666N02046466EA0136001397
B1116274055666N02046465EA0135901395
B1116284055667N02046463EA0135701393
B1116294055667N02046460EA0135601392
B1116304055668N02046457EA0135401390
B1116314055668N02046454EA0135401390
B1116324055668N02046451EA0135201389
B1116334055668N02046448EA0135201389
B1116344055668N02046446EA0135201389
B1116354055667N02046444EA0135101387
B1116364055667N02046441EA0134801384
B1116374055667N02046439EA0134601382
B1116384055668N02046436EA0134501381
B1116394055668N02046433EA0134401380
B1116404055669N02046431EA0134401380
B1116414055669N02046428EA0134301379
B1116424055669N02046426EA0134101377
B1116434055670N02046424EA0134001376
B1116444055670N02046422EA0133901376
B1116454055670N02046420EA0134001376
B1116464055670N02046418EA0134001376
B1116474055669N02046416EA0134001376
B1116484055669N02046415EA0133801374
B1116494055669N02046413EA0133701373
B1116504055669N02046411EA0133501371
B1116514055669N02046409EA0133501371
B1116524055669N02046406EA0133501371
B1116534055670N02046404EA0133501371
B1116544055670N02046403EA0133501371
B1116554055671N02046401EA0133401370
B1116564055671N02046400EA0133201368
B1116574055671N02046399EA0133001366
B1116584055672N02046397EA0132701363
B1116594055672N02046394EA0132501361
B1117004055673N02046392EA0132301359
B1117014055674N02046390EA0132201358
B1117024055674N02046388EA0132101357
B1117034055675N02046387EA0131901355
B1117044055675N02046385EA0131601352
B1117054055676N02046383EA0131401351
B1117064055678N02046381EA0131201348
B1117074055679N02046379EA0131201348
B1117084055679N02046377EA0131201348
B1117094055679N02046376EA0131301349
B1117104055679N02046375EA0131001347
B1117114055680N02046374EA0130701344
B1117124055681N02046373EA0130601342
B1117134055682N02046372EA0130401340
B1117144055683N02046370EA0130201339
B1117154055685N02046368EA0130101337
B1117164055686N02046367EA0130001336
B1117174055687N02046366EA0129901335
B1117184055687N02046365EA0129801334
B1117194055688N02046363EA0129601332
B1117204055689N02046362EA0129301329
B1117214055690N02046359EA0129101327
B1117224055690N02046356EA0128801324
B1117234055691N02046353EA0128701323
B1117244055691N02046349EA0128601322
B1117254055691N02046345EA0128601322
B1117264055692N02046343EA0128801324
B1117274055692N02046341EA0128801324
B1117284055692N02046340EA0128801324
B1117294055692N02046337EA0128601323
B1117304055693N02046334EA0128501321
B1117314055693N02046331EA0128401320
B1117324055695N02046328EA0128401320
B1117334055696N02046326EA0128401320
B1117344055697N02046324EA0128301320
B1117354055699N02046322EA0128301319
B1117364055700N02046320EA0128201318
B1117374055701N02046318EA0128101317
B1117384055702N02046315EA0128001316
B1117394055702N02046312EA0127901316
B1117404055701N02046309EA0127901315
B1117414055698N02046305EA0127901315
B1117424055695N02046303EA0127901315
B1117434055693N02046300EA0127801314
B1117444055691N02046298EA0127601313
B1117454055689N02046295EA0127501311
B1117464055687N02046292EA0127301309
B1117474055685N02046288EA0127201309
B1117484055684N02046284EA0127201308
B1117494055685N02046281EA0127001307
B1117504055687N02046278EA0126901305
B1117514055689N02046277EA0126801304
B1117524055692N02046276EA0126701303
B1117534055695N02046275EA0126601302
B1117544055698N02046273EA0126401300
B1117554055701N02046272EA0126301299
B1117564055705N02046270EA0126201298
B1117574055708N02046268EA0126101298
B1117584055710N02046267EA0126201299
B1117594055712N02046265EA0126201298
B1118004055714N02046263EA0126001297
B1118014055716N02046261EA0125901295
B1118024055718N02046258EA0125701293
B1118034055719N02046255EA0125601292
B1118044055722N02046253EA0125601292
B1118054055724N02046251EA0125601292
B1118064055726N02046249EA0125501291
B1118074055728N02046247EA0125401290
B1118084055730N02046246EA0125401290
B1118094055732N02046244EA0125301289
B1118104055734N02046243EA0125101288
B1118114055737N02046242EA0124901286
B1118124055740N02046241EA0124701283
B1118134055744N02046240EA0124601282
B1118144055748N02046238EA0124401281
B1118154055751N02046236EA0124401280
B1118164055753N02046233EA0124301280
B1118174055755N02046231EA0124301279
B1118184055757N02046229EA0124101278
B1118194055759N02046226EA0124001277
B1118204055762N02046223EA0123801274
B1118214055765N02046221EA0123701273
B1118224055769N02046221EA0123701273
B1118234055773N02046221EA0123701273
B1118244055776N02046220EA0123701273
B1118254055780N02046220EA0123501271
B1118264055784N02046219EA0123401270
B1118274055787N02046218EA0123201269
B1118284055790N02046216EA0123201268
B1118294055792N02046213EA0123001267
B1118304055792N02046209EA0122901265
B1118314055794N02046205EA0122701263
B1118324055796N02046202EA0122701263
B1118334055799N02046201EA0122501262
B1118344055803N02046204EA0122301259
B1118354055807N02046209EA0122001257
B1118364055809N02046217EA0121701254
B1118374055809N02046227EA0121501251
B1118384055806N02046238EA0121201249
B1118394055799N02046246EA0121001246
B1118404055790N02046249EA0120701244
B1118414055783N02046245EA0120401240
B1118424055781N02046238EA0120001237
B1118434055784N02046233EA0119801234
B1118444055789N02046232EA0119501232
B1118454055794N02046239EA0119401230
B1118464055795N02046249EA0119101228
B1118474055792N02046260EA0118701223
B1118484055783N02046267EA0118301219
B1118494055774N02046266EA0118001216
B1118504055769N02046260EA0117801214
B1118514055768N02046253EA0117601213
B1118524055771N02046249EA0117501211
B1118534055775N02046249EA0117301209
B1118544055779N02046254EA0117101208
B1118554055781N02046263EA0116801205
B1118564055779N02046273EA0116501202
B1118574055774N02046282EA0116301199
B1118584055767N02046288EA0116101197
B1118594055759N02046289EA0115901195
B1119004055752N02046286EA0115601192
B1119014055749N02046279EA0115301189
B1119024055751N02046274EA0115001186
B1119034055755N02046272EA0114701184
B1119044055760N02046277EA0114501182
B1119054055761N02046286EA0114401180
B1119064055759N02046297EA0114201178
B1119074055752N02046305EA0113901175
B1119084055744N02046308EA0113701173
B1119094055736N02046306EA0113401170
B1119104055732N02046300EA0113101167
B1119114055731N02046293EA0112801164
B1119124055733N02046288EA0112601163
B1119134055734N02046285EA0112601162
B1119144055735N02046281EA0112401160
B1119154055735N02046277EA0112101157
B1119164055735N02046273EA0111701154
B1119174055736N02046268EA0111501151
B1119184055737N02046263EA0111301149
B1119194055738N02046260EA0111101148
B1119204055738N02046256EA0110901145
B1119214055739N02046253EA0110601142
B1119224055740N02046249EA0110301139
B1119234055740N02046244EA0109901136
B1119244055741N02046240EA0109701133
B1119254055742N02046235EA0109501131
B1119264055743N02046231EA0109201128
B1119274055744N02046226EA0109001126
B1119284055745N02046221EA0108801124
B1119294055745N02046215EA0108501122
B1119304055745N02046209EA0108301119
B1119314055745N02046204EA0108201118
B1119324055745N02046198EA0108001116
B1119334055743N02046193EA0107801115
B1119344055741N02046188EA0107601112
B1119354055739N02046183EA0107401111
B1119364055736N02046179EA0107301109
B1119374055733N02046175EA0107101107
B1119384055730N02046171EA0106901105
B1119394055726N02046167EA0106801104
B1119404055722N02046163EA0106601103
B1119414055719N02046159EA0106501102
B1119424055715N02046156EA0106501101
B1119434055711N02046153EA0106301099
B1119444055708N02046150EA0106201098
B1119454055704N02046146EA0106001097
B1119464055700N02046143EA0105901095
B1119474055696N02046141EA0105701094
B1119484055692N02046138EA0105501091
B1119494055687N02046135EA0105301090
B1119504055684N02046131EA0105201088
B1119514055682N02046126EA0105001087
B1119524055680N02046120EA0104901085
B1119534055678N02046114EA0104901085
B1119544055676N02046110EA0104801084
B1119554055675N02046104EA0104701083
B1119564055675N02046098EA0104501081
B1119574055674N02046092EA0104401080
B1119584055673N02046085EA0104201079
B1119594055671N02046078EA0104201078
B1120004055669N02046072EA0104101077
B1120014055667N02046065EA0104001076
B1120024055666N02046059EA0103801075
B1120034055664N02046052EA0103601072
B1120044055663N02046046EA0103401071
B1120054055660N02046040EA0103201069
B1120064055658N02046033EA0103101067
B1120074055654N02046026EA0103001066
B1120084055650N02046021EA0102901066
B1120094055645N02046017EA0102901065
B1120104055639N02046016EA0102901065
B1120114055634N02046017EA0102801065
B1120124055628N02046020EA0102801064
B1120134055623N02046023EA0102701063
B1120144055618N02046027EA0102501062
B1120154055614N02046032EA0102401060
B1120164055611N02046039EA0102401060
B1120174055608N02046046EA0102301060
B1120184055605N02046053EA0102401061
B1120194055604N02046060EA0102501061
B1120204055603N02046067EA0102301060
B1120214055602N02046075EA0102201059
B1120224055602N02046082EA0102101057
B1120234055602N02046090EA0102001056
B1120244055601N02046098EA0101901055
B1120254055600N02046106EA0101801054
B1120264055599N02046113EA0101601052
B1120274055598N02046120EA0101301049
B1120284055597N02046128EA0100901045
B1120294055597N02046136EA0100501041
B1120304055598N02046145EA0100201038
B1120314055599N02046154EA0100101037
B1120324055601N02046162EA0099901036
B1120334055602N02046169EA0099801034
B1120344055603N02046177EA0099701033
B1120354055604N02046184EA0099501031
B1120364055604N02046192EA0099301029
B1120374055604N02046201EA0099101027
B1120384055603N02046209EA0099001026
B1120394055603N02046217EA0098801024
B1120404055602N02046225EA0098701023
B1120414055601N02046232EA0098701023
B1120424055601N02046240EA0098501021
B1120434055600N02046247EA0098501021
B1120444055599N02046253EA0098301020
B1120454055600N02046259EA0098101017
B1120464055600N02046267EA0097801014
B1120474055601N02046275EA0097501012
B1120484055601N02046282EA0097401011
B1120494055601N02046289EA0097401010
B1120504055602N02046295EA0097301009
B1120514055603N02046302EA0097101007
B1120524055603N02046309EA0096901006
B1120534055603N02046316EA0096901005
B1120544055603N02046322EA0096801004
B1120554055602N02046328EA0096701003
B1120564055602N02046334EA0096501001
B1120574055603N02046340EA0096300999
B1120584055603N02046347EA0096100997
B1120594055604N02046353EA0096000996
B1121004055605N02046359EA0095800994
B1121014055607N02046364EA0095600992
B1121024055610N02046368EA0095300989
B1121034055614N02046370EA0094900985
B1121044055619N02046369EA0094600982
B1121054055624N02046365EA0094500981
B1121064055627N02046359EA0094400980
B1121074055628N02046353EA0094200978
B1121084055628N02046346EA0093900975
B1121094055628N02046340EA0093700973
B1121104055626N02046333EA0093500971
B1121114055624N02046326EA0093200969
B1121124055621N02046319EA0093100967
B1121134055617N02046312EA0092900966
B1121144055614N02046306EA0092900965
B1121154055611N02046300EA0092700964
B1121164055608N02046293EA0092600962
B1121174055604N02046287EA0092500961
B1121184055602N02046281EA0092300959
B1121194055600N02046274EA0092100957
B1121204055598N02046266EA0091900955
B1121214055597N02046258EA0091700954
B1121224055596N02046251EA0091700953
B1121234055594N02046244EA0091600952
B1121244055593N02046237EA0091600952
B1121254055592N02046231EA0091500951
B1121264055590N02046225EA0091300949
B1121274055589N02046218EA0091100947
B1121284055588N02046211EA0090900945
B1121294055588N02046203EA0090800944
B1121304055588N02046196EA0090800944
B1121314055588N02046190EA0090700943
B1121324055588N02046183EA0090700943
B1121334055588N02046177EA0090600942
B1121344055588N02046170EA0090600942
B1121354055589N02046164EA0090400940
B1121364055589N02046157EA0090300939
B1121374055589N02046151EA0090100937
B1121384055589N02046144EA0090000936
B1121394055589N02046138EA0089900936
B1121404055589N02046132EA0089900935
B1121414055588N02046126EA0089700933
B1121424055588N02046121EA0089400931
B1121434055587N02046115EA0089200928
B1121444055586N02046107EA0089000926
B1121454055584N02046100EA0088900925
B1121464055582N02046093EA0088800924
B1121474055581N02046087EA0088800925
B1121484055580N02046081EA0088700923
B1121494055580N02046075EA0088500921
B1121504055579N02046068EA0088300919
B1121514055578N02046060EA0088000916
B1121524055577N02046052EA0087800915
B1121534055577N02046044EA0087700914
B1121544055576N02046038EA0087600912
B1121554055575N02046030EA0087500911
B1121564055573N02046023EA0087300909
B1121574055572N02046016EA0087100907
B1121584055570N02046009EA0086900905
B1121594055569N02046002EA0086600903
B1122004055567N02045995EA0086400900
B1122014055564N02045988EA0086100898
B1122024055561N02045981EA0085900896
B1122034055558N02045975EA0085700894
B1122044055555N02045968EA0085600892
B1122054055551N02045962EA0085500891
B1122064055547N02045957EA0085300889
B1122074055543N02045952EA0085100887
B1122084055539N02045947EA0084900885
B1122094055535N02045942EA0084700883
B1122104055530N02045937EA0084500881
B1122114055525N02045933EA0084300880
B1122124055520N02045930EA0084100878
B1122134055516N02045926EA0083900876
B1122144055510N02045923EA0083800875
B1122154055505N02045920EA0083700873
B1122164055499N02045917EA0083700873
B1122174055494N02045914EA0083700873
B1122184055489N02045914EA0083600873
B1122194055483N02045914EA0083600872
B1122204055478N02045914EA0083500871
B1122214055472N02045916EA0083400870
B1122224055467N02045918EA0083300869
B1122234055463N02045921EA0083200868
B1122244055458N02045924EA0083000867
B1122254055452N02045926EA0083000866
B1122264055447N02045928EA0082900865
B1122274055441N02045931EA0082900865
B1122284055436N02045932EA0082900865
B1122294055430N02045933EA0082800865
B1122304055425N02045934EA0082800864
B1122314055420N02045935EA0082800864
B1122324055414N02045936EA0082700863
B1122334055409N02045937EA0082600862
B1122344055404N02045939EA0082600862
B1122354055399N02045942EA0082500862
B1122364055394N02045944EA0082500861
B1122374055389N02045946EA0082500861
B1122384055384N02045948EA0082400860
B1122394055379N02045951EA0082300859
B1122404055375N02045954EA0082200859
B1122414055370N02045957EA0082200858
B1122424055365N02045959EA0082100858
B1122434055360N02045962EA0082100858
B1122444055356N02045964EA0082200858
B1122454055352N02045967EA0082100857
B1122464055348N02045971EA0082000857
B1122474055346N02045975EA0082000856
B1122484055345N02045980EA0081900855
B1122494055346N02045985EA0081800854
B1122504055349N02045989EA0081700853
B1122514055353N02045992EA0081600852
B1122524055357N02045992EA0081500852
B1122534055361N02045991EA0081500851
B1122544055366N02045989EA0081500851
B1122554055370N02045986EA0081500851
B1122564055373N02045983EA0081400850
B1122574055378N02045981EA0081300850
B1122584055381N02045979EA0081300849
B1122594055386N02045976EA0081200848
B1123004055390N02045972EA0081100847
B1123014055394N02045968EA0081000846
B1123024055398N02045965EA0080900845
B1123034055402N02045962EA0080800844
B1123044055406N02045959EA0080800844
B1123054055410N02045957EA0080800844
B1123064055414N02045954EA0080700844
B1123074055418N02045950EA0080700843
B1123084055421N02045947EA0080600842
B1123094055425N02045945EA0080600842
B1123104055429N02045944EA0080500841
B1123114055433N02045946EA0080400840
B1123124055435N02045950EA0080200839
B1123134055434N02045956EA0080100837
B1123144055431N02045961EA0079900836
B1123154055426N02045965EA0079900835
B1123164055422N02045968EA0079900835
B1123174055418N02045971EA0079900835
B1123184055415N02045974EA0079800834
B1123194055411N02045978EA0079600832
B1123204055407N02045981EA0079300830
B1123214055402N02045985EA0079200828
B1123224055397N02045989EA0079100827
B1123234055394N02045993EA0079100827
B1123244055391N02045997EA0079000826
B1123254055388N02046001EA0078900825
B1123264055385N02046006EA0078700824
B1123274055382N02046010EA0078600823
B1123284055380N02046014EA0078500822
B1123294055378N02046018EA0078400820
B1123304055378N02046022EA0078200819
B1123314055378N02046027EA0078100817
B1123324055379N02046032EA0077900815
B1123334055380N02046036EA0077800815
B1123344055382N02046040EA0077800814
B1123354055385N02046042EA0077700813
B1123364055388N02046044EA0077500812
B1123374055393N02046045EA0077400810
B1123384055397N02046047EA0077300809
B1123394055401N02046048EA0077300809
B1123404055405N02046049EA0077300809
B1123414055408N02046049EA0077200808
B1123424055411N02046049EA0077100807
B1123434055415N02046049EA0077000806
B1123444055419N02046050EA0076800805
B1123454055424N02046051EA0076700804
B1123464055427N02046052EA0076700803
B1123474055430N02046053EA0076700803
B1123484055433N02046054EA0076600802
B1123494055436N02046056EA0076400800
B1123504055439N02046059EA0076200798
B1123514055442N02046064EA0076100797
B1123524055442N02046069EA0076000796
B1123534055441N02046075EA0075900795
B1123544055439N02046080EA0075800794
B1123554055437N02046086EA0075700793
B1123564055434N02046091EA0075600793
B1123574055432N02046096EA0075500791
B1123584055430N02046101EA0075300790
B1123594055429N02046106EA0075300789
B1124004055427N02046111EA0075200788
B1124014055426N02046116EA0075000786
B1124024055426N02046121EA0075000786
B1124034055425N02046125EA0074900785
B1124044055424N02046130EA0074800784
B1124054055425N02046134EA0074700784
B1124064055426N02046138EA0074600782
B1124074055428N02046141EA0074500781
B1124084055432N02046142EA0074400781
B1124094055435N02046142EA0074400780
B1124104055438N02046141EA0074400780
B1124114055441N02046141EA0074300779
B1124124055445N02046139EA0074100777
B1124134055448N02046138EA0074000776
B1124144055452N02046138EA0073800775
B1124154055455N02046139EA0073800774
B1124164055458N02046141EA0073700774
B1124174055461N02046143EA0073700773
B1124184055463N02046145EA0073600772
B1124194055466N02046146EA0073500771
B1124204055469N02046147EA0073400770
B1124214055472N02046149EA0073200768
B1124224055474N02046151EA0073000766
B1124234055477N02046154EA0072800764
B1124244055478N02046158EA0072500761
B1124254055480N02046164EA0072200758
B1124264055480N02046170EA0072100757
B1124274055480N02046176EA0072100757
B1124284055479N02046181EA0072100757
B1124294055478N02046186EA0072000756
B1124304055478N02046190EA0071900755
B1124314055477N02046195EA0071700753
B1124324055476N02046201EA0071500751
B1124334055474N02046206EA0071300750
B1124344055471N02046211EA0071300750
B1124354055469N02046216EA0071400750
B1124364055469N02046221EA0071200749
B1124374055472N02046226EA0071000746
B1124384055476N02046228EA0070600742
B1124394055481N02046228EA0070500741
B1124404055486N02046227EA0070600743
B1124414055489N02046225EA0070800744
B1124424055492N02046225EA0070700743
B1124434055495N02046225EA0070500741
B1124444055499N02046227EA0070300739
B1124454055501N02046230EA0070000736
B1124464055502N02046235EA0069800734
B1124474055502N02046241EA0069500731
B1124484055499N02046246EA0069500731
B1124494055497N02046251EA0069500732
B1124504055495N02046256EA0069500731
B1124514055494N02046260EA0069400730
B1124524055493N02046264EA0069200728
B1124534055491N02046269EA0069100727
B1124544055490N02046274EA0068900725
B1124554055490N02046279EA0068700723
B1124564055491N02046284EA0068500721
B1124574055492N02046289EA0068200718
B1124584055495N02046294EA0068100717
B1124594055497N02046299EA0068000716
B1125004055498N02046304EA0068100717
B1125014055499N02046308EA0068000716
B1125024055500N02046313EA0067900716
B1125034055501N02046316EA0067800714
B1125044055501N02046320EA0067900715
B1125054055502N02046321EA0067900716
B1125064055502N02046323EA0067900716
B1125074055502N02046325EA0067900715
B1125084055502N02046326EA0067900715
B1125094055502N02046328EA0067900716
B1125104055503N02046329EA0067900716
B1125114055502N02046331EA0068000716
B1125124055503N02046331EA0068000716
B1125134055503N02046332EA0068000716
B1125144055503N02046331EA0068000716
B1125154055503N02046331EA0067900716
B1125164055503N02046331EA0068000716
B1125174055503N02046332EA0068000716
B1125184055504N02046332EA0068000716
B1125194055504N02046332EA0068000716
B1125204055504N02046332EA0068000716
B1125214055504N02046332EA0068000716
B1125224055504N02046332EA0068000716
B1125234055504N02046332EA0068000716
B1125244055505N02046333EA0068000716
B1125254055504N02046333EA0068000716
B1125264055505N02046333EA0068000716
B1125274055505N02046334EA0068000716
B1125284055504N02046333EA0068000716
B1125294055504N02046333EA0068000716
B1125304055504N02046333EA0068000716
B1125314055504N02046333EA0068000716
B1125324055504N02046333EA0068000716
B1125334055504N02046333EA0068000716
B1125344055504N02046333EA0068000716
B1125354055504N02046333EA0068000716
B1125364055505N02046333EA0068000716
B1125374055505N02046333EA0068000716
B1125384055506N02046333EA0068000716
B1125394055506N02046333EA0068000716
B1125404055506N02046334EA0068000716
B1125414055506N02046334EA0068000716
B1125424055506N02046335EA0068000716
B1125434055506N02046335EA0068000716
B1125444055506N02046335EA0068000716
B1125454055506N02046336EA0068000716
B1125464055506N02046336EA0068000716
B1125474055506N02046336EA0068000716
B1125484055506N02046335EA0068000716
B1125494055506N02046335EA0068000716
B1125504055507N02046335EA0068000716
B1125514055507N02046335EA0068000716
B1125524055507N02046334EA0068000716
B1125534055507N02046334EA0068000716
B1125544055507N02046334EA0068000716
B1125554055507N02046335EA0068000716
B1125564055507N02046335EA0068000716
B1125574055506N02046335EA0068000716
B1125584055506N02046336EA0068000716
B1125594055506N02046336EA0068000716
B1126004055506N02046336EA0068000716
B1126014055506N02046336EA0068000716
B1126024055506N02046336EA0068000716
B1126034055506N02046336EA0068000716
B1126044055506N02046336EA0068000716
B1126054055506N02046336EA0068000716
B1126064055506N02046335EA0068000716
B1126074055506N02046336EA0067900716
B1126084055506N02046336EA0067900716
B1126094055506N02046337EA0067900715
B1126104055507N02046337EA0067900716
B1126114055507N02046338EA0068000716
B1126124055507N02046338EA0067900716
B1126134055507N02046339EA0067900716
B1126144055507N02046340EA0067900716
B1126154055507N02046341EA0067900716
B1126164055507N02046342EA0067900716
B1126174055508N02046343EA0067900716
B1126184055508N02046344EA0067900716
B1126194055509N02046345EA0067900715
B1126204055509N02046346EA0067900716
B1126214055509N02046347EA0067900716
B1126224055509N02046348EA0067900716
B1126234055510N02046348EA0067900716
B1126244055510N02046349EA0067900716
B1126254055510N02046349EA0067900716
B1126264055511N02046351EA0068000716
B1126274055511N02046352EA0067900716
B1126284055511N02046352EA0067900716
B1126294055512N02046353EA0067900716
B1126304055512N02046354EA0067900716
B1126314055513N02046355EA0067900716
B1126324055512N02046356EA0068000716
B1126334055512N02046357EA0067900716
B1126344055512N02046358EA0067900716
B1126354055513N02046359EA0067900716
B1126364055513N02046360EA0067900716
B1126374055513N02046360EA0067900716
B1126384055513N02046362EA0067900716
B1126394055513N02046363EA0068000716
B1126404055513N02046363EA0067900716
B1126414055514N02046364EA0067900716
B1126424055514N02046365EA0067900716
B1126434055514N02046365EA0067900716
B1126444055515N02046366EA0067900716
B1126454055515N02046367EA0067900716
B1126464055515N02046368EA0068000716
B1126474055516N02046369EA0067900716
B1126484055516N02046369EA0067900716
B1126494055517N02046370EA0067900716
B1126504055517N02046371EA0067900716
B1126514055518N02046372EA0067900716
B1126524055519N02046373EA0068000716
B1126534055520N02046374EA0067900716
B1126544055520N02046375EA0067900716
B1126554055520N02046376EA0068000716
B1126564055521N02046376EA0067900716
B1126574055521N02046377EA0067900716
B1126584055521N02046378EA0067900716
B1126594055521N02046379EA0068000716
B1127004055521N02046380EA0068000716
B1127014055521N02046381EA0068000716
B1127024055521N02046381EA0068000716
B1127034055521N02046382EA0068000716
B1127044055521N02046383EA0067900716
B1127054055521N02046384EA0067900716
B1127064055520N02046385EA0068000716
B1127074055520N02046385EA0068000716
LXSX;GF:2.4
GED1EE253CA91DFC535D1B14434E444B3
