AXSX003 SKYTRAXX V3.0.16c SN:00000380
HFPLTPILOT:Sepp Bucher
HFGTYGLIDERTYPE:Advance Sigma11
HFDTM100GPSDATUM:WGS-84
HFCIDCOMPETITIONID:0000
HFCCLCOMPETITION CLASS:Paraglider (Standard)
HFSITSITE:Oberer Brusthuegel
HFDTE010921
B1319094613755N00731705EA0219302315
B1319104613754N00731705EA0219302315
B1319114613754N00731705EA0219302315
B1319124613754N00731705EA0219302315
B1319134613754N00731705EA0219302315
B1319144613754N00731705EA0219302315
B1319154613754N00731705EA0219302315
B1319164613754N00731705EA0219302315
B1319174613754N00731704EA0219202315
B1319184613753N00731703EA0219202314
B1319194613752N00731703EA0219102313
B1319204613752N00731702EA0219102313
B1319214613752N00731700EA0219002313
B1319224613752N00731697EA0218802309
B1319234613752N00731695EA0218702309
B1319244613751N00731693EA0218502308
B1319254613750N00731692EA0218202304
B1319264613750N00731692EA0218202304
B1319274613749N00731693EA0218302305
B1319284613750N00731693EA0218302306
B1319294613750N00731693EA0218302306
B1319304613750N00731693EA0218302306
B1319314613750N00731692EA0218402306
B1319324613750N00731693EA0218402306
B1319334613750N00731693EA0218402306
B1319344613750N00731693EA0218402306
B1319354613750N00731693EA0218402306
B1319364613750N00731693EA0218402306
B1319374613750N00731693EA0218402306
B1319384613749N00731693EA0218402306
B1319394613749N00731693EA0218402306
B1319404613749N00731693EA0218402306
B1319414613749N00731693EA0218402307
B1319424613749N00731693EA0218402307
B1319434613749N00731693EA0218402306
B1319444613749N00731693EA0218402306
B1319454613749N00731693EA0218402306
B1319464613749N00731693EA0218402306
B1319474613749N00731693EA0218402307
B1319484613749N00731693EA0218402306
B1319494613749N00731693EA0218402306
B1319504613749N00731693EA0218402306
B1319514613749N00731693EA0218402307
B1319524613749N00731693EA0218502307
B1319534613750N00731694EA0218502307
B1319544613750N00731695EA0218502307
B1319554613749N00731695EA0218502307
B1319564613749N00731695EA0218502308
B1319574613749N00731694EA0218502308
B1319584613749N00731694EA0218502308
B1319594613749N00731694EA0218502307
B1320004613749N00731694EA0218502307
B1320014613748N00731694EA0218502307
B1320024613748N00731694EA0218502308
B1320034613748N00731694EA0218502307
B1320044613748N00731695EA0218502308
B1320054613748N00731694EA0218502308
B1320064613748N00731694EA0218502308
B1320074613748N00731694EA0218602308
B1320084613748N00731694EA0218602308
B1320094613748N00731694EA0218602308
B1320104613748N00731694EA0218602308
B1320114613748N00731694EA0218602308
B1320124613748N00731695EA0218502308
B1320134613748N00731695EA0218602308
B1320144613748N00731695EA0218602308
B1320154613748N00731696EA0218602308
B1320164613748N00731696EA0218602308
B1320174613748N00731696EA0218602309
B1320184613748N00731696EA0218702309
B1320194613748N00731697EA0218702309
B1320204613748N00731697EA0218702309
B1320214613748N00731698EA0218802310
B1320224613749N00731698EA0218802310
B1320234613748N00731699EA0218802310
B1320244613748N00731699EA0218802311
B1320254613748N00731699EA0218902311
B1320264613748N00731700EA0218902311
B1320274613748N00731700EA0218902311
B1320284613748N00731700EA0218902312
B1320294613748N00731701EA0219002312
B1320304613748N00731701EA0219002312
B1320314613749N00731701EA0219002312
B1320324613749N00731702EA0219002312
B1320334613750N00731702EA0219002312
B1320344613750N00731702EA0219002313
B1320354613750N00731703EA0219102313
B1320364613750N00731704EA0219102313
B1320374613751N00731704EA0219102313
B1320384613751N00731704EA0219102313
B1320394613751N00731704EA0219102314
B1320404613751N00731705EA0219102314
B1320414613751N00731705EA0219202314
B1320424613751N00731705EA0219202314
B1320434613751N00731705EA0219202314
B1320444613752N00731704EA0219202314
B1320454613752N00731704EA0219202314
B1320464613753N00731703EA0219202314
B1320474613754N00731703EA0219202314
B1320484613754N00731703EA0219202314
B1320494613754N00731703EA0219302315
B1320504613755N00731702EA0219202315
B1320514613755N00731701EA0219202315
B1320524613755N00731701EA0219302315
B1320534613756N00731701EA0219302315
B1320544613757N00731700EA0219302316
B1320554613757N00731700EA0219302315
B1320564613757N00731700EA0219402316
B1320574613758N00731700EA0219402316
B1320584613758N00731700EA0219402316
B1320594613758N00731700EA0219402316
B1321004613759N00731701EA0219402316
B1321014613759N00731701EA0219402316
B1321024613759N00731701EA0219502317
B1321034613759N00731701EA0219502317
B1321044613760N00731701EA0219502317
B1321054613760N00731701EA0219402316
B1321064613760N00731701EA0219402316
B1321074613761N00731700EA0219402316
B1321084613761N00731699EA0219502317
B1321094613762N00731699EA0219402317
B1321104613762N00731698EA0219402317
B1321114613762N00731698EA0219402316
B1321124613762N00731697EA0219502317
B1321134613762N00731696EA0219402316
B1321144613762N00731695EA0219402316
B1321154613762N00731695EA0219402316
B1321164613762N00731693EA0219402316
B1321174613762N00731693EA0219402316
B1321184613762N00731692EA0219402316
B1321194613763N00731691EA0219302315
B1321204613763N00731690EA0219302315
B1321214613763N00731690EA0219402316
B1321224613764N00731689EA0219302316
B1321234613764N00731688EA0219302316
B1321244613764N00731688EA0219302315
B1321254613764N00731688EA0219402316
B1321264613764N00731688EA0219402316
LXSX;GF:1.1
GA34DD965313B88ABA68AC068794EA1C0
