AXSX003 SKYTRAXX V3.0.16c SN:00000380
HFPLTPILOT:Sepp Bucher
HFGTYGLIDERTYPE:Advance Sigma11
HFDTM100GPSDATUM:WGS-84
HFCIDCOMPETITIONID:0000
HFCCLCOMPETITION CLASS:Paraglider (Standard)
HFSITSITE:Oberer Brusthuegel
HFDTE010921
B1323154613765N00731688EA0219402292
B1323164613765N00731688EA0219402291
B1323174613765N00731688EA0219402291
B1323184613765N00731687EA0219402291
B1323194613765N00731687EA0219402291
B1323204613765N00731687EA0219402291
B1323214613765N00731688EA0219402291
B1323224613766N00731688EA0219402291
B1323234613765N00731687EA0219402291
B1323244613765N00731687EA0219402291
B1323254613765N00731687EA0219402291
B1323264613765N00731687EA0219402291
B1325234613748N00731614EA0220802305
B1325244613744N00731610EA0220902310
B1325254613739N00731607EA0221102315
B1325264613734N00731605EA0221302320
B1325274613730N00731602EA0221402321
B1325284613727N00731599EA0221502322
B1325294613723N00731596EA0221502322
B1325304613719N00731594EA0221502322
B1325314613714N00731592EA0221502322
B1325324613710N00731588EA0221402321
B1325334613708N00731582EA0221402321
B1325344613708N00731576EA0221402321
B1325354613710N00731571EA0221502322
B1325364613711N00731567EA0221702324
B1325374613714N00731565EA0221802325
B1325384613717N00731564EA0221802325
B1325394613721N00731565EA0221802324
B1325404613724N00731569EA0221602323
B1325414613727N00731576EA0221502322
B1325424613728N00731586EA0221402321
B1325434613727N00731597EA0221302320
B1325444613724N00731606EA0221302320
B1325454613719N00731614EA0221202319
B1325464613712N00731618EA0221202319
B1325474613706N00731619EA0221202319
B1325484613700N00731618EA0221202319
B1325494613695N00731615EA0221202319
B1325504613692N00731610EA0221102318
B1325514613690N00731604EA0221202319
B1325524613689N00731598EA0221302320
B1325534613689N00731593EA0221302320
B1325544613689N00731588EA0221402321
B1325554613690N00731583EA0221302320
B1325564613691N00731578EA0221402321
B1325574613694N00731573EA0221402321
B1325584613697N00731570EA0221602322
B1325594613700N00731567EA0221602323
B1326004613703N00731565EA0221702324
B1326014613706N00731563EA0221702324
B1326024613708N00731561EA0221702324
B1326034613712N00731560EA0221602323
B1326044613715N00731559EA0221402321
B1326054613720N00731560EA0221302320
B1326064613725N00731563EA0221202319
B1326074613729N00731568EA0221102318
B1326084613732N00731575EA0220902316
B1326094613733N00731583EA0220902316
B1326104613734N00731593EA0220702314
B1326114613732N00731604EA0220702314
B1326124613729N00731615EA0220602312
B1326134613724N00731625EA0220502312
B1326144613717N00731632EA0220502312
B1326154613710N00731637EA0220702314
B1326164613703N00731640EA0220902316
B1326174613697N00731643EA0221102318
B1326184613691N00731647EA0221302320
B1326194613686N00731649EA0221202319
B1326204613681N00731650EA0221102318
B1326214613676N00731649EA0220902316
B1326224613672N00731645EA0220802315
B1326234613668N00731640EA0220802315
B1326244613667N00731634EA0221002317
B1326254613667N00731629EA0221302320
B1326264613668N00731627EA0221402321
B1326274613670N00731625EA0221402321
B1326284613674N00731626EA0221302320
B1326294613679N00731628EA0221302320
B1326304613683N00731633EA0221302320
B1326314613686N00731641EA0221202319
B1326324613689N00731651EA0221102318
B1326334613689N00731662EA0221102318
B1326344613686N00731673EA0221002317
B1326354613682N00731683EA0220902316
B1326364613676N00731691EA0220802315
B1326374613669N00731694EA0221002317
B1326384613663N00731695EA0221202319
B1326394613658N00731693EA0221202319
B1326404613654N00731689EA0221102318
B1326414613652N00731685EA0221102318
B1326424613650N00731680EA0221002317
B1326434613648N00731675EA0221102318
B1326444613645N00731672EA0221102318
B1326454613643N00731669EA0221202319
B1326464613641N00731666EA0221102318
B1326474613639N00731662EA0220902316
B1326484613637N00731658EA0220702314
B1326494613636N00731652EA0220602313
B1326504613635N00731647EA0220502312
B1326514613635N00731642EA0220402311
B1326524613635N00731638EA0220402311
B1326534613635N00731633EA0220302310
B1326544613636N00731628EA0220102308
B1326554613637N00731624EA0220002307
B1326564613639N00731620EA0219902306
B1326574613642N00731616EA0219802305
B1326584613645N00731614EA0219602303
B1326594613648N00731611EA0219602303
B1327004613652N00731609EA0219602303
B1327014613655N00731606EA0219602303
B1327024613658N00731603EA0219402301
B1327034613661N00731600EA0219302300
B1327044613664N00731598EA0219202299
B1327054613667N00731595EA0219102298
B1327064613670N00731591EA0218902296
B1327074613672N00731586EA0218702294
B1327084613675N00731582EA0218602293
B1327094613678N00731578EA0218502292
B1327104613682N00731575EA0218302290
B1327114613686N00731573EA0218102288
B1327124613691N00731572EA0218002287
B1327134613696N00731571EA0217802285
B1327144613701N00731570EA0217702284
B1327154613706N00731570EA0217502282
B1327164613710N00731569EA0217402281
B1327174613715N00731568EA0217202279
B1327184613720N00731567EA0217102277
B1327194613725N00731565EA0216902276
B1327204613731N00731564EA0216702274
B1327214613737N00731563EA0216702274
B1327224613742N00731561EA0216702273
B1327234613748N00731560EA0216702274
B1327244613754N00731559EA0216602273
B1327254613759N00731559EA0216502272
B1327264613765N00731559EA0216402271
B1327274613770N00731559EA0216302270
B1327284613776N00731558EA0216202269
B1327294613783N00731559EA0216202269
B1327304613789N00731559EA0216202269
B1327314613794N00731559EA0216202269
B1327324613799N00731559EA0216202269
B1327334613805N00731559EA0216202269
B1327344613810N00731557EA0216202269
B1327354613815N00731555EA0216202269
B1327364613820N00731552EA0216402270
B1327374613824N00731549EA0216502272
B1327384613828N00731546EA0216602273
B1327394613831N00731543EA0216702274
B1327404613834N00731539EA0216802275
B1327414613836N00731534EA0216802275
B1327424613838N00731528EA0217002276
B1327434613838N00731522EA0217102278
B1327444613836N00731515EA0217402281
B1327454613833N00731510EA0217502282
B1327464613829N00731507EA0217602283
B1327474613824N00731505EA0217602283
B1327484613818N00731505EA0217702284
B1327494613813N00731508EA0217802285
B1327504613809N00731514EA0217802285
B1327514613806N00731523EA0217702284
B1327524613805N00731534EA0217702284
B1327534613805N00731544EA0217902286
B1327544613807N00731553EA0218202289
B1327554613809N00731561EA0218402291
B1327564613811N00731568EA0218402291
B1327574613813N00731574EA0218402291
B1327584613816N00731581EA0218302290
B1327594613820N00731586EA0218102288
B1328004613826N00731588EA0217902286
B1328014613832N00731588EA0217902286
B1328024613838N00731586EA0218102288
B1328034613841N00731582EA0218402291
B1328044613845N00731578EA0218502292
B1328054613847N00731573EA0218602293
B1328064613849N00731568EA0218502292
B1328074613849N00731562EA0218502292
B1328084613848N00731555EA0218402291
B1328094613847N00731549EA0218302290
B1328104613845N00731543EA0218402291
B1328114613844N00731537EA0218402291
B1328124613843N00731532EA0218402291
B1328134613841N00731526EA0218402290
B1328144613839N00731520EA0218302290
B1328154613835N00731515EA0218202289
B1328164613831N00731510EA0218302290
B1328174613825N00731508EA0218402291
B1328184613819N00731507EA0218602293
B1328194613814N00731507EA0218802295
B1328204613810N00731509EA0218902296
B1328214613804N00731512EA0219002297
B1328224613799N00731517EA0219102298
B1328234613795N00731526EA0219102298
B1328244613792N00731536EA0219202298
B1328254613792N00731546EA0219302300
B1328264613794N00731555EA0219402300
B1328274613797N00731563EA0219302300
B1328284613802N00731568EA0219302300
B1328294613807N00731573EA0219402301
B1328304613813N00731574EA0219602303
B1328314613819N00731573EA0219802305
B1328324613823N00731569EA0219902306
B1328334613825N00731563EA0220002307
B1328344613826N00731556EA0220002307
B1328354613825N00731549EA0220102308
B1328364613823N00731543EA0220202309
B1328374613820N00731537EA0220302310
B1328384613816N00731533EA0220502311
B1328394613810N00731530EA0220602313
B1328404613804N00731530EA0220702314
B1328414613799N00731533EA0220802315
B1328424613794N00731537EA0221102318
B1328434613789N00731545EA0221102318
B1328444613788N00731556EA0221002317
B1328454613789N00731566EA0221202319
B1328464613791N00731575EA0221402321
B1328474613795N00731581EA0221502322
B1328484613800N00731585EA0221602323
B1328494613805N00731588EA0222002327
B1328504613810N00731590EA0222302330
B1328514613814N00731589EA0222602333
B1328524613818N00731586EA0222702334
B1328534613820N00731582EA0222502332
B1328544613822N00731576EA0222502332
B1328554613821N00731570EA0222602333
B1328564613819N00731564EA0222602333
B1328574613815N00731559EA0222602333
B1328584613809N00731557EA0222502332
B1328594613803N00731558EA0222602333
B1329004613797N00731561EA0222702334
B1329014613792N00731564EA0222902336
B1329024613787N00731569EA0223202339
B1329034613783N00731577EA0223302340
B1329044613780N00731586EA0223402341
B1329054613780N00731597EA0223502342
B1329064613782N00731607EA0223602343
B1329074613787N00731616EA0223602343
B1329084613792N00731622EA0223802345
B1329094613797N00731626EA0224302350
B1329104613803N00731627EA0224602353
B1329114613807N00731625EA0224802355
B1329124613810N00731621EA0224802355
B1329134613811N00731616EA0224902356
B1329144613811N00731610EA0224902356
B1329154613809N00731604EA0225102358
B1329164613806N00731600EA0225102358
B1329174613801N00731598EA0225102358
B1329184613795N00731599EA0225002357
B1329194613789N00731603EA0225102358
B1329204613783N00731611EA0225402361
B1329214613778N00731621EA0225702364
B1329224613776N00731631EA0226202369
B1329234613775N00731640EA0226602373
B1329244613776N00731648EA0226802375
B1329254613779N00731655EA0226802375
B1329264613785N00731662EA0226702374
B1329274613792N00731664EA0226802375
B1329284613798N00731663EA0226802375
B1329294613802N00731658EA0227302380
B1329304613804N00731653EA0227502382
B1329314613805N00731649EA0227702384
B1329324613805N00731644EA0227702384
B1329334613803N00731640EA0227702384
B1329344613800N00731635EA0227702384
B1329354613795N00731632EA0227702384
B1329364613789N00731630EA0227702384
B1329374613781N00731633EA0227702384
B1329384613774N00731638EA0228002387
B1329394613770N00731646EA0228202389
B1329404613766N00731656EA0228402391
B1329414613765N00731667EA0228702394
B1329424613765N00731677EA0228902396
B1329434613768N00731686EA0228902396
B1329444613773N00731693EA0228902396
B1329454613780N00731696EA0229002397
B1329464613786N00731696EA0229602403
B1329474613789N00731693EA0229902406
B1329484613791N00731689EA0230002407
B1329494613791N00731684EA0230102408
B1329504613789N00731680EA0230302410
B1329514613786N00731675EA0230402411
B1329524613781N00731672EA0230602413
B1329534613775N00731673EA0230702414
B1329544613769N00731678EA0230802415
B1329554613764N00731686EA0231002417
B1329564613761N00731696EA0231202419
B1329574613761N00731707EA0231502422
B1329584613763N00731717EA0231502422
B1329594613767N00731725EA0231602422
B1330004613772N00731731EA0231802425
B1330014613778N00731734EA0231902426
B1330024613783N00731735EA0232002427
B1330034613788N00731732EA0232102428
B1330044613790N00731728EA0232202429
B1330054613792N00731724EA0232302430
B1330064613792N00731719EA0232502432
B1330074613792N00731714EA0232502432
B1330084613790N00731709EA0232502432
B1330094613788N00731704EA0232602433
B1330104613786N00731699EA0232702434
B1330114613783N00731694EA0232902436
B1330124613779N00731690EA0233102438
B1330134613773N00731690EA0233302440
B1330144613767N00731694EA0233302440
B1330154613762N00731702EA0233302440
B1330164613759N00731713EA0233402441
B1330174613760N00731724EA0233602443
B1330184613762N00731734EA0233702444
B1330194613765N00731742EA0233802445
B1330204613770N00731748EA0233902446
B1330214613775N00731753EA0234002447
B1330224613781N00731754EA0233902446
B1330234613787N00731752EA0234002447
B1330244613791N00731748EA0234002447
B1330254613793N00731743EA0234102448
B1330264613794N00731740EA0234202449
B1330274613796N00731736EA0234302450
B1330284613796N00731731EA0234202449
B1330294613796N00731725EA0234102448
B1330304613795N00731719EA0234102448
B1330314613794N00731714EA0234202449
B1330324613792N00731709EA0234202449
B1330334613790N00731704EA0234202449
B1330344613788N00731698EA0234302450
B1330354613784N00731694EA0234402451
B1330364613779N00731690EA0234602453
B1330374613774N00731688EA0234802455
B1330384613768N00731689EA0235002457
B1330394613763N00731692EA0235102458
B1330404613759N00731697EA0235102458
B1330414613755N00731704EA0235202459
B1330424613753N00731712EA0235302460
B1330434613752N00731722EA0235202459
B1330444613755N00731731EA0235102458
B1330454613760N00731739EA0235102458
B1330464613766N00731743EA0235002457
B1330474613770N00731743EA0235102458
B1330484613775N00731742EA0235202459
B1330494613778N00731738EA0235302460
B1330504613780N00731733EA0235302460
B1330514613780N00731727EA0235302460
B1330524613780N00731720EA0235302460
B1330534613780N00731713EA0235402461
B1330544613779N00731707EA0235702464
B1330554613780N00731701EA0235902465
B1330564613780N00731696EA0235902466
B1330574613780N00731691EA0236102468
B1330584613780N00731686EA0236102468
B1330594613778N00731682EA0236202469
B1331004613774N00731679EA0236002467
B1331014613768N00731678EA0236002467
B1331024613761N00731682EA0236002467
B1331034613754N00731690EA0236002467
B1331044613751N00731702EA0236102468
B1331054613752N00731713EA0236202469
B1331064613755N00731723EA0236102468
B1331074613760N00731730EA0236102468
B1331084613766N00731735EA0236302470
B1331094613770N00731737EA0236302470
B1331104613775N00731737EA0236302470
B1331114613780N00731735EA0236202469
B1331124613784N00731731EA0236402471
B1331134613787N00731727EA0236402471
B1331144613787N00731721EA0236502472
B1331154613786N00731715EA0236602473
B1331164613783N00731710EA0236902476
B1331174613779N00731706EA0237402481
B1331184613774N00731703EA0237702484
B1331194613769N00731703EA0237902486
B1331204613763N00731706EA0238002487
B1331214613757N00731713EA0238002487
B1331224613753N00731722EA0238002487
B1331234613751N00731732EA0238102488
B1331244613751N00731742EA0238202489
B1331254613754N00731749EA0238202489
B1331264613759N00731754EA0237902486
B1331274613765N00731754EA0237702484
B1331284613770N00731752EA0237602483
B1331294613775N00731748EA0238002487
B1331304613778N00731743EA0238302490
B1331314613780N00731739EA0238702494
B1331324613782N00731734EA0238902496
B1331334613782N00731729EA0239202499
B1331344613783N00731723EA0239402501
B1331354613783N00731716EA0239702504
B1331364613782N00731709EA0240002507
B1331374613780N00731703EA0240202509
B1331384613777N00731697EA0240602513
B1331394613774N00731693EA0241002517
B1331404613772N00731690EA0241202519
B1331414613769N00731687EA0241402521
B1331424613767N00731684EA0241402521
B1331434613767N00731680EA0241302520
B1331444613767N00731675EA0241202519
B1331454613770N00731672EA0241302519
B1331464613774N00731672EA0241202519
B1331474613779N00731674EA0241302520
B1331484613783N00731679EA0241302520
B1331494613787N00731687EA0241502522
B1331504613788N00731696EA0241602523
B1331514613786N00731706EA0241702524
B1331524613783N00731715EA0241802525
B1331534613779N00731724EA0242002527
B1331544613773N00731731EA0242202529
B1331554613767N00731735EA0242302530
B1331564613761N00731736EA0242402531
B1331574613755N00731735EA0242502532
B1331584613750N00731732EA0242602533
B1331594613745N00731729EA0242702534
B1332004613743N00731725EA0242702534
B1332014613740N00731722EA0242702534
B1332024613738N00731718EA0242702534
B1332034613736N00731714EA0242702534
B1332044613735N00731709EA0242502532
B1332054613735N00731703EA0242402531
B1332064613735N00731696EA0242302530
B1332074613737N00731690EA0242202529
B1332084613740N00731685EA0242202529
B1332094613744N00731681EA0242202529
B1332104613749N00731679EA0242102528
B1332114613755N00731679EA0242102528
B1332124613761N00731680EA0242002527
B1332134613767N00731682EA0241902526
B1332144613773N00731686EA0241902526
B1332154613778N00731691EA0241902526
B1332164613782N00731698EA0241902526
B1332174613784N00731706EA0241802525
B1332184613784N00731715EA0241702524
B1332194613783N00731725EA0241602523
B1332204613779N00731735EA0241502522
B1332214613774N00731742EA0241402521
B1332224613769N00731748EA0241302520
B1332234613763N00731752EA0241202519
B1332244613757N00731754EA0241002517
B1332254613751N00731756EA0240902516
B1332264613744N00731757EA0241002517
B1332274613739N00731759EA0241202519
B1332284613734N00731760EA0241302520
B1332294613730N00731760EA0241202519
B1332304613726N00731761EA0240902516
B1332314613720N00731762EA0240802515
B1332324613713N00731763EA0240602513
B1332334613707N00731764EA0240602513
B1332344613701N00731763EA0240702514
B1332354613696N00731762EA0240702514
B1332364613691N00731761EA0240402511
B1332374613686N00731760EA0239802505
B1332384613680N00731761EA0239402501
B1332394613673N00731760EA0239202499
B1332404613667N00731759EA0239002497
B1332414613662N00731756EA0238902496
B1332424613657N00731755EA0238702494
B1332434613652N00731754EA0238402491
B1332444613648N00731753EA0238002487
B1332454613642N00731751EA0237602483
B1332464613636N00731749EA0237402481
B1332474613630N00731747EA0237202479
B1332484613626N00731746EA0237002477
B1332494613620N00731746EA0236602473
B1332504613613N00731745EA0236402471
B1332514613607N00731744EA0236102468
B1332524613600N00731743EA0236002467
B1332534613594N00731744EA0236102468
B1332544613588N00731745EA0236202469
B1332554613583N00731745EA0236402471
B1332564613578N00731744EA0236702474
B1332574613574N00731743EA0237002477
B1332584613570N00731742EA0237402481
B1332594613566N00731742EA0237702484
B1333004613563N00731741EA0237902486
B1333014613560N00731738EA0238002487
B1333024613558N00731733EA0238102488
B1333034613557N00731726EA0238202489
B1333044613558N00731719EA0238302490
B1333054613560N00731714EA0238702494
B1333064613564N00731710EA0238902496
B1333074613570N00731709EA0239002497
B1333084613577N00731713EA0239102498
B1333094613582N00731719EA0239302500
B1333104613585N00731727EA0239502502
B1333114613586N00731736EA0239902506
B1333124613584N00731745EA0240002507
B1333134613580N00731751EA0240202509
B1333144613575N00731754EA0240602513
B1333154613570N00731754EA0240902516
B1333164613567N00731751EA0241202519
B1333174613566N00731746EA0241202519
B1333184613566N00731740EA0241202519
B1333194613567N00731733EA0241502522
B1333204613570N00731728EA0241802525
B1333214613575N00731726EA0242102528
B1333224613580N00731728EA0242002527
B1333234613585N00731733EA0242002527
B1333244613589N00731740EA0242202529
B1333254613592N00731748EA0242502532
B1333264613591N00731756EA0242702534
B1333274613588N00731763EA0242802535
B1333284613583N00731769EA0243002537
B1333294613579N00731771EA0243102538
B1333304613575N00731771EA0243402541
B1333314613572N00731769EA0243502542
B1333324613569N00731765EA0243602543
B1333334613568N00731760EA0243702544
B1333344613568N00731754EA0244002547
B1333354613569N00731749EA0244202549
B1333364613573N00731745EA0244302550
B1333374613577N00731744EA0244502552
B1333384613583N00731745EA0244502552
B1333394613589N00731751EA0244502552
B1333404613594N00731758EA0244702554
B1333414613597N00731767EA0244902556
B1333424613598N00731776EA0245102558
B1333434613596N00731784EA0245302560
B1333444613593N00731791EA0245302560
B1333454613588N00731795EA0245402561
B1333464613583N00731797EA0245702564
B1333474613579N00731796EA0245902566
B1333484613576N00731793EA0246202568
B1333494613575N00731788EA0246202569
B1333504613574N00731783EA0246402571
B1333514613575N00731777EA0246702574
B1333524613577N00731772EA0246902576
B1333534613582N00731769EA0247102578
B1333544613587N00731769EA0247202579
B1333554613593N00731772EA0247302580
B1333564613599N00731778EA0247402581
B1333574613602N00731786EA0247502582
B1333584613604N00731795EA0247502582
B1333594613604N00731805EA0247602582
B1334004613602N00731815EA0247702584
B1334014613598N00731821EA0247802585
B1334024613593N00731823EA0248002587
B1334034613588N00731823EA0248202589
B1334044613586N00731820EA0248502592
B1334054613583N00731816EA0248602593
B1334064613583N00731811EA0248602593
B1334074613584N00731806EA0248802595
B1334084613587N00731801EA0248902596
B1334094613592N00731798EA0249002597
B1334104613597N00731796EA0249102598
B1334114613603N00731797EA0249302600
B1334124613608N00731801EA0249302600
B1334134613613N00731807EA0249202599
B1334144613616N00731814EA0249102598
B1334154613617N00731824EA0249102598
B1334164613616N00731833EA0249102598
B1334174613613N00731841EA0249002597
B1334184613608N00731847EA0249102598
B1334194613604N00731851EA0249302600
B1334204613600N00731854EA0249502602
B1334214613597N00731857EA0249502602
B1334224613593N00731857EA0249702604
B1334234613590N00731855EA0249602603
B1334244613588N00731850EA0249602603
B1334254613588N00731843EA0249602603
B1334264613590N00731837EA0249802605
B1334274613594N00731833EA0250002607
B1334284613600N00731832EA0250002607
B1334294613605N00731834EA0250002607
B1334304613611N00731839EA0250002607
B1334314613615N00731845EA0250002607
B1334324613618N00731853EA0250002607
B1334334613620N00731863EA0249902606
B1334344613620N00731872EA0250002606
B1334354613617N00731879EA0249902606
B1334364613612N00731884EA0249802605
B1334374613607N00731886EA0249702604
B1334384613601N00731886EA0249702604
B1334394613596N00731886EA0249902606
B1334404613590N00731886EA0250002607
B1334414613585N00731884EA0250202609
B1334424613580N00731883EA0250402610
B1334434613576N00731883EA0250502612
B1334444613572N00731882EA0250602613
B1334454613567N00731881EA0250602613
B1334464613562N00731880EA0250702614
B1334474613557N00731879EA0250702614
B1334484613551N00731880EA0250802614
B1334494613546N00731880EA0251002617
B1334504613542N00731881EA0251202619
B1334514613537N00731881EA0251402621
B1334524613533N00731880EA0251402621
B1334534613527N00731881EA0251402621
B1334544613521N00731881EA0251502622
B1334554613516N00731882EA0251802624
B1334564613511N00731881EA0252002627
B1334574613507N00731878EA0252102628
B1334584613505N00731872EA0252102628
B1334594613505N00731866EA0252202629
B1335004613508N00731860EA0252202629
B1335014613512N00731856EA0252402631
B1335024613518N00731855EA0252602633
B1335034613523N00731858EA0252602633
B1335044613527N00731865EA0252602633
B1335054613531N00731875EA0252502632
B1335064613531N00731886EA0252702633
B1335074613528N00731896EA0252802635
B1335084613523N00731903EA0252702634
B1335094613517N00731906EA0252702634
B1335104613511N00731907EA0252902636
B1335114613506N00731906EA0253102638
B1335124613502N00731904EA0253302640
B1335134613498N00731904EA0253402641
B1335144613493N00731902EA0253502642
B1335154613489N00731899EA0253602643
B1335164613485N00731895EA0253702644
B1335174613483N00731888EA0253702644
B1335184613482N00731882EA0254002647
B1335194613483N00731876EA0254302650
B1335204613485N00731871EA0254402651
B1335214613489N00731868EA0254502652
B1335224613494N00731867EA0254602653
B1335234613499N00731870EA0254702654
B1335244613503N00731874EA0254602653
B1335254613507N00731881EA0254602653
B1335264613510N00731890EA0254602653
B1335274613511N00731900EA0254602653
B1335284613510N00731911EA0254502652
B1335294613507N00731921EA0254502652
B1335304613502N00731928EA0254602653
B1335314613495N00731932EA0254602653
B1335324613489N00731933EA0254702654
B1335334613483N00731933EA0255002657
B1335344613479N00731932EA0255102658
B1335354613474N00731931EA0255202659
B1335364613469N00731929EA0255202659
B1335374613465N00731925EA0255302660
B1335384613462N00731920EA0255302660
B1335394613461N00731914EA0255302660
B1335404613459N00731908EA0255402661
B1335414613458N00731902EA0255502662
B1335424613458N00731897EA0255602663
B1335434613461N00731892EA0255602663
B1335444613463N00731889EA0255502662
B1335454613468N00731887EA0255502662
B1335464613474N00731889EA0255302660
B1335474613479N00731893EA0255302660
B1335484613483N00731900EA0255202659
B1335494613487N00731909EA0255002657
B1335504613488N00731920EA0254802655
B1335514613488N00731931EA0254602653
B1335524613485N00731941EA0254502652
B1335534613480N00731949EA0254402651
B1335544613474N00731954EA0254202649
B1335554613467N00731956EA0254002647
B1335564613460N00731955EA0254102648
B1335574613454N00731955EA0254202649
B1335584613448N00731955EA0254502652
B1335594613443N00731954EA0254502652
B1336004613438N00731953EA0254302650
B1336014613433N00731952EA0254202649
B1336024613427N00731951EA0254102648
B1336034613421N00731950EA0254002647
B1336044613416N00731950EA0254002647
B1336054613411N00731949EA0254002647
B1336064613406N00731948EA0253802645
B1336074613401N00731948EA0253602643
B1336084613394N00731948EA0253302640
B1336094613387N00731948EA0253202639
B1336104613380N00731948EA0253302640
B1336114613374N00731947EA0253302640
B1336124613367N00731947EA0253402641
B1336134613361N00731947EA0253302640
B1336144613355N00731948EA0253302640
B1336154613349N00731949EA0253102638
B1336164613342N00731949EA0253002637
B1336174613335N00731949EA0252702634
B1336184613330N00731950EA0252502632
B1336194613323N00731950EA0252402631
B1336204613317N00731949EA0252102628
B1336214613311N00731948EA0251902626
B1336224613305N00731947EA0251702624
B1336234613299N00731947EA0251502622
B1336244613293N00731947EA0251302620
B1336254613287N00731946EA0251102618
B1336264613281N00731944EA0250802615
B1336274613276N00731942EA0250502612
B1336284613270N00731940EA0250302610
B1336294613264N00731938EA0250102608
B1336304613258N00731936EA0249902606
B1336314613252N00731933EA0249702604
B1336324613247N00731931EA0249602603
B1336334613240N00731930EA0249402601
B1336344613234N00731927EA0249302600
B1336354613229N00731925EA0249202599
B1336364613223N00731923EA0249102598
B1336374613217N00731921EA0249002597
B1336384613212N00731919EA0248902596
B1336394613206N00731917EA0248802595
B1336404613201N00731915EA0248702594
B1336414613195N00731913EA0248602593
B1336424613190N00731911EA0248502592
B1336434613184N00731909EA0248402591
B1336444613179N00731907EA0248402591
B1336454613173N00731904EA0248302590
B1336464613168N00731902EA0248202589
B1336474613162N00731899EA0248102588
B1336484613156N00731897EA0248202589
B1336494613151N00731895EA0248102588
B1336504613146N00731893EA0248002587
B1336514613140N00731891EA0247802585
B1336524613134N00731888EA0247602583
B1336534613128N00731886EA0247402581
B1336544613122N00731883EA0247402581
B1336554613117N00731879EA0247502582
B1336564613111N00731876EA0247602583
B1336574613106N00731873EA0247602583
B1336584613100N00731870EA0247802585
B1336594613093N00731869EA0248002587
B1337004613087N00731869EA0248102588
B1337014613081N00731870EA0248202589
B1337024613074N00731871EA0248302590
B1337034613068N00731870EA0248502592
B1337044613063N00731867EA0248602593
B1337054613059N00731863EA0248702594
B1337064613057N00731857EA0248702594
B1337074613057N00731852EA0248902596
B1337084613059N00731847EA0249002597
B1337094613063N00731845EA0249102598
B1337104613068N00731846EA0249102598
B1337114613073N00731850EA0249202599
B1337124613076N00731858EA0249602603
B1337134613076N00731867EA0249602603
B1337144613073N00731876EA0249702604
B1337154613068N00731885EA0249702604
B1337164613062N00731891EA0249802605
B1337174613055N00731894EA0249702604
B1337184613048N00731893EA0249802605
B1337194613043N00731890EA0249902606
B1337204613040N00731886EA0249902606
B1337214613036N00731882EA0250202609
B1337224613033N00731878EA0250302610
B1337234613031N00731874EA0250402611
B1337244613029N00731870EA0250402611
B1337254613029N00731865EA0250302610
B1337264613031N00731859EA0250402611
B1337274613036N00731856EA0250402611
B1337284613041N00731856EA0250502612
B1337294613045N00731860EA0250602613
B1337304613049N00731866EA0250802615
B1337314613053N00731874EA0251002617
B1337324613055N00731882EA0251402621
B1337334613055N00731891EA0251502622
B1337344613054N00731899EA0251602623
B1337354613051N00731908EA0251502622
B1337364613046N00731914EA0251502622
B1337374613040N00731918EA0251302620
B1337384613033N00731918EA0251102618
B1337394613028N00731914EA0251102618
B1337404613023N00731908EA0251202619
B1337414613020N00731901EA0251502622
B1337424613016N00731895EA0251802625
B1337434613013N00731890EA0252102628
B1337444613009N00731885EA0252202629
B1337454613005N00731881EA0252302630
B1337464613001N00731877EA0252402631
B1337474612999N00731871EA0252602633
B1337484612998N00731865EA0252602633
B1337494612999N00731858EA0252702634
B1337504613002N00731853EA0252702634
B1337514613006N00731851EA0252802635
B1337524613010N00731851EA0252802635
B1337534613014N00731853EA0252802634
B1337544613017N00731859EA0252702634
B1337554613019N00731866EA0252502632
B1337564613020N00731875EA0252302630
B1337574613019N00731886EA0252102628
B1337584613016N00731896EA0252302630
B1337594613013N00731905EA0252502632
B1338004613012N00731913EA0252702634
B1338014613012N00731921EA0252802635
B1338024613014N00731928EA0252802635
B1338034613018N00731935EA0252902636
B1338044613022N00731940EA0253002637
B1338054613026N00731941EA0253102638
B1338064613031N00731940EA0253202639
B1338074613034N00731937EA0253302639
B1338084613036N00731932EA0253202639
B1338094613036N00731927EA0253302640
B1338104613036N00731922EA0253302640
B1338114613034N00731917EA0253402641
B1338124613031N00731912EA0253402641
B1338134613026N00731908EA0253202639
B1338144613019N00731906EA0253202639
B1338154613014N00731905EA0253402641
B1338164613008N00731903EA0253402641
B1338174613004N00731900EA0253502642
B1338184613001N00731897EA0253502642
B1338194612998N00731893EA0253402641
B1338204612995N00731889EA0253302640
B1338214612992N00731884EA0253202639
B1338224612987N00731881EA0253102638
B1338234612981N00731879EA0253002637
B1338244612974N00731878EA0253102638
B1338254612967N00731879EA0253202639
B1338264612962N00731879EA0253402641
B1338274612957N00731880EA0253602642
B1338284612951N00731880EA0253502642
B1338294612943N00731882EA0253502642
B1338304612936N00731883EA0253602643
B1338314612929N00731883EA0253702644
B1338324612924N00731882EA0254102648
B1338334612920N00731880EA0254202649
B1338344612917N00731877EA0254302650
B1338354612916N00731873EA0254402651
B1338364612914N00731869EA0254402650
B1338374612914N00731865EA0254402651
B1338384612914N00731861EA0254402651
B1338394612916N00731858EA0254402651
B1338404612919N00731857EA0254402651
B1338414612923N00731858EA0254402651
B1338424612927N00731861EA0254402651
B1338434612931N00731867EA0254602653
B1338444612934N00731875EA0254702654
B1338454612935N00731885EA0254802655
B1338464612935N00731895EA0254802655
B1338474612933N00731904EA0254902656
B1338484612930N00731913EA0255102658
B1338494612925N00731921EA0255102658
B1338504612920N00731927EA0255202659
B1338514612915N00731929EA0255202659
B1338524612909N00731930EA0255302660
B1338534612904N00731928EA0255402661
B1338544612901N00731925EA0255402661
B1338554612899N00731921EA0255402661
B1338564612899N00731917EA0255402661
B1338574612899N00731913EA0255402661
B1338584612900N00731910EA0255502662
B1338594612902N00731907EA0255402661
B1339004612904N00731903EA0255402661
B1339014612907N00731900EA0255402661
B1339024612909N00731897EA0255502662
B1339034612912N00731894EA0255702664
B1339044612915N00731891EA0255802665
B1339054612916N00731888EA0255902666
B1339064612919N00731884EA0256002667
B1339074612920N00731880EA0256202669
B1339084612922N00731876EA0256202669
B1339094612924N00731872EA0256202669
B1339104612926N00731867EA0256302670
B1339114612928N00731863EA0256202669
B1339124612930N00731859EA0256402671
B1339134612933N00731855EA0256602673
B1339144612937N00731853EA0256802675
B1339154612941N00731852EA0257002677
B1339164612945N00731852EA0257202679
B1339174612949N00731853EA0257302680
B1339184612952N00731856EA0257302680
B1339194612956N00731861EA0257302680
B1339204612960N00731867EA0257302680
B1339214612963N00731874EA0257202679
B1339224612967N00731880EA0257202679
B1339234612971N00731884EA0257302680
B1339244612975N00731887EA0257402681
B1339254612978N00731889EA0257502682
B1339264612981N00731891EA0257602683
B1339274612985N00731891EA0257602683
B1339284612988N00731890EA0257502682
B1339294612991N00731887EA0257402681
B1339304612993N00731883EA0257502681
B1339314612994N00731878EA0257502682
B1339324612993N00731873EA0257502682
B1339334612992N00731869EA0257502682
B1339344612991N00731864EA0257602683
B1339354612989N00731859EA0257702684
B1339364612987N00731855EA0257702684
B1339374612984N00731851EA0257802685
B1339384612979N00731849EA0257802685
B1339394612975N00731848EA0257902686
B1339404612970N00731849EA0257902686
B1339414612965N00731850EA0257902686
B1339424612960N00731853EA0257902686
B1339434612954N00731857EA0258002687
B1339444612949N00731861EA0258202689
B1339454612943N00731864EA0258302690
B1339464612938N00731866EA0258402691
B1339474612933N00731865EA0258502692
B1339484612929N00731862EA0258702694
B1339494612925N00731859EA0258902696
B1339504612923N00731855EA0259002697
B1339514612923N00731851EA0259002697
B1339524612924N00731846EA0259102698
B1339534612925N00731841EA0259202698
B1339544612927N00731837EA0259302700
B1339554612931N00731834EA0259402701
B1339564612935N00731834EA0259402701
B1339574612941N00731837EA0259402701
B1339584612945N00731843EA0259502702
B1339594612948N00731850EA0259602703
B1340004612949N00731859EA0259702704
B1340014612947N00731869EA0259702704
B1340024612944N00731878EA0259802705
B1340034612939N00731885EA0259902706
B1340044612933N00731889EA0260002707
B1340054612927N00731889EA0260102708
B1340064612922N00731886EA0260202709
B1340074612917N00731882EA0260302710
B1340084612914N00731877EA0260502712
B1340094612912N00731871EA0260802715
B1340104612911N00731866EA0261102718
B1340114612910N00731861EA0261202719
B1340124612912N00731856EA0261402721
B1340134612914N00731852EA0261402721
B1340144612918N00731850EA0261502722
B1340154612922N00731850EA0261502722
B1340164612927N00731852EA0261402721
B1340174612932N00731855EA0261502722
B1340184612937N00731859EA0261602723
B1340194612941N00731865EA0261702724
B1340204612944N00731873EA0261802725
B1340214612945N00731883EA0261802725
B1340224612943N00731894EA0261902726
B1340234612940N00731905EA0261902726
B1340244612935N00731913EA0262002727
B1340254612929N00731917EA0262002727
B1340264612923N00731919EA0261902726
B1340274612916N00731918EA0261902726
B1340284612910N00731917EA0261802725
B1340294612904N00731916EA0261902726
B1340304612899N00731914EA0262002727
B1340314612894N00731912EA0262102728
B1340324612890N00731909EA0262202729
B1340334612887N00731904EA0262202729
B1340344612885N00731899EA0262302730
B1340354612884N00731894EA0262302730
B1340364612883N00731889EA0262402731
B1340374612881N00731884EA0262502732
B1340384612880N00731878EA0262602733
B1340394612879N00731873EA0262702734
B1340404612879N00731868EA0262702734
B1340414612880N00731863EA0262702734
B1340424612882N00731858EA0262602733
B1340434612885N00731855EA0262402731
B1340444612890N00731854EA0262402731
B1340454612895N00731856EA0262402731
B1340464612900N00731859EA0262502732
B1340474612904N00731864EA0262402731
B1340484612908N00731869EA0262302730
B1340494612913N00731873EA0262102728
B1340504612917N00731878EA0262102728
B1340514612921N00731884EA0262102728
B1340524612923N00731893EA0262102728
B1340534612923N00731904EA0262202729
B1340544612920N00731915EA0262202729
B1340554612915N00731924EA0262302730
B1340564612908N00731928EA0262402731
B1340574612902N00731927EA0262302730
B1340584612897N00731923EA0262302730
B1340594612894N00731916EA0262302730
B1341004612892N00731910EA0262502732
B1341014612891N00731904EA0262602733
B1341024612891N00731900EA0262602733
B1341034612892N00731897EA0262502732
B1341044612893N00731894EA0262202729
B1341054612895N00731891EA0262002727
B1341064612898N00731889EA0261802725
B1341074612902N00731889EA0261702724
B1341084612907N00731891EA0261602723
B1341094612911N00731895EA0261402721
B1341104612915N00731900EA0261202719
B1341114612919N00731904EA0261102718
B1341124612925N00731905EA0261202719
B1341134612931N00731906EA0261802725
B1341144612935N00731906EA0262002727
B1341154612939N00731906EA0262302730
B1341164612943N00731906EA0262402731
B1341174612947N00731904EA0262402731
B1341184612951N00731900EA0262502732
B1341194612954N00731895EA0262502732
B1341204612957N00731889EA0262602733
B1341214612960N00731883EA0262902736
B1341224612962N00731877EA0263102738
B1341234612963N00731870EA0263202739
B1341244612962N00731863EA0263202739
B1341254612960N00731856EA0263202739
B1341264612957N00731849EA0263502742
B1341274612954N00731844EA0263702744
B1341284612950N00731841EA0263702744
B1341294612944N00731840EA0263702744
B1341304612938N00731840EA0263702744
B1341314612932N00731841EA0263802745
B1341324612926N00731841EA0264002747
B1341334612922N00731838EA0264202749
B1341344612919N00731833EA0264202749
B1341354612919N00731828EA0264202749
B1341364612920N00731824EA0264302750
B1341374612923N00731820EA0264402751
B1341384612928N00731819EA0264502752
B1341394612933N00731820EA0264702754
B1341404612938N00731823EA0264902756
B1341414612942N00731828EA0265202759
B1341424612946N00731836EA0265402761
B1341434612948N00731846EA0265502762
B1341444612948N00731856EA0265502762
B1341454612945N00731866EA0265502762
B1341464612941N00731873EA0265302760
B1341474612936N00731878EA0265302760
B1341484612930N00731880EA0265202759
B1341494612925N00731880EA0265102758
B1341504612920N00731879EA0265102758
B1341514612916N00731875EA0265002757
B1341524612914N00731871EA0264902756
B1341534612912N00731866EA0264902756
B1341544612911N00731859EA0265102758
B1341554612910N00731852EA0265402761
B1341564612909N00731847EA0265702764
B1341574612910N00731843EA0265902766
B1341584612910N00731839EA0266102768
B1341594612910N00731836EA0266102768
B1342004612909N00731832EA0266102768
B1342014612909N00731827EA0266002767
B1342024612911N00731821EA0266302770
B1342034612914N00731816EA0266302770
B1342044612919N00731814EA0266402771
B1342054612924N00731815EA0266502772
B1342064612929N00731821EA0266602773
B1342074612932N00731829EA0266602773
B1342084612933N00731840EA0266602773
B1342094612933N00731850EA0266602773
B1342104612930N00731860EA0266702773
B1342114612925N00731869EA0266802775
B1342124612920N00731875EA0266902776
B1342134612914N00731879EA0266902776
B1342144612908N00731880EA0267002777
B1342154612902N00731879EA0267102778
B1342164612897N00731876EA0267302780
B1342174612893N00731871EA0267502782
B1342184612890N00731866EA0267702784
B1342194612889N00731860EA0267902786
B1342204612889N00731855EA0268102788
B1342214612890N00731850EA0268302790
B1342224612892N00731847EA0268402791
B1342234612895N00731846EA0268402791
B1342244612898N00731845EA0268302790
B1342254612903N00731848EA0268202789
B1342264612908N00731853EA0268102788
B1342274612912N00731862EA0268102788
B1342284612914N00731873EA0268102788
B1342294612913N00731884EA0268002787
B1342304612911N00731894EA0268102788
B1342314612906N00731903EA0268002787
B1342324612900N00731909EA0268102788
B1342334612893N00731912EA0268102788
B1342344612886N00731912EA0268202789
B1342354612879N00731909EA0268302790
B1342364612874N00731906EA0268402791
B1342374612870N00731901EA0268602793
B1342384612867N00731897EA0268802795
B1342394612864N00731893EA0268902796
B1342404612862N00731889EA0269002797
B1342414612860N00731885EA0268902796
B1342424612859N00731881EA0268802795
B1342434612858N00731875EA0268702794
B1342444612857N00731870EA0268702794
B1342454612858N00731865EA0268802795
B1342464612859N00731860EA0268802795
B1342474612862N00731857EA0269002797
B1342484612866N00731855EA0269102798
B1342494612869N00731856EA0269102798
B1342504612873N00731860EA0269002797
B1342514612876N00731866EA0268902796
B1342524612880N00731874EA0269002796
B1342534612881N00731884EA0268802795
B1342544612881N00731894EA0268702794
B1342554612878N00731905EA0268602793
B1342564612873N00731914EA0268502792
B1342574612866N00731920EA0268302790
B1342584612859N00731923EA0268302790
B1342594612852N00731924EA0268202789
B1343004612845N00731923EA0268102788
B1343014612838N00731922EA0268102788
B1343024612831N00731921EA0268102788
B1343034612824N00731919EA0268102788
B1343044612817N00731918EA0268202789
B1343054612811N00731917EA0268202789
B1343064612806N00731915EA0268102788
B1343074612799N00731914EA0267902786
B1343084612793N00731911EA0267802785
B1343094612787N00731908EA0267702784
B1343104612780N00731904EA0267602783
B1343114612775N00731900EA0267502782
B1343124612770N00731896EA0267302780
B1343134612764N00731893EA0266902776
B1343144612758N00731888EA0266502772
B1343154612751N00731884EA0266302770
B1343164612745N00731879EA0266102768
B1343174612739N00731875EA0265902766
B1343184612732N00731873EA0265802765
B1343194612727N00731871EA0265602763
B1343204612721N00731869EA0265402761
B1343214612714N00731866EA0265002757
B1343224612708N00731863EA0264802755
B1343234612701N00731861EA0264502752
B1343244612693N00731859EA0264402751
B1343254612686N00731858EA0264202749
B1343264612678N00731856EA0264002747
B1343274612671N00731853EA0263902746
B1343284612664N00731851EA0263702744
B1343294612656N00731849EA0263702744
B1343304612648N00731848EA0263502742
B1343314612641N00731845EA0263402741
B1343324612633N00731843EA0263302740
B1343334612626N00731841EA0263102738
B1343344612619N00731838EA0263002737
B1343354612611N00731835EA0262802735
B1343364612604N00731832EA0262702734
B1343374612596N00731828EA0262702734
B1343384612589N00731825EA0262602733
B1343394612582N00731822EA0262602733
B1343404612574N00731819EA0262602733
B1343414612567N00731815EA0262602733
B1343424612560N00731812EA0262702734
B1343434612553N00731808EA0262602733
B1343444612545N00731805EA0262702734
B1343454612539N00731802EA0262702734
B1343464612532N00731798EA0262802735
B1343474612526N00731795EA0262902736
B1343484612520N00731794EA0263002737
B1343494612515N00731792EA0263102738
B1343504612509N00731791EA0263002737
B1343514612502N00731788EA0262902736
B1343524612496N00731785EA0262902736
B1343534612490N00731782EA0262902735
B1343544612484N00731779EA0262902736
B1343554612478N00731776EA0262902736
B1343564612472N00731772EA0262902736
B1343574612466N00731769EA0262802735
B1343584612460N00731765EA0262702734
B1343594612454N00731761EA0262602733
B1344004612447N00731757EA0262502732
B1344014612442N00731753EA0262502732
B1344024612437N00731749EA0262502732
B1344034612432N00731746EA0262302730
B1344044612426N00731743EA0262202729
B1344054612421N00731740EA0262002727
B1344064612415N00731736EA0261902726
B1344074612409N00731733EA0261902726
B1344084612403N00731730EA0261802725
B1344094612397N00731728EA0261702723
B1344104612392N00731726EA0261602723
B1344114612386N00731724EA0261502722
B1344124612380N00731722EA0261402720
B1344134612374N00731721EA0261202719
B1344144612368N00731719EA0261102718
B1344154612362N00731718EA0261002717
B1344164612356N00731716EA0260802715
B1344174612350N00731714EA0260702714
B1344184612344N00731713EA0260602713
B1344194612338N00731711EA0260502712
B1344204612332N00731709EA0260402711
B1344214612326N00731707EA0260302710
B1344224612320N00731706EA0260202709
B1344234612313N00731704EA0260102708
B1344244612307N00731703EA0260002707
B1344254612301N00731702EA0259902706
B1344264612295N00731701EA0259802704
B1344274612289N00731700EA0259602703
B1344284612282N00731699EA0259502702
B1344294612276N00731698EA0259402701
B1344304612269N00731697EA0259402701
B1344314612263N00731697EA0259302700
B1344324612256N00731696EA0259402701
B1344334612250N00731696EA0259402701
B1344344612243N00731696EA0259302700
B1344354612237N00731695EA0259102698
B1344364612230N00731695EA0258802695
B1344374612224N00731693EA0258702694
B1344384612217N00731692EA0258602693
B1344394612210N00731691EA0258402691
B1344404612204N00731690EA0258302690
B1344414612197N00731690EA0258102688
B1344424612191N00731689EA0258002687
B1344434612184N00731688EA0257902686
B1344444612177N00731688EA0257702684
B1344454612171N00731688EA0257602683
B1344464612163N00731689EA0257502682
B1344474612157N00731689EA0257302680
B1344484612150N00731690EA0257102678
B1344494612142N00731691EA0257002677
B1344504612135N00731691EA0256802675
B1344514612128N00731692EA0256702674
B1344524612121N00731693EA0256502672
B1344534612114N00731695EA0256202669
B1344544612106N00731697EA0256002667
B1344554612098N00731698EA0255802665
B1344564612090N00731701EA0255602663
B1344574612082N00731702EA0255602663
B1344584612076N00731704EA0255502662
B1344594612068N00731706EA0255402661
B1345004612062N00731708EA0255202659
B1345014612054N00731709EA0255202659
B1345024612047N00731712EA0255302660
B1345034612040N00731715EA0255302660
B1345044612034N00731718EA0255302660
B1345054612027N00731722EA0255302660
B1345064612020N00731726EA0255302660
B1345074612014N00731730EA0255202659
B1345084612007N00731735EA0255002657
B1345094612000N00731739EA0254902656
B1345104611993N00731743EA0254802655
B1345114611985N00731746EA0254702654
B1345124611978N00731749EA0254602653
B1345134611970N00731753EA0254602653
B1345144611963N00731757EA0254702653
B1345154611956N00731760EA0254902655
B1345164611949N00731764EA0255002657
B1345174611942N00731768EA0255002657
B1345184611935N00731773EA0255302660
B1345194611929N00731779EA0255502662
B1345204611923N00731785EA0255702664
B1345214611917N00731790EA0255802665
B1345224611912N00731794EA0255802665
B1345234611906N00731796EA0255702664
B1345244611900N00731795EA0255502662
B1345254611895N00731791EA0255402661
B1345264611892N00731784EA0255302660
B1345274611892N00731777EA0255302660
B1345284611892N00731771EA0255602663
B1345294611895N00731768EA0255802665
B1345304611898N00731767EA0255902666
B1345314611902N00731768EA0255902666
B1345324611906N00731769EA0256002667
B1345334611911N00731773EA0256102668
B1345344611915N00731778EA0256202669
B1345354611917N00731787EA0256402671
B1345364611917N00731797EA0256402671
B1345374611916N00731807EA0256502672
B1345384611911N00731815EA0256702673
B1345394611905N00731819EA0256702674
B1345404611898N00731819EA0256702674
B1345414611892N00731817EA0256602673
B1345424611887N00731812EA0256802675
B1345434611883N00731808EA0256902676
B1345444611880N00731805EA0257202679
B1345454611878N00731801EA0257302680
B1345464611878N00731798EA0257202679
B1345474611880N00731793EA0257102678
B1345484611883N00731790EA0257102678
B1345494611888N00731788EA0257202679
B1345504611892N00731790EA0257302680
B1345514611896N00731796EA0257402681
B1345524611898N00731803EA0257402681
B1345534611899N00731813EA0257502682
B1345544611899N00731822EA0257602683
B1345554611895N00731831EA0257602683
B1345564611890N00731837EA0257502682
B1345574611884N00731839EA0257302680
B1345584611877N00731839EA0257202679
B1345594611872N00731835EA0257302680
B1346004611868N00731830EA0257402681
B1346014611866N00731824EA0257502681
B1346024611866N00731819EA0257502682
B1346034611866N00731814EA0257502682
B1346044611867N00731809EA0257602683
B1346054611868N00731806EA0257602683
B1346064611870N00731803EA0257602683
B1346074611873N00731801EA0257502682
B1346084611876N00731799EA0257602683
B1346094611879N00731799EA0257602683
B1346104611883N00731800EA0257502682
B1346114611886N00731803EA0257502682
B1346124611891N00731807EA0257402681
B1346134611895N00731813EA0257302680
B1346144611899N00731819EA0257402681
B1346154611904N00731823EA0257602683
B1346164611908N00731825EA0257702684
B1346174611912N00731825EA0257702684
B1346184611916N00731824EA0257602683
B1346194611920N00731822EA0257502682
B1346204611925N00731819EA0257502682
B1346214611928N00731813EA0257502682
B1346224611930N00731806EA0257602683
B1346234611929N00731799EA0257702684
B1346244611926N00731794EA0257702684
B1346254611921N00731791EA0257602683
B1346264611916N00731789EA0257602683
B1346274611910N00731789EA0257502682
B1346284611904N00731790EA0257502682
B1346294611898N00731794EA0257402681
B1346304611892N00731801EA0257302680
B1346314611887N00731810EA0257402681
B1346324611884N00731820EA0257702684
B1346334611880N00731829EA0257902686
B1346344611877N00731836EA0257902686
B1346354611872N00731841EA0257802685
B1346364611866N00731845EA0257702684
B1346374611859N00731847EA0257702684
B1346384611854N00731846EA0257802685
B1346394611849N00731843EA0257702684
B1346404611847N00731837EA0257502682
B1346414611847N00731831EA0257402681
B1346424611849N00731825EA0257402681
B1346434611852N00731820EA0257602683
B1346444611854N00731819EA0257702684
B1346454611858N00731821EA0257802685
B1346464611861N00731824EA0257802685
B1346474611866N00731828EA0257802685
B1346484611870N00731832EA0258002687
B1346494611873N00731836EA0258202689
B1346504611877N00731839EA0258202689
B1346514611882N00731839EA0258302690
B1346524611886N00731839EA0258402691
B1346534611890N00731837EA0258502692
B1346544611892N00731833EA0258702694
B1346554611894N00731828EA0258602693
B1346564611892N00731821EA0258602693
B1346574611888N00731816EA0258702694
B1346584611883N00731812EA0258902696
B1346594611878N00731811EA0259202699
B1347004611873N00731811EA0259202699
B1347014611867N00731812EA0259302700
B1347024611861N00731815EA0259402701
B1347034611854N00731820EA0259302700
B1347044611849N00731826EA0259202699
B1347054611845N00731835EA0259302700
B1347064611841N00731845EA0259502702
B1347074611838N00731854EA0259502702
B1347084611835N00731862EA0259702704
B1347094611830N00731868EA0259702704
B1347104611825N00731872EA0259502702
B1347114611819N00731872EA0259302700
B1347124611813N00731870EA0259302700
B1347134611808N00731867EA0259202699
B1347144611805N00731861EA0259202699
B1347154611804N00731856EA0259002697
B1347164611807N00731850EA0258802695
B1347174611811N00731847EA0258602693
B1347184611816N00731847EA0258502692
B1347194611821N00731850EA0258602693
B1347204611826N00731854EA0258602693
B1347214611830N00731856EA0258802695
B1347224611835N00731858EA0258802695
B1347234611839N00731860EA0258802695
B1347244611844N00731863EA0258802695
B1347254611849N00731865EA0258902696
B1347264611854N00731866EA0259002697
B1347274611858N00731866EA0259202699
B1347284611863N00731866EA0259302700
B1347294611867N00731866EA0259502702
B1347304611870N00731865EA0259702703
B1347314611874N00731864EA0259702704
B1347324611876N00731861EA0259602703
B1347334611879N00731856EA0259602703
B1347344611879N00731849EA0259602703
B1347354611879N00731842EA0259802705
B1347364611876N00731836EA0260002707
B1347374611872N00731832EA0260002707
B1347384611867N00731832EA0260202709
B1347394611861N00731834EA0260202709
B1347404611855N00731840EA0260102708
B1347414611851N00731849EA0260202709
B1347424611850N00731860EA0260302710
B1347434611853N00731870EA0260202709
B1347444611858N00731877EA0260302710
B1347454611864N00731880EA0260602713
B1347464611869N00731879EA0260902716
B1347474611872N00731878EA0261102718
B1347484611874N00731875EA0261102718
B1347494611876N00731871EA0261202719
B1347504611879N00731866EA0261202719
B1347514611879N00731860EA0261502722
B1347524611879N00731854EA0261602723
B1347534611876N00731849EA0261802725
B1347544611870N00731846EA0261902726
B1347554611865N00731845EA0262102728
B1347564611859N00731846EA0262402731
B1347574611854N00731850EA0262502732
B1347584611849N00731857EA0262602733
B1347594611845N00731866EA0262602733
B1348004611844N00731876EA0262702734
B1348014611844N00731886EA0262902736
B1348024611847N00731894EA0262902736
B1348034611852N00731900EA0262902736
B1348044611857N00731903EA0263002737
B1348054611863N00731903EA0263202739
B1348064611868N00731900EA0263302740
B1348074611870N00731894EA0263402741
B1348084611871N00731888EA0263502742
B1348094611872N00731882EA0263802745
B1348104611871N00731876EA0264102748
B1348114611870N00731872EA0264302750
B1348124611868N00731867EA0264502752
B1348134611864N00731863EA0264702754
B1348144611859N00731860EA0265002757
B1348154611854N00731859EA0265102758
B1348164611848N00731860EA0265102758
B1348174611842N00731865EA0265202759
B1348184611837N00731871EA0265402761
B1348194611833N00731878EA0265402761
B1348204611830N00731886EA0265602763
B1348214611828N00731895EA0265702764
B1348224611829N00731905EA0265802765
B1348234611832N00731913EA0265902766
B1348244611836N00731919EA0265902766
B1348254611841N00731921EA0265902766
B1348264611846N00731921EA0266102768
B1348274611851N00731919EA0266102768
B1348284611854N00731914EA0266102768
B1348294611857N00731908EA0266102768
B1348304611860N00731901EA0266402771
B1348314611862N00731895EA0266702774
B1348324611863N00731890EA0267102778
B1348334611863N00731887EA0267202779
B1348344611861N00731882EA0267202779
B1348354611858N00731878EA0267102778
B1348364611852N00731875EA0267102778
B1348374611845N00731875EA0267202779
B1348384611838N00731880EA0267502782
B1348394611833N00731887EA0267702784
B1348404611832N00731896EA0267802785
B1348414611832N00731904EA0267902786
B1348424611833N00731912EA0267902786
B1348434611837N00731918EA0268002787
B1348444611842N00731923EA0267902786
B1348454611848N00731925EA0267902786
B1348464611854N00731925EA0268002787
B1348474611858N00731924EA0268202789
B1348484611863N00731922EA0268402791
B1348494611866N00731920EA0268502792
B1348504611869N00731917EA0268702794
B1348514611870N00731911EA0268902796
B1348524611869N00731905EA0268702794
B1348534611865N00731898EA0268702794
B1348544611860N00731893EA0268802795
B1348554611854N00731891EA0269102798
B1348564611848N00731890EA0269402801
B1348574611843N00731893EA0269502802
B1348584611837N00731898EA0269502802
B1348594611833N00731905EA0269702804
B1349004611829N00731914EA0269802805
B1349014611828N00731923EA0269902805
B1349024611828N00731932EA0269902806
B1349034611829N00731940EA0269902806
B1349044611829N00731947EA0270102808
B1349054611830N00731955EA0270002807
B1349064611832N00731963EA0269802805
B1349074611835N00731970EA0269802805
B1349084611839N00731975EA0269602803
B1349094611844N00731978EA0269502802
B1349104611850N00731976EA0269402800
B1349114611854N00731971EA0269402801
B1349124611858N00731966EA0269502802
B1349134611861N00731963EA0269802805
B1349144611864N00731962EA0269902806
B1349154611866N00731962EA0270002807
B1349164611869N00731959EA0270002807
B1349174611872N00731956EA0269902806
B1349184611876N00731951EA0269702804
B1349194611879N00731946EA0269702804
B1349204611881N00731941EA0269802805
B1349214611882N00731936EA0270002807
B1349224611882N00731930EA0270202809
B1349234611882N00731924EA0270202809
B1349244611881N00731918EA0270202809
B1349254611881N00731913EA0270302810
B1349264611879N00731908EA0270302810
B1349274611876N00731903EA0270302810
B1349284611871N00731898EA0270102808
B1349294611866N00731895EA0270002807
B1349304611860N00731893EA0269902806
B1349314611854N00731892EA0269902806
B1349324611847N00731895EA0269602803
B1349334611840N00731900EA0269602803
B1349344611834N00731906EA0269702804
B1349354611829N00731914EA0269802805
B1349364611826N00731921EA0269902806
B1349374611825N00731930EA0269902806
B1349384611824N00731939EA0269802805
B1349394611825N00731949EA0269802805
B1349404611827N00731958EA0269802805
B1349414611830N00731967EA0269902806
B1349424611834N00731973EA0269802805
B1349434611838N00731978EA0269802805
B1349444611844N00731981EA0269702804
B1349454611849N00731981EA0269602803
B1349464611854N00731977EA0269602803
B1349474611857N00731973EA0269702804
B1349484611860N00731968EA0269802805
B1349494611861N00731964EA0270002807
B1349504611862N00731961EA0270102808
B1349514611864N00731958EA0270102808
B1349524611865N00731953EA0270002807
B1349534611866N00731948EA0269902806
B1349544611865N00731942EA0269802805
B1349554611863N00731936EA0269702804
B1349564611861N00731930EA0269602803
B1349574611859N00731925EA0269402801
B1349584611857N00731919EA0269202799
B1349594611853N00731912EA0269102798
B1350004611850N00731905EA0268902796
B1350014611847N00731898EA0268802795
B1350024611843N00731892EA0268802795
B1350034611839N00731886EA0268902796
B1350044611836N00731880EA0268802795
B1350054611833N00731874EA0268802795
B1350064611829N00731869EA0268802795
B1350074611825N00731864EA0268702794
B1350084611821N00731859EA0268502792
B1350094611818N00731853EA0268402791
B1350104611815N00731846EA0268302790
B1350114611812N00731840EA0268202789
B1350124611809N00731834EA0268002787
B1350134611806N00731828EA0267902786
B1350144611803N00731822EA0267902786
B1350154611801N00731815EA0267802785
B1350164611797N00731809EA0267702784
B1350174611795N00731802EA0267602783
B1350184611792N00731796EA0267502782
B1350194611789N00731789EA0267402781
B1350204611787N00731782EA0267302780
B1350214611785N00731774EA0267202779
B1350224611782N00731767EA0267102778
B1350234611780N00731759EA0267002777
B1350244611777N00731753EA0266902776
B1350254611774N00731746EA0266802775
B1350264611772N00731739EA0266602773
B1350274611770N00731732EA0266502772
B1350284611768N00731725EA0266302770
B1350294611765N00731718EA0266102768
B1350304611762N00731711EA0266002767
B1350314611759N00731704EA0265902766
B1350324611756N00731697EA0265802765
B1350334611754N00731690EA0265702764
B1350344611751N00731683EA0265502762
B1350354611748N00731676EA0265302760
B1350364611745N00731668EA0265102758
B1350374611741N00731661EA0265102758
B1350384611738N00731654EA0265002757
B1350394611735N00731648EA0264902756
B1350404611731N00731641EA0264802755
B1350414611729N00731635EA0264702754
B1350424611725N00731628EA0264502752
B1350434611721N00731622EA0264402751
B1350444611718N00731615EA0264202749
B1350454611714N00731609EA0264202748
B1350464611710N00731603EA0264102748
B1350474611706N00731597EA0263902746
B1350484611702N00731591EA0263802745
B1350494611698N00731585EA0263602743
B1350504611694N00731579EA0263502742
B1350514611689N00731573EA0263402741
B1350524611686N00731567EA0263302740
B1350534611681N00731560EA0263302740
B1350544611678N00731554EA0263302740
B1350554611674N00731548EA0263202739
B1350564611670N00731542EA0263202739
B1350574611667N00731537EA0263102738
B1350584611663N00731531EA0263002737
B1350594611660N00731525EA0262902736
B1351004611657N00731518EA0262802735
B1351014611653N00731511EA0262702734
B1351024611650N00731504EA0262602733
B1351034611646N00731498EA0262602733
B1351044611643N00731491EA0262502732
B1351054611639N00731484EA0262402731
B1351064611636N00731478EA0262302730
B1351074611632N00731471EA0262202729
B1351084611628N00731464EA0262102728
B1351094611625N00731457EA0262002727
B1351104611621N00731451EA0262002727
B1351114611618N00731444EA0261902726
B1351124611614N00731438EA0261902726
B1351134611610N00731432EA0261802725
B1351144611606N00731426EA0261602723
B1351154611602N00731419EA0261502722
B1351164611598N00731413EA0261502722
B1351174611594N00731407EA0261402721
B1351184611589N00731401EA0261302720
B1351194611585N00731395EA0261202719
B1351204611581N00731389EA0261202719
B1351214611577N00731383EA0261102718
B1351224611572N00731377EA0260902716
B1351234611568N00731371EA0260802715
B1351244611564N00731365EA0260802715
B1351254611559N00731359EA0260702714
B1351264611555N00731353EA0260702714
B1351274611550N00731347EA0260602713
B1351284611546N00731341EA0260502712
B1351294611542N00731336EA0260402711
B1351304611537N00731330EA0260302710
B1351314611532N00731324EA0260202709
B1351324611527N00731318EA0260202709
B1351334611522N00731313EA0260202709
B1351344611518N00731308EA0260102708
B1351354611513N00731302EA0260002707
B1351364611508N00731297EA0259902706
B1351374611503N00731292EA0259802705
B1351384611498N00731287EA0259602703
B1351394611492N00731281EA0259402701
B1351404611486N00731277EA0259302700
B1351414611480N00731272EA0259102698
B1351424611474N00731268EA0259102698
B1351434611468N00731264EA0259002697
B1351444611462N00731260EA0259002697
B1351454611456N00731257EA0258902696
B1351464611449N00731255EA0258902696
B1351474611443N00731254EA0258902696
B1351484611437N00731253EA0258802695
B1351494611430N00731252EA0259002697
B1351504611423N00731252EA0259102698
B1351514611418N00731252EA0259302700
B1351524611412N00731251EA0259402701
B1351534611407N00731249EA0259302700
B1351544611403N00731244EA0259102698
B1351554611399N00731239EA0259102698
B1351564611393N00731233EA0259002697
B1351574611387N00731228EA0258902696
B1351584611381N00731225EA0258802695
B1351594611375N00731223EA0258802695
B1352004611369N00731220EA0258602693
B1352014611364N00731217EA0258402690
B1352024611357N00731214EA0258202689
B1352034611351N00731211EA0258002687
B1352044611344N00731209EA0257902686
B1352054611338N00731206EA0257802685
B1352064611332N00731203EA0257802685
B1352074611326N00731200EA0257702684
B1352084611320N00731198EA0257502682
B1352094611313N00731196EA0257302680
B1352104611307N00731192EA0257102678
B1352114611300N00731188EA0257002677
B1352124611294N00731182EA0257102678
B1352134611288N00731177EA0257202679
B1352144611282N00731172EA0257402681
B1352154611277N00731168EA0257602683
B1352164611272N00731165EA0257602683
B1352174611268N00731160EA0257602683
B1352184611264N00731155EA0257502682
B1352194611260N00731149EA0257402681
B1352204611256N00731143EA0257402681
B1352214611251N00731137EA0257402681
B1352224611247N00731132EA0257402681
B1352234611241N00731127EA0257302680
B1352244611236N00731122EA0257302680
B1352254611231N00731117EA0257402681
B1352264611226N00731112EA0257402681
B1352274611222N00731108EA0257302680
B1352284611217N00731103EA0257202679
B1352294611213N00731098EA0257102678
B1352304611209N00731092EA0256902676
B1352314611203N00731087EA0256802675
B1352324611197N00731083EA0256802675
B1352334611191N00731079EA0256702674
B1352344611185N00731077EA0256602673
B1352354611179N00731074EA0256502672
B1352364611173N00731070EA0256402671
B1352374611166N00731068EA0256302670
B1352384611159N00731065EA0256302670
B1352394611153N00731062EA0256302670
B1352404611147N00731058EA0256302670
B1352414611140N00731053EA0256202669
B1352424611134N00731049EA0256102668
B1352434611128N00731043EA0256002667
B1352444611122N00731038EA0256002667
B1352454611116N00731032EA0256102668
B1352464611111N00731026EA0256302670
B1352474611106N00731021EA0256302670
B1352484611101N00731015EA0256402671
B1352494611097N00731009EA0256302670
B1352504611092N00731002EA0256402671
B1352514611087N00730995EA0256402671
B1352524611082N00730989EA0256502672
B1352534611079N00730982EA0256502672
B1352544611076N00730974EA0256602673
B1352554611073N00730967EA0256602673
B1352564611070N00730959EA0256402671
B1352574611066N00730951EA0256402671
B1352584611063N00730942EA0256302670
B1352594611059N00730933EA0256302670
B1353004611056N00730924EA0256502672
B1353014611051N00730917EA0256702674
B1353024611047N00730911EA0256902676
B1353034611042N00730906EA0256902676
B1353044611038N00730902EA0256902675
B1353054611033N00730898EA0256702674
B1353064611029N00730891EA0256602673
B1353074611026N00730883EA0256602673
B1353084611025N00730874EA0256502672
B1353094611027N00730867EA0256502672
B1353104611030N00730863EA0256402671
B1353114611033N00730861EA0256402671
B1353124611037N00730862EA0256402671
B1353134611040N00730865EA0256302670
B1353144611043N00730870EA0256202669
B1353154611044N00730876EA0256202669
B1353164611045N00730882EA0256302670
B1353174611046N00730889EA0256202669
B1353184611046N00730895EA0256302669
B1353194611047N00730901EA0256302670
B1353204611049N00730906EA0256302669
B1353214611051N00730912EA0256202669
B1353224611052N00730918EA0256102668
B1353234611053N00730924EA0256102668
B1353244611054N00730929EA0256002667
B1353254611056N00730934EA0255902666
B1353264611058N00730940EA0255702664
B1353274611061N00730945EA0255602663
B1353284611064N00730950EA0255602663
B1353294611067N00730955EA0255702664
B1353304611070N00730960EA0255802665
B1353314611073N00730965EA0256002667
B1353324611075N00730971EA0256102668
B1353334611077N00730976EA0256102668
B1353344611079N00730981EA0256102668
B1353354611082N00730987EA0256202669
B1353364611084N00730994EA0256402671
B1353374611085N00731002EA0256602673
B1353384611085N00731008EA0256802675
B1353394611085N00731013EA0256902676
B1353404611086N00731019EA0256902676
B1353414611087N00731026EA0257002677
B1353424611088N00731033EA0257102678
B1353434611090N00731040EA0257302680
B1353444611092N00731047EA0257502682
B1353454611093N00731053EA0257702684
B1353464611094N00731060EA0257902686
B1353474611096N00731066EA0258002687
B1353484611098N00731071EA0258102688
B1353494611100N00731077EA0258002687
B1353504611104N00731081EA0258202689
B1353514611107N00731084EA0258202689
B1353524611111N00731085EA0258202689
B1353534611115N00731083EA0258202689
B1353544611118N00731079EA0258302689
B1353554611119N00731074EA0258202689
B1353564611119N00731067EA0258102688
B1353574611118N00731059EA0257902686
B1353584611114N00731052EA0257802685
B1353594611108N00731046EA0257702684
B1354004611103N00731041EA0257702684
B1354014611099N00731036EA0257902686
B1354024611094N00731031EA0257902686
B1354034611090N00731024EA0257902686
B1354044611086N00731017EA0257902686
B1354054611082N00731010EA0258002687
B1354064611078N00731002EA0258002687
B1354074611074N00730995EA0258102688
B1354084611071N00730988EA0258202689
B1354094611068N00730982EA0258302690
B1354104611064N00730975EA0258302690
B1354114611060N00730968EA0258302690
B1354124611057N00730961EA0258302690
B1354134611053N00730953EA0258402691
B1354144611048N00730945EA0258502692
B1354154611044N00730938EA0258602693
B1354164611040N00730931EA0258702694
B1354174611036N00730924EA0258802695
LXSX;GF:1.5
G0DFE18341BEF9B401B2DF310547978A6
