AXSX003 SKYTRAXX V3.0.16c SN:00000380
HFPLTPILOT:Sepp Bucher
HFGTYGLIDERTYPE:Advance Sigma11
HFDTM100GPSDATUM:WGS-84
HFCIDCOMPETITIONID:0000
HFCCLCOMPETITION CLASS:Paraglider (Standard)
HFSITSITE:Korce-2.9km
HFDTE200621
B1246284036621N02048821EA0131501320
B1246294036621N02048821EA0131501320
B1246304036621N02048821EA0131501320
B1246314036621N02048821EA0131501320
B1246324036621N02048821EA0131501320
B1246334036621N02048821EA0131501320
B1246344036621N02048821EA0131501320
B1246354036621N02048821EA0131501320
B1246364036621N02048821EA0131401320
B1246374036621N02048821EA0131401319
B1246384036621N02048821EA0131401320
B1246394036622N02048820EA0131301318
B1246404036623N02048818EA0131101317
B1246414036626N02048815EA0130901318
B1246424036628N02048812EA0130701320
B1246434036630N02048808EA0130501323
B1246444036633N02048805EA0130901326
B1246454036635N02048802EA0131001327
B1246464036636N02048798EA0130801326
B1246474036636N02048793EA0130601323
B1246484036635N02048787EA0130401322
B1246494036632N02048781EA0130301320
B1246504036628N02048775EA0130401321
B1246514036625N02048770EA0130601323
B1246524036623N02048766EA0130701325
B1246534036620N02048762EA0130701324
B1246544036617N02048757EA0130501323
B1246554036613N02048752EA0130401322
B1246564036608N02048747EA0130601323
B1246574036603N02048742EA0131001327
B1246584036598N02048740EA0131501332
B1246594036595N02048740EA0131701334
B1247004036592N02048740EA0131801335
B1247014036588N02048739EA0131801335
B1247024036585N02048736EA0131701334
B1247034036584N02048731EA0131601333
B1247044036584N02048727EA0131801335
B1247054036586N02048724EA0131901336
B1247064036590N02048723EA0131801336
B1247074036595N02048724EA0131801335
B1247084036599N02048727EA0131801335
B1247094036604N02048730EA0131801335
B1247104036609N02048731EA0131801335
B1247114036613N02048732EA0131801335
B1247124036617N02048732EA0131701334
B1247134036621N02048733EA0131701334
B1247144036625N02048735EA0131701334
B1247154036629N02048739EA0131701334
B1247164036633N02048747EA0131601334
B1247174036635N02048757EA0131601333
B1247184036634N02048768EA0131601334
B1247194036631N02048778EA0131601334
B1247204036625N02048785EA0131801335
B1247214036620N02048789EA0132101338
B1247224036614N02048791EA0132201339
B1247234036609N02048792EA0132401342
B1247244036604N02048792EA0132701344
B1247254036600N02048792EA0132701345
B1247264036596N02048791EA0132701344
B1247274036594N02048788EA0132601343
B1247284036592N02048783EA0132501342
B1247294036591N02048778EA0132501342
B1247304036590N02048774EA0132601343
B1247314036588N02048770EA0132701345
B1247324036587N02048767EA0132801345
B1247334036586N02048763EA0132801345
B1247344036585N02048759EA0132801345
B1247354036584N02048754EA0132801346
B1247364036584N02048750EA0132801346
B1247374036585N02048746EA0132801346
B1247384036587N02048743EA0132701345
B1247394036590N02048741EA0132601344
B1247404036595N02048741EA0132501342
B1247414036600N02048742EA0132301341
B1247424036606N02048745EA0132301340
B1247434036611N02048749EA0132401341
B1247444036618N02048752EA0132601344
B1247454036624N02048756EA0133001347
B1247464036628N02048759EA0133301350
B1247474036633N02048763EA0133501353
B1247484036636N02048767EA0133701355
B1247494036641N02048769EA0133701354
B1247504036646N02048769EA0133601353
B1247514036650N02048765EA0133401352
B1247524036652N02048759EA0133501352
B1247534036649N02048754EA0133501353
B1247544036645N02048752EA0133601353
B1247554036639N02048753EA0133601353
B1247564036633N02048756EA0133801355
B1247574036628N02048759EA0134101358
B1247584036624N02048762EA0134301360
B1247594036620N02048764EA0134401361
B1248004036615N02048763EA0134501363
B1248014036612N02048761EA0134601363
B1248024036610N02048756EA0134501363
B1248034036609N02048753EA0134601364
B1248044036610N02048750EA0134601364
B1248054036611N02048746EA0134501363
B1248064036613N02048743EA0134301361
B1248074036616N02048739EA0134101358
B1248084036621N02048737EA0133901356
B1248094036628N02048739EA0133701354
B1248104036633N02048745EA0133601353
B1248114036637N02048753EA0133701354
B1248124036639N02048761EA0133801355
B1248134036642N02048768EA0133901356
B1248144036644N02048775EA0134001357
B1248154036647N02048782EA0133901357
B1248164036651N02048789EA0134001357
B1248174036657N02048795EA0134001357
B1248184036662N02048801EA0134101358
B1248194036668N02048805EA0134301361
B1248204036672N02048807EA0134501362
B1248214036676N02048806EA0134501362
B1248224036679N02048804EA0134401362
B1248234036681N02048800EA0134401361
B1248244036681N02048795EA0134401361
B1248254036679N02048790EA0134401362
B1248264036674N02048788EA0134501363
B1248274036669N02048787EA0134601364
B1248284036665N02048787EA0134801366
B1248294036659N02048788EA0135001368
B1248304036655N02048789EA0135201369
B1248314036649N02048790EA0135301371
B1248324036644N02048790EA0135401372
B1248334036640N02048790EA0135601373
B1248344036636N02048789EA0135801376
B1248354036633N02048787EA0135901376
B1248364036632N02048784EA0135701375
B1248374036632N02048780EA0135701374
B1248384036635N02048776EA0135701374
B1248394036638N02048773EA0135801375
B1248404036643N02048773EA0135901377
B1248414036648N02048776EA0136001377
B1248424036653N02048783EA0136001377
B1248434036657N02048791EA0136201379
B1248444036659N02048799EA0136401381
B1248454036663N02048805EA0136601384
B1248464036666N02048810EA0136701384
B1248474036671N02048813EA0136601383
B1248484036675N02048815EA0136601383
B1248494036679N02048815EA0136601383
B1248504036681N02048812EA0136501382
B1248514036681N02048807EA0136301380
B1248524036678N02048803EA0136101378
B1248534036672N02048800EA0136001378
B1248544036667N02048799EA0136201379
B1248554036662N02048799EA0136401381
B1248564036657N02048800EA0136601383
B1248574036653N02048800EA0136701385
B1248584036648N02048801EA0136801385
B1248594036643N02048801EA0136801386
B1249004036638N02048800EA0137001388
B1249014036634N02048799EA0137101388
B1249024036632N02048797EA0137101388
B1249034036631N02048793EA0137001387
B1249044036631N02048789EA0136901386
B1249054036633N02048784EA0136701385
B1249064036637N02048781EA0136701385
B1249074036643N02048781EA0136701385
B1249084036648N02048784EA0136801385
B1249094036653N02048790EA0136801386
B1249104036657N02048797EA0137001388
B1249114036660N02048803EA0137101389
B1249124036664N02048808EA0137201389
B1249134036668N02048812EA0137201389
B1249144036672N02048816EA0137201389
B1249154036677N02048819EA0137201389
B1249164036681N02048819EA0137101389
B1249174036684N02048818EA0136901387
B1249184036684N02048814EA0136801385
B1249194036684N02048809EA0136801385
B1249204036681N02048805EA0136901387
B1249214036678N02048803EA0137101388
B1249224036675N02048803EA0137201389
B1249234036672N02048801EA0137101389
B1249244036669N02048799EA0137001387
B1249254036665N02048796EA0136901386
B1249264036660N02048794EA0136801385
B1249274036654N02048793EA0136801386
B1249284036649N02048792EA0136901387
B1249294036644N02048790EA0136901387
B1249304036640N02048787EA0136901387
B1249314036636N02048785EA0136901386
B1249324036630N02048783EA0136901387
B1249334036625N02048780EA0136901386
B1249344036619N02048776EA0137001387
B1249354036615N02048772EA0137201390
B1249364036611N02048769EA0137401391
B1249374036606N02048767EA0137401391
B1249384036601N02048765EA0137501392
B1249394036596N02048763EA0137501393
B1249404036592N02048759EA0137601393
B1249414036587N02048756EA0137701394
B1249424036584N02048753EA0137501392
B1249434036579N02048750EA0137501392
B1249444036575N02048746EA0137301390
B1249454036571N02048742EA0137201390
B1249464036567N02048737EA0137301390
B1249474036563N02048733EA0137401392
B1249484036559N02048730EA0137501393
B1249494036555N02048727EA0137501392
B1249504036552N02048724EA0137501392
B1249514036548N02048720EA0137401391
B1249524036543N02048716EA0137201390
B1249534036538N02048713EA0137201389
B1249544036533N02048710EA0137201389
B1249554036529N02048708EA0137101389
B1249564036524N02048705EA0137101388
B1249574036519N02048701EA0137101389
B1249584036515N02048698EA0137101388
B1249594036510N02048695EA0137001387
B1250004036505N02048692EA0136901387
B1250014036500N02048689EA0136901386
B1250024036494N02048686EA0136801386
B1250034036489N02048684EA0136801386
B1250044036483N02048682EA0136901386
B1250054036478N02048680EA0136901387
B1250064036472N02048678EA0136901386
B1250074036467N02048676EA0136801385
B1250084036462N02048674EA0136701384
B1250094036457N02048672EA0136601384
B1250104036451N02048671EA0136501382
B1250114036446N02048669EA0136401381
B1250124036441N02048667EA0136101379
B1250134036435N02048665EA0136001377
B1250144036430N02048663EA0135801375
B1250154036424N02048661EA0135601373
B1250164036418N02048659EA0135501372
B1250174036413N02048657EA0135301370
B1250184036407N02048655EA0135101368
B1250194036402N02048654EA0134901366
B1250204036396N02048652EA0134701364
B1250214036391N02048651EA0134401361
B1250224036385N02048648EA0134101359
B1250234036380N02048646EA0133901357
B1250244036375N02048643EA0133701355
B1250254036370N02048641EA0133501352
B1250264036365N02048639EA0133201349
B1250274036360N02048637EA0132901346
B1250284036355N02048634EA0132401341
B1250294036350N02048631EA0132001338
B1250304036344N02048628EA0131701334
B1250314036338N02048625EA0131401331
B1250324036332N02048621EA0131101329
B1250334036327N02048618EA0131001327
B1250344036322N02048614EA0130901326
B1250354036317N02048611EA0130701325
B1250364036312N02048608EA0130601323
B1250374036307N02048605EA0130301320
B1250384036302N02048601EA0130001317
B1250394036296N02048596EA0129801315
B1250404036291N02048591EA0129601313
B1250414036286N02048586EA0129501313
B1250424036282N02048581EA0129501312
B1250434036278N02048576EA0129301310
B1250444036275N02048571EA0129101308
B1250454036271N02048565EA0128801306
B1250464036268N02048558EA0128601304
B1250474036265N02048552EA0128501302
B1250484036261N02048546EA0128501302
B1250494036257N02048540EA0128401301
B1250504036254N02048535EA0128301300
B1250514036251N02048529EA0128101299
B1250524036247N02048523EA0127901297
B1250534036243N02048517EA0127701294
B1250544036239N02048510EA0127501292
B1250554036236N02048503EA0127401291
B1250564036232N02048497EA0127301290
B1250574036228N02048491EA0127101288
B1250584036224N02048485EA0126701284
B1250594036220N02048477EA0126401281
B1251004036216N02048468EA0126101278
B1251014036213N02048460EA0126001277
B1251024036208N02048452EA0126001277
B1251034036202N02048446EA0126001277
B1251044036197N02048440EA0125901276
B1251054036194N02048433EA0125801276
B1251064036192N02048427EA0125801276
B1251074036189N02048421EA0125801275
B1251084036185N02048416EA0125601273
B1251094036181N02048411EA0125401271
B1251104036177N02048406EA0125301271
B1251114036173N02048402EA0125201269
B1251124036169N02048397EA0125001267
B1251134036164N02048393EA0124801265
B1251144036159N02048389EA0124501263
B1251154036153N02048385EA0124301260
B1251164036149N02048381EA0124101259
B1251174036145N02048377EA0124001258
B1251184036141N02048373EA0123901256
B1251194036137N02048368EA0123701254
B1251204036132N02048364EA0123401252
B1251214036127N02048359EA0123301250
B1251224036123N02048355EA0123201249
B1251234036118N02048351EA0123201249
B1251244036113N02048348EA0123201250
B1251254036109N02048345EA0123101248
B1251264036105N02048342EA0122801245
B1251274036099N02048338EA0122501243
B1251284036094N02048335EA0122401241
B1251294036088N02048332EA0122301240
B1251304036082N02048329EA0122301240
B1251314036077N02048327EA0122201239
B1251324036071N02048325EA0122001237
B1251334036065N02048323EA0121801236
B1251344036059N02048321EA0121701234
B1251354036053N02048320EA0121601234
B1251364036047N02048318EA0121501233
B1251374036042N02048316EA0121501233
B1251384036036N02048315EA0121401231
B1251394036031N02048314EA0121201230
B1251404036025N02048312EA0121101228
B1251414036019N02048311EA0120901227
B1251424036014N02048308EA0120801225
B1251434036009N02048306EA0120601224
B1251444036004N02048304EA0120401222
B1251454035998N02048302EA0120201220
B1251464035991N02048299EA0120001217
B1251474035985N02048295EA0119801215
B1251484035979N02048291EA0119601214
B1251494035972N02048286EA0119601214
B1251504035965N02048283EA0119801215
B1251514035958N02048280EA0119901216
B1251524035953N02048276EA0119901217
B1251534035948N02048272EA0119901217
B1251544035945N02048269EA0119901217
B1251554035940N02048267EA0119701215
B1251564035934N02048265EA0119401211
B1251574035928N02048263EA0119001207
B1251584035921N02048260EA0118701204
B1251594035914N02048257EA0118601203
B1252004035907N02048255EA0118601203
B1252014035900N02048253EA0118601204
B1252024035893N02048251EA0118601204
B1252034035887N02048248EA0118601204
B1252044035881N02048245EA0118601204
B1252054035874N02048243EA0118701204
B1252064035866N02048241EA0118701205
B1252074035860N02048239EA0118901206
B1252084035854N02048238EA0119001207
B1252094035848N02048235EA0119101208
B1252104035843N02048232EA0119101209
B1252114035838N02048229EA0119201210
B1252124035834N02048225EA0119201209
B1252134035831N02048221EA0119201209
B1252144035829N02048215EA0119101209
B1252154035828N02048208EA0119101208
B1252164035828N02048202EA0119101208
B1252174035830N02048196EA0119101208
B1252184035833N02048191EA0119101208
B1252194035837N02048188EA0119101208
B1252204035842N02048188EA0119001207
B1252214035846N02048190EA0119001207
B1252224035850N02048195EA0119001207
B1252234035852N02048201EA0119101208
B1252244035853N02048207EA0119201210
B1252254035853N02048212EA0119301210
B1252264035852N02048218EA0119401211
B1252274035851N02048223EA0119301211
B1252284035850N02048229EA0119301210
B1252294035848N02048235EA0119301210
B1252304035845N02048241EA0119301210
B1252314035842N02048247EA0119301211
B1252324035837N02048253EA0119401211
B1252334035832N02048258EA0119301210
B1252344035827N02048261EA0119301211
B1252354035821N02048262EA0119301211
B1252364035815N02048263EA0119301210
B1252374035809N02048262EA0119301210
B1252384035804N02048260EA0119201209
B1252394035798N02048258EA0119101208
B1252404035792N02048254EA0119001208
B1252414035787N02048251EA0119001208
B1252424035783N02048248EA0119101208
B1252434035778N02048245EA0119101208
B1252444035774N02048242EA0119001208
B1252454035769N02048239EA0118901206
B1252464035765N02048235EA0118701204
B1252474035760N02048232EA0118501202
B1252484035755N02048227EA0118401201
B1252494035751N02048222EA0118401201
B1252504035747N02048217EA0118501202
B1252514035744N02048213EA0118601203
B1252524035741N02048210EA0118601204
B1252534035737N02048207EA0118601204
B1252544035733N02048203EA0118701204
B1252554035728N02048200EA0118701204
B1252564035724N02048197EA0118801205
B1252574035719N02048195EA0118901206
B1252584035715N02048193EA0119001207
B1252594035710N02048192EA0119001208
B1253004035706N02048189EA0119201209
B1253014035704N02048185EA0119201210
B1253024035702N02048180EA0119201210
B1253034035702N02048174EA0119301210
B1253044035705N02048168EA0119301211
B1253054035709N02048164EA0119601213
B1253064035712N02048162EA0119801215
B1253074035716N02048161EA0119801216
B1253084035720N02048161EA0119901216
B1253094035724N02048163EA0119901217
B1253104035727N02048167EA0120001217
B1253114035730N02048173EA0120001217
B1253124035730N02048181EA0120101218
B1253134035727N02048188EA0120201219
B1253144035723N02048193EA0120301221
B1253154035717N02048196EA0120401221
B1253164035712N02048196EA0120401221
B1253174035706N02048194EA0120401221
B1253184035701N02048191EA0120601223
B1253194035698N02048187EA0120901226
B1253204035697N02048183EA0120901227
B1253214035697N02048179EA0120901226
B1253224035698N02048173EA0120801226
B1253234035700N02048167EA0120801226
B1253244035703N02048162EA0120801226
B1253254035708N02048159EA0121001227
B1253264035713N02048158EA0121001227
B1253274035718N02048160EA0121101228
B1253284035721N02048164EA0121201229
B1253294035724N02048169EA0121301230
B1253304035725N02048177EA0121301230
B1253314035724N02048184EA0121401231
B1253324035722N02048192EA0121501233
B1253334035718N02048199EA0121801235
B1253344035713N02048203EA0121901236
B1253354035708N02048204EA0121801235
B1253364035702N02048204EA0121701235
B1253374035696N02048201EA0121801236
B1253384035692N02048197EA0122001237
B1253394035689N02048190EA0122001238
B1253404035689N02048184EA0122101238
B1253414035691N02048178EA0122001238
B1253424035695N02048174EA0122101239
B1253434035700N02048172EA0122201239
B1253444035705N02048173EA0122201239
B1253454035709N02048178EA0122201240
B1253464035712N02048184EA0122301240
B1253474035712N02048191EA0122401241
B1253484035712N02048199EA0122501242
B1253494035709N02048206EA0122601243
B1253504035705N02048211EA0122601243
B1253514035699N02048215EA0122601243
B1253524035693N02048217EA0122501243
B1253534035687N02048216EA0122501243
B1253544035682N02048214EA0122501243
B1253554035678N02048210EA0122601244
B1253564035675N02048205EA0122701244
B1253574035674N02048199EA0122801245
B1253584035675N02048192EA0122901247
B1253594035677N02048187EA0123101248
B1254004035680N02048183EA0123101249
B1254014035685N02048181EA0123201249
B1254024035689N02048182EA0123101248
B1254034035694N02048186EA0123101249
B1254044035697N02048192EA0123301250
B1254054035698N02048200EA0123401251
B1254064035697N02048208EA0123501253
B1254074035694N02048214EA0123601254
B1254084035690N02048219EA0123601253
B1254094035684N02048222EA0123401251
B1254104035679N02048223EA0123401251
B1254114035674N02048223EA0123401252
B1254124035669N02048220EA0123401251
B1254134035666N02048215EA0123401251
B1254144035664N02048208EA0123301250
B1254154035664N02048201EA0123401251
B1254164035665N02048195EA0123401252
B1254174035667N02048190EA0123601253
B1254184035671N02048186EA0123701254
B1254194035676N02048185EA0123701255
B1254204035681N02048186EA0123801255
B1254214035685N02048189EA0123801255
B1254224035688N02048195EA0123901256
B1254234035690N02048201EA0123901257
B1254244035689N02048208EA0124001257
B1254254035686N02048215EA0123901257
B1254264035681N02048219EA0123801256
B1254274035675N02048222EA0123801255
B1254284035669N02048222EA0123701254
B1254294035663N02048221EA0123701255
B1254304035658N02048219EA0123801256
B1254314035654N02048217EA0123901256
B1254324035649N02048214EA0124101258
B1254334035644N02048210EA0124201259
B1254344035639N02048206EA0124401261
B1254354035635N02048203EA0124601264
B1254364035632N02048199EA0124701265
B1254374035629N02048194EA0124801266
B1254384035629N02048189EA0124801266
B1254394035630N02048183EA0124701265
B1254404035633N02048179EA0124601264
B1254414035639N02048178EA0124501263
B1254424035644N02048179EA0124401261
B1254434035649N02048183EA0124401261
B1254444035653N02048188EA0124401261
B1254454035655N02048195EA0124501263
B1254464035655N02048202EA0124801265
B1254474035654N02048210EA0124801266
B1254484035653N02048217EA0125101268
B1254494035651N02048223EA0125201269
B1254504035648N02048228EA0125401271
B1254514035645N02048233EA0125401271
B1254524035641N02048238EA0125501272
B1254534035636N02048241EA0125601273
B1254544035631N02048241EA0125701274
B1254554035626N02048237EA0125701275
B1254564035623N02048231EA0125901276
B1254574035622N02048224EA0126001278
B1254584035623N02048218EA0126201279
B1254594035626N02048214EA0126401281
B1255004035631N02048212EA0126501282
B1255014035635N02048214EA0126601283
B1255024035639N02048217EA0126801285
B1255034035642N02048223EA0126901286
B1255044035643N02048230EA0126901286
B1255054035642N02048238EA0126901287
B1255064035639N02048245EA0127001288
B1255074035635N02048250EA0127101289
B1255084035630N02048253EA0127201289
B1255094035625N02048254EA0127101289
B1255104035620N02048251EA0127101288
B1255114035615N02048246EA0127101289
B1255124035614N02048239EA0127301291
B1255134035614N02048232EA0127501293
B1255144035616N02048228EA0127701294
B1255154035620N02048225EA0127801295
B1255164035624N02048224EA0127901296
B1255174035628N02048225EA0127901297
B1255184035632N02048227EA0127901296
B1255194035636N02048231EA0127901296
B1255204035639N02048237EA0127901297
B1255214035641N02048245EA0128001297
B1255224035641N02048252EA0127901296
B1255234035638N02048259EA0127801295
B1255244035633N02048263EA0127701294
B1255254035627N02048266EA0127601293
B1255264035622N02048267EA0127601293
B1255274035616N02048267EA0127601294
B1255284035611N02048266EA0127601293
B1255294035606N02048263EA0127501293
B1255304035601N02048261EA0127401291
B1255314035595N02048257EA0127401292
B1255324035591N02048253EA0127601293
B1255334035586N02048248EA0127801295
B1255344035583N02048244EA0128101298
B1255354035580N02048240EA0128201299
B1255364035577N02048236EA0128201300
B1255374035575N02048231EA0128301300
B1255384035574N02048226EA0128201299
B1255394035576N02048220EA0128101299
B1255404035577N02048214EA0128101298
B1255414035580N02048209EA0128101298
B1255424035583N02048205EA0128101298
B1255434035587N02048201EA0128101298
B1255444035592N02048199EA0128201299
B1255454035596N02048197EA0128401301
B1255464035601N02048196EA0128601304
B1255474035604N02048196EA0128801306
B1255484035607N02048197EA0128801306
B1255494035610N02048199EA0128901306
B1255504035614N02048203EA0128901307
B1255514035617N02048208EA0128901307
B1255524035618N02048214EA0129001308
B1255534035618N02048221EA0129101309
B1255544035616N02048227EA0129001308
B1255554035612N02048233EA0129001308
B1255564035607N02048237EA0129001307
B1255574035601N02048239EA0129001307
B1255584035595N02048239EA0129001307
B1255594035589N02048235EA0129001307
B1256004035585N02048229EA0129001308
B1256014035583N02048221EA0129101308
B1256024035583N02048213EA0129101308
B1256034035584N02048206EA0129101309
B1256044035587N02048201EA0129301310
B1256054035590N02048197EA0129401312
B1256064035594N02048196EA0129601313
B1256074035597N02048196EA0129601313
B1256084035601N02048198EA0129501312
B1256094035605N02048201EA0129601313
B1256104035607N02048207EA0129701315
B1256114035608N02048213EA0129901316
B1256124035608N02048219EA0129901317
B1256134035606N02048225EA0130001318
B1256144035602N02048230EA0130001318
B1256154035597N02048234EA0129901317
B1256164035591N02048235EA0129801316
B1256174035584N02048235EA0129801315
B1256184035578N02048232EA0129801315
B1256194035572N02048228EA0129901316
B1256204035567N02048224EA0130001317
B1256214035563N02048219EA0130001318
B1256224035559N02048214EA0130001317
B1256234035556N02048208EA0129901317
B1256244035553N02048200EA0130001318
B1256254035553N02048193EA0130101318
B1256264035554N02048187EA0129901317
B1256274035557N02048183EA0129801315
B1256284035560N02048179EA0129701315
B1256294035565N02048177EA0129701314
B1256304035569N02048177EA0129801316
B1256314035574N02048177EA0129901316
B1256324035578N02048177EA0130001318
B1256334035582N02048178EA0130201319
B1256344035586N02048180EA0130201320
B1256354035589N02048182EA0130301320
B1256364035592N02048187EA0130201320
B1256374035594N02048193EA0130201319
B1256384035594N02048201EA0130201319
B1256394035593N02048208EA0130301320
B1256404035589N02048214EA0130301320
B1256414035583N02048217EA0130401321
B1256424035577N02048216EA0130401322
B1256434035572N02048212EA0130501322
B1256444035568N02048207EA0130601323
B1256454035565N02048201EA0130801325
B1256464035564N02048195EA0130901327
B1256474035565N02048189EA0131001328
B1256484035567N02048185EA0131001328
B1256494035570N02048181EA0131101328
B1256504035574N02048179EA0131101328
B1256514035578N02048178EA0131101328
B1256524035582N02048181EA0131101328
B1256534035585N02048185EA0131101328
B1256544035587N02048190EA0131101329
B1256554035588N02048196EA0131101329
B1256564035588N02048203EA0131101329
B1256574035587N02048210EA0131101329
B1256584035585N02048216EA0131201330
B1256594035582N02048222EA0131301330
B1257004035576N02048226EA0131301331
B1257014035570N02048229EA0131501332
B1257024035564N02048229EA0131601334
B1257034035558N02048227EA0131701335
B1257044035554N02048222EA0131701334
B1257054035551N02048215EA0131701335
B1257064035551N02048208EA0131801336
B1257074035552N02048201EA0132001337
B1257084035555N02048197EA0132001338
B1257094035559N02048195EA0132001337
B1257104035563N02048196EA0132001338
B1257114035567N02048199EA0132101339
B1257124035569N02048204EA0132101339
B1257134035570N02048211EA0132101339
B1257144035568N02048218EA0132101339
B1257154035563N02048223EA0132101339
B1257164035558N02048227EA0132101338
B1257174035551N02048228EA0132201339
B1257184035545N02048225EA0132301340
B1257194035540N02048221EA0132301340
B1257204035537N02048214EA0132201340
B1257214035537N02048208EA0132201340
B1257224035537N02048202EA0132301340
B1257234035539N02048197EA0132401341
B1257244035541N02048195EA0132401341
B1257254035545N02048195EA0132201340
B1257264035549N02048197EA0132201339
B1257274035552N02048200EA0132201339
B1257284035556N02048203EA0132201340
B1257294035559N02048206EA0132301341
B1257304035562N02048209EA0132401342
B1257314035565N02048213EA0132501342
B1257324035568N02048216EA0132601343
B1257334035571N02048219EA0132601344
B1257344035574N02048222EA0132601343
B1257354035577N02048224EA0132601344
B1257364035581N02048226EA0132701344
B1257374035584N02048229EA0132801346
B1257384035587N02048231EA0133001347
B1257394035589N02048235EA0133101348
B1257404035591N02048239EA0133101349
B1257414035592N02048244EA0133101349
B1257424035591N02048251EA0133101348
B1257434035588N02048257EA0133101348
B1257444035583N02048264EA0133001347
B1257454035577N02048269EA0132901347
B1257464035570N02048270EA0132901346
B1257474035563N02048269EA0132901347
B1257484035556N02048264EA0133101348
B1257494035552N02048258EA0133201350
B1257504035549N02048251EA0133501352
B1257514035549N02048245EA0133601353
B1257524035549N02048239EA0133701354
B1257534035551N02048235EA0133801356
B1257544035554N02048234EA0133801356
B1257554035558N02048234EA0133901357
B1257564035561N02048236EA0134001357
B1257574035563N02048239EA0134001357
B1257584035565N02048244EA0134001357
B1257594035565N02048250EA0134001357
B1258004035563N02048257EA0134001357
B1258014035559N02048264EA0133901357
B1258024035552N02048269EA0133901357
B1258034035545N02048271EA0133901356
B1258044035538N02048269EA0134001357
B1258054035532N02048265EA0134101358
B1258064035527N02048259EA0134201359
B1258074035524N02048253EA0134401361
B1258084035523N02048247EA0134601363
B1258094035524N02048243EA0134601363
B1258104035526N02048239EA0134601364
B1258114035528N02048236EA0134601363
B1258124035531N02048234EA0134601364
B1258134035535N02048233EA0134701365
B1258144035539N02048233EA0134801366
B1258154035543N02048233EA0135001367
B1258164035547N02048234EA0135101369
B1258174035552N02048235EA0135201370
B1258184035555N02048237EA0135401372
B1258194035559N02048239EA0135501373
B1258204035562N02048242EA0135601374
B1258214035565N02048244EA0135701375
B1258224035569N02048247EA0135801376
B1258234035573N02048251EA0136001377
B1258244035575N02048257EA0136001378
B1258254035574N02048265EA0135801376
B1258264035571N02048272EA0135701374
B1258274035565N02048279EA0135401372
B1258284035559N02048284EA0135401371
B1258294035553N02048287EA0135301371
B1258304035547N02048287EA0135201369
B1258314035540N02048285EA0135001367
B1258324035534N02048280EA0134701365
B1258334035529N02048273EA0134601364
B1258344035525N02048266EA0134701364
B1258354035522N02048259EA0134901366
B1258364035521N02048253EA0135101369
B1258374035519N02048247EA0135301370
B1258384035519N02048242EA0135401371
B1258394035519N02048238EA0135401371
B1258404035519N02048233EA0135301370
B1258414035522N02048228EA0135101369
B1258424035525N02048224EA0135101368
B1258434035530N02048221EA0135101368
B1258444035534N02048219EA0135201369
B1258454035538N02048219EA0135301370
B1258464035541N02048219EA0135401371
B1258474035544N02048220EA0135401372
B1258484035548N02048221EA0135401371
B1258494035552N02048225EA0135401372
B1258504035557N02048228EA0135501372
B1258514035561N02048232EA0135601373
B1258524035564N02048235EA0135801376
B1258534035568N02048238EA0136001378
B1258544035571N02048242EA0136201379
B1258554035574N02048247EA0136201379
B1258564035576N02048252EA0136301380
B1258574035578N02048257EA0136301381
B1258584035578N02048263EA0136401381
B1258594035576N02048270EA0136301381
B1259004035573N02048276EA0136301380
B1259014035568N02048281EA0136201380
B1259024035561N02048283EA0136201380
B1259034035554N02048283EA0136301380
B1259044035548N02048280EA0136401381
B1259054035543N02048275EA0136401382
B1259064035539N02048269EA0136501382
B1259074035537N02048262EA0136601383
B1259084035536N02048256EA0136601384
B1259094035536N02048249EA0136701384
B1259104035538N02048243EA0136701385
B1259114035540N02048238EA0136801385
B1259124035543N02048234EA0136901386
B1259134035547N02048232EA0137001387
B1259144035551N02048230EA0137001388
B1259154035555N02048227EA0137201389
B1259164035558N02048223EA0137301391
B1259174035561N02048220EA0137501392
B1259184035564N02048217EA0137601393
B1259194035568N02048215EA0137601394
B1259204035572N02048214EA0137701394
B1259214035576N02048216EA0137801395
B1259224035579N02048220EA0137801395
B1259234035580N02048226EA0137701395
B1259244035580N02048233EA0137801395
B1259254035577N02048239EA0137801396
B1259264035573N02048246EA0138001397
B1259274035567N02048249EA0138201399
B1259284035561N02048250EA0138301401
B1259294035555N02048249EA0138501402
B1259304035549N02048245EA0138501403
B1259314035545N02048239EA0138601403
B1259324035544N02048231EA0138501402
B1259334035544N02048224EA0138501402
B1259344035547N02048217EA0138501402
B1259354035551N02048212EA0138701405
B1259364035554N02048209EA0139001407
B1259374035556N02048206EA0139101408
B1259384035559N02048202EA0139301410
B1259394035562N02048199EA0139401411
B1259404035565N02048197EA0139501412
B1259414035570N02048196EA0139601413
B1259424035574N02048197EA0139701414
B1259434035579N02048201EA0139901416
B1259444035582N02048207EA0140101418
B1259454035582N02048215EA0140201419
B1259464035581N02048222EA0140201419
B1259474035576N02048228EA0140301420
B1259484035571N02048232EA0140301420
B1259494035564N02048232EA0140301421
B1259504035558N02048229EA0140501422
B1259514035555N02048223EA0140701424
B1259524035553N02048217EA0140901426
B1259534035554N02048211EA0141001428
B1259544035557N02048208EA0141101429
B1259554035560N02048206EA0141201430
B1259564035565N02048206EA0141301430
B1259574035570N02048208EA0141401431
B1259584035573N02048214EA0141501433
B1259594035576N02048220EA0141701434
B1300004035576N02048228EA0141801435
B1300014035574N02048235EA0141901436
B1300024035570N02048241EA0141901436
B1300034035565N02048246EA0141901437
B1300044035559N02048248EA0141901436
B1300054035552N02048247EA0141901437
B1300064035546N02048243EA0142101439
B1300074035541N02048238EA0142601443
B1300084035538N02048233EA0142901446
B1300094035538N02048228EA0143001447
B1300104035540N02048223EA0143101448
B1300114035543N02048219EA0143201449
B1300124035546N02048217EA0143201450
B1300134035550N02048215EA0143301451
B1300144035555N02048215EA0143401451
B1300154035560N02048217EA0143401452
B1300164035564N02048220EA0143501452
B1300174035568N02048226EA0143601453
B1300184035569N02048233EA0143601453
B1300194035569N02048241EA0143601453
B1300204035567N02048249EA0143601454
B1300214035563N02048255EA0143601453
B1300224035558N02048259EA0143601453
B1300234035552N02048261EA0143701455
B1300244035546N02048260EA0143801456
B1300254035541N02048258EA0144001457
B1300264035535N02048255EA0144201459
B1300274035530N02048250EA0144401461
B1300284035527N02048244EA0144501462
B1300294035525N02048237EA0144501463
B1300304035525N02048230EA0144601464
B1300314035527N02048224EA0144701464
B1300324035530N02048220EA0144701464
B1300334035535N02048219EA0144701464
B1300344035540N02048220EA0144701464
B1300354035545N02048225EA0144701464
B1300364035547N02048232EA0144601464
B1300374035548N02048241EA0144501463
B1300384035546N02048250EA0144601463
B1300394035541N02048257EA0144701464
B1300404035537N02048262EA0144801465
B1300414035531N02048265EA0145101468
B1300424035526N02048267EA0145301470
B1300434035521N02048268EA0145401471
B1300444035515N02048267EA0145401472
B1300454035510N02048264EA0145501472
B1300464035504N02048260EA0145601473
B1300474035501N02048254EA0145601474
B1300484035499N02048247EA0145701475
B1300494035499N02048241EA0145801475
B1300504035501N02048236EA0145801475
B1300514035504N02048232EA0145801475
B1300524035508N02048230EA0145801475
B1300534035512N02048229EA0145701475
B1300544035517N02048231EA0145701474
B1300554035521N02048235EA0145601473
B1300564035524N02048241EA0145601473
B1300574035526N02048248EA0145501473
B1300584035527N02048256EA0145501472
B1300594035526N02048264EA0145401472
B1301004035523N02048272EA0145401471
B1301014035518N02048279EA0145401472
B1301024035512N02048282EA0145501472
B1301034035506N02048282EA0145501472
B1301044035500N02048279EA0145601473
B1301054035496N02048274EA0145701474
B1301064035494N02048268EA0145801475
B1301074035493N02048262EA0145801476
B1301084035494N02048257EA0145801476
B1301094035496N02048252EA0145801475
B1301104035499N02048248EA0145701475
B1301114035502N02048245EA0145701474
B1301124035506N02048242EA0145601474
B1301134035510N02048241EA0145601473
B1301144035514N02048240EA0145501472
B1301154035517N02048239EA0145401471
B1301164035520N02048240EA0145301470
B1301174035524N02048241EA0145001468
B1301184035528N02048244EA0144801466
B1301194035532N02048248EA0144701465
B1301204035536N02048253EA0144701464
B1301214035539N02048258EA0144601464
B1301224035542N02048264EA0144601463
B1301234035544N02048270EA0144401462
B1301244035546N02048275EA0144301460
B1301254035549N02048281EA0144201460
B1301264035551N02048287EA0144201459
B1301274035554N02048292EA0144201460
B1301284035557N02048297EA0144201459
B1301294035559N02048302EA0144101458
B1301304035562N02048307EA0144001458
B1301314035564N02048312EA0144001457
B1301324035567N02048317EA0143901456
B1301334035569N02048323EA0143701455
B1301344035571N02048328EA0143601453
B1301354035574N02048334EA0143401452
B1301364035576N02048340EA0143301450
B1301374035579N02048346EA0143201449
B1301384035582N02048352EA0143201449
B1301394035585N02048357EA0143201449
B1301404035587N02048361EA0143101448
B1301414035590N02048365EA0142901446
B1301424035593N02048370EA0142701445
B1301434035595N02048376EA0142601443
B1301444035598N02048383EA0142401441
B1301454035599N02048391EA0142301440
B1301464035600N02048399EA0142101438
B1301474035600N02048407EA0142001437
B1301484035602N02048415EA0141801436
B1301494035604N02048421EA0141601433
B1301504035608N02048426EA0141401431
B1301514035612N02048429EA0141201430
B1301524035616N02048429EA0141201429
B1301534035619N02048426EA0141101428
B1301544035621N02048422EA0140901427
B1301554035621N02048417EA0140901426
B1301564035620N02048412EA0140901426
B1301574035618N02048407EA0140901426
B1301584035615N02048403EA0140901427
B1301594035613N02048398EA0140901427
B1302004035610N02048395EA0140801425
B1302014035606N02048391EA0140701424
B1302024035603N02048386EA0140601423
B1302034035600N02048380EA0140401422
B1302044035596N02048375EA0140501423
B1302054035592N02048370EA0140701425
B1302064035588N02048366EA0140801425
B1302074035584N02048363EA0140701424
B1302084035581N02048359EA0140701424
B1302094035578N02048355EA0140501423
B1302104035575N02048350EA0140401421
B1302114035571N02048344EA0140201420
B1302124035566N02048338EA0140101419
B1302134035563N02048331EA0140101419
B1302144035559N02048325EA0140101419
B1302154035555N02048318EA0140201419
B1302164035550N02048312EA0140101419
B1302174035546N02048307EA0140201419
B1302184035541N02048301EA0140301421
B1302194035536N02048296EA0140301421
B1302204035530N02048290EA0140401421
B1302214035525N02048285EA0140301420
B1302224035520N02048280EA0140301420
B1302234035515N02048276EA0140201419
B1302244035509N02048272EA0140001418
B1302254035503N02048267EA0139801415
B1302264035496N02048262EA0139601413
B1302274035490N02048257EA0139601413
B1302284035484N02048251EA0139501413
B1302294035478N02048247EA0139501413
B1302304035472N02048243EA0139401411
B1302314035466N02048239EA0139301410
B1302324035460N02048234EA0139101408
B1302334035453N02048230EA0138901407
B1302344035446N02048226EA0138801405
B1302354035438N02048221EA0138701404
B1302364035432N02048217EA0138601404
B1302374035425N02048213EA0138601404
B1302384035419N02048209EA0138501403
B1302394035411N02048206EA0138501402
B1302404035404N02048202EA0138401402
B1302414035397N02048199EA0138401401
B1302424035390N02048197EA0138301400
B1302434035383N02048195EA0138201399
B1302444035376N02048193EA0138001398
B1302454035369N02048191EA0137901396
B1302464035363N02048189EA0137701394
B1302474035356N02048187EA0137501392
B1302484035350N02048185EA0137301390
B1302494035343N02048183EA0137101388
B1302504035337N02048180EA0136901387
B1302514035330N02048178EA0136801385
B1302524035324N02048177EA0136601384
B1302534035317N02048176EA0136501383
B1302544035311N02048175EA0136301381
B1302554035305N02048173EA0136301380
B1302564035299N02048173EA0136101378
B1302574035293N02048173EA0135901377
B1302584035286N02048173EA0135801376
B1302594035280N02048172EA0135701374
B1303004035273N02048171EA0135701374
B1303014035267N02048170EA0135801375
B1303024035260N02048171EA0135901376
B1303034035254N02048171EA0136001377
B1303044035248N02048172EA0136101379
B1303054035242N02048172EA0136301380
B1303064035235N02048172EA0136401382
B1303074035229N02048172EA0136601383
B1303084035223N02048174EA0136801385
B1303094035216N02048175EA0137001387
B1303104035210N02048177EA0137201390
B1303114035203N02048179EA0137501393
B1303124035197N02048183EA0137801395
B1303134035191N02048186EA0138001398
B1303144035186N02048189EA0138201400
B1303154035180N02048191EA0138401402
B1303164035175N02048191EA0138601403
B1303174035171N02048189EA0138701404
B1303184035167N02048185EA0138801405
B1303194035166N02048181EA0138801406
B1303204035167N02048178EA0138901406
B1303214035170N02048176EA0138901406
B1303224035173N02048175EA0138901406
B1303234035178N02048176EA0139001407
B1303244035183N02048180EA0139101409
B1303254035186N02048187EA0139301411
B1303264035189N02048196EA0139501412
B1303274035189N02048205EA0139601414
B1303284035187N02048214EA0139601413
B1303294035182N02048221EA0139501412
B1303304035176N02048225EA0139601413
B1303314035170N02048226EA0139601413
B1303324035165N02048226EA0140001417
B1303334035162N02048226EA0140501422
B1303344035159N02048226EA0140801425
B1303354035156N02048227EA0140901426
B1303364035152N02048226EA0141101428
B1303374035148N02048225EA0141201430
B1303384035144N02048222EA0141501432
B1303394035141N02048219EA0141801436
B1303404035139N02048218EA0142101438
B1303414035136N02048217EA0142201439
B1303424035133N02048216EA0142201439
B1303434035129N02048214EA0142301440
B1303444035126N02048210EA0142301441
B1303454035125N02048206EA0142401441
B1303464035126N02048201EA0142601443
B1303474035128N02048198EA0142701444
B1303484035132N02048196EA0142801445
B1303494035137N02048195EA0143001447
B1303504035141N02048195EA0143101448
B1303514035145N02048196EA0143201449
B1303524035149N02048199EA0143301450
B1303534035153N02048203EA0143301450
B1303544035157N02048209EA0143501452
B1303554035160N02048215EA0143701454
B1303564035160N02048222EA0143801455
B1303574035159N02048230EA0143701454
B1303584035156N02048237EA0143601454
B1303594035151N02048242EA0143801456
B1304004035145N02048246EA0144101459
B1304014035140N02048247EA0144301460
B1304024035135N02048246EA0144601463
B1304034035130N02048243EA0144901466
B1304044035127N02048239EA0145101469
B1304054035126N02048235EA0145301470
B1304064035127N02048230EA0145401471
B1304074035130N02048226EA0145501472
B1304084035135N02048224EA0145601473
B1304094035141N02048225EA0145601473
B1304104035145N02048230EA0145701474
B1304114035149N02048238EA0145901476
B1304124035150N02048246EA0145901477
B1304134035149N02048254EA0146001478
B1304144035146N02048262EA0146101479
B1304154035141N02048269EA0146201480
B1304164035135N02048273EA0146501483
B1304174035129N02048276EA0146801486
B1304184035124N02048277EA0147101489
B1304194035119N02048277EA0147401491
B1304204035115N02048275EA0147801496
B1304214035113N02048272EA0148101498
B1304224035111N02048268EA0148201500
B1304234035113N02048264EA0148301500
B1304244035116N02048262EA0148301501
B1304254035121N02048263EA0148401501
B1304264035127N02048267EA0148601504
B1304274035131N02048274EA0148801506
B1304284035133N02048283EA0149001507
B1304294035133N02048293EA0149101508
B1304304035131N02048303EA0149401512
B1304314035127N02048310EA0149701515
B1304324035121N02048314EA0149901516
B1304334035115N02048315EA0150201519
B1304344035109N02048314EA0150401521
B1304354035104N02048310EA0150701524
B1304364035102N02048306EA0151101528
B1304374035102N02048302EA0151401532
B1304384035104N02048299EA0151701534
B1304394035106N02048296EA0151801536
B1304404035110N02048295EA0152101538
B1304414035115N02048296EA0152201540
B1304424035121N02048300EA0152401541
B1304434035125N02048308EA0152601543
B1304444035127N02048317EA0152801545
B1304454035126N02048327EA0153001547
B1304464035123N02048336EA0153201549
B1304474035117N02048341EA0153401551
B1304484035111N02048342EA0153601553
B1304494035105N02048340EA0153901556
B1304504035101N02048336EA0154301560
B1304514035099N02048333EA0154901566
B1304524035098N02048330EA0155201570
B1304534035099N02048326EA0155401572
B1304544035101N02048323EA0155801575
B1304554035105N02048319EA0156101578
B1304564035109N02048318EA0156401581
B1304574035114N02048320EA0156701584
B1304584035119N02048325EA0156901587
B1304594035122N02048333EA0157101589
B1305004035123N02048342EA0157301591
B1305014035121N02048352EA0157401592
B1305024035117N02048359EA0157501592
B1305034035111N02048362EA0157601593
B1305044035104N02048361EA0157701595
B1305054035099N02048358EA0158001597
B1305064035094N02048355EA0158401602
B1305074035091N02048352EA0158801606
B1305084035088N02048350EA0159201609
B1305094035086N02048347EA0159401611
B1305104035085N02048344EA0159401612
B1305114035086N02048340EA0159501613
B1305124035089N02048335EA0159601613
B1305134035093N02048332EA0160101618
B1305144035098N02048333EA0160601623
B1305154035102N02048336EA0161001628
B1305164035105N02048342EA0161201630
B1305174035108N02048350EA0161401631
B1305184035109N02048358EA0161601634
B1305194035109N02048367EA0161801636
B1305204035108N02048375EA0162001637
B1305214035104N02048383EA0162101639
B1305224035099N02048388EA0162201639
B1305234035093N02048390EA0162301641
B1305244035088N02048389EA0162401641
B1305254035084N02048384EA0162501642
B1305264035083N02048379EA0162701644
B1305274035084N02048373EA0162801645
B1305284035087N02048370EA0163201649
B1305294035092N02048370EA0163601653
B1305304035097N02048371EA0163701655
B1305314035101N02048372EA0163901657
B1305324035105N02048372EA0164301660
B1305334035108N02048372EA0164501662
B1305344035111N02048375EA0164601663
B1305354035114N02048380EA0164401661
B1305364035116N02048388EA0164201660
B1305374035116N02048397EA0164201659
B1305384035112N02048406EA0164401661
B1305394035107N02048412EA0164401661
B1305404035101N02048415EA0164501663
B1305414035096N02048413EA0164601663
B1305424035091N02048409EA0164601663
B1305434035088N02048403EA0164701664
B1305444035087N02048397EA0164901666
B1305454035085N02048393EA0165101669
B1305464035084N02048389EA0165501672
B1305474035083N02048387EA0165701675
B1305484035083N02048386EA0165701675
B1305494035083N02048384EA0165601674
B1305504035084N02048382EA0165501672
B1305514035087N02048380EA0165301671
B1305524035091N02048380EA0165301670
B1305534035095N02048383EA0165201669
B1305544035099N02048387EA0165301670
B1305554035102N02048393EA0165401671
B1305564035105N02048398EA0165501673
B1305574035107N02048405EA0165601673
B1305584035109N02048413EA0165601673
B1305594035110N02048421EA0165601673
B1306004035109N02048431EA0165601673
B1306014035108N02048439EA0165501673
B1306024035104N02048447EA0165501673
B1306034035098N02048451EA0165501672
B1306044035092N02048453EA0165501672
B1306054035086N02048451EA0165401672
B1306064035082N02048447EA0165401672
B1306074035079N02048440EA0165401672
B1306084035077N02048435EA0165701674
B1306094035076N02048430EA0165901676
B1306104035076N02048426EA0166101678
B1306114035076N02048423EA0166101679
B1306124035075N02048419EA0166101679
B1306134035075N02048415EA0166101679
B1306144035076N02048412EA0166201679
B1306154035077N02048409EA0166101678
B1306164035079N02048407EA0165901677
B1306174035082N02048406EA0165901677
B1306184035086N02048407EA0165801675
B1306194035089N02048411EA0165701675
B1306204035091N02048417EA0165801675
B1306214035093N02048425EA0165801675
B1306224035093N02048433EA0165901676
B1306234035090N02048441EA0166001677
B1306244035087N02048448EA0166101678
B1306254035082N02048452EA0166001678
B1306264035077N02048456EA0166001678
B1306274035070N02048458EA0166001677
B1306284035064N02048459EA0166001678
B1306294035058N02048459EA0166001678
B1306304035053N02048457EA0166101678
B1306314035049N02048453EA0166101678
B1306324035045N02048449EA0166101679
B1306334035042N02048445EA0166301681
B1306344035040N02048440EA0166401682
B1306354035039N02048435EA0166501682
B1306364035038N02048430EA0166701684
B1306374035038N02048427EA0166901686
B1306384035037N02048423EA0167001687
B1306394035036N02048420EA0166901686
B1306404035036N02048415EA0166801685
B1306414035037N02048409EA0166801685
B1306424035037N02048402EA0167001688
B1306434035037N02048395EA0167401692
B1306444035038N02048389EA0167801696
B1306454035038N02048385EA0168101698
B1306464035038N02048381EA0168301701
B1306474035038N02048376EA0168401702
B1306484035037N02048371EA0168401702
B1306494035036N02048364EA0168601704
B1306504035036N02048358EA0168801706
B1306514035036N02048352EA0169101708
B1306524035038N02048348EA0169501712
B1306534035041N02048345EA0169801716
B1306544035045N02048343EA0170101718
B1306554035049N02048344EA0170301720
B1306564035053N02048347EA0170401721
B1306574035055N02048353EA0170401721
B1306584035056N02048362EA0170401722
B1306594035055N02048371EA0170501722
B1307004035051N02048379EA0170501722
B1307014035045N02048385EA0170501723
B1307024035038N02048386EA0170701724
B1307034035032N02048385EA0170801725
B1307044035028N02048381EA0170901726
B1307054035025N02048376EA0171001728
B1307064035023N02048370EA0171201729
B1307074035022N02048364EA0171501732
B1307084035022N02048358EA0171801735
B1307094035022N02048353EA0172201739
B1307104035024N02048350EA0172401741
B1307114035026N02048348EA0172501742
B1307124035031N02048348EA0172601743
B1307134035036N02048350EA0172701745
B1307144035041N02048355EA0173001747
B1307154035044N02048363EA0173101748
B1307164035043N02048373EA0173101749
B1307174035040N02048382EA0173301750
B1307184035034N02048388EA0173501752
B1307194035027N02048389EA0173501752
B1307204035022N02048384EA0173401751
B1307214035019N02048376EA0173501753
B1307224035019N02048370EA0173901756
B1307234035021N02048366EA0174201760
B1307244035024N02048363EA0174501762
B1307254035027N02048362EA0174701764
B1307264035031N02048362EA0174901766
B1307274035035N02048363EA0175001768
B1307284035039N02048366EA0175101769
B1307294035041N02048372EA0175101769
B1307304035042N02048380EA0175101768
B1307314035041N02048389EA0175001768
B1307324035038N02048398EA0175101769
B1307334035033N02048405EA0175201770
B1307344035026N02048408EA0175301770
B1307354035020N02048407EA0175301770
B1307364035015N02048402EA0175301770
B1307374035012N02048396EA0175501773
B1307384035010N02048391EA0175901777
B1307394035010N02048386EA0176301780
B1307404035010N02048382EA0176601783
B1307414035010N02048378EA0176701785
B1307424035010N02048374EA0176901787
B1307434035012N02048370EA0177001788
B1307444035014N02048367EA0177101788
B1307454035018N02048365EA0177001788
B1307464035023N02048367EA0177001788
B1307474035027N02048373EA0177101788
B1307484035030N02048380EA0177201789
B1307494035031N02048390EA0177301790
B1307504035029N02048399EA0177401792
B1307514035025N02048406EA0177501792
B1307524035020N02048412EA0177501793
B1307534035013N02048414EA0177501793
B1307544035006N02048413EA0177501792
B1307554035001N02048409EA0177501793
B1307564034996N02048405EA0177801795
B1307574034992N02048401EA0178101799
B1307584034989N02048398EA0178401802
B1307594034987N02048395EA0178601803
B1308004034986N02048391EA0178601803
B1308014034985N02048387EA0178601803
B1308024034985N02048383EA0178601804
B1308034034987N02048378EA0178701805
B1308044034988N02048375EA0178901806
B1308054034989N02048372EA0179001808
B1308064034989N02048369EA0179301810
B1308074034991N02048366EA0179601813
B1308084034993N02048363EA0179701815
B1308094034995N02048362EA0180001817
B1308104034997N02048361EA0180201819
B1308114035000N02048360EA0180201820
B1308124035002N02048361EA0180301821
B1308134035006N02048363EA0180301820
B1308144035011N02048367EA0180301821
B1308154035016N02048372EA0180501822
B1308164035020N02048381EA0180801825
B1308174035021N02048391EA0181001827
B1308184035018N02048402EA0181101828
B1308194035013N02048410EA0181301830
B1308204035007N02048415EA0181601833
B1308214035000N02048417EA0181701834
B1308224034994N02048415EA0181701835
B1308234034991N02048411EA0181801836
B1308244034989N02048406EA0182001837
B1308254034990N02048402EA0182201839
B1308264034992N02048399EA0182301840
B1308274034996N02048399EA0182301841
B1308284035001N02048402EA0182401841
B1308294035006N02048409EA0182501842
B1308304035010N02048419EA0182701844
B1308314035010N02048430EA0182901846
B1308324035006N02048440EA0183201849
B1308334035000N02048448EA0183301850
B1308344034993N02048451EA0183401852
B1308354034987N02048450EA0183601853
B1308364034982N02048447EA0183801855
B1308374034980N02048442EA0183901857
B1308384034980N02048437EA0184101858
B1308394034982N02048435EA0184401861
B1308404034985N02048434EA0184501863
B1308414034989N02048436EA0184501863
B1308424034993N02048440EA0184501863
B1308434034997N02048447EA0184601863
B1308444035000N02048457EA0184801865
B1308454035000N02048468EA0185001867
B1308464034997N02048479EA0185201869
B1308474034992N02048487EA0185301870
B1308484034985N02048492EA0185501872
B1308494034979N02048493EA0185601874
B1308504034973N02048491EA0185801875
B1308514034969N02048488EA0186001878
B1308524034967N02048483EA0186201880
B1308534034967N02048479EA0186401882
B1308544034969N02048476EA0186601883
B1308554034971N02048475EA0186701885
B1308564034975N02048476EA0186801885
B1308574034980N02048479EA0186701885
B1308584034984N02048486EA0186701885
B1308594034988N02048495EA0186901886
B1309004034988N02048507EA0187001888
B1309014034985N02048518EA0187301890
B1309024034981N02048526EA0187501893
B1309034034975N02048531EA0187701895
B1309044034968N02048533EA0187801896
B1309054034963N02048533EA0187901896
B1309064034958N02048531EA0188201899
B1309074034954N02048527EA0188301901
B1309084034952N02048523EA0188501903
B1309094034953N02048520EA0188701904
B1309104034955N02048517EA0188901906
B1309114034958N02048516EA0189001907
B1309124034963N02048518EA0189101908
B1309134034967N02048522EA0189101908
B1309144034971N02048528EA0189101909
B1309154034974N02048536EA0189201909
B1309164034975N02048545EA0189201909
B1309174034974N02048556EA0189301911
B1309184034970N02048566EA0189501912
B1309194034965N02048574EA0189701914
B1309204034958N02048578EA0189801916
B1309214034953N02048578EA0189901916
B1309224034948N02048575EA0189901916
B1309234034944N02048571EA0190101919
B1309244034943N02048566EA0190301921
B1309254034942N02048561EA0190501922
B1309264034941N02048556EA0190601923
B1309274034941N02048552EA0190801925
B1309284034941N02048547EA0190901926
B1309294034941N02048543EA0191001927
B1309304034942N02048540EA0191201929
B1309314034943N02048537EA0191101929
B1309324034945N02048534EA0191101929
B1309334034948N02048533EA0191201929
B1309344034951N02048533EA0191201929
B1309354034956N02048535EA0191101929
B1309364034960N02048538EA0191201929
B1309374034964N02048543EA0191201930
B1309384034967N02048549EA0191201930
B1309394034970N02048556EA0191201930
B1309404034973N02048565EA0191201929
B1309414034974N02048575EA0191201930
B1309424034975N02048585EA0191301931
B1309434034974N02048595EA0191501932
B1309444034971N02048605EA0191601933
B1309454034967N02048614EA0191501933
B1309464034962N02048622EA0191501933
B1309474034956N02048628EA0191601933
B1309484034950N02048631EA0191601933
B1309494034945N02048632EA0191601933
B1309504034939N02048632EA0191601933
B1309514034934N02048630EA0191701934
B1309524034929N02048628EA0191901936
B1309534034926N02048625EA0192001937
B1309544034922N02048623EA0192001938
B1309554034920N02048620EA0192001938
B1309564034918N02048616EA0192001938
B1309574034917N02048612EA0192001938
B1309584034916N02048608EA0192001937
B1309594034915N02048603EA0192001937
B1310004034914N02048599EA0192101938
B1310014034913N02048596EA0192101938
B1310024034913N02048592EA0192101938
B1310034034914N02048589EA0192001937
B1310044034914N02048585EA0192001938
B1310054034913N02048580EA0192001937
B1310064034912N02048576EA0192101938
B1310074034912N02048572EA0192101939
B1310084034912N02048568EA0192101939
B1310094034912N02048564EA0192201939
B1310104034912N02048559EA0192301941
B1310114034912N02048555EA0192401941
B1310124034912N02048551EA0192501943
B1310134034912N02048547EA0192601944
B1310144034913N02048543EA0192701945
B1310154034913N02048539EA0192901946
B1310164034914N02048535EA0192901947
B1310174034914N02048532EA0193001947
B1310184034915N02048527EA0193001948
B1310194034915N02048523EA0193101948
B1310204034915N02048519EA0193101949
B1310214034916N02048515EA0193101949
B1310224034917N02048511EA0193101948
B1310234034918N02048508EA0193101949
B1310244034918N02048504EA0193101949
B1310254034919N02048499EA0193101948
B1310264034919N02048495EA0193101949
B1310274034921N02048491EA0193301950
B1310284034921N02048488EA0193401951
B1310294034922N02048485EA0193401952
B1310304034922N02048482EA0193301951
B1310314034922N02048478EA0193101949
B1310324034922N02048474EA0192901947
B1310334034923N02048469EA0192901946
B1310344034923N02048464EA0192801946
B1310354034923N02048460EA0192801946
B1310364034924N02048457EA0192801945
B1310374034925N02048453EA0192601944
B1310384034926N02048449EA0192401942
B1310394034926N02048445EA0192201940
B1310404034927N02048440EA0192101939
B1310414034927N02048434EA0192001938
B1310424034927N02048429EA0191801936
B1310434034927N02048424EA0191601934
B1310444034928N02048418EA0191401932
B1310454034929N02048412EA0191201929
B1310464034929N02048405EA0191001928
B1310474034929N02048398EA0190901926
B1310484034929N02048391EA0190901927
B1310494034928N02048385EA0191101929
B1310504034928N02048380EA0191301931
B1310514034928N02048376EA0191301931
B1310524034927N02048372EA0191101928
B1310534034925N02048367EA0190801925
B1310544034924N02048360EA0190501922
B1310554034923N02048353EA0190301920
B1310564034921N02048346EA0190301920
B1310574034920N02048339EA0190401921
B1310584034919N02048334EA0190501922
B1310594034918N02048329EA0190501922
B1311004034918N02048323EA0190401921
B1311014034918N02048315EA0190301920
B1311024034917N02048308EA0190401921
B1311034034915N02048303EA0190501923
B1311044034914N02048298EA0190801925
B1311054034913N02048292EA0191101929
B1311064034914N02048287EA0191301931
B1311074034914N02048281EA0191401931
B1311084034914N02048276EA0191501932
B1311094034915N02048271EA0191701934
B1311104034917N02048267EA0191801936
B1311114034920N02048263EA0191801935
B1311124034923N02048260EA0191701935
B1311134034926N02048257EA0191601933
B1311144034930N02048255EA0191401932
B1311154034933N02048253EA0191301930
B1311164034936N02048251EA0191001927
B1311174034938N02048247EA0190601924
B1311184034939N02048242EA0190301920
B1311194034940N02048236EA0190001918
B1311204034940N02048231EA0189801916
B1311214034939N02048225EA0189601914
B1311224034938N02048220EA0189401912
B1311234034937N02048214EA0189301910
B1311244034936N02048208EA0188901907
B1311254034935N02048202EA0188701904
B1311264034934N02048196EA0188401901
B1311274034933N02048189EA0188201899
B1311284034930N02048183EA0187901897
B1311294034928N02048177EA0187701894
B1311304034925N02048171EA0187501892
B1311314034923N02048165EA0187201890
B1311324034920N02048158EA0187001887
B1311334034917N02048151EA0186801885
B1311344034914N02048145EA0186601883
B1311354034910N02048139EA0186401882
B1311364034907N02048134EA0186201880
B1311374034904N02048128EA0186001877
B1311384034900N02048122EA0185801875
B1311394034897N02048116EA0185601873
B1311404034893N02048109EA0185401871
B1311414034890N02048103EA0185201870
B1311424034887N02048098EA0185001868
B1311434034884N02048092EA0184801866
B1311444034881N02048086EA0184601863
B1311454034878N02048079EA0184301860
B1311464034874N02048073EA0184201859
B1311474034871N02048066EA0184101858
B1311484034868N02048060EA0184001857
B1311494034865N02048054EA0183801856
B1311504034862N02048049EA0183701854
B1311514034859N02048043EA0183401852
B1311524034856N02048037EA0183301850
B1311534034853N02048031EA0183101849
B1311544034850N02048025EA0183201850
B1311554034846N02048020EA0183201850
B1311564034844N02048015EA0183101849
B1311574034841N02048010EA0182901847
B1311584034839N02048004EA0182801845
B1311594034837N02047998EA0182601843
B1312004034834N02047991EA0182401841
B1312014034831N02047985EA0182201840
B1312024034830N02047978EA0182101839
B1312034034827N02047971EA0182101838
B1312044034825N02047964EA0182001837
B1312054034823N02047958EA0181801835
B1312064034820N02047951EA0181701834
B1312074034817N02047944EA0181601833
B1312084034815N02047938EA0181501832
B1312094034812N02047932EA0181301831
B1312104034810N02047926EA0181101829
B1312114034807N02047919EA0180901827
B1312124034804N02047912EA0180701824
B1312134034802N02047905EA0180501823
B1312144034800N02047899EA0180501822
B1312154034798N02047892EA0180401822
B1312164034796N02047886EA0180301820
B1312174034793N02047881EA0180101818
B1312184034790N02047875EA0179801816
B1312194034788N02047869EA0179601813
B1312204034785N02047863EA0179401811
B1312214034782N02047857EA0179101808
B1312224034779N02047851EA0179001807
B1312234034777N02047845EA0178901806
B1312244034774N02047839EA0178901806
B1312254034771N02047834EA0178801805
B1312264034768N02047829EA0178601803
B1312274034765N02047823EA0178401802
B1312284034763N02047817EA0178301801
B1312294034760N02047811EA0178201800
B1312304034757N02047805EA0178101798
B1312314034754N02047798EA0178001797
B1312324034752N02047792EA0178001797
B1312334034750N02047785EA0178001797
B1312344034748N02047779EA0177901797
B1312354034745N02047773EA0177801796
B1312364034742N02047768EA0177701795
B1312374034738N02047762EA0177701794
B1312384034734N02047755EA0177701794
B1312394034731N02047749EA0177801795
B1312404034729N02047743EA0178001797
B1312414034726N02047738EA0178001797
B1312424034724N02047733EA0177901797
B1312434034722N02047727EA0177901797
B1312444034720N02047721EA0177801795
B1312454034717N02047715EA0177701794
B1312464034715N02047709EA0177501792
B1312474034714N02047703EA0177301790
B1312484034712N02047696EA0177201789
B1312494034710N02047689EA0177101788
B1312504034708N02047681EA0177001788
B1312514034706N02047675EA0177001788
B1312524034703N02047668EA0177001788
B1312534034700N02047662EA0177001788
B1312544034698N02047656EA0176901786
B1312554034695N02047649EA0176801785
B1312564034693N02047643EA0176701785
B1312574034690N02047636EA0176701784
B1312584034688N02047630EA0176601783
B1312594034685N02047624EA0176501783
B1313004034683N02047619EA0176401782
B1313014034681N02047613EA0176301780
B1313024034679N02047607EA0176201779
B1313034034676N02047601EA0176101778
B1313044034674N02047596EA0176101779
B1313054034672N02047590EA0176101779
B1313064034670N02047584EA0176101778
B1313074034668N02047578EA0176001777
B1313084034666N02047573EA0175901777
B1313094034664N02047567EA0175801775
B1313104034662N02047560EA0175701775
B1313114034661N02047554EA0175701774
B1313124034658N02047548EA0175601774
B1313134034656N02047543EA0175601774
B1313144034655N02047537EA0175501773
B1313154034653N02047531EA0175401771
B1313164034651N02047525EA0175301771
B1313174034649N02047518EA0175301770
B1313184034647N02047512EA0175201769
B1313194034644N02047505EA0175101769
B1313204034643N02047497EA0175101768
B1313214034641N02047490EA0175101768
B1313224034639N02047483EA0175001768
B1313234034636N02047477EA0175001768
B1313244034633N02047470EA0175001767
B1313254034630N02047464EA0175001767
B1313264034628N02047458EA0175001767
B1313274034625N02047451EA0174901767
B1313284034623N02047444EA0174901767
B1313294034621N02047438EA0175001768
B1313304034618N02047431EA0175201769
B1313314034616N02047425EA0175301770
B1313324034614N02047419EA0175301771
B1313334034612N02047413EA0175401771
B1313344034609N02047407EA0175401772
B1313354034606N02047400EA0175701774
B1313364034604N02047394EA0175801776
B1313374034601N02047389EA0176001777
B1313384034598N02047384EA0176201779
B1313394034595N02047379EA0176201780
B1313404034592N02047372EA0176401782
B1313414034590N02047366EA0176701784
B1313424034588N02047360EA0176901787
B1313434034586N02047355EA0177201790
B1313444034584N02047349EA0177501792
B1313454034583N02047344EA0177801796
B1313464034581N02047338EA0178101798
B1313474034580N02047334EA0178401801
B1313484034579N02047330EA0178601803
B1313494034580N02047326EA0178701805
B1313504034581N02047322EA0178701805
B1313514034584N02047318EA0178801805
B1313524034588N02047316EA0178901807
B1313534034593N02047316EA0179001807
B1313544034598N02047318EA0179001808
B1313554034602N02047324EA0179101808
B1313564034606N02047330EA0179201809
B1313574034608N02047338EA0179301810
B1313584034609N02047345EA0179301810
B1313594034608N02047353EA0179201810
B1314004034606N02047362EA0179101808
B1314014034601N02047370EA0179001807
B1314024034594N02047376EA0178901806
B1314034034586N02047379EA0179001807
B1314044034579N02047380EA0179101809
B1314054034572N02047378EA0179401811
B1314064034566N02047376EA0179601814
B1314074034561N02047374EA0179901816
B1314084034556N02047372EA0180001818
B1314094034551N02047370EA0180101819
B1314104034546N02047367EA0180201820
B1314114034541N02047364EA0180301820
B1314124034537N02047359EA0180401821
B1314134034533N02047355EA0180601823
B1314144034530N02047351EA0180701824
B1314154034527N02047348EA0180801825
B1314164034525N02047344EA0180901826
B1314174034522N02047339EA0180901827
B1314184034520N02047334EA0181101828
B1314194034520N02047329EA0181101828
B1314204034521N02047324EA0181201829
B1314214034523N02047320EA0181201829
B1314224034526N02047317EA0181201829
B1314234034530N02047315EA0181101829
B1314244034535N02047316EA0181201830
B1314254034539N02047319EA0181301830
B1314264034543N02047325EA0181301830
B1314274034545N02047333EA0181301831
B1314284034546N02047341EA0181401831
B1314294034545N02047350EA0181501832
B1314304034543N02047358EA0181701834
B1314314034540N02047366EA0181701834
B1314324034535N02047371EA0181701835
B1314334034530N02047374EA0181601833
B1314344034524N02047375EA0181601833
B1314354034519N02047374EA0181601833
B1314364034513N02047372EA0181601834
B1314374034509N02047368EA0181601833
B1314384034505N02047364EA0181701834
B1314394034502N02047359EA0181801835
B1314404034499N02047354EA0181901836
B1314414034497N02047349EA0182001837
B1314424034495N02047343EA0182101839
B1314434034493N02047337EA0182201839
B1314444034492N02047332EA0182301840
B1314454034490N02047327EA0182401842
B1314464034489N02047322EA0182501842
B1314474034487N02047316EA0182601843
B1314484034485N02047310EA0182701844
B1314494034483N02047303EA0182701844
B1314504034481N02047296EA0182901847
B1314514034479N02047290EA0183201850
B1314524034478N02047284EA0183501852
B1314534034477N02047279EA0183801855
B1314544034476N02047273EA0184001858
B1314554034475N02047267EA0184301860
B1314564034474N02047262EA0184401862
B1314574034472N02047257EA0184601863
B1314584034471N02047252EA0184701864
B1314594034471N02047247EA0184801865
B1315004034473N02047243EA0184801865
B1315014034477N02047240EA0184801865
B1315024034482N02047239EA0184901867
B1315034034487N02047241EA0185101868
B1315044034490N02047245EA0185101869
B1315054034492N02047251EA0185101869
B1315064034493N02047259EA0185101868
B1315074034492N02047267EA0185201869
B1315084034489N02047274EA0185201870
B1315094034484N02047280EA0185301871
B1315104034478N02047283EA0185301871
B1315114034471N02047284EA0185401871
B1315124034465N02047283EA0185601873
B1315134034460N02047280EA0185901876
B1315144034456N02047277EA0186201879
B1315154034453N02047273EA0186401881
B1315164034449N02047269EA0186501882
B1315174034446N02047265EA0186601884
B1315184034442N02047260EA0186801886
B1315194034440N02047254EA0187001887
B1315204034438N02047248EA0187201889
B1315214034438N02047242EA0187401891
B1315224034440N02047238EA0187501893
B1315234034443N02047234EA0187601893
B1315244034447N02047233EA0187601894
B1315254034452N02047233EA0187701895
B1315264034456N02047235EA0187801895
B1315274034460N02047241EA0187801896
B1315284034461N02047248EA0187901896
B1315294034460N02047256EA0187901896
B1315304034457N02047264EA0187901896
B1315314034452N02047271EA0187901896
B1315324034446N02047276EA0187901896
B1315334034440N02047278EA0187901897
B1315344034433N02047277EA0187901897
B1315354034427N02047275EA0188001898
B1315364034422N02047270EA0188201900
B1315374034417N02047265EA0188501902
B1315384034413N02047260EA0188701905
B1315394034409N02047254EA0189101908
B1315404034406N02047249EA0189301911
B1315414034403N02047244EA0189501912
B1315424034401N02047238EA0189601913
B1315434034399N02047232EA0189801915
B1315444034398N02047227EA0190001917
B1315454034397N02047222EA0190101918
B1315464034395N02047217EA0190201920
B1315474034395N02047213EA0190301921
B1315484034395N02047209EA0190401921
B1315494034398N02047205EA0190301921
B1315504034401N02047203EA0190301920
B1315514034406N02047204EA0190301920
B1315524034410N02047208EA0190301921
B1315534034413N02047214EA0190401921
B1315544034415N02047222EA0190501922
B1315554034414N02047230EA0190501923
B1315564034410N02047238EA0190501923
B1315574034406N02047245EA0190501923
B1315584034400N02047250EA0190601923
B1315594034393N02047252EA0190701924
B1316004034387N02047251EA0190701924
B1316014034381N02047248EA0190801925
B1316024034376N02047243EA0190901926
B1316034034373N02047238EA0191001928
B1316044034370N02047233EA0191201929
B1316054034368N02047228EA0191301931
B1316064034366N02047223EA0191401932
B1316074034366N02047217EA0191501933
B1316084034366N02047212EA0191501933
B1316094034368N02047207EA0191601933
B1316104034370N02047203EA0191701934
B1316114034373N02047201EA0191701935
B1316124034377N02047201EA0191801935
B1316134034381N02047204EA0191801935
B1316144034384N02047210EA0191801936
B1316154034386N02047217EA0191901936
B1316164034386N02047225EA0191901936
B1316174034384N02047233EA0191901937
B1316184034380N02047240EA0191901937
B1316194034374N02047246EA0191801936
B1316204034366N02047249EA0191701935
B1316214034359N02047248EA0191701935
B1316224034352N02047246EA0191801935
B1316234034346N02047242EA0192001938
B1316244034340N02047238EA0192201939
B1316254034335N02047234EA0192301941
B1316264034330N02047230EA0192401942
B1316274034325N02047226EA0192401942
B1316284034321N02047221EA0192501942
B1316294034317N02047215EA0192601943
B1316304034313N02047209EA0192701944
B1316314034310N02047203EA0192701944
B1316324034307N02047198EA0192601943
B1316334034304N02047192EA0192601943
B1316344034300N02047185EA0192801945
B1316354034297N02047180EA0192901946
B1316364034292N02047175EA0193201949
B1316374034288N02047172EA0193301951
B1316384034284N02047169EA0193401951
B1316394034278N02047167EA0193401951
B1316404034273N02047164EA0193401951
B1316414034267N02047161EA0193401951
B1316424034261N02047158EA0193401951
B1316434034256N02047156EA0193501952
B1316444034251N02047153EA0193501952
B1316454034248N02047150EA0193401952
B1316464034246N02047145EA0193301951
B1316474034245N02047140EA0193301950
B1316484034246N02047136EA0193201950
B1316494034248N02047132EA0193201949
B1316504034250N02047129EA0193101948
B1316514034252N02047125EA0193001948
B1316524034254N02047121EA0193001947
B1316534034255N02047116EA0192901946
B1316544034254N02047110EA0192901946
B1316554034254N02047104EA0193101948
B1316564034252N02047098EA0193201949
B1316574034251N02047094EA0193301951
B1316584034250N02047089EA0193401952
B1316594034249N02047084EA0193401951
B1317004034248N02047078EA0193401951
B1317014034247N02047072EA0193401951
B1317024034246N02047066EA0193401952
B1317034034245N02047061EA0193501953
B1317044034245N02047057EA0193601953
B1317054034244N02047053EA0193601953
B1317064034243N02047048EA0193401952
B1317074034242N02047043EA0193301950
B1317084034242N02047038EA0193201949
B1317094034241N02047033EA0193101948
B1317104034240N02047028EA0193101948
B1317114034240N02047023EA0193001947
B1317124034239N02047018EA0192901946
B1317134034238N02047012EA0192801945
B1317144034238N02047007EA0192801945
B1317154034237N02047001EA0192701945
B1317164034236N02046996EA0192701944
B1317174034235N02046990EA0192601944
B1317184034234N02046985EA0192501942
B1317194034233N02046980EA0192401941
B1317204034231N02046974EA0192201939
B1317214034230N02046967EA0192101938
B1317224034229N02046961EA0192001938
B1317234034227N02046956EA0192001937
B1317244034226N02046951EA0191801936
B1317254034225N02046946EA0191701934
B1317264034224N02046940EA0191401931
B1317274034223N02046934EA0191101929
B1317284034223N02046928EA0190901927
B1317294034222N02046922EA0190801926
B1317304034221N02046917EA0190801925
B1317314034220N02046911EA0190701924
B1317324034219N02046906EA0190501922
B1317334034218N02046901EA0190301921
B1317344034217N02046895EA0190101919
B1317354034215N02046890EA0190001918
B1317364034214N02046884EA0190001917
B1317374034212N02046878EA0189901916
B1317384034210N02046872EA0189801915
B1317394034208N02046866EA0189701914
B1317404034207N02046861EA0189601913
B1317414034205N02046855EA0189401912
B1317424034204N02046849EA0189201910
B1317434034202N02046843EA0189001908
B1317444034201N02046838EA0188901906
B1317454034200N02046833EA0188801905
B1317464034199N02046827EA0188601904
B1317474034197N02046822EA0188401902
B1317484034196N02046816EA0188201900
B1317494034194N02046810EA0188101898
B1317504034194N02046805EA0187901897
B1317514034192N02046799EA0187801896
B1317524034191N02046793EA0187701895
B1317534034189N02046788EA0187701894
B1317544034187N02046782EA0187601894
B1317554034186N02046777EA0187501893
B1317564034183N02046772EA0187401892
B1317574034181N02046766EA0187301891
B1317584034179N02046760EA0187201890
B1317594034177N02046754EA0187201889
B1318004034175N02046749EA0187101888
B1318014034174N02046744EA0187001887
B1318024034172N02046739EA0186901886
B1318034034170N02046734EA0186801885
B1318044034168N02046729EA0186701884
B1318054034166N02046723EA0186601883
B1318064034165N02046718EA0186501882
B1318074034164N02046714EA0186401881
B1318084034162N02046709EA0186201880
B1318094034161N02046703EA0186101878
B1318104034159N02046698EA0185901877
B1318114034157N02046693EA0185801875
B1318124034155N02046688EA0185601874
B1318134034154N02046683EA0185501872
B1318144034152N02046677EA0185401871
B1318154034150N02046672EA0185301870
B1318164034148N02046667EA0185201869
B1318174034147N02046662EA0185101868
B1318184034145N02046657EA0184901867
B1318194034144N02046652EA0184801865
B1318204034143N02046646EA0184701864
B1318214034142N02046641EA0184601863
B1318224034140N02046636EA0184501862
B1318234034139N02046631EA0184401861
B1318244034138N02046626EA0184201859
B1318254034137N02046620EA0184101858
B1318264034136N02046615EA0183901857
B1318274034135N02046610EA0183801856
B1318284034134N02046604EA0183801855
B1318294034133N02046600EA0183701855
B1318304034132N02046595EA0183601853
B1318314034132N02046590EA0183401852
B1318324034132N02046585EA0183201850
B1318334034131N02046580EA0183001847
B1318344034131N02046574EA0182801845
B1318354034132N02046569EA0182701844
B1318364034132N02046563EA0182601844
B1318374034132N02046559EA0182501843
B1318384034131N02046554EA0182401841
B1318394034132N02046550EA0182101838
B1318404034132N02046545EA0181801835
B1318414034132N02046540EA0181501833
B1318424034132N02046535EA0181201829
B1318434034132N02046529EA0180901826
B1318444034132N02046523EA0180701824
B1318454034132N02046517EA0180601823
B1318464034132N02046511EA0180601823
B1318474034133N02046506EA0180601823
B1318484034133N02046501EA0180601823
B1318494034133N02046496EA0180501822
B1318504034133N02046491EA0180401821
B1318514034134N02046486EA0180201820
B1318524034134N02046481EA0180201819
B1318534034134N02046476EA0180201819
B1318544034134N02046471EA0180201820
B1318554034134N02046467EA0180101819
B1318564034133N02046464EA0179901817
B1318574034134N02046460EA0179701814
B1318584034134N02046456EA0179401811
B1318594034135N02046450EA0179201809
B1319004034135N02046445EA0179001808
B1319014034135N02046440EA0179001807
B1319024034135N02046436EA0179001807
B1319034034135N02046432EA0178901807
B1319044034135N02046427EA0178801805
B1319054034134N02046423EA0178601803
B1319064034134N02046417EA0178401801
B1319074034134N02046412EA0178301801
B1319084034134N02046407EA0178401801
B1319094034134N02046402EA0178401801
B1319104034134N02046398EA0178301800
B1319114034133N02046393EA0178201799
B1319124034134N02046389EA0178101798
B1319134034134N02046384EA0178001797
B1319144034134N02046379EA0177901796
B1319154034134N02046374EA0177801795
B1319164034134N02046369EA0177701794
B1319174034135N02046365EA0177701795
B1319184034135N02046361EA0177701794
B1319194034135N02046357EA0177601793
B1319204034134N02046353EA0177301790
B1319214034134N02046349EA0177001787
B1319224034135N02046344EA0176801785
B1319234034135N02046339EA0176501783
B1319244034135N02046334EA0176401781
B1319254034135N02046329EA0176301780
B1319264034135N02046324EA0176201779
B1319274034135N02046320EA0176001778
B1319284034134N02046315EA0175801776
B1319294034134N02046311EA0175601774
B1319304034133N02046306EA0175401771
B1319314034133N02046301EA0175201769
B1319324034133N02046296EA0175001768
B1319334034133N02046291EA0174901767
B1319344034132N02046286EA0174701764
B1319354034132N02046281EA0174501762
B1319364034131N02046276EA0174201760
B1319374034131N02046271EA0174101758
B1319384034130N02046266EA0173901757
B1319394034130N02046260EA0173801756
B1319404034129N02046256EA0173601754
B1319414034129N02046251EA0173401752
B1319424034130N02046247EA0173301750
B1319434034130N02046242EA0173001748
B1319444034129N02046237EA0172801745
B1319454034129N02046231EA0172601743
B1319464034128N02046226EA0172401742
B1319474034129N02046221EA0172301740
B1319484034129N02046217EA0172101739
B1319494034129N02046212EA0171901737
B1319504034128N02046208EA0171701734
B1319514034128N02046203EA0171401731
B1319524034128N02046197EA0171101728
B1319534034129N02046192EA0170901727
B1319544034129N02046187EA0170801725
B1319554034130N02046182EA0170601723
B1319564034130N02046177EA0170201719
B1319574034130N02046171EA0169901716
B1319584034130N02046165EA0169701714
B1319594034131N02046159EA0169401712
B1320004034131N02046153EA0169201710
B1320014034131N02046148EA0169001708
B1320024034132N02046142EA0168801706
B1320034034133N02046136EA0168701704
B1320044034134N02046130EA0168501702
B1320054034134N02046125EA0168301700
B1320064034135N02046119EA0168101698
B1320074034135N02046114EA0168001697
B1320084034135N02046108EA0167801695
B1320094034135N02046103EA0167601694
B1320104034135N02046097EA0167401692
B1320114034136N02046092EA0167301690
B1320124034136N02046087EA0167101688
B1320134034137N02046082EA0166901686
B1320144034137N02046077EA0166601684
B1320154034138N02046071EA0166401682
B1320164034138N02046065EA0166201680
B1320174034139N02046059EA0166101679
B1320184034139N02046054EA0166001677
B1320194034140N02046049EA0166001677
B1320204034140N02046044EA0165901676
B1320214034141N02046039EA0165701674
B1320224034141N02046034EA0165501672
B1320234034141N02046028EA0165201669
B1320244034142N02046022EA0165001668
B1320254034143N02046016EA0165101668
B1320264034143N02046011EA0165001667
B1320274034143N02046006EA0164901666
B1320284034143N02046002EA0164801665
B1320294034143N02045997EA0164701664
B1320304034143N02045993EA0164501662
B1320314034144N02045988EA0164301660
B1320324034144N02045983EA0164001658
B1320334034144N02045978EA0163901656
B1320344034145N02045973EA0163801655
B1320354034145N02045969EA0163601653
B1320364034146N02045964EA0163401651
B1320374034146N02045959EA0163201650
B1320384034146N02045955EA0163101648
B1320394034147N02045950EA0162901646
B1320404034148N02045946EA0162801645
B1320414034148N02045941EA0162701644
B1320424034148N02045937EA0162401642
B1320434034148N02045932EA0162201640
B1320444034149N02045927EA0162101638
B1320454034150N02045922EA0162001637
B1320464034150N02045917EA0161901637
B1320474034150N02045911EA0161801635
B1320484034151N02045906EA0161601634
B1320494034152N02045901EA0161501632
B1320504034153N02045897EA0161401631
B1320514034154N02045891EA0161301630
B1320524034154N02045886EA0161201629
B1320534034154N02045881EA0161101628
B1320544034154N02045877EA0160901627
B1320554034154N02045872EA0160701625
B1320564034155N02045867EA0160501622
B1320574034156N02045861EA0160301620
B1320584034157N02045855EA0160101619
B1320594034158N02045849EA0160001618
B1321004034159N02045844EA0160001617
B1321014034160N02045839EA0159901617
B1321024034160N02045834EA0159801615
B1321034034160N02045828EA0159601614
B1321044034161N02045823EA0159501612
B1321054034161N02045818EA0159401611
B1321064034162N02045812EA0159301610
B1321074034162N02045807EA0159201609
B1321084034162N02045801EA0159101608
B1321094034163N02045797EA0159001608
B1321104034163N02045793EA0158901607
B1321114034164N02045788EA0158801605
B1321124034164N02045784EA0158601603
B1321134034165N02045780EA0158301600
B1321144034166N02045775EA0158201599
B1321154034167N02045770EA0158101599
B1321164034169N02045765EA0158101598
B1321174034170N02045760EA0158001597
B1321184034170N02045756EA0157901596
B1321194034171N02045751EA0157701594
B1321204034172N02045745EA0157501592
B1321214034173N02045740EA0157401591
B1321224034174N02045735EA0157301590
B1321234034174N02045730EA0157101589
B1321244034174N02045725EA0157001587
B1321254034174N02045719EA0156801585
B1321264034175N02045714EA0156601583
B1321274034175N02045709EA0156501582
B1321284034175N02045703EA0156401581
B1321294034176N02045698EA0156201579
B1321304034176N02045693EA0156101578
B1321314034177N02045688EA0156001577
B1321324034178N02045683EA0155801576
B1321334034178N02045677EA0155701574
B1321344034178N02045672EA0155501572
B1321354034178N02045666EA0155301571
B1321364034179N02045660EA0155201570
B1321374034179N02045654EA0155101569
B1321384034179N02045649EA0155001567
B1321394034179N02045643EA0155001567
B1321404034179N02045638EA0154901567
B1321414034179N02045632EA0154901566
B1321424034178N02045627EA0154701564
B1321434034178N02045622EA0154501562
B1321444034178N02045616EA0154201560
B1321454034178N02045611EA0154101558
B1321464034178N02045605EA0154001557
B1321474034178N02045599EA0153801556
B1321484034178N02045593EA0153701554
B1321494034178N02045587EA0153601553
B1321504034178N02045580EA0153501552
B1321514034178N02045574EA0153401552
B1321524034179N02045568EA0153401552
B1321534034179N02045563EA0153401551
B1321544034180N02045557EA0153301550
B1321554034181N02045551EA0153101548
B1321564034181N02045545EA0152901546
B1321574034182N02045538EA0152601544
B1321584034183N02045531EA0152501543
B1321594034183N02045525EA0152501543
B1322004034183N02045519EA0152401541
B1322014034184N02045513EA0152301540
B1322024034185N02045508EA0152101539
B1322034034185N02045502EA0151901537
B1322044034185N02045496EA0151601534
B1322054034185N02045489EA0151401531
B1322064034186N02045482EA0151201530
B1322074034186N02045476EA0151101529
B1322084034187N02045469EA0151101528
B1322094034187N02045463EA0150901527
B1322104034188N02045457EA0150701525
B1322114034189N02045451EA0150601523
B1322124034189N02045444EA0150401522
B1322134034191N02045438EA0150301520
B1322144034192N02045433EA0150101518
B1322154034194N02045427EA0150001517
B1322164034195N02045421EA0149901516
B1322174034196N02045416EA0149501513
B1322184034197N02045409EA0149201509
B1322194034198N02045402EA0149001508
B1322204034200N02045396EA0148901507
B1322214034203N02045390EA0148901507
B1322224034204N02045385EA0148901506
B1322234034205N02045380EA0148701504
B1322244034206N02045375EA0148401501
B1322254034208N02045370EA0148101498
B1322264034210N02045364EA0147801495
B1322274034212N02045358EA0147601493
B1322284034214N02045352EA0147401492
B1322294034217N02045348EA0147201489
B1322304034220N02045343EA0147101488
B1322314034222N02045339EA0146901486
B1322324034224N02045333EA0146601483
B1322334034225N02045327EA0146201479
B1322344034227N02045321EA0145901476
B1322354034230N02045315EA0145601474
B1322364034232N02045309EA0145401471
B1322374034234N02045302EA0145101468
B1322384034236N02045295EA0144901466
B1322394034238N02045289EA0144701465
B1322404034241N02045282EA0144801466
B1322414034243N02045276EA0145001468
B1322424034245N02045270EA0145201470
B1322434034245N02045266EA0145301471
B1322444034246N02045261EA0145301470
B1322454034248N02045257EA0145101468
B1322464034250N02045251EA0145001468
B1322474034252N02045244EA0144901467
B1322484034254N02045238EA0145001467
B1322494034256N02045232EA0145101468
B1322504034258N02045227EA0145101468
B1322514034260N02045221EA0145101468
B1322524034262N02045215EA0144901467
B1322534034263N02045209EA0144801466
B1322544034266N02045203EA0144801465
B1322554034268N02045197EA0144801466
B1322564034270N02045192EA0144901466
B1322574034271N02045186EA0144801465
B1322584034272N02045181EA0144701464
B1322594034273N02045175EA0144601463
B1323004034275N02045170EA0144501463
B1323014034276N02045165EA0144401461
B1323024034277N02045160EA0144201459
B1323034034279N02045155EA0144001457
B1323044034281N02045150EA0143801455
B1323054034283N02045145EA0143601454
B1323064034285N02045140EA0143501452
B1323074034286N02045135EA0143401451
B1323084034288N02045130EA0143301450
B1323094034290N02045126EA0143201449
B1323104034292N02045121EA0143101448
B1323114034294N02045116EA0143001447
B1323124034296N02045112EA0142801446
B1323134034297N02045107EA0142701444
B1323144034299N02045102EA0142501442
B1323154034301N02045097EA0142201439
B1323164034303N02045092EA0142001438
B1323174034305N02045087EA0141901436
B1323184034306N02045081EA0141701435
B1323194034308N02045076EA0141701434
B1323204034310N02045071EA0141601434
B1323214034312N02045067EA0141501433
B1323224034314N02045063EA0141401432
B1323234034316N02045058EA0141201430
B1323244034318N02045053EA0141001428
B1323254034319N02045048EA0140901427
B1323264034321N02045042EA0140801425
B1323274034323N02045037EA0140701424
B1323284034324N02045032EA0140501423
B1323294034326N02045027EA0140401421
B1323304034328N02045022EA0140201419
B1323314034330N02045017EA0140001418
B1323324034332N02045012EA0139901417
B1323334034333N02045006EA0139801415
B1323344034335N02045001EA0139701414
B1323354034336N02044996EA0139601413
B1323364034338N02044991EA0139401411
B1323374034339N02044985EA0139201409
B1323384034340N02044979EA0139001408
B1323394034342N02044973EA0138901406
B1323404034343N02044967EA0138801406
B1323414034344N02044962EA0138701404
B1323424034345N02044956EA0138501402
B1323434034346N02044951EA0138201400
B1323444034348N02044945EA0138001397
B1323454034350N02044939EA0137901397
B1323464034352N02044934EA0137801396
B1323474034354N02044928EA0137801395
B1323484034355N02044923EA0137701394
B1323494034357N02044918EA0137501393
B1323504034360N02044913EA0137401392
B1323514034361N02044908EA0137201390
B1323524034363N02044902EA0137101388
B1323534034365N02044897EA0136901387
B1323544034366N02044892EA0136801386
B1323554034368N02044887EA0136601384
B1323564034370N02044883EA0136401382
B1323574034372N02044878EA0136101379
B1323584034375N02044873EA0135801376
B1323594034377N02044867EA0135601373
B1324004034379N02044861EA0135501372
B1324014034381N02044855EA0135401371
B1324024034383N02044850EA0135201369
B1324034034385N02044845EA0135001367
B1324044034387N02044839EA0134601363
B1324054034389N02044833EA0134301361
B1324064034391N02044827EA0134001357
B1324074034394N02044822EA0133801356
B1324084034396N02044816EA0133801355
B1324094034398N02044811EA0133601353
B1324104034400N02044805EA0133401351
B1324114034401N02044800EA0133101349
B1324124034404N02044794EA0132901347
B1324134034406N02044788EA0132701344
B1324144034408N02044782EA0132501343
B1324154034410N02044776EA0132401341
B1324164034412N02044771EA0132201340
B1324174034414N02044766EA0132001338
B1324184034417N02044760EA0131801335
B1324194034419N02044754EA0131601333
B1324204034421N02044748EA0131301331
B1324214034424N02044743EA0131201329
B1324224034426N02044738EA0131101329
B1324234034428N02044734EA0131001327
B1324244034430N02044729EA0130701325
B1324254034432N02044724EA0130401322
B1324264034434N02044718EA0130101319
B1324274034436N02044711EA0129901317
B1324284034438N02044705EA0129901316
B1324294034439N02044700EA0129801316
B1324304034441N02044694EA0129701314
B1324314034441N02044690EA0129501312
B1324324034443N02044685EA0129301310
B1324334034444N02044679EA0128901306
B1324344034446N02044673EA0128601303
B1324354034449N02044667EA0128401301
B1324364034451N02044662EA0128301301
B1324374034453N02044657EA0128201300
B1324384034455N02044652EA0128101298
B1324394034457N02044647EA0127801296
B1324404034458N02044642EA0127601293
B1324414034461N02044637EA0127401291
B1324424034463N02044631EA0127301290
B1324434034465N02044626EA0127101289
B1324444034466N02044621EA0127001287
B1324454034468N02044617EA0126801286
B1324464034469N02044612EA0126601284
B1324474034472N02044608EA0126301280
B1324484034474N02044604EA0125901276
B1324494034477N02044598EA0125501272
B1324504034480N02044593EA0125401271
B1324514034482N02044587EA0125301270
B1324524034484N02044581EA0125201269
B1324534034485N02044576EA0125001268
B1324544034486N02044571EA0124801266
B1324554034488N02044565EA0124601263
B1324564034489N02044560EA0124401261
B1324574034491N02044554EA0124201259
B1324584034492N02044548EA0123901257
B1324594034495N02044543EA0123701254
B1325004034497N02044538EA0123401251
B1325014034498N02044532EA0123101248
B1325024034501N02044526EA0122601244
B1325034034503N02044521EA0122401241
B1325044034506N02044515EA0122101238
B1325054034508N02044509EA0121901237
B1325064034510N02044503EA0121701234
B1325074034512N02044497EA0121401232
B1325084034514N02044492EA0121201229
B1325094034516N02044486EA0120901226
B1325104034518N02044479EA0120601223
B1325114034520N02044473EA0120301221
B1325124034522N02044466EA0120101219
B1325134034523N02044460EA0120001217
B1325144034525N02044454EA0119701215
B1325154034527N02044448EA0119501213
B1325164034529N02044441EA0119301210
B1325174034531N02044435EA0119001208
B1325184034534N02044429EA0118801206
B1325194034536N02044423EA0118701205
B1325204034538N02044416EA0118601203
B1325214034540N02044411EA0118401201
B1325224034542N02044405EA0118201200
B1325234034545N02044400EA0118101198
B1325244034547N02044395EA0117901196
B1325254034550N02044390EA0117701194
B1325264034553N02044384EA0117501192
B1325274034556N02044378EA0117101189
B1325284034560N02044371EA0117001187
B1325294034563N02044365EA0117001187
B1325304034565N02044359EA0116901187
B1325314034567N02044353EA0116901186
B1325324034569N02044347EA0116801185
B1325334034571N02044341EA0116701184
B1325344034573N02044336EA0116501183
B1325354034575N02044330EA0116401182
B1325364034577N02044323EA0116301180
B1325374034579N02044317EA0116201180
B1325384034582N02044311EA0116201179
B1325394034584N02044306EA0116101178
B1325404034586N02044301EA0115901176
B1325414034588N02044295EA0115701174
B1325424034590N02044288EA0115501172
B1325434034592N02044282EA0115301171
B1325444034594N02044276EA0115201170
B1325454034596N02044270EA0115101169
B1325464034598N02044264EA0114901167
B1325474034599N02044258EA0114701164
B1325484034601N02044251EA0114401161
B1325494034603N02044244EA0114101158
B1325504034606N02044238EA0113901157
B1325514034608N02044232EA0113801155
B1325524034611N02044226EA0113601154
B1325534034614N02044220EA0113401151
B1325544034616N02044214EA0113101149
B1325554034619N02044208EA0112901146
B1325564034621N02044202EA0112701144
B1325574034624N02044195EA0112501142
B1325584034626N02044189EA0112301141
B1325594034628N02044184EA0112201139
B1326004034630N02044179EA0112101138
B1326014034632N02044174EA0111801136
B1326024034633N02044168EA0111401132
B1326034034635N02044162EA0111101128
B1326044034637N02044155EA0110801125
B1326054034640N02044149EA0110601123
B1326064034642N02044142EA0110401122
B1326074034644N02044136EA0110301120
B1326084034646N02044130EA0110101119
B1326094034648N02044125EA0109901116
B1326104034650N02044120EA0109701114
B1326114034652N02044114EA0109401112
B1326124034655N02044108EA0109201109
B1326134034657N02044102EA0108901107
B1326144034659N02044096EA0108701104
B1326154034662N02044090EA0108501102
B1326164034665N02044084EA0108401101
B1326174034668N02044078EA0108101099
B1326184034670N02044072EA0107901097
B1326194034672N02044065EA0107701094
B1326204034675N02044059EA0107501093
B1326214034678N02044054EA0107401091
B1326224034680N02044048EA0107201089
B1326234034683N02044042EA0107001087
B1326244034686N02044037EA0106801085
B1326254034689N02044031EA0106601084
B1326264034692N02044025EA0106501082
B1326274034694N02044019EA0106301080
B1326284034696N02044014EA0106101078
B1326294034699N02044008EA0105901076
B1326304034702N02044003EA0105701074
B1326314034705N02043998EA0105401072
B1326324034707N02043992EA0105301071
B1326334034709N02043986EA0105201069
B1326344034712N02043981EA0105001067
B1326354034714N02043975EA0104801066
B1326364034717N02043970EA0104501063
B1326374034720N02043965EA0104201060
B1326384034723N02043959EA0104001057
B1326394034727N02043954EA0103801056
B1326404034729N02043949EA0103701054
B1326414034732N02043944EA0103501053
B1326424034735N02043938EA0103401051
B1326434034738N02043933EA0103101049
B1326444034740N02043927EA0102901046
B1326454034743N02043921EA0102701045
B1326464034746N02043915EA0102501043
B1326474034749N02043909EA0102301041
B1326484034753N02043904EA0102201039
B1326494034755N02043898EA0102001037
B1326504034758N02043891EA0101901036
B1326514034761N02043885EA0101701035
B1326524034764N02043880EA0101601034
B1326534034767N02043875EA0101501032
B1326544034769N02043869EA0101301031
B1326554034772N02043864EA0101101029
B1326564034775N02043858EA0100901027
B1326574034778N02043852EA0100801026
B1326584034782N02043847EA0100701025
B1326594034784N02043841EA0100601023
B1327004034786N02043835EA0100501022
B1327014034789N02043829EA0100401021
B1327024034791N02043824EA0100201019
B1327034034793N02043818EA0100101018
B1327044034796N02043812EA0099801016
B1327054034798N02043807EA0099701014
B1327064034801N02043801EA0099601013
B1327074034804N02043796EA0099501012
B1327084034806N02043791EA0099301010
B1327094034808N02043785EA0099101009
B1327104034811N02043779EA0099001007
B1327114034813N02043774EA0098801006
B1327124034816N02043769EA0098701004
B1327134034818N02043763EA0098501002
B1327144034820N02043757EA0098201000
B1327154034822N02043752EA0098000998
B1327164034825N02043746EA0097800995
B1327174034828N02043741EA0097700994
B1327184034830N02043735EA0097500992
B1327194034833N02043730EA0097200990
B1327204034835N02043725EA0097000987
B1327214034838N02043720EA0096700984
B1327224034841N02043715EA0096400981
B1327234034844N02043709EA0096100979
B1327244034847N02043704EA0095900976
B1327254034850N02043699EA0095700974
B1327264034853N02043694EA0095700974
B1327274034856N02043688EA0095500972
B1327284034858N02043683EA0095400971
B1327294034861N02043678EA0095300971
B1327304034864N02043674EA0095300970
B1327314034866N02043670EA0095100969
B1327324034869N02043666EA0095000967
B1327334034873N02043662EA0094800965
B1327344034876N02043658EA0094700964
B1327354034879N02043653EA0094600964
B1327364034883N02043649EA0094600963
B1327374034885N02043646EA0094600964
B1327384034888N02043642EA0094500963
B1327394034891N02043638EA0094300960
B1327404034895N02043634EA0094100958
B1327414034898N02043630EA0093900956
B1327424034902N02043625EA0093800956
B1327434034905N02043621EA0093800955
B1327444034908N02043617EA0093700954
B1327454034911N02043612EA0093600953
B1327464034915N02043607EA0093500953
B1327474034918N02043603EA0093500952
B1327484034921N02043599EA0093400951
B1327494034923N02043595EA0093200949
B1327504034927N02043590EA0093000948
B1327514034930N02043586EA0092900947
B1327524034934N02043582EA0092800946
B1327534034937N02043578EA0092800946
B1327544034941N02043574EA0092800945
B1327554034943N02043569EA0092700944
B1327564034946N02043564EA0092600943
B1327574034948N02043559EA0092500943
B1327584034951N02043554EA0092500943
B1327594034954N02043549EA0092500943
B1328004034956N02043544EA0092500942
B1328014034958N02043539EA0092300941
B1328024034961N02043534EA0092300940
B1328034034964N02043530EA0092200939
B1328044034967N02043524EA0092200939
B1328054034969N02043519EA0092100938
B1328064034972N02043513EA0091900937
B1328074034975N02043508EA0091900936
B1328084034978N02043502EA0091900937
B1328094034980N02043497EA0091900937
B1328104034982N02043491EA0091800936
B1328114034984N02043485EA0091700934
B1328124034986N02043480EA0091700934
B1328134034988N02043475EA0091800936
B1328144034991N02043469EA0092000937
B1328154034993N02043465EA0092100938
B1328164034995N02043461EA0092100938
B1328174034996N02043457EA0092000938
B1328184034998N02043452EA0091900936
B1328194034999N02043447EA0091700935
B1328204035002N02043443EA0091500932
B1328214035003N02043438EA0091300930
B1328224035006N02043433EA0091300930
B1328234035008N02043429EA0091200929
B1328244035012N02043427EA0091000927
B1328254035015N02043426EA0090700925
B1328264035019N02043426EA0090500922
B1328274035022N02043427EA0090300920
B1328284035026N02043431EA0090100918
B1328294035029N02043436EA0089800916
B1328304035031N02043442EA0089600914
B1328314035031N02043450EA0089500913
B1328324035029N02043458EA0089500912
B1328334035025N02043464EA0089400911
B1328344035021N02043470EA0089300910
B1328354035016N02043475EA0089300910
B1328364035011N02043480EA0089300910
B1328374035007N02043485EA0089300910
B1328384035003N02043491EA0089300910
B1328394035000N02043497EA0089300910
B1328404034998N02043504EA0089300910
B1328414034996N02043511EA0089200910
B1328424034994N02043517EA0089200910
B1328434034992N02043523EA0089200910
B1328444034991N02043529EA0089100909
B1328454034991N02043535EA0089100908
B1328464034992N02043540EA0088900907
B1328474034993N02043546EA0088900906
B1328484034995N02043551EA0088800905
B1328494034996N02043556EA0088600904
B1328504034999N02043560EA0088500903
B1328514035003N02043563EA0088400901
B1328524035007N02043565EA0088400901
B1328534035011N02043564EA0088300901
B1328544035014N02043563EA0088200900
B1328554035017N02043559EA0088100898
B1328564035019N02043554EA0087900896
B1328574035020N02043548EA0087700895
B1328584035020N02043541EA0087500893
B1328594035017N02043533EA0087400891
B1329004035015N02043527EA0087300890
B1329014035015N02043520EA0087200889
B1329024035018N02043515EA0086900887
B1329034035022N02043513EA0086600883
B1329044035027N02043513EA0086300881
B1329054035032N02043514EA0086400882
B1329064035035N02043514EA0086500882
B1329074035038N02043512EA0086300880
B1329084035040N02043507EA0086000877
B1329094035043N02043501EA0085700874
B1329104035045N02043495EA0085500872
B1329114035046N02043489EA0085700875
B1329124035047N02043484EA0085900876
B1329134035049N02043480EA0085900876
B1329144035050N02043476EA0085800875
B1329154035052N02043471EA0085600874
B1329164035053N02043465EA0085400872
B1329174035054N02043460EA0085400871
B1329184035056N02043455EA0085500872
B1329194035057N02043450EA0085500872
B1329204035057N02043447EA0085300870
B1329214035058N02043442EA0084900867
B1329224035060N02043437EA0084600864
B1329234035061N02043432EA0084500862
B1329244035063N02043427EA0084400862
B1329254035065N02043422EA0084300861
B1329264035065N02043418EA0084200859
B1329274035066N02043414EA0084100858
B1329284035067N02043410EA0083900857
B1329294035068N02043407EA0084000857
B1329304035068N02043405EA0084100858
B1329314035069N02043403EA0084100859
B1329324035069N02043403EA0084100858
B1329334035069N02043403EA0084100858
B1329344035068N02043403EA0084100858
B1329354035068N02043403EA0084100858
B1329364035068N02043403EA0084100858
B1329374035068N02043402EA0084100858
B1329384035068N02043402EA0084100858
B1329394035068N02043402EA0084100858
B1329404035068N02043402EA0084100858
B1329414035068N02043402EA0084100858
B1329424035067N02043402EA0084100858
B1329434035067N02043402EA0084100858
B1329444035068N02043402EA0084100858
B1329454035068N02043402EA0084100858
B1329464035068N02043402EA0084100858
B1329474035067N02043402EA0084000858
B1329484035067N02043402EA0084000858
B1329494035066N02043401EA0084100858
B1329504035066N02043401EA0084100858
B1329514035065N02043401EA0084100858
B1329524035065N02043401EA0084100858
B1329534035064N02043400EA0084100858
B1329544035064N02043400EA0084100858
B1329554035064N02043399EA0084100858
B1329564035065N02043399EA0084100858
B1329574035065N02043399EA0084100858
B1329584035064N02043398EA0084100858
B1329594035064N02043399EA0084100858
B1330004035064N02043399EA0084100858
B1330014035064N02043399EA0084000858
B1330024035064N02043399EA0084100858
B1330034035064N02043399EA0084100858
B1330044035064N02043399EA0084100858
B1330054035064N02043399EA0084100858
B1330064035064N02043398EA0084100858
B1330074035064N02043398EA0084100858
B1330084035064N02043398EA0084100858
B1330094035064N02043398EA0084100858
B1330104035064N02043398EA0084100858
B1330114035064N02043398EA0084100858
B1330124035064N02043398EA0084100858
B1330134035064N02043398EA0084100858
B1330144035064N02043398EA0084100858
B1330154035064N02043398EA0084100858
B1330164035064N02043398EA0084100858
B1330174035064N02043398EA0084100858
B1330184035063N02043398EA0084100858
B1330194035063N02043398EA0084100858
B1330204035063N02043398EA0084100858
B1330214035064N02043398EA0084100858
B1330224035064N02043398EA0084100858
B1330234035064N02043398EA0084100858
B1330244035064N02043398EA0084100858
B1330254035064N02043398EA0084100858
B1330264035064N02043398EA0084100858
B1330274035065N02043398EA0084100858
B1330284035065N02043398EA0084100858
B1330294035065N02043398EA0084100858
B1330304035065N02043398EA0084100858
B1330314035065N02043398EA0084100859
B1330324035065N02043398EA0084100859
B1330334035065N02043398EA0084100859
B1330344035065N02043398EA0084100858
B1330354035065N02043398EA0084000858
LXSX;GF:1.5
GB76DD2DDDF7A4D505B1339AED7F89DC1
