AXSX005 SKYTRAXX
HFPLTPILOT:Sepp Bucher
HFGTYGLIDERTYPE:Niviuk Artik R
HFDTM100GPSDATUM:WGS-84
HFRFWFIRMWAREVERSION:202308041433
HFRHWHARDWAREVERSION:4.0
HFTZNTIMEZONE:+2.00
HFSITSITE:Barcina de los Mon
HFDTE100923
LXSX;I1;OAB:20230824;OOB:20230901
LXSX;I1;ID:114075
LXSX;I1;AC:1;CAT:C
B1150304241920N00319792WA0111201190
B1150314241920N00319792WA0111201191
B1150324241920N00319792WA0111201190
B1150334241920N00319792WA0111201190
B1150344241920N00319792WA0111201190
B1150354241920N00319792WA0111201191
B1150364241920N00319792WA0111201191
B1150374241920N00319792WA0111201191
B1150384241919N00319792WA0111201191
B1150394241920N00319792WA0111101190
B1150404241921N00319792WA0111101190
B1150414241922N00319792WA0111201191
B1150424241921N00319792WA0110901188
B1150434241919N00319792WA0110901188
B1150444241918N00319792WA0111001188
B1150454241916N00319793WA0111201190
B1150464241913N00319794WA0111301192
B1150474241911N00319794WA0111401193
B1150484241909N00319792WA0111501194
B1150494241908N00319788WA0111601195
B1150504241908N00319784WA0111701196
B1150514241909N00319780WA0111801196
B1150524241909N00319777WA0111701196
B1150534241909N00319773WA0111601195
B1150544241909N00319768WA0111401193
B1150554241908N00319762WA0111401192
B1150564241907N00319756WA0111401193
B1150574241906N00319752WA0111501193
B1150584241906N00319748WA0111501194
B1150594241905N00319744WA0111401193
B1151004241904N00319739WA0111401193
B1151014241903N00319734WA0111401193
B1151024241902N00319729WA0111501194
B1151034241900N00319725WA0111601195
B1151044241899N00319722WA0111801197
B1151054241898N00319718WA0111901197
B1151064241898N00319712WA0111801196
B1151074241898N00319706WA0111701195
B1151084241897N00319699WA0111601194
B1151094241896N00319692WA0111501194
B1151104241895N00319687WA0111601195
B1151114241894N00319682WA0111601195
B1151124241894N00319678WA0111601195
B1151134241893N00319673WA0111501194
B1151144241892N00319667WA0111501193
B1151154241890N00319661WA0111501193
B1151164241889N00319656WA0111601195
B1151174241889N00319651WA0111701196
B1151184241889N00319648WA0111801197
B1151194241887N00319645WA0111801197
B1151204241886N00319642WA0111701196
B1151214241886N00319637WA0111601194
B1151224241886N00319632WA0111501194
B1151234241885N00319627WA0111401193
B1151244241884N00319622WA0111401192
B1151254241882N00319617WA0111401192
B1151264241881N00319613WA0111301192
B1151274241880N00319609WA0111201191
B1151284241879N00319605WA0111201191
B1151294241878N00319599WA0111301191
B1151304241878N00319592WA0111401192
B1151314241878N00319587WA0111501194
B1151324241878N00319581WA0111601195
B1151334241878N00319577WA0111701196
B1151344241876N00319572WA0111701196
B1151354241875N00319566WA0111701196
B1151364241873N00319561WA0111801196
B1151374241872N00319556WA0111801196
B1151384241871N00319552WA0111701196
B1151394241871N00319548WA0111501194
B1151404241870N00319544WA0111301191
B1151414241869N00319539WA0111001189
B1151424241867N00319534WA0110801186
B1151434241865N00319529WA0110501184
B1151444241861N00319525WA0110401182
B1151454241858N00319521WA0110201181
B1151464241854N00319518WA0110101180
B1151474241851N00319514WA0110001179
B1151484241848N00319511WA0109901177
B1151494241844N00319508WA0109701176
B1151504241841N00319505WA0109601174
B1151514241837N00319501WA0109501174
B1151524241833N00319496WA0109701175
B1151534241829N00319492WA0109901178
B1151544241827N00319489WA0110101179
B1151554241824N00319487WA0110101179
B1151564241823N00319483WA0109901178
B1151574241821N00319480WA0109701175
B1151584241818N00319476WA0109401173
B1151594241814N00319472WA0109301172
B1152004241811N00319468WA0109301171
B1152014241809N00319463WA0109301172
B1152024241808N00319459WA0109301171
B1152034241807N00319454WA0109201170
B1152044241806N00319450WA0109101169
B1152054241804N00319445WA0108901168
B1152064241802N00319440WA0108801167
B1152074241801N00319435WA0108801166
B1152084241800N00319429WA0108701165
B1152094241798N00319424WA0108601164
B1152104241795N00319420WA0108501163
B1152114241793N00319415WA0108401163
B1152124241790N00319411WA0108401162
B1152134241788N00319406WA0108401162
B1152144241787N00319401WA0108301162
B1152154241785N00319396WA0108201161
B1152164241782N00319391WA0108101160
B1152174241780N00319386WA0108001159
B1152184241777N00319381WA0107901158
B1152194241775N00319376WA0107801157
B1152204241773N00319371WA0107801156
B1152214241770N00319367WA0107701155
B1152224241766N00319364WA0107501153
B1152234241761N00319364WA0107201151
B1152244241756N00319367WA0107001149
B1152254241751N00319373WA0106801146
B1152264241749N00319381WA0106401142
B1152274241750N00319390WA0106101139
B1152284241752N00319400WA0105901137
B1152294241754N00319408WA0105801136
B1152304241755N00319416WA0105701135
B1152314241757N00319423WA0105601134
B1152324241759N00319430WA0105401132
B1152334241763N00319437WA0105101129
B1152344241765N00319445WA0104801126
B1152354241768N00319454WA0104601124
B1152364241769N00319463WA0104501123
B1152374241771N00319471WA0104401122
B1152384241773N00319480WA0104201120
B1152394241775N00319489WA0104101119
B1152404241777N00319498WA0104101119
B1152414241778N00319507WA0104201120
B1152424241780N00319515WA0104401121
B1152434241782N00319522WA0104501123
B1152444241784N00319530WA0104601124
B1152454241787N00319537WA0104701124
B1152464241790N00319543WA0104701124
B1152474241793N00319549WA0104601123
B1152484241795N00319555WA0104401122
B1152494241797N00319562WA0104201119
B1152504241799N00319569WA0103901117
B1152514241800N00319577WA0103601114
B1152524241800N00319585WA0103401112
B1152534241800N00319593WA0103301110
B1152544241799N00319601WA0103101109
B1152554241799N00319609WA0103001108
B1152564241799N00319616WA0102901107
B1152574241797N00319623WA0102801105
B1152584241797N00319629WA0102601103
B1152594241796N00319636WA0102301100
B1153004241797N00319644WA0102001097
B1153014241796N00319652WA0101801096
B1153024241796N00319660WA0101701094
B1153034241795N00319667WA0101601093
B1153044241794N00319675WA0101401091
B1153054241793N00319682WA0101201090
B1153064241793N00319689WA0101001087
B1153074241792N00319697WA0100901086
B1153084241792N00319705WA0100701084
B1153094241792N00319712WA0100501082
B1153104241791N00319719WA0100301080
B1153114241791N00319726WA0100101078
B1153124241791N00319734WA0099901076
B1153134241790N00319742WA0099701074
B1153144241789N00319751WA0099501072
B1153154241787N00319759WA0099401071
B1153164241785N00319767WA0099301070
B1153174241784N00319774WA0099201069
B1153184241782N00319781WA0099001067
B1153194241780N00319788WA0098801065
B1153204241777N00319797WA0098601063
B1153214241774N00319805WA0098501062
B1153224241770N00319813WA0098501062
B1153234241767N00319820WA0098701063
B1153244241764N00319828WA0098801065
B1153254241763N00319835WA0098801065
B1153264241763N00319843WA0098801064
B1153274241763N00319851WA0098801064
B1153284241762N00319859WA0098701064
B1153294241761N00319866WA0098701064
B1153304241760N00319874WA0098801065
B1153314241759N00319882WA0098901065
B1153324241758N00319889WA0098901065
B1153334241757N00319896WA0098901065
B1153344241756N00319902WA0098801064
B1153354241756N00319910WA0098601062
B1153364241756N00319918WA0098301060
B1153374241756N00319927WA0098201058
B1153384241756N00319934WA0098101057
B1153394241754N00319941WA0097901056
B1153404241752N00319948WA0097901055
B1153414241749N00319953WA0097801054
B1153424241745N00319959WA0097801055
B1153434241742N00319964WA0098101057
B1153444241738N00319969WA0098301059
B1153454241736N00319970WA0098501061
B1153464241732N00319969WA0098501061
B1153474241729N00319966WA0098401060
B1153484241726N00319961WA0098401060
B1153494241726N00319954WA0098401060
B1153504241727N00319947WA0098401060
B1153514241730N00319941WA0098401060
B1153524241733N00319936WA0098601061
B1153534241735N00319932WA0098701063
B1153544241736N00319928WA0098901064
B1153554241736N00319923WA0098801064
B1153564241735N00319917WA0098701063
B1153574241731N00319911WA0098801064
B1153584241727N00319907WA0098801064
B1153594241721N00319906WA0098801064
B1154004241717N00319908WA0098701063
B1154014241713N00319912WA0098701062
B1154024241711N00319917WA0098601062
B1154034241711N00319923WA0098601062
B1154044241713N00319930WA0098501061
B1154054241717N00319935WA0098401060
B1154064241722N00319938WA0098301059
B1154074241729N00319937WA0098201057
B1154084241734N00319933WA0098001055
B1154094241739N00319926WA0097801054
B1154104241742N00319919WA0097801054
B1154114241743N00319911WA0098001055
B1154124241743N00319904WA0098101057
B1154134241742N00319898WA0098301058
B1154144241742N00319892WA0098401059
B1154154241743N00319886WA0098401059
B1154164241743N00319879WA0098401059
B1154174241743N00319872WA0098501061
B1154184241744N00319865WA0098701062
B1154194241744N00319859WA0098801063
B1154204241742N00319854WA0098801063
B1154214241740N00319850WA0098701062
B1154224241736N00319846WA0098701062
B1154234241732N00319844WA0098701062
B1154244241727N00319844WA0098601061
B1154254241722N00319847WA0098501060
B1154264241719N00319852WA0098401059
B1154274241719N00319859WA0098301058
B1154284241720N00319865WA0098301058
B1154294241723N00319871WA0098301057
B1154304241727N00319875WA0098201057
B1154314241734N00319876WA0098101055
B1154324241740N00319873WA0098001055
B1154334241745N00319868WA0097901054
B1154344241748N00319861WA0097901053
B1154354241749N00319853WA0097801053
B1154364241749N00319846WA0097801053
B1154374241747N00319839WA0098001054
B1154384241744N00319834WA0098001055
B1154394241742N00319830WA0098001054
B1154404241739N00319826WA0097801053
B1154414241735N00319822WA0097701051
B1154424241731N00319819WA0097501050
B1154434241726N00319818WA0097501049
B1154444241721N00319819WA0097401049
B1154454241717N00319823WA0097401049
B1154464241714N00319828WA0097501049
B1154474241712N00319833WA0097501049
B1154484241710N00319838WA0097501049
B1154494241708N00319844WA0097501049
B1154504241708N00319851WA0097501049
B1154514241708N00319858WA0097501049
B1154524241709N00319865WA0097601050
B1154534241711N00319871WA0097701051
B1154544241713N00319877WA0097801052
B1154554241716N00319881WA0097801052
B1154564241718N00319886WA0097801052
B1154574241720N00319892WA0097701051
B1154584241723N00319898WA0097701051
B1154594241725N00319904WA0097701051
B1155004241726N00319910WA0097801052
B1155014241726N00319915WA0097801052
B1155024241724N00319919WA0097801052
B1155034241723N00319923WA0097801052
B1155044241720N00319926WA0097801052
B1155054241716N00319929WA0097901053
B1155064241712N00319931WA0097901053
B1155074241708N00319930WA0097901053
B1155084241705N00319927WA0097801052
B1155094241703N00319923WA0097701051
B1155104241701N00319917WA0097501049
B1155114241699N00319912WA0097401047
B1155124241699N00319905WA0097201046
B1155134241700N00319898WA0097001044
B1155144241702N00319891WA0096801042
B1155154241704N00319884WA0096701041
B1155164241706N00319878WA0096601039
B1155174241708N00319872WA0096501038
B1155184241708N00319866WA0096301036
B1155194241706N00319861WA0096001034
B1155204241703N00319857WA0095701031
B1155214241698N00319855WA0095501028
B1155224241693N00319855WA0095301026
B1155234241688N00319856WA0095101024
B1155244241684N00319859WA0095001024
B1155254241681N00319862WA0094801022
B1155264241679N00319866WA0094601019
B1155274241676N00319870WA0094201016
B1155284241673N00319874WA0094001013
B1155294241668N00319879WA0093701011
B1155304241663N00319883WA0093601009
B1155314241659N00319887WA0093501008
B1155324241655N00319890WA0093401007
B1155334241652N00319893WA0093201005
B1155344241648N00319897WA0092801001
B1155354241643N00319902WA0092500998
B1155364241639N00319907WA0092300996
B1155374241635N00319912WA0092200995
B1155384241631N00319916WA0092000993
B1155394241627N00319920WA0091800991
B1155404241623N00319925WA0091500988
B1155414241620N00319930WA0091300986
B1155424241616N00319936WA0091000983
B1155434241612N00319943WA0091000982
B1155444241609N00319949WA0090900981
B1155454241607N00319955WA0090700980
B1155464241605N00319960WA0090500977
B1155474241602N00319965WA0090100974
B1155484241598N00319971WA0089800971
B1155494241593N00319976WA0089700970
B1155504241589N00319981WA0089900971
B1155514241586N00319986WA0090100973
B1155524241585N00319991WA0090200974
B1155534241583N00319996WA0090200975
B1155544241582N00320002WA0090200974
B1155554241580N00320009WA0090000973
B1155564241577N00320017WA0090000972
B1155574241575N00320023WA0090000973
B1155584241573N00320028WA0090000972
B1155594241571N00320032WA0089900971
B1156004241568N00320036WA0089800970
B1156014241564N00320038WA0089600968
B1156024241561N00320040WA0089500967
B1156034241557N00320043WA0089400966
B1156044241555N00320046WA0089400966
B1156054241552N00320048WA0089300965
B1156064241550N00320050WA0089000962
B1156074241547N00320051WA0088900961
B1156084241543N00320052WA0088700959
B1156094241539N00320054WA0088600958
B1156104241537N00320056WA0088700959
B1156114241534N00320057WA0088700959
B1156124241532N00320058WA0088800960
B1156134241529N00320059WA0088700959
B1156144241526N00320062WA0088600958
B1156154241523N00320066WA0088600958
B1156164241520N00320069WA0088600958
B1156174241517N00320072WA0088700959
B1156184241514N00320075WA0088700959
B1156194241511N00320078WA0088800959
B1156204241507N00320083WA0088900960
B1156214241504N00320087WA0089100963
B1156224241501N00320089WA0089300965
B1156234241498N00320089WA0089400966
B1156244241494N00320087WA0089400966
B1156254241491N00320083WA0089400966
B1156264241488N00320079WA0089500966
B1156274241485N00320075WA0089500967
B1156284241483N00320072WA0089600968
B1156294241480N00320070WA0089600967
B1156304241477N00320071WA0089500967
B1156314241474N00320074WA0089300965
B1156324241472N00320079WA0089200963
B1156334241472N00320086WA0089100963
B1156344241473N00320093WA0089000961
B1156354241475N00320100WA0088900960
B1156364241478N00320106WA0088800959
B1156374241482N00320112WA0088700959
B1156384241486N00320119WA0088700958
B1156394241488N00320126WA0088700958
B1156404241490N00320132WA0088700958
B1156414241490N00320138WA0088800959
B1156424241490N00320144WA0088900960
B1156434241490N00320148WA0088900960
B1156444241489N00320153WA0088900960
B1156454241488N00320158WA0088800959
B1156464241485N00320162WA0088800959
B1156474241481N00320164WA0089000960
B1156484241477N00320166WA0089100962
B1156494241474N00320168WA0089300964
B1156504241471N00320171WA0089400965
B1156514241469N00320174WA0089500966
B1156524241465N00320178WA0089500966
B1156534241461N00320180WA0089400965
B1156544241457N00320182WA0089500966
B1156554241454N00320183WA0089700968
B1156564241452N00320182WA0089900969
B1156574241450N00320179WA0089900970
B1156584241449N00320175WA0089900969
B1156594241449N00320169WA0089700968
B1157004241450N00320162WA0089600967
B1157014241454N00320155WA0089500966
B1157024241459N00320149WA0089500966
B1157034241466N00320145WA0089500966
B1157044241473N00320144WA0089600966
B1157054241480N00320144WA0089700968
B1157064241487N00320146WA0089900969
B1157074241493N00320149WA0090000971
B1157084241498N00320154WA0090100972
B1157094241501N00320160WA0090200972
B1157104241503N00320167WA0090200973
B1157114241505N00320174WA0090200973
B1157124241506N00320181WA0090200973
B1157134241505N00320187WA0090200973
B1157144241505N00320193WA0090300973
B1157154241502N00320197WA0090400974
B1157164241500N00320200WA0090400974
B1157174241497N00320201WA0090400974
B1157184241494N00320201WA0090400974
B1157194241491N00320202WA0090400974
B1157204241488N00320204WA0090400974
B1157214241485N00320205WA0090400974
B1157224241483N00320206WA0090300973
B1157234241480N00320206WA0090200972
B1157244241477N00320204WA0090100971
B1157254241474N00320201WA0090000970
B1157264241471N00320199WA0090000970
B1157274241469N00320195WA0090000970
B1157284241467N00320191WA0090000970
B1157294241466N00320186WA0090000970
B1157304241465N00320181WA0090000970
B1157314241464N00320175WA0090100970
B1157324241464N00320170WA0090100970
B1157334241465N00320164WA0090100970
B1157344241464N00320159WA0090100971
B1157354241464N00320154WA0090200972
B1157364241465N00320149WA0090300973
B1157374241465N00320144WA0090400974
B1157384241466N00320140WA0090500974
B1157394241467N00320135WA0090500975
B1157404241468N00320129WA0090600976
B1157414241468N00320124WA0090800977
B1157424241467N00320122WA0090800977
B1157434241465N00320121WA0090700977
B1157444241463N00320122WA0090600976
B1157454241461N00320123WA0090600976
B1157464241459N00320126WA0090600975
B1157474241458N00320129WA0090500975
B1157484241457N00320135WA0090500974
B1157494241457N00320142WA0090400974
B1157504241459N00320150WA0090400973
B1157514241463N00320158WA0090300972
B1157524241470N00320165WA0090300973
B1157534241477N00320169WA0090400973
B1157544241485N00320169WA0090400973
B1157554241492N00320167WA0090400973
B1157564241498N00320163WA0090400973
B1157574241504N00320158WA0090400973
B1157584241507N00320151WA0090400973
B1157594241510N00320144WA0090300972
B1158004241510N00320138WA0090300971
B1158014241509N00320132WA0090400973
B1158024241508N00320128WA0090500974
B1158034241507N00320126WA0090500974
B1158044241506N00320123WA0090400973
B1158054241506N00320120WA0090300971
B1158064241505N00320117WA0090100969
B1158074241503N00320114WA0089800967
B1158084241501N00320112WA0089700965
B1158094241500N00320110WA0089500964
B1158104241498N00320108WA0089200961
B1158114241495N00320107WA0088900958
B1158124241493N00320107WA0088800956
B1158134241490N00320106WA0088700956
B1158144241487N00320104WA0088700956
B1158154241484N00320103WA0088700955
B1158164241482N00320101WA0088500953
B1158174241479N00320099WA0088300952
B1158184241476N00320096WA0088100950
B1158194241472N00320093WA0088000948
B1158204241469N00320091WA0087900947
B1158214241465N00320089WA0087800947
B1158224241462N00320088WA0087800946
B1158234241459N00320087WA0087800947
B1158244241456N00320087WA0087800946
B1158254241454N00320086WA0087800947
B1158264241451N00320086WA0087800946
B1158274241449N00320087WA0087700945
B1158284241445N00320086WA0087600944
B1158294241442N00320087WA0087500943
B1158304241439N00320088WA0087400942
B1158314241437N00320090WA0087400942
B1158324241434N00320092WA0087200941
B1158334241431N00320092WA0087100939
B1158344241428N00320092WA0087000938
B1158354241425N00320091WA0086900937
B1158364241421N00320091WA0087000938
B1158374241418N00320089WA0087100939
B1158384241415N00320087WA0087100939
B1158394241413N00320085WA0087200939
B1158404241410N00320082WA0087200939
B1158414241407N00320081WA0087200940
B1158424241404N00320079WA0087200940
B1158434241401N00320077WA0087100939
B1158444241398N00320075WA0087000938
B1158454241394N00320074WA0086900937
B1158464241391N00320072WA0086700935
B1158474241388N00320070WA0086600934
B1158484241384N00320069WA0086600933
B1158494241380N00320068WA0086600933
B1158504241376N00320067WA0086500933
B1158514241372N00320067WA0086500933
B1158524241369N00320067WA0086500933
B1158534241365N00320066WA0086400931
B1158544241361N00320065WA0086200930
B1158554241356N00320064WA0086200929
B1158564241352N00320062WA0086100928
B1158574241349N00320061WA0086000927
B1158584241345N00320060WA0085800925
B1158594241342N00320059WA0085500923
B1159004241338N00320058WA0085100918
B1159014241333N00320057WA0084900916
B1159024241329N00320056WA0084900916
B1159034241324N00320055WA0084900916
B1159044241320N00320053WA0085000917
B1159054241316N00320052WA0085000917
B1159064241313N00320051WA0085000917
B1159074241309N00320050WA0085000917
B1159084241304N00320048WA0085100918
B1159094241301N00320047WA0085200919
B1159104241297N00320046WA0085300920
B1159114241294N00320044WA0085300920
B1159124241291N00320043WA0085200919
B1159134241287N00320041WA0085100918
B1159144241283N00320038WA0085000917
B1159154241278N00320036WA0085000917
B1159164241274N00320033WA0085000917
B1159174241271N00320030WA0085000917
B1159184241268N00320028WA0085000917
B1159194241264N00320025WA0084900916
B1159204241261N00320022WA0084800915
B1159214241257N00320020WA0084700913
B1159224241253N00320019WA0084500912
B1159234241249N00320018WA0084400911
B1159244241245N00320016WA0084300909
B1159254241241N00320015WA0084100908
B1159264241237N00320012WA0084000907
B1159274241233N00320010WA0083900906
B1159284241229N00320009WA0084000906
B1159294241225N00320008WA0084100907
B1159304241221N00320007WA0084100907
B1159314241218N00320007WA0084100907
B1159324241214N00320005WA0084100907
B1159334241211N00320003WA0084100907
B1159344241208N00319999WA0084100907
B1159354241206N00319994WA0084200909
B1159364241204N00319990WA0084500912
B1159374241204N00319986WA0084800914
B1159384241204N00319983WA0084900916
B1159394241206N00319980WA0085000916
B1159404241207N00319976WA0085100917
B1159414241208N00319972WA0085000917
B1159424241208N00319968WA0085100917
B1159434241207N00319965WA0085100918
B1159444241205N00319964WA0085200918
B1159454241202N00319964WA0085100917
B1159464241199N00319966WA0085200918
B1159474241195N00319969WA0085300919
B1159484241193N00319975WA0085300919
B1159494241192N00319981WA0085200918
B1159504241192N00319990WA0085200918
B1159514241192N00319999WA0085400920
B1159524241191N00320008WA0085600922
B1159534241191N00320016WA0085800924
B1159544241191N00320023WA0086000926
B1159554241192N00320030WA0086000926
B1159564241195N00320037WA0086000926
B1159574241199N00320044WA0086100926
B1159584241205N00320049WA0086000926
B1159594241212N00320049WA0086000926
B1200004241218N00320047WA0085900925
B1200014241222N00320041WA0085900925
B1200024241225N00320035WA0085900925
B1200034241226N00320029WA0086100927
B1200044241226N00320025WA0086400929
B1200054241226N00320021WA0086600931
B1200064241227N00320019WA0086700933
B1200074241228N00320017WA0086800933
B1200084241229N00320014WA0086700933
B1200094241229N00320010WA0086600932
B1200104241228N00320005WA0086500930
B1200114241227N00320001WA0086400930
B1200124241226N00319997WA0086600931
B1200134241223N00319994WA0086700933
B1200144241221N00319992WA0086800934
B1200154241219N00319990WA0086900935
B1200164241217N00319988WA0087000935
B1200174241215N00319987WA0087000935
B1200184241212N00319987WA0086900934
B1200194241209N00319989WA0086700933
B1200204241205N00319994WA0086800933
B1200214241202N00320000WA0086800934
B1200224241200N00320007WA0086900935
B1200234241199N00320014WA0087100936
B1200244241198N00320021WA0087200937
B1200254241199N00320029WA0087300938
B1200264241200N00320036WA0087400939
B1200274241203N00320043WA0087400939
B1200284241207N00320049WA0087400939
B1200294241212N00320053WA0087300939
B1200304241219N00320055WA0087200938
B1200314241226N00320054WA0087200938
B1200324241232N00320050WA0087300939
B1200334241237N00320045WA0087400940
B1200344241241N00320039WA0087500941
B1200354241244N00320034WA0087500941
B1200364241245N00320029WA0087700942
B1200374241245N00320024WA0087800943
B1200384241244N00320021WA0087700942
B1200394241241N00320020WA0087500941
B1200404241237N00320019WA0087500940
B1200414241234N00320019WA0087500941
B1200424241230N00320020WA0087600942
B1200434241227N00320021WA0087700942
B1200444241223N00320021WA0087500941
B1200454241220N00320020WA0087400939
B1200464241216N00320017WA0087300939
B1200474241213N00320014WA0087400939
B1200484241209N00320012WA0087500941
B1200494241206N00320012WA0087600941
B1200504241202N00320012WA0087700942
B1200514241198N00320014WA0087700943
B1200524241194N00320018WA0087800943
B1200534241191N00320024WA0088000945
B1200544241190N00320032WA0088200947
B1200554241189N00320039WA0088300949
B1200564241190N00320046WA0088500950
B1200574241193N00320052WA0088400950
B1200584241197N00320057WA0088400950
B1200594241203N00320059WA0088400949
B1201004241208N00320058WA0088300949
B1201014241213N00320055WA0088300948
B1201024241215N00320050WA0088300948
B1201034241217N00320044WA0088400949
B1201044241217N00320038WA0088500951
B1201054241216N00320032WA0088800953
B1201064241215N00320027WA0089000955
B1201074241214N00320023WA0089000955
B1201084241213N00320020WA0089000955
B1201094241210N00320016WA0088900954
B1201104241207N00320014WA0088700952
B1201114241203N00320012WA0088500950
B1201124241199N00320013WA0088400950
B1201134241194N00320015WA0088500950
B1201144241191N00320019WA0088400949
B1201154241188N00320024WA0088300948
B1201164241186N00320029WA0088200947
B1201174241183N00320036WA0088000945
B1201184241181N00320043WA0087800944
B1201194241180N00320051WA0087700942
B1201204241181N00320059WA0087500940
B1201214241183N00320068WA0087200938
B1201224241187N00320076WA0087100936
B1201234241192N00320083WA0087000935
B1201244241198N00320087WA0086900934
B1201254241204N00320088WA0086900935
B1201264241210N00320084WA0087000935
B1201274241215N00320079WA0087200937
B1201284241219N00320074WA0087500940
B1201294241223N00320069WA0087800943
B1201304241225N00320065WA0088100946
B1201314241226N00320061WA0088300948
B1201324241227N00320057WA0088300948
B1201334241227N00320052WA0088300948
B1201344241225N00320048WA0088200947
B1201354241223N00320045WA0088200947
B1201364241219N00320043WA0088100947
B1201374241214N00320044WA0088100946
B1201384241209N00320047WA0087900944
B1201394241205N00320052WA0087900944
B1201404241203N00320059WA0087800943
B1201414241203N00320067WA0087800943
B1201424241205N00320075WA0087700942
B1201434241209N00320081WA0087800943
B1201444241215N00320084WA0087900944
B1201454241220N00320085WA0088000945
B1201464241225N00320083WA0088100946
B1201474241229N00320080WA0088200947
B1201484241232N00320077WA0088200947
B1201494241235N00320073WA0088200947
B1201504241237N00320069WA0088100946
B1201514241238N00320063WA0088000945
B1201524241238N00320055WA0088100946
B1201534241238N00320048WA0088200947
B1201544241236N00320042WA0088400949
B1201554241233N00320039WA0088400949
B1201564241230N00320037WA0088200947
B1201574241227N00320037WA0088000945
B1201584241223N00320037WA0087900944
B1201594241219N00320039WA0087700942
B1202004241215N00320044WA0087500939
B1202014241212N00320050WA0087300938
B1202024241210N00320058WA0087200937
B1202034241210N00320065WA0087100936
B1202044241212N00320073WA0086900934
B1202054241215N00320080WA0086700931
B1202064241220N00320085WA0086500930
B1202074241227N00320088WA0086400928
B1202084241233N00320088WA0086300928
B1202094241239N00320085WA0086400928
B1202104241243N00320082WA0086500929
B1202114241246N00320077WA0086500930
B1202124241249N00320073WA0086500930
B1202134241252N00320068WA0086500930
B1202144241255N00320064WA0086400929
B1202154241256N00320059WA0086200927
B1202164241257N00320054WA0086000925
B1202174241258N00320048WA0085800923
B1202184241257N00320042WA0085700922
B1202194241256N00320037WA0085700921
B1202204241255N00320032WA0085500920
B1202214241253N00320027WA0085400918
B1202224241252N00320023WA0085200916
B1202234241250N00320018WA0085100915
B1202244241248N00320012WA0084900914
B1202254241246N00320007WA0084800912
B1202264241244N00320001WA0084700911
B1202274241242N00319996WA0084500910
B1202284241239N00319992WA0084400908
B1202294241236N00319988WA0084300907
B1202304241232N00319986WA0084100905
B1202314241228N00319983WA0083900904
B1202324241224N00319981WA0083900903
B1202334241220N00319979WA0083800902
B1202344241217N00319976WA0083700901
B1202354241213N00319973WA0083600900
B1202364241209N00319970WA0083400898
B1202374241206N00319968WA0083400898
B1202384241201N00319966WA0083200896
B1202394241197N00319964WA0083100895
B1202404241192N00319964WA0082900893
B1202414241188N00319964WA0082800892
B1202424241182N00319966WA0082600890
B1202434241178N00319969WA0082600890
B1202444241173N00319971WA0082400888
B1202454241168N00319973WA0082400888
B1202464241163N00319975WA0082300887
B1202474241159N00319978WA0082100885
B1202484241155N00319980WA0082000884
B1202494241150N00319981WA0081900883
B1202504241146N00319982WA0081700881
B1202514241141N00319985WA0081500879
B1202524241137N00319988WA0081400877
B1202534241132N00319990WA0081200876
B1202544241127N00319991WA0081000874
B1202554241123N00319988WA0080800872
B1202564241119N00319985WA0080600870
B1202574241116N00319979WA0080500869
B1202584241113N00319974WA0080400868
B1202594241112N00319968WA0080300867
B1203004241112N00319962WA0080200865
B1203014241114N00319955WA0080100864
B1203024241116N00319949WA0079900863
B1203034241118N00319944WA0079800862
B1203044241120N00319940WA0079700861
B1203054241123N00319936WA0079600859
B1203064241125N00319931WA0079400858
B1203074241128N00319926WA0079200856
B1203084241131N00319920WA0079100854
B1203094241134N00319915WA0078900852
B1203104241137N00319909WA0078700850
B1203114241139N00319904WA0078600849
B1203124241140N00319898WA0078500848
B1203134241142N00319892WA0078300847
B1203144241145N00319887WA0078200845
B1203154241147N00319881WA0078200845
B1203164241150N00319875WA0078100844
B1203174241152N00319869WA0077900842
B1203184241154N00319863WA0077800841
B1203194241155N00319857WA0077600839
B1203204241158N00319852WA0077500838
B1203214241159N00319847WA0077300836
B1203224241160N00319841WA0077000833
B1203234241161N00319835WA0076800830
B1203244241162N00319829WA0076500828
B1203254241163N00319823WA0076400827
B1203264241163N00319818WA0076300825
B1203274241165N00319812WA0076200824
B1203284241166N00319807WA0076100823
B1203294241167N00319801WA0076000822
B1203304241168N00319797WA0075900821
B1203314241169N00319792WA0075600819
B1203324241169N00319787WA0075400817
B1203334241169N00319781WA0075200815
B1203344241169N00319775WA0075100813
B1203354241169N00319770WA0074900812
B1203364241169N00319764WA0074800810
B1203374241169N00319759WA0074600809
B1203384241169N00319753WA0074500808
B1203394241168N00319747WA0074400807
B1203404241167N00319741WA0074300805
B1203414241166N00319735WA0074200805
B1203424241166N00319730WA0074200804
B1203434241164N00319725WA0074000803
B1203444241162N00319720WA0073800801
B1203454241160N00319716WA0073700799
B1203464241156N00319712WA0073600798
B1203474241152N00319710WA0073500797
B1203484241147N00319710WA0073400796
B1203494241143N00319712WA0073300795
B1203504241140N00319716WA0073300795
B1203514241138N00319722WA0073200794
B1203524241137N00319728WA0073300795
B1203534241136N00319734WA0073300795
B1203544241135N00319739WA0073400796
B1203554241133N00319743WA0073400796
B1203564241129N00319746WA0073300795
B1203574241126N00319751WA0073300795
B1203584241123N00319756WA0073300795
B1203594241120N00319761WA0073300795
B1204004241118N00319763WA0073200794
B1204014241114N00319764WA0073000791
B1204024241109N00319761WA0072700788
B1204034241106N00319757WA0072400786
B1204044241103N00319752WA0072200784
B1204054241102N00319746WA0072000781
B1204064241101N00319739WA0071800779
B1204074241100N00319733WA0071600777
B1204084241097N00319728WA0071400776
B1204094241094N00319723WA0071200773
B1204104241091N00319720WA0071000772
B1204114241087N00319717WA0070800770
B1204124241084N00319713WA0070600767
B1204134241080N00319709WA0070300765
B1204144241076N00319704WA0070100763
B1204154241071N00319701WA0070200763
B1204164241068N00319698WA0070200764
B1204174241064N00319695WA0070200764
B1204184241062N00319691WA0070200764
B1204194241061N00319689WA0070300764
B1204204241060N00319688WA0070300765
B1204214241060N00319688WA0070300765
B1204224241060N00319689WA0070300764
B1204234241060N00319689WA0070300764
B1204244241060N00319689WA0070300764
B1204254241060N00319689WA0070300764
B1204264241060N00319689WA0070300764
B1204274241060N00319689WA0070300764
B1204284241060N00319689WA0070300764
B1204294241060N00319689WA0070300764
B1204304241060N00319689WA0070300764
B1204314241060N00319689WA0070300764
B1204324241060N00319689WA0070300764
B1204334241060N00319689WA0070300764
B1204344241060N00319689WA0070300764
B1204354241059N00319689WA0070300764
B1204364241059N00319689WA0070300764
B1204374241059N00319689WA0070300764
B1204384241059N00319689WA0070300764
B1204394241059N00319689WA0070300764
B1204404241059N00319689WA0070300764
B1204414241059N00319689WA0070300764
B1204424241059N00319689WA0070300764
B1204434241059N00319689WA0070300764
B1204444241059N00319689WA0070300764
B1204454241059N00319689WA0070300764
B1204464241059N00319689WA0070300764
B1204474241059N00319689WA0070300764
B1204484241059N00319689WA0070300764
B1204494241059N00319689WA0070300764
B1204504241059N00319689WA0070300764
B1204514241058N00319688WA0070300764
B1204524241058N00319688WA0070300763
B1204534241058N00319688WA0070300764
B1204544241058N00319688WA0070300764
B1204554241058N00319688WA0070300763
B1204564241058N00319688WA0070300763
B1204574241058N00319688WA0070300763
B1204584241058N00319688WA0070300763
B1204594241058N00319688WA0070300763
B1205004241058N00319688WA0070300763
B1205014241058N00319688WA0070300763
B1205024241058N00319688WA0070300763
B1205034241058N00319688WA0070300763
B1205044241058N00319689WA0070300763
B1205054241058N00319689WA0070300763
LXSX;C1;GM:1.2
G088B531B6DDFC6F64854C7C9E2F743C2
