AXSX005 SKYTRAXX
HFPLTPILOT:Sepp Bucher
HFGTYGLIDERTYPE:Niviuk Artik R
HFDTM100GPSDATUM:WGS-84
HFRFWFIRMWAREVERSION:202303142340
HFRHWHARDWAREVERSION:4.0
HFTZNTIMEZONE:+2.00
HFSITSITE:Fiesch Kühboden 1 (
HFDTE290623
LXSX;I1;OAB:20230626;OOB:20230103
LXSX;I1;ID:114075
LXSX;I1;AC:1;CAT:C
B0808524624853N00806472EA0204902158
B0808534624853N00806472EA0204902158
B0808544624853N00806472EA0204902158
B0808554624853N00806472EA0204902158
B0808564624853N00806472EA0204902158
B0808574624853N00806472EA0204902158
B0808584624853N00806472EA0204902158
B0808594624853N00806472EA0204902158
B0809004624853N00806472EA0205002158
B0809014624853N00806472EA0205002159
B0809024624852N00806473EA0204902158
B0809034624852N00806474EA0204802156
B0809044624852N00806474EA0204802156
B0809054624852N00806475EA0204702156
B0809064624851N00806476EA0204602155
B0809074624850N00806477EA0204602154
B0809084624849N00806479EA0204502153
B0809094624847N00806481EA0204302152
B0809104624845N00806484EA0204202150
B0809114624843N00806487EA0203902148
B0809124624840N00806490EA0203902148
B0809134624836N00806494EA0203702146
B0809144624832N00806500EA0203702145
B0809154624829N00806507EA0203802147
B0809164624827N00806513EA0204002148
B0809174624825N00806518EA0204202150
B0809184624824N00806523EA0204402152
B0809194624823N00806528EA0204402153
B0809204624823N00806534EA0204302152
B0809214624823N00806541EA0204202150
B0809224624825N00806548EA0204102150
B0809234624827N00806556EA0204302151
B0809244624830N00806562EA0204402153
B0809254624833N00806567EA0204602155
B0809264624837N00806572EA0204802157
B0809274624842N00806577EA0204902158
B0809284624847N00806582EA0205002158
B0809294624852N00806587EA0205102160
B0809304624856N00806592EA0205302162
B0809314624859N00806597EA0205402162
B0809324624861N00806603EA0205402163
B0809334624861N00806608EA0205302162
B0809344624860N00806613EA0205202161
B0809354624859N00806616EA0205102159
B0809364624855N00806618EA0204902158
B0809374624851N00806617EA0204802157
B0809384624847N00806613EA0204702156
B0809394624845N00806605EA0204602154
B0809404624845N00806595EA0204502153
B0809414624845N00806586EA0204502153
B0809424624845N00806578EA0204502154
B0809434624844N00806571EA0204502153
B0809444624841N00806565EA0204302152
B0809454624839N00806559EA0204202151
B0809464624836N00806554EA0204202151
B0809474624833N00806550EA0204202151
B0809484624830N00806546EA0204102150
B0809494624827N00806543EA0204102150
B0809504624824N00806539EA0204002149
B0809514624819N00806534EA0203902147
B0809524624815N00806531EA0203902148
B0809534624810N00806527EA0204002149
B0809544624806N00806524EA0204102149
B0809554624803N00806523EA0204002149
B0809564624800N00806522EA0204002148
B0809574624796N00806521EA0203802147
B0809584624792N00806521EA0203702145
B0809594624788N00806522EA0203502144
B0810004624784N00806525EA0203402143
B0810014624782N00806529EA0203302142
B0810024624779N00806532EA0203202140
B0810034624777N00806535EA0203002139
B0810044624775N00806540EA0202802137
B0810054624774N00806545EA0202602134
B0810064624772N00806552EA0202302132
B0810074624771N00806559EA0202102129
B0810084624769N00806566EA0202002129
B0810094624768N00806572EA0202002128
B0810104624766N00806578EA0202002128
B0810114624764N00806583EA0202002128
B0810124624763N00806589EA0201902128
B0810134624762N00806595EA0201802127
B0810144624762N00806601EA0201802127
B0810154624761N00806607EA0201702126
B0810164624760N00806613EA0201702126
B0810174624760N00806618EA0201502124
B0810184624760N00806623EA0201302122
B0810194624760N00806628EA0201102119
B0810204624761N00806635EA0200702116
B0810214624761N00806642EA0200502113
B0810224624760N00806649EA0200202111
B0810234624760N00806657EA0200102110
B0810244624760N00806665EA0200102109
B0810254624760N00806672EA0200002109
B0810264624761N00806679EA0200002109
B0810274624762N00806686EA0199902108
B0810284624762N00806694EA0199902107
B0810294624762N00806702EA0199902108
B0810304624764N00806710EA0200102110
B0810314624766N00806717EA0200302112
B0810324624769N00806723EA0200602114
B0810334624771N00806728EA0200702116
B0810344624774N00806734EA0200802117
B0810354624777N00806739EA0200802117
B0810364624781N00806745EA0200902118
B0810374624785N00806750EA0201102119
B0810384624788N00806756EA0201202121
B0810394624791N00806761EA0201502124
B0810404624792N00806766EA0201802127
B0810414624792N00806770EA0201902128
B0810424624791N00806774EA0201902128
B0810434624788N00806776EA0202002128
B0810444624783N00806774EA0202102129
B0810454624780N00806769EA0202102129
B0810464624778N00806761EA0202102129
B0810474624778N00806752EA0202102130
B0810484624781N00806743EA0202202130
B0810494624785N00806736EA0202202131
B0810504624790N00806730EA0202202131
B0810514624798N00806728EA0202202130
B0810524624805N00806728EA0202102130
B0810534624812N00806732EA0202202131
B0810544624817N00806737EA0202402133
B0810554624821N00806743EA0202602135
B0810564624824N00806750EA0203002139
B0810574624826N00806756EA0203502143
B0810584624827N00806760EA0203702146
B0810594624827N00806764EA0203902148
B0811004624826N00806769EA0204102149
B0811014624825N00806775EA0204302151
B0811024624824N00806780EA0204502153
B0811034624821N00806784EA0204702155
B0811044624817N00806785EA0204902158
B0811054624813N00806782EA0205102160
B0811064624810N00806776EA0205302161
B0811074624810N00806767EA0205402162
B0811084624812N00806758EA0205502163
B0811094624816N00806750EA0205702166
B0811104624821N00806744EA0206202170
B0811114624828N00806741EA0206302172
B0811124624834N00806743EA0206502173
B0811134624839N00806747EA0206602175
B0811144624843N00806752EA0206902178
B0811154624846N00806757EA0207102180
B0811164624847N00806763EA0207302182
B0811174624849N00806769EA0207402183
B0811184624849N00806775EA0207502183
B0811194624847N00806782EA0207502184
B0811204624844N00806788EA0207502184
B0811214624839N00806792EA0207702186
B0811224624834N00806794EA0208102190
B0811234624829N00806792EA0208502194
B0811244624825N00806789EA0208802197
B0811254624822N00806784EA0209202201
B0811264624820N00806780EA0209502205
B0811274624818N00806774EA0209802207
B0811284624817N00806767EA0210102210
B0811294624817N00806759EA0210502214
B0811304624820N00806750EA0210902218
B0811314624825N00806743EA0211202221
B0811324624832N00806740EA0211402223
B0811334624839N00806742EA0211402223
B0811344624845N00806749EA0211402224
B0811354624849N00806758EA0211502224
B0811364624850N00806768EA0211802228
B0811374624849N00806776EA0212202232
B0811384624845N00806781EA0212502235
B0811394624841N00806784EA0212902238
B0811404624837N00806785EA0213202242
B0811414624832N00806785EA0213702247
B0811424624829N00806782EA0214002250
B0811434624827N00806777EA0214202252
B0811444624826N00806770EA0214402254
B0811454624827N00806762EA0214602255
B0811464624831N00806754EA0214802257
B0811474624838N00806749EA0215002260
B0811484624845N00806748EA0215402264
B0811494624851N00806751EA0215802268
B0811504624856N00806756EA0216202272
B0811514624859N00806764EA0216602275
B0811524624860N00806772EA0216702277
B0811534624860N00806780EA0216902279
B0811544624858N00806787EA0217202282
B0811554624856N00806792EA0217602286
B0811564624853N00806795EA0217802288
B0811574624848N00806795EA0217902288
B0811584624842N00806792EA0217902289
B0811594624837N00806785EA0218102291
B0812004624834N00806776EA0218402294
B0812014624834N00806766EA0218702296
B0812024624837N00806757EA0218902299
B0812034624843N00806751EA0219102301
B0812044624849N00806747EA0219302303
B0812054624856N00806746EA0219502305
B0812064624862N00806748EA0219802308
B0812074624867N00806754EA0220002310
B0812084624870N00806761EA0220302313
B0812094624872N00806770EA0220502315
B0812104624871N00806778EA0220702317
B0812114624868N00806784EA0221002320
B0812124624863N00806787EA0221202323
B0812134624857N00806786EA0221402325
B0812144624852N00806782EA0221802328
B0812154624848N00806777EA0222202332
B0812164624846N00806769EA0222502336
B0812174624846N00806761EA0222802338
B0812184624848N00806753EA0222902340
B0812194624852N00806745EA0223202342
B0812204624858N00806739EA0223402344
B0812214624864N00806736EA0223502346
B0812224624871N00806735EA0223602347
B0812234624879N00806738EA0223902349
B0812244624886N00806743EA0224202352
B0812254624891N00806750EA0224602356
B0812264624893N00806758EA0224902359
B0812274624892N00806766EA0225102362
B0812284624889N00806772EA0225302364
B0812294624884N00806776EA0225502366
B0812304624879N00806776EA0225802369
B0812314624874N00806773EA0226202373
B0812324624871N00806768EA0226502376
B0812334624870N00806760EA0226802379
B0812344624871N00806751EA0227202382
B0812354624876N00806744EA0227402385
B0812364624882N00806740EA0227502386
B0812374624889N00806740EA0227702388
B0812384624896N00806744EA0227902390
B0812394624902N00806750EA0228302394
B0812404624905N00806758EA0228802399
B0812414624906N00806765EA0229102402
B0812424624904N00806772EA0229402405
B0812434624902N00806778EA0229702408
B0812444624898N00806784EA0230002411
B0812454624893N00806788EA0230302414
B0812464624888N00806789EA0230602417
B0812474624883N00806787EA0230802419
B0812484624879N00806781EA0231002421
B0812494624877N00806774EA0231302424
B0812504624879N00806766EA0231402426
B0812514624882N00806759EA0231602427
B0812524624887N00806754EA0231802429
B0812534624894N00806752EA0232102432
B0812544624900N00806754EA0232402436
B0812554624905N00806760EA0232602438
B0812564624908N00806768EA0232802439
B0812574624908N00806777EA0233002442
B0812584624906N00806786EA0233402446
B0812594624903N00806792EA0233802450
B0813004624899N00806796EA0234002452
B0813014624894N00806796EA0234202453
B0813024624889N00806794EA0234302455
B0813034624885N00806789EA0234502457
B0813044624883N00806783EA0234702459
B0813054624884N00806775EA0234802459
B0813064624887N00806768EA0234802459
B0813074624891N00806762EA0234802460
B0813084624898N00806759EA0235002462
B0813094624904N00806760EA0235202464
B0813104624910N00806764EA0235502466
B0813114624914N00806772EA0235702468
B0813124624917N00806780EA0236102473
B0813134624918N00806789EA0236502477
B0813144624918N00806797EA0236802480
B0813154624915N00806804EA0237002482
B0813164624912N00806811EA0237302485
B0813174624908N00806815EA0237502487
B0813184624903N00806817EA0237602488
B0813194624898N00806816EA0237802490
B0813204624893N00806813EA0238002492
B0813214624890N00806807EA0238202494
B0813224624889N00806800EA0238402496
B0813234624891N00806793EA0238502498
B0813244624895N00806788EA0238702499
B0813254624900N00806785EA0238802500
B0813264624906N00806785EA0239002502
B0813274624912N00806788EA0239202504
B0813284624918N00806792EA0239402507
B0813294624921N00806798EA0239802511
B0813304624924N00806804EA0240202514
B0813314624925N00806811EA0240502518
B0813324624926N00806817EA0240802521
B0813334624926N00806823EA0241102523
B0813344624925N00806830EA0241302525
B0813354624922N00806835EA0241402526
B0813364624918N00806838EA0241502527
B0813374624912N00806837EA0241602528
B0813384624908N00806834EA0241702530
B0813394624904N00806828EA0241902532
B0813404624903N00806821EA0242002533
B0813414624903N00806813EA0242202534
B0813424624907N00806807EA0242302536
B0813434624912N00806802EA0242502538
B0813444624917N00806799EA0242702540
B0813454624924N00806798EA0242802541
B0813464624930N00806799EA0243102543
B0813474624936N00806803EA0243402547
B0813484624940N00806806EA0243702550
B0813494624944N00806809EA0243802551
B0813504624949N00806812EA0244002553
B0813514624953N00806815EA0244002553
B0813524624958N00806819EA0244102554
B0813534624963N00806824EA0244202555
B0813544624967N00806829EA0244402557
B0813554624972N00806832EA0244502558
B0813564624977N00806834EA0244602559
B0813574624981N00806838EA0244502558
B0813584624986N00806842EA0244502558
B0813594624990N00806846EA0244502558
B0814004624995N00806851EA0244402558
B0814014625000N00806855EA0244302557
B0814024625004N00806859EA0244302557
B0814034625009N00806863EA0244302556
B0814044625013N00806866EA0244302556
B0814054625018N00806869EA0244102555
B0814064625023N00806873EA0244002553
B0814074625028N00806878EA0243802552
B0814084625034N00806883EA0243702550
B0814094625039N00806889EA0243502549
B0814104625044N00806894EA0243502549
B0814114625048N00806898EA0243402548
B0814124625052N00806903EA0243302547
B0814134625056N00806907EA0243102545
B0814144625061N00806912EA0242902543
B0814154625066N00806916EA0242702541
B0814164625072N00806920EA0242602539
B0814174625077N00806924EA0242502539
B0814184625082N00806929EA0242502539
B0814194625086N00806933EA0242402538
B0814204625090N00806937EA0242302537
B0814214625095N00806940EA0242102535
B0814224625100N00806944EA0241802532
B0814234625105N00806948EA0241602530
B0814244625110N00806953EA0241402528
B0814254625116N00806958EA0241302527
B0814264625120N00806962EA0241202526
B0814274625125N00806967EA0241102525
B0814284625129N00806971EA0240802522
B0814294625134N00806976EA0240602520
B0814304625139N00806981EA0240502519
B0814314625145N00806986EA0240402518
B0814324625150N00806992EA0240302517
B0814334625155N00806996EA0240302518
B0814344625159N00807001EA0240302517
B0814354625164N00807005EA0240202516
B0814364625168N00807010EA0240102515
B0814374625173N00807015EA0239902514
B0814384625178N00807020EA0239902513
B0814394625183N00807024EA0239802512
B0814404625188N00807029EA0239702512
B0814414625193N00807033EA0239602510
B0814424625197N00807038EA0239402508
B0814434625202N00807043EA0239102505
B0814444625207N00807047EA0238902503
B0814454625212N00807052EA0238702502
B0814464625218N00807057EA0238602501
B0814474625222N00807062EA0238502500
B0814484625227N00807067EA0238402499
B0814494625231N00807072EA0238302498
B0814504625236N00807077EA0238202497
B0814514625241N00807082EA0238102496
B0814524625245N00807087EA0238002495
B0814534625250N00807092EA0237902494
B0814544625255N00807097EA0237802493
B0814554625260N00807102EA0237702492
B0814564625264N00807107EA0237602491
B0814574625269N00807113EA0237502490
B0814584625273N00807118EA0237402488
B0814594625278N00807124EA0237302487
B0815004625283N00807129EA0237202487
B0815014625287N00807134EA0237102486
B0815024625292N00807140EA0237002485
B0815034625296N00807146EA0236902484
B0815044625301N00807152EA0236902484
B0815054625306N00807158EA0236802483
B0815064625311N00807165EA0236802483
B0815074625315N00807171EA0236802483
B0815084625319N00807177EA0236702482
B0815094625324N00807183EA0236502480
B0815104625329N00807190EA0236402479
B0815114625333N00807196EA0236302478
B0815124625339N00807202EA0236202477
B0815134625344N00807208EA0236102476
B0815144625348N00807215EA0236002475
B0815154625352N00807222EA0235802474
B0815164625357N00807229EA0235602471
B0815174625361N00807236EA0235402470
B0815184625367N00807243EA0235302468
B0815194625371N00807250EA0235302468
B0815204625376N00807256EA0235102466
B0815214625380N00807263EA0235002465
B0815224625384N00807269EA0234702462
B0815234625389N00807277EA0234402460
B0815244625394N00807284EA0234302458
B0815254625400N00807291EA0234202457
B0815264625406N00807297EA0234202457
B0815274625411N00807304EA0234202457
B0815284625417N00807310EA0234202457
B0815294625422N00807316EA0234102456
B0815304625428N00807321EA0234002455
B0815314625434N00807326EA0233802453
B0815324625440N00807332EA0233702452
B0815334625445N00807338EA0233602451
B0815344625452N00807345EA0233502451
B0815354625458N00807351EA0233502450
B0815364625463N00807357EA0233402449
B0815374625468N00807363EA0233402449
B0815384625473N00807370EA0233302449
B0815394625479N00807376EA0233302448
B0815404625484N00807383EA0233302448
B0815414625490N00807389EA0233302448
B0815424625495N00807395EA0233302449
B0815434625501N00807401EA0233402450
B0815444625506N00807406EA0233502450
B0815454625511N00807411EA0233602451
B0815464625516N00807416EA0233502451
B0815474625521N00807421EA0233502451
B0815484625526N00807427EA0233502450
B0815494625531N00807432EA0233502450
B0815504625536N00807437EA0233502450
B0815514625542N00807443EA0233502450
B0815524625546N00807449EA0233502450
B0815534625551N00807455EA0233502451
B0815544625556N00807461EA0233502450
B0815554625560N00807467EA0233402450
B0815564625565N00807473EA0233402450
B0815574625569N00807480EA0233402449
B0815584625574N00807487EA0233302449
B0815594625578N00807493EA0233302449
B0816004625581N00807500EA0233302449
B0816014625585N00807507EA0233302449
B0816024625589N00807514EA0233202448
B0816034625592N00807520EA0233102447
B0816044625597N00807527EA0233002445
B0816054625600N00807535EA0232902444
B0816064625604N00807543EA0232702443
B0816074625606N00807551EA0232602441
B0816084625610N00807559EA0232402440
B0816094625613N00807567EA0232302438
B0816104625616N00807575EA0232102437
B0816114625619N00807583EA0232102436
B0816124625622N00807591EA0232102436
B0816134625624N00807598EA0232002436
B0816144625627N00807605EA0231802433
B0816154625630N00807611EA0231402430
B0816164625633N00807619EA0231102426
B0816174625636N00807627EA0230802423
B0816184625639N00807636EA0230602422
B0816194625642N00807645EA0230502421
B0816204625645N00807652EA0230502420
B0816214625648N00807659EA0230302419
B0816224625650N00807666EA0230102416
B0816234625653N00807674EA0229702413
B0816244625655N00807683EA0229502410
B0816254625658N00807691EA0229302408
B0816264625661N00807700EA0229202407
B0816274625663N00807708EA0229102406
B0816284625666N00807715EA0229002405
B0816294625668N00807723EA0228802403
B0816304625671N00807730EA0228602401
B0816314625673N00807739EA0228402399
B0816324625675N00807748EA0228202397
B0816334625678N00807756EA0228102396
B0816344625679N00807765EA0227902395
B0816354625681N00807773EA0227802394
B0816364625682N00807781EA0227702392
B0816374625684N00807789EA0227502390
B0816384625685N00807797EA0227302388
B0816394625687N00807805EA0227102386
B0816404625689N00807814EA0226902385
B0816414625691N00807822EA0226802383
B0816424625693N00807830EA0226702383
B0816434625695N00807838EA0226602381
B0816444625698N00807845EA0226402379
B0816454625701N00807853EA0226202378
B0816464625703N00807861EA0226102376
B0816474625706N00807869EA0225902374
B0816484625709N00807877EA0225702372
B0816494625712N00807884EA0225502371
B0816504625715N00807892EA0225402369
B0816514625718N00807899EA0225202367
B0816524625721N00807907EA0225002365
B0816534625723N00807915EA0224802363
B0816544625726N00807924EA0224602361
B0816554625728N00807932EA0224502360
B0816564625731N00807940EA0224302359
B0816574625734N00807948EA0224202357
B0816584625736N00807956EA0224102356
B0816594625738N00807964EA0223902354
B0817004625740N00807972EA0223702352
B0817014625742N00807980EA0223502350
B0817024625745N00807988EA0223302348
B0817034625748N00807997EA0223102347
B0817044625750N00808005EA0223002345
B0817054625752N00808013EA0222802344
B0817064625755N00808021EA0222602342
B0817074625757N00808029EA0222402340
B0817084625760N00808037EA0222202338
B0817094625763N00808045EA0222102336
B0817104625765N00808053EA0221902335
B0817114625768N00808061EA0221802333
B0817124625770N00808069EA0221702332
B0817134625772N00808077EA0221502330
B0817144625775N00808085EA0221302328
B0817154625777N00808093EA0221102326
B0817164625780N00808101EA0220902324
B0817174625782N00808110EA0220602322
B0817184625784N00808118EA0220502320
B0817194625787N00808126EA0220302318
B0817204625789N00808135EA0220102316
B0817214625791N00808143EA0220002315
B0817224625793N00808151EA0219802313
B0817234625795N00808160EA0219602311
B0817244625797N00808168EA0219402309
B0817254625799N00808177EA0219202307
B0817264625802N00808185EA0219002305
B0817274625804N00808194EA0218902303
B0817284625806N00808203EA0218702302
B0817294625809N00808212EA0218602301
B0817304625811N00808220EA0218502299
B0817314625814N00808228EA0218302298
B0817324625816N00808237EA0218202297
B0817334625819N00808245EA0218002294
B0817344625822N00808254EA0217702291
B0817354625825N00808264EA0217402289
B0817364625829N00808275EA0217202286
B0817374625831N00808286EA0217002285
B0817384625834N00808296EA0216902284
B0817394625836N00808306EA0216802283
B0817404625840N00808315EA0216702282
B0817414625842N00808325EA0216502280
B0817424625846N00808335EA0216302277
B0817434625848N00808345EA0216102275
B0817444625852N00808355EA0215902274
B0817454625855N00808365EA0215802272
B0817464625858N00808375EA0215602271
B0817474625861N00808385EA0215502270
B0817484625863N00808394EA0215402268
B0817494625866N00808403EA0215202267
B0817504625869N00808413EA0215002265
B0817514625872N00808422EA0214802263
B0817524625875N00808432EA0214702261
B0817534625878N00808442EA0214502259
B0817544625881N00808452EA0214402258
B0817554625884N00808462EA0214302257
B0817564625886N00808472EA0214102256
B0817574625889N00808481EA0214002254
B0817584625892N00808490EA0213902253
B0817594625896N00808500EA0213702251
B0818004625900N00808509EA0213502249
B0818014625904N00808519EA0213402248
B0818024625908N00808529EA0213402248
B0818034625911N00808538EA0213302247
B0818044625914N00808547EA0213202246
B0818054625916N00808557EA0213002244
B0818064625919N00808567EA0212802242
B0818074625922N00808577EA0212602240
B0818084625926N00808587EA0212502239
B0818094625929N00808598EA0212302237
B0818104625932N00808608EA0212202236
B0818114625935N00808618EA0212102235
B0818124625939N00808627EA0212002234
B0818134625942N00808636EA0211802232
B0818144625945N00808646EA0211602230
B0818154625949N00808656EA0211402228
B0818164625952N00808667EA0211202226
B0818174625955N00808677EA0211002225
B0818184625958N00808688EA0210902224
B0818194625961N00808697EA0210802222
B0818204625964N00808707EA0210602221
B0818214625967N00808717EA0210402219
B0818224625970N00808727EA0210202217
B0818234625973N00808737EA0210002215
B0818244625975N00808747EA0209802212
B0818254625979N00808757EA0209602210
B0818264625982N00808767EA0209402208
B0818274625984N00808778EA0209202206
B0818284625986N00808788EA0209002204
B0818294625988N00808798EA0208802202
B0818304625990N00808808EA0208502200
B0818314625993N00808819EA0208302198
B0818324625995N00808829EA0208102196
B0818334625998N00808839EA0207902193
B0818344626000N00808850EA0207702191
B0818354626002N00808860EA0207502190
B0818364626004N00808870EA0207302187
B0818374626006N00808880EA0207102185
B0818384626009N00808891EA0206902183
B0818394626012N00808901EA0206702181
B0818404626014N00808912EA0206502179
B0818414626016N00808922EA0206402178
B0818424626019N00808933EA0206202176
B0818434626021N00808943EA0206102175
B0818444626023N00808953EA0205902173
B0818454626025N00808964EA0205702171
B0818464626028N00808974EA0205602170
B0818474626030N00808984EA0205402168
B0818484626033N00808995EA0205302167
B0818494626035N00809005EA0205102165
B0818504626037N00809015EA0204902163
B0818514626040N00809025EA0204702162
B0818524626041N00809035EA0204602160
B0818534626044N00809046EA0204402158
B0818544626046N00809057EA0204302157
B0818554626048N00809067EA0204202156
B0818564626050N00809077EA0204002154
B0818574626052N00809088EA0203902153
B0818584626054N00809098EA0203802152
B0818594626056N00809109EA0203702151
B0819004626058N00809119EA0203602150
B0819014626060N00809129EA0203502150
B0819024626062N00809139EA0203402148
B0819034626064N00809149EA0203302147
B0819044626065N00809159EA0203202146
B0819054626067N00809169EA0203102145
B0819064626068N00809180EA0203002144
B0819074626070N00809189EA0202902143
B0819084626071N00809200EA0202802142
B0819094626072N00809210EA0202702141
B0819104626073N00809220EA0202602140
B0819114626074N00809230EA0202502139
B0819124626075N00809241EA0202402138
B0819134626076N00809251EA0202302137
B0819144626077N00809261EA0202202136
B0819154626078N00809271EA0202102135
B0819164626079N00809281EA0201902133
B0819174626080N00809291EA0201802132
B0819184626082N00809301EA0201602130
B0819194626083N00809312EA0201502129
B0819204626084N00809322EA0201402128
B0819214626085N00809332EA0201302127
B0819224626086N00809343EA0201202126
B0819234626087N00809353EA0201102125
B0819244626088N00809363EA0201002124
B0819254626089N00809373EA0200802123
B0819264626090N00809383EA0200702121
B0819274626090N00809393EA0200602120
B0819284626091N00809403EA0200402118
B0819294626091N00809413EA0200302117
B0819304626092N00809423EA0200102115
B0819314626092N00809432EA0200002114
B0819324626093N00809442EA0199902113
B0819334626094N00809452EA0199702111
B0819344626095N00809461EA0199602110
B0819354626096N00809471EA0199502109
B0819364626096N00809480EA0199402108
B0819374626097N00809489EA0199202106
B0819384626099N00809499EA0199002104
B0819394626101N00809508EA0198802103
B0819404626102N00809518EA0198702101
B0819414626103N00809528EA0198502100
B0819424626103N00809537EA0198402098
B0819434626104N00809546EA0198202096
B0819444626106N00809555EA0198002094
B0819454626108N00809564EA0197802093
B0819464626109N00809573EA0197702091
B0819474626111N00809582EA0197502089
B0819484626112N00809591EA0197302088
B0819494626113N00809599EA0197302087
B0819504626113N00809606EA0197202086
B0819514626114N00809613EA0197002084
B0819524626114N00809621EA0196802082
B0819534626114N00809629EA0196502079
B0819544626115N00809638EA0196202076
B0819554626115N00809647EA0196002074
B0819564626115N00809655EA0195902073
B0819574626115N00809663EA0195802072
B0819584626115N00809671EA0195602070
B0819594626116N00809679EA0195402068
B0820004626116N00809688EA0195202065
B0820014626116N00809697EA0194902063
B0820024626116N00809706EA0194802061
B0820034626116N00809716EA0194602060
B0820044626117N00809724EA0194502059
B0820054626118N00809733EA0194502058
B0820064626119N00809741EA0194402058
B0820074626120N00809750EA0194302057
B0820084626122N00809760EA0194202056
B0820094626124N00809769EA0194202055
B0820104626126N00809778EA0194102055
B0820114626128N00809786EA0194102055
B0820124626129N00809795EA0194102055
B0820134626130N00809802EA0194202055
B0820144626131N00809810EA0194202056
B0820154626132N00809817EA0194302056
B0820164626134N00809825EA0194302056
B0820174626137N00809833EA0194302057
B0820184626140N00809840EA0194502058
B0820194626143N00809847EA0194602060
B0820204626147N00809853EA0194702061
B0820214626150N00809859EA0194802061
B0820224626153N00809865EA0194802061
B0820234626156N00809872EA0194802061
B0820244626159N00809880EA0194902062
B0820254626162N00809888EA0195002064
B0820264626165N00809895EA0195202065
B0820274626167N00809902EA0195402067
B0820284626170N00809909EA0195502068
B0820294626173N00809916EA0195602069
B0820304626176N00809922EA0195702070
B0820314626179N00809929EA0195802071
B0820324626181N00809935EA0195902072
B0820334626182N00809942EA0196002073
B0820344626182N00809949EA0196002073
B0820354626183N00809955EA0196002073
B0820364626184N00809963EA0196002073
B0820374626187N00809970EA0196102073
B0820384626191N00809976EA0196102074
B0820394626195N00809982EA0196102074
B0820404626198N00809989EA0196202074
B0820414626200N00809995EA0196102074
B0820424626202N00810002EA0196002073
B0820434626204N00810010EA0195902071
B0820444626207N00810018EA0195902072
B0820454626208N00810025EA0196002073
B0820464626209N00810031EA0196002072
B0820474626210N00810037EA0195902072
B0820484626211N00810041EA0195802070
B0820494626213N00810047EA0195602068
B0820504626215N00810054EA0195402067
B0820514626216N00810061EA0195202065
B0820524626217N00810069EA0195102063
B0820534626218N00810076EA0195002063
B0820544626220N00810083EA0195102063
B0820554626221N00810090EA0195002063
B0820564626223N00810096EA0195002062
B0820574626224N00810103EA0195002063
B0820584626226N00810110EA0195102063
B0820594626228N00810118EA0195302065
B0821004626230N00810126EA0195602068
B0821014626234N00810132EA0196002072
B0821024626237N00810136EA0196402076
B0821034626240N00810140EA0196702080
B0821044626244N00810144EA0197102083
B0821054626247N00810147EA0197302085
B0821064626250N00810152EA0197402086
B0821074626252N00810156EA0197602088
B0821084626255N00810160EA0197702089
B0821094626256N00810165EA0197902091
B0821104626255N00810171EA0198002092
B0821114626253N00810177EA0197902091
B0821124626249N00810181EA0197802090
B0821134626245N00810183EA0197802089
B0821144626239N00810181EA0197702089
B0821154626235N00810177EA0197802089
B0821164626232N00810170EA0197802090
B0821174626229N00810163EA0197902090
B0821184626228N00810155EA0197902090
B0821194626229N00810146EA0197802090
B0821204626232N00810138EA0197802089
B0821214626236N00810131EA0197902090
B0821224626241N00810125EA0198102093
B0821234626247N00810122EA0198302094
B0821244626253N00810120EA0198502097
B0821254626258N00810118EA0198802100
B0821264626263N00810116EA0199102102
B0821274626268N00810114EA0199402105
B0821284626273N00810115EA0199602108
B0821294626278N00810119EA0199802110
B0821304626280N00810126EA0200002111
B0821314626280N00810134EA0200102112
B0821324626278N00810140EA0200202113
B0821334626274N00810145EA0200302115
B0821344626269N00810147EA0200502116
B0821354626265N00810146EA0200602117
B0821364626261N00810142EA0200702118
B0821374626258N00810136EA0200702118
B0821384626258N00810128EA0200702118
B0821394626259N00810119EA0200802119
B0821404626263N00810110EA0200902120
B0821414626268N00810104EA0201202123
B0821424626274N00810101EA0201502126
B0821434626279N00810099EA0201902130
B0821444626284N00810098EA0202202134
B0821454626289N00810096EA0202602137
B0821464626295N00810096EA0202702138
B0821474626300N00810098EA0202802139
B0821484626305N00810100EA0203002141
B0821494626310N00810105EA0203302144
B0821504626312N00810113EA0203402145
B0821514626312N00810121EA0203402145
B0821524626309N00810128EA0203402145
B0821534626304N00810131EA0203302144
B0821544626298N00810128EA0203102142
B0821554626294N00810121EA0203302144
B0821564626291N00810113EA0203702147
B0821574626291N00810105EA0204102151
B0821584626292N00810099EA0204502155
B0821594626294N00810094EA0204702158
B0822004626297N00810090EA0205002160
B0822014626301N00810086EA0205102162
B0822024626307N00810083EA0205302164
B0822034626313N00810082EA0205602166
B0822044626318N00810085EA0205802169
B0822054626322N00810089EA0205902170
B0822064626325N00810095EA0206002171
B0822074626327N00810102EA0206202172
B0822084626327N00810109EA0206302174
B0822094626326N00810116EA0206302174
B0822104626322N00810122EA0206402175
B0822114626317N00810125EA0206302174
B0822124626312N00810123EA0206302173
B0822134626309N00810116EA0206302173
B0822144626308N00810107EA0206402175
B0822154626310N00810098EA0206802179
B0822164626313N00810091EA0207202183
B0822174626318N00810088EA0207602186
B0822184626323N00810086EA0207802189
B0822194626327N00810086EA0208102191
B0822204626332N00810086EA0208302193
B0822214626337N00810088EA0208402194
B0822224626342N00810093EA0208402195
B0822234626345N00810099EA0208502195
B0822244626347N00810106EA0208502196
B0822254626346N00810113EA0208502196
B0822264626345N00810119EA0208502196
B0822274626341N00810122EA0208402195
B0822284626337N00810124EA0208302193
B0822294626331N00810122EA0208202192
B0822304626326N00810118EA0208302193
B0822314626323N00810113EA0208502195
B0822324626322N00810106EA0208702197
B0822334626324N00810099EA0208902199
B0822344626327N00810093EA0209102202
B0822354626331N00810089EA0209302204
B0822364626336N00810086EA0209402205
B0822374626341N00810087EA0209702207
B0822384626346N00810090EA0209802209
B0822394626349N00810096EA0209802209
B0822404626349N00810104EA0209802208
B0822414626348N00810112EA0210002210
B0822424626346N00810119EA0210102211
B0822434626344N00810123EA0210102211
B0822444626340N00810126EA0210002210
B0822454626335N00810127EA0209802209
B0822464626329N00810128EA0209702208
B0822474626323N00810126EA0209702208
B0822484626319N00810120EA0209702208
B0822494626317N00810112EA0209802209
B0822504626316N00810104EA0209902210
B0822514626317N00810095EA0210102211
B0822524626319N00810087EA0210302214
B0822534626323N00810081EA0210602216
B0822544626326N00810075EA0210802219
B0822554626331N00810071EA0211102222
B0822564626335N00810067EA0211302223
B0822574626340N00810064EA0211302224
B0822584626345N00810062EA0211502226
B0822594626351N00810061EA0211702228
B0823004626356N00810065EA0211902230
B0823014626360N00810071EA0212102231
B0823024626361N00810080EA0212202233
B0823034626360N00810088EA0212402235
B0823044626356N00810094EA0212602236
B0823054626352N00810096EA0212702237
B0823064626348N00810095EA0212702238
B0823074626344N00810091EA0212902239
B0823084626342N00810085EA0213002241
B0823094626340N00810077EA0213102242
B0823104626340N00810069EA0213302243
B0823114626342N00810062EA0213502245
B0823124626346N00810056EA0213702248
B0823134626351N00810052EA0213902250
B0823144626357N00810052EA0214102252
B0823154626363N00810055EA0214302254
B0823164626368N00810061EA0214502256
B0823174626371N00810069EA0214702258
B0823184626372N00810079EA0214902260
B0823194626370N00810088EA0215102262
B0823204626367N00810095EA0215402264
B0823214626363N00810099EA0215602267
B0823224626359N00810100EA0215902270
B0823234626355N00810098EA0216002271
B0823244626352N00810094EA0216102272
B0823254626350N00810088EA0216102272
B0823264626348N00810080EA0216102272
B0823274626348N00810071EA0216002271
B0823284626349N00810062EA0216402275
B0823294626351N00810055EA0216902280
B0823304626355N00810050EA0217202283
B0823314626360N00810046EA0217402285
B0823324626365N00810044EA0217602287
B0823334626371N00810044EA0217802290
B0823344626378N00810047EA0218102292
B0823354626383N00810054EA0218402295
B0823364626386N00810065EA0218602298
B0823374626385N00810075EA0218902300
B0823384626382N00810084EA0219102302
B0823394626378N00810092EA0219502306
B0823404626374N00810097EA0219702309
B0823414626370N00810100EA0219902311
B0823424626366N00810099EA0220002311
B0823434626361N00810096EA0220102312
B0823444626359N00810089EA0220102312
B0823454626358N00810081EA0220102312
B0823464626360N00810072EA0220302314
B0823474626363N00810065EA0220502317
B0823484626368N00810060EA0220802319
B0823494626373N00810058EA0221002322
B0823504626380N00810058EA0221302325
B0823514626385N00810060EA0221702328
B0823524626391N00810064EA0222102332
B0823534626394N00810070EA0222402336
B0823544626397N00810078EA0222602338
B0823554626398N00810087EA0222902340
B0823564626399N00810096EA0223102343
B0823574626397N00810105EA0223502347
B0823584626393N00810112EA0223802349
B0823594626388N00810116EA0223802350
B0824004626383N00810119EA0224002352
B0824014626379N00810119EA0224202354
B0824024626376N00810118EA0224402356
B0824034626372N00810113EA0224402356
B0824044626371N00810106EA0224402356
B0824054626371N00810098EA0224402356
B0824064626372N00810089EA0224502357
B0824074626376N00810083EA0224802360
B0824084626382N00810080EA0225202364
B0824094626387N00810080EA0225302365
B0824104626392N00810084EA0225502367
B0824114626397N00810089EA0225902371
B0824124626401N00810095EA0226202374
B0824134626403N00810102EA0226402377
B0824144626402N00810109EA0226602378
B0824154626401N00810117EA0226702379
B0824164626397N00810123EA0226802380
B0824174626392N00810128EA0226902381
B0824184626387N00810129EA0227002382
B0824194626382N00810127EA0227102383
B0824204626378N00810122EA0227202384
B0824214626377N00810114EA0227202384
B0824224626377N00810107EA0227302385
B0824234626379N00810100EA0227402387
B0824244626383N00810095EA0227702389
B0824254626387N00810092EA0227902391
B0824264626392N00810091EA0228102394
B0824274626398N00810092EA0228402396
B0824284626402N00810094EA0228502398
B0824294626407N00810097EA0228702399
B0824304626410N00810103EA0228702400
B0824314626414N00810110EA0228802400
B0824324626416N00810119EA0228902402
B0824334626415N00810128EA0229102403
B0824344626412N00810135EA0229202404
B0824354626407N00810139EA0229202405
B0824364626402N00810139EA0229302406
B0824374626397N00810136EA0229402407
B0824384626393N00810130EA0229502407
B0824394626392N00810123EA0229502407
B0824404626392N00810115EA0229502408
B0824414626395N00810107EA0229602409
B0824424626399N00810101EA0229802411
B0824434626404N00810097EA0230102414
B0824444626409N00810095EA0230302416
B0824454626414N00810095EA0230402417
B0824464626419N00810097EA0230502418
B0824474626424N00810102EA0230602419
B0824484626428N00810109EA0230602419
B0824494626430N00810116EA0230802421
B0824504626429N00810125EA0230802421
B0824514626426N00810132EA0230802421
B0824524626420N00810136EA0230802422
B0824534626414N00810137EA0231002423
B0824544626410N00810135EA0231202426
B0824554626407N00810130EA0231402427
B0824564626404N00810124EA0231402427
B0824574626403N00810117EA0231502428
B0824584626402N00810109EA0231702430
B0824594626403N00810101EA0231902432
B0825004626406N00810094EA0232002434
B0825014626410N00810090EA0232202435
B0825024626415N00810088EA0232202435
B0825034626420N00810088EA0232202435
B0825044626426N00810090EA0232202436
B0825054626431N00810095EA0232302437
B0825064626434N00810103EA0232402437
B0825074626436N00810112EA0232402438
B0825084626434N00810121EA0232402438
B0825094626430N00810128EA0232402438
B0825104626424N00810131EA0232502438
B0825114626419N00810130EA0232502438
B0825124626414N00810125EA0232602440
B0825134626412N00810118EA0232802441
B0825144626412N00810110EA0232902443
B0825154626415N00810104EA0233102445
B0825164626420N00810101EA0233302447
B0825174626426N00810100EA0233402448
B0825184626431N00810101EA0233602450
B0825194626436N00810104EA0233602450
B0825204626441N00810109EA0233702451
B0825214626445N00810116EA0233802452
B0825224626448N00810123EA0233802453
B0825234626449N00810132EA0233902453
B0825244626448N00810141EA0233802453
B0825254626446N00810149EA0233802452
B0825264626441N00810155EA0233702451
B0825274626435N00810158EA0233602451
B0825284626429N00810156EA0233602450
B0825294626425N00810150EA0233602450
B0825304626423N00810142EA0233602451
B0825314626423N00810134EA0233802452
B0825324626424N00810126EA0234002454
B0825334626426N00810120EA0234102456
B0825344626429N00810114EA0234202457
B0825354626432N00810109EA0234302458
B0825364626437N00810105EA0234402458
B0825374626442N00810103EA0234502459
B0825384626449N00810105EA0234502460
B0825394626455N00810109EA0234602460
B0825404626459N00810115EA0234602461
B0825414626464N00810121EA0234702461
B0825424626468N00810127EA0234702462
B0825434626473N00810133EA0234802462
B0825444626478N00810138EA0234702462
B0825454626483N00810144EA0234702462
B0825464626488N00810151EA0234702462
B0825474626493N00810159EA0234702462
B0825484626498N00810167EA0234902463
B0825494626502N00810174EA0235002465
B0825504626507N00810180EA0235102466
B0825514626512N00810187EA0235202467
B0825524626517N00810194EA0235302468
B0825534626521N00810202EA0235402468
B0825544626527N00810209EA0235402469
B0825554626532N00810216EA0235502470
B0825564626537N00810223EA0235602471
B0825574626543N00810230EA0235702472
B0825584626548N00810236EA0235702472
B0825594626554N00810243EA0235902474
B0826004626559N00810249EA0236102476
B0826014626564N00810256EA0236302478
B0826024626569N00810261EA0236502480
B0826034626573N00810266EA0236802483
B0826044626578N00810271EA0237002485
B0826054626583N00810275EA0237202487
B0826064626587N00810280EA0237302488
B0826074626592N00810285EA0237502490
B0826084626597N00810290EA0237602491
B0826094626601N00810294EA0237702492
B0826104626607N00810299EA0237802493
B0826114626612N00810304EA0237902494
B0826124626618N00810309EA0238102497
B0826134626624N00810315EA0238402500
B0826144626629N00810320EA0238802503
B0826154626632N00810326EA0239102506
B0826164626635N00810331EA0239402509
B0826174626637N00810338EA0239502510
B0826184626640N00810343EA0239702513
B0826194626644N00810349EA0239902515
B0826204626648N00810354EA0240102517
B0826214626651N00810359EA0240302519
B0826224626653N00810364EA0240402520
B0826234626656N00810370EA0240502521
B0826244626659N00810376EA0240502521
B0826254626663N00810382EA0240502520
B0826264626668N00810387EA0240502521
B0826274626672N00810393EA0240402520
B0826284626677N00810399EA0240402520
B0826294626681N00810404EA0240402520
B0826304626686N00810409EA0240302519
B0826314626691N00810414EA0240302518
B0826324626696N00810420EA0240202518
B0826334626702N00810426EA0240202518
B0826344626707N00810432EA0240302519
B0826354626712N00810439EA0240302519
B0826364626716N00810446EA0240402520
B0826374626720N00810452EA0240402520
B0826384626724N00810457EA0240502520
B0826394626729N00810463EA0240502520
B0826404626734N00810468EA0240402520
B0826414626740N00810471EA0240502520
B0826424626746N00810475EA0240402520
B0826434626751N00810480EA0240502520
B0826444626755N00810486EA0240502520
B0826454626758N00810492EA0240402520
B0826464626761N00810497EA0240202517
B0826474626765N00810501EA0239902514
B0826484626769N00810507EA0239602511
B0826494626775N00810512EA0239302509
B0826504626780N00810518EA0239002506
B0826514626785N00810524EA0238802504
B0826524626790N00810530EA0238602502
B0826534626795N00810536EA0238402500
B0826544626800N00810543EA0238302499
B0826554626805N00810549EA0238202498
B0826564626811N00810555EA0238102497
B0826574626816N00810560EA0238102496
B0826584626820N00810566EA0238002496
B0826594626824N00810571EA0238002496
B0827004626829N00810576EA0237802494
B0827014626834N00810580EA0237602492
B0827024626840N00810586EA0237302489
B0827034626844N00810593EA0237102487
B0827044626849N00810600EA0237002486
B0827054626854N00810606EA0237002486
B0827064626859N00810611EA0236902485
B0827074626863N00810616EA0236802484
B0827084626868N00810622EA0236602482
B0827094626872N00810628EA0236402479
B0827104626877N00810634EA0236102477
B0827114626882N00810639EA0236002476
B0827124626887N00810644EA0235902475
B0827134626893N00810649EA0235802474
B0827144626898N00810654EA0235902475
B0827154626903N00810659EA0236102476
B0827164626908N00810664EA0236302479
B0827174626912N00810670EA0236602482
B0827184626916N00810675EA0236802484
B0827194626920N00810680EA0237002486
B0827204626925N00810685EA0237202488
B0827214626929N00810690EA0237502491
B0827224626934N00810696EA0237802494
B0827234626938N00810702EA0238002496
B0827244626942N00810708EA0238202498
B0827254626946N00810713EA0238402500
B0827264626951N00810717EA0238502501
B0827274626956N00810722EA0238702503
B0827284626960N00810726EA0239002506
B0827294626964N00810731EA0239202508
B0827304626968N00810735EA0239402510
B0827314626972N00810738EA0239602512
B0827324626977N00810743EA0239702513
B0827334626982N00810748EA0239902515
B0827344626987N00810754EA0240102517
B0827354626991N00810762EA0240302519
B0827364626994N00810769EA0240602522
B0827374626998N00810775EA0240802524
B0827384627001N00810779EA0240902525
B0827394627006N00810783EA0241002526
B0827404627011N00810787EA0241002526
B0827414627016N00810792EA0241202528
B0827424627021N00810798EA0241302529
B0827434627026N00810803EA0241402530
B0827444627030N00810809EA0241402530
B0827454627035N00810814EA0241402530
B0827464627040N00810819EA0241302529
B0827474627045N00810825EA0241202528
B0827484627050N00810830EA0241102527
B0827494627057N00810836EA0241002526
B0827504627062N00810842EA0241102527
B0827514627066N00810848EA0241002526
B0827524627070N00810853EA0241002526
B0827534627074N00810857EA0240902525
B0827544627079N00810863EA0240602522
B0827554627084N00810869EA0240402520
B0827564627090N00810876EA0240202518
B0827574627095N00810883EA0240102517
B0827584627099N00810890EA0240002516
B0827594627103N00810897EA0240102517
B0828004627107N00810903EA0240002516
B0828014627112N00810910EA0239802514
B0828024627116N00810916EA0239602512
B0828034627121N00810923EA0239502511
B0828044627125N00810929EA0239302509
B0828054627130N00810935EA0239202508
B0828064627135N00810941EA0239102507
B0828074627140N00810947EA0239002506
B0828084627145N00810954EA0239002506
B0828094627149N00810960EA0238902505
B0828104627153N00810966EA0238702503
B0828114627158N00810972EA0238402500
B0828124627162N00810978EA0238202498
B0828134627166N00810984EA0238002496
B0828144627170N00810991EA0237802494
B0828154627175N00810998EA0237702493
B0828164627179N00811004EA0237602492
B0828174627183N00811010EA0237502491
B0828184627188N00811016EA0237302489
B0828194627192N00811023EA0237102487
B0828204627197N00811029EA0237002486
B0828214627202N00811035EA0236802484
B0828224627206N00811041EA0236702483
B0828234627212N00811047EA0236502481
B0828244627216N00811053EA0236402480
B0828254627221N00811059EA0236402480
B0828264627225N00811066EA0236202478
B0828274627230N00811072EA0236102477
B0828284627234N00811078EA0236002476
B0828294627239N00811084EA0235902475
B0828304627244N00811090EA0235802474
B0828314627249N00811096EA0235702473
B0828324627254N00811102EA0235602472
B0828334627258N00811108EA0235502471
B0828344627263N00811114EA0235402470
B0828354627269N00811121EA0235402470
B0828364627273N00811127EA0235302469
B0828374627279N00811133EA0235202468
B0828384627284N00811140EA0235202468
B0828394627289N00811146EA0235102467
B0828404627294N00811153EA0235102467
B0828414627299N00811159EA0235102467
B0828424627305N00811164EA0235002466
B0828434627310N00811170EA0235002466
B0828444627316N00811177EA0234902465
B0828454627321N00811184EA0234902465
B0828464627326N00811191EA0234902466
B0828474627330N00811198EA0235002466
B0828484627335N00811205EA0235002466
B0828494627341N00811211EA0235002466
B0828504627346N00811217EA0235002466
B0828514627351N00811223EA0235002466
B0828524627357N00811230EA0235002466
B0828534627362N00811236EA0235002466
B0828544627367N00811242EA0235002466
B0828554627373N00811248EA0234902465
B0828564627378N00811254EA0234902465
B0828574627384N00811260EA0234902465
B0828584627390N00811267EA0234802464
B0828594627395N00811273EA0234802464
B0829004627400N00811279EA0234802464
B0829014627405N00811286EA0234702463
B0829024627410N00811292EA0234702463
B0829034627415N00811300EA0234602463
B0829044627420N00811308EA0234702463
B0829054627425N00811315EA0235002466
B0829064627430N00811323EA0235302469
B0829074627435N00811330EA0235602472
B0829084627438N00811336EA0235802474
B0829094627442N00811343EA0235902475
B0829104627445N00811349EA0236002476
B0829114627448N00811357EA0236002476
B0829124627451N00811365EA0235902475
B0829134627454N00811373EA0235902475
B0829144627458N00811380EA0236002476
B0829154627462N00811387EA0236102477
B0829164627465N00811393EA0236102477
B0829174627469N00811399EA0236002476
B0829184627472N00811405EA0235802474
B0829194627475N00811411EA0235502471
B0829204627479N00811418EA0235302469
B0829214627483N00811425EA0235102466
B0829224627487N00811432EA0234902465
B0829234627491N00811439EA0234702463
B0829244627495N00811446EA0234502461
B0829254627499N00811453EA0234202458
B0829264627504N00811461EA0234102457
B0829274627508N00811470EA0233902455
B0829284627512N00811478EA0233802454
B0829294627516N00811486EA0233802453
B0829304627521N00811492EA0233602452
B0829314627526N00811499EA0233402450
B0829324627530N00811505EA0233202448
B0829334627534N00811513EA0233002446
B0829344627538N00811521EA0232902444
B0829354627542N00811528EA0232702443
B0829364627546N00811535EA0232602441
B0829374627550N00811542EA0232402440
B0829384627553N00811548EA0232202438
B0829394627557N00811555EA0232002436
B0829404627561N00811562EA0231802434
B0829414627565N00811568EA0231602431
B0829424627570N00811574EA0231302428
B0829434627574N00811581EA0231002425
B0829444627578N00811589EA0230702422
B0829454627583N00811596EA0230502420
B0829464627587N00811602EA0230202418
B0829474627592N00811608EA0230202417
B0829484627596N00811613EA0230102416
B0829494627599N00811618EA0230002416
B0829504627601N00811622EA0229902415
B0829514627605N00811626EA0229802413
B0829524627609N00811630EA0230002416
B0829534627613N00811635EA0230202418
B0829544627617N00811640EA0230502420
B0829554627620N00811645EA0230802423
B0829564627622N00811650EA0231202427
B0829574627625N00811655EA0231502431
B0829584627627N00811659EA0231802434
B0829594627630N00811665EA0232102436
B0830004627633N00811670EA0232402439
B0830014627636N00811676EA0232802443
B0830024627639N00811681EA0233102446
B0830034627642N00811686EA0233402449
B0830044627645N00811692EA0233602452
B0830054627648N00811698EA0233902454
B0830064627652N00811705EA0234302458
B0830074627656N00811712EA0234702462
B0830084627658N00811718EA0235302468
B0830094627662N00811724EA0235802473
B0830104627665N00811729EA0236202477
B0830114627667N00811733EA0236602481
B0830124627669N00811738EA0236802483
B0830134627671N00811745EA0236902484
B0830144627674N00811752EA0237002485
B0830154627678N00811760EA0237202487
B0830164627681N00811768EA0237402490
B0830174627684N00811775EA0237602492
B0830184627687N00811782EA0237802494
B0830194627689N00811788EA0237902494
B0830204627692N00811794EA0237802493
B0830214627696N00811802EA0237702493
B0830224627698N00811811EA0237802493
B0830234627700N00811819EA0237802493
B0830244627701N00811825EA0237902494
B0830254627703N00811830EA0237902495
B0830264627706N00811836EA0237902494
B0830274627709N00811843EA0237802494
B0830284627712N00811851EA0237802494
B0830294627715N00811857EA0237802494
B0830304627717N00811864EA0237902494
B0830314627720N00811870EA0238002495
B0830324627724N00811878EA0238002495
B0830334627728N00811885EA0238002496
B0830344627732N00811893EA0238202497
B0830354627737N00811901EA0238402499
B0830364627740N00811907EA0238502501
B0830374627744N00811913EA0238602501
B0830384627748N00811919EA0238602501
B0830394627752N00811925EA0238502501
B0830404627756N00811932EA0238502500
B0830414627759N00811940EA0238502501
B0830424627763N00811947EA0238502500
B0830434627767N00811952EA0238302498
B0830444627773N00811956EA0238102496
B0830454627777N00811962EA0237802493
B0830464627782N00811969EA0237402490
B0830474627786N00811977EA0237202488
B0830484627790N00811985EA0237002486
B0830494627795N00811992EA0236902485
B0830504627800N00811998EA0236702483
B0830514627804N00812005EA0236502481
B0830524627808N00812012EA0236302478
B0830534627813N00812019EA0236002476
B0830544627817N00812026EA0235802474
B0830554627822N00812033EA0235602472
B0830564627827N00812040EA0235502470
B0830574627831N00812047EA0235302468
B0830584627836N00812053EA0235002466
B0830594627840N00812060EA0234802463
B0831004627845N00812067EA0234602461
B0831014627850N00812073EA0234402459
B0831024627855N00812080EA0234202457
B0831034627859N00812086EA0234002456
B0831044627864N00812092EA0233802454
B0831054627868N00812099EA0233602452
B0831064627872N00812105EA0233402450
B0831074627876N00812112EA0233202447
B0831084627881N00812118EA0232902445
B0831094627886N00812125EA0232702443
B0831104627891N00812132EA0232502441
B0831114627895N00812138EA0232402439
B0831124627900N00812145EA0232202437
B0831134627905N00812151EA0232002436
B0831144627909N00812158EA0231802434
B0831154627914N00812165EA0231602432
B0831164627919N00812171EA0231402430
B0831174627923N00812179EA0231202428
B0831184627927N00812186EA0231002426
B0831194627932N00812193EA0230802424
B0831204627937N00812199EA0230702422
B0831214627941N00812206EA0230502421
B0831224627946N00812213EA0230402420
B0831234627950N00812219EA0230302418
B0831244627955N00812226EA0230102417
B0831254627959N00812232EA0229902415
B0831264627963N00812239EA0229802413
B0831274627967N00812247EA0229702412
B0831284627971N00812254EA0229502411
B0831294627976N00812261EA0229402410
B0831304627980N00812268EA0229302409
B0831314627984N00812274EA0229202408
B0831324627989N00812281EA0229202407
B0831334627993N00812288EA0229102407
B0831344627997N00812294EA0229102406
B0831354628001N00812300EA0229002405
B0831364628006N00812306EA0228902404
B0831374628010N00812313EA0228802403
B0831384628015N00812319EA0228702402
B0831394628019N00812325EA0228602402
B0831404628024N00812332EA0228502401
B0831414628028N00812339EA0228502401
B0831424628032N00812346EA0228502400
B0831434628036N00812353EA0228502400
B0831444628041N00812360EA0228502400
B0831454628044N00812367EA0228502401
B0831464628049N00812374EA0228602401
B0831474628054N00812380EA0228502401
B0831484628058N00812387EA0228502400
B0831494628063N00812395EA0228502400
B0831504628067N00812402EA0228502401
B0831514628072N00812410EA0228702403
B0831524628076N00812416EA0229302408
B0831534628080N00812421EA0229702413
B0831544628083N00812424EA0230002415
B0831554628085N00812427EA0230102416
B0831564628087N00812430EA0230102417
B0831574628091N00812435EA0230202417
B0831584628096N00812443EA0230202418
B0831594628100N00812450EA0230402419
B0832004628103N00812456EA0230502421
B0832014628105N00812461EA0230602421
B0832024628107N00812466EA0230502421
B0832034628110N00812471EA0230302418
B0832044628114N00812478EA0230102417
B0832054628118N00812486EA0230002416
B0832064628122N00812494EA0230102416
B0832074628126N00812500EA0230302418
B0832084628130N00812506EA0230502420
B0832094628134N00812512EA0230702422
B0832104628137N00812518EA0230802424
B0832114628140N00812525EA0231002425
B0832124628144N00812532EA0231202427
B0832134628147N00812538EA0231302429
B0832144628150N00812544EA0231402430
B0832154628154N00812549EA0231402430
B0832164628156N00812555EA0231402430
B0832174628160N00812563EA0231502430
B0832184628163N00812573EA0231702432
B0832194628165N00812582EA0232002436
B0832204628166N00812590EA0232502440
B0832214628168N00812597EA0232902444
B0832224628169N00812603EA0233202447
B0832234628171N00812610EA0233402449
B0832244628173N00812617EA0233602451
B0832254628175N00812625EA0233802453
B0832264628178N00812632EA0234002455
B0832274628181N00812639EA0234202457
B0832284628183N00812646EA0234402459
B0832294628185N00812653EA0234502460
B0832304628187N00812661EA0234602461
B0832314628189N00812668EA0234602462
B0832324628192N00812676EA0234702462
B0832334628194N00812684EA0234802463
B0832344628195N00812692EA0234902464
B0832354628196N00812699EA0234802464
B0832364628197N00812706EA0234702463
B0832374628198N00812713EA0234602461
B0832384628201N00812721EA0234302459
B0832394628204N00812729EA0234102456
B0832404628207N00812737EA0233802454
B0832414628210N00812746EA0233702453
B0832424628213N00812754EA0233602452
B0832434628216N00812761EA0233502450
B0832444628219N00812768EA0233302449
B0832454628222N00812774EA0233102447
B0832464628225N00812781EA0233002445
B0832474628229N00812788EA0232802444
B0832484628232N00812795EA0232702442
B0832494628235N00812803EA0232602441
B0832504628239N00812810EA0232502440
B0832514628242N00812817EA0232402439
B0832524628244N00812824EA0232202438
B0832534628247N00812832EA0232102436
B0832544628251N00812839EA0231902434
B0832554628254N00812846EA0231702432
B0832564628258N00812854EA0231502431
B0832574628262N00812861EA0231402429
B0832584628266N00812869EA0231202428
B0832594628269N00812876EA0231002426
B0833004628273N00812883EA0231002425
B0833014628277N00812890EA0230902424
B0833024628280N00812897EA0230802423
B0833034628283N00812904EA0230602422
B0833044628288N00812911EA0230502420
B0833054628292N00812918EA0230302419
B0833064628296N00812925EA0230202417
B0833074628299N00812932EA0230102416
B0833084628303N00812939EA0230002415
B0833094628306N00812946EA0229902415
B0833104628310N00812953EA0229802414
B0833114628314N00812960EA0229702413
B0833124628318N00812966EA0229602412
B0833134628322N00812972EA0229602411
B0833144628326N00812979EA0229502410
B0833154628330N00812985EA0229302409
B0833164628334N00812992EA0229202408
B0833174628339N00812999EA0229102407
B0833184628343N00813006EA0229102407
B0833194628347N00813013EA0229102406
B0833204628351N00813020EA0229202407
B0833214628355N00813025EA0229202407
B0833224628360N00813031EA0229102407
B0833234628364N00813038EA0229002406
B0833244628368N00813045EA0228902404
B0833254628372N00813053EA0228802404
B0833264628377N00813062EA0228802404
B0833274628380N00813070EA0228902405
B0833284628384N00813078EA0229202407
B0833294628388N00813085EA0229302408
B0833304628391N00813092EA0229402409
B0833314628395N00813100EA0229402409
B0833324628400N00813108EA0229402409
B0833334628405N00813115EA0229602411
B0833344628410N00813123EA0229802414
B0833354628415N00813129EA0230102416
B0833364628419N00813135EA0230202418
B0833374628423N00813142EA0230402420
B0833384628426N00813149EA0230502421
B0833394628430N00813157EA0230602422
B0833404628433N00813166EA0230802423
B0833414628436N00813177EA0230902425
B0833424628439N00813186EA0231102427
B0833434628442N00813195EA0231302429
B0833444628445N00813203EA0231502430
B0833454628447N00813211EA0231502430
B0833464628450N00813218EA0231502430
B0833474628453N00813226EA0231302429
B0833484628457N00813235EA0231102427
B0833494628460N00813243EA0230802424
B0833504628464N00813252EA0230602421
B0833514628468N00813262EA0230502421
B0833524628471N00813271EA0230402419
B0833534628474N00813279EA0230302418
B0833544628476N00813286EA0230102417
B0833554628479N00813294EA0229802414
B0833564628482N00813301EA0229502410
B0833574628485N00813310EA0229102407
B0833584628488N00813319EA0228802404
B0833594628491N00813328EA0228502401
B0834004628494N00813336EA0228302398
B0834014628497N00813343EA0228102396
B0834024628500N00813351EA0227802393
B0834034628503N00813359EA0227502390
B0834044628506N00813368EA0227102386
B0834054628509N00813377EA0226802384
B0834064628512N00813385EA0226702382
B0834074628515N00813394EA0226502381
B0834084628518N00813402EA0226302379
B0834094628521N00813410EA0226102376
B0834104628524N00813418EA0225802373
B0834114628528N00813426EA0225502370
B0834124628531N00813434EA0225202367
B0834134628535N00813441EA0224902364
B0834144628539N00813449EA0224602362
B0834154628543N00813457EA0224302359
B0834164628547N00813465EA0224102356
B0834174628550N00813473EA0223802354
B0834184628553N00813480EA0223602351
B0834194628556N00813487EA0223302349
B0834204628559N00813495EA0223002346
B0834214628562N00813503EA0222802343
B0834224628565N00813511EA0222602342
B0834234628568N00813519EA0222502340
B0834244628571N00813526EA0222302339
B0834254628574N00813533EA0222102336
B0834264628577N00813541EA0221802334
B0834274628579N00813549EA0221602331
B0834284628581N00813558EA0221302328
B0834294628583N00813568EA0221102327
B0834304628585N00813577EA0220902324
B0834314628587N00813585EA0220702322
B0834324628589N00813594EA0220502320
B0834334628590N00813603EA0220202318
B0834344628593N00813612EA0220002315
B0834354628595N00813621EA0219902314
B0834364628597N00813630EA0219802313
B0834374628598N00813639EA0219702312
B0834384628601N00813648EA0219502310
B0834394628603N00813656EA0219402309
B0834404628605N00813665EA0219202307
B0834414628607N00813674EA0219002305
B0834424628610N00813682EA0218902304
B0834434628613N00813690EA0218702302
B0834444628617N00813698EA0218602301
B0834454628621N00813706EA0218502300
B0834464628624N00813714EA0218402299
B0834474628628N00813722EA0218302298
B0834484628632N00813729EA0218302298
B0834494628636N00813737EA0218302298
B0834504628640N00813744EA0218202297
B0834514628644N00813750EA0218202297
B0834524628648N00813756EA0218002295
B0834534628653N00813763EA0217902294
B0834544628658N00813770EA0217902294
B0834554628662N00813778EA0217902294
B0834564628666N00813785EA0217902294
B0834574628671N00813792EA0217902294
B0834584628675N00813799EA0217902294
B0834594628679N00813807EA0217902294
B0835004628684N00813815EA0217902294
B0835014628688N00813823EA0218002295
B0835024628692N00813831EA0218102296
B0835034628696N00813839EA0218102296
B0835044628700N00813848EA0218102296
B0835054628704N00813856EA0218102296
B0835064628708N00813864EA0218102296
B0835074628713N00813872EA0218202297
B0835084628716N00813880EA0218202297
B0835094628720N00813887EA0218102296
B0835104628724N00813894EA0218002295
B0835114628727N00813902EA0218002295
B0835124628731N00813909EA0217902294
B0835134628735N00813916EA0218002295
B0835144628738N00813923EA0218002295
B0835154628741N00813930EA0217902294
B0835164628744N00813936EA0217702292
B0835174628747N00813944EA0217502290
B0835184628750N00813952EA0217202287
B0835194628753N00813960EA0217002285
B0835204628756N00813968EA0216902284
B0835214628759N00813976EA0216702282
B0835224628761N00813984EA0216602281
B0835234628764N00813991EA0216402279
B0835244628767N00813998EA0216202277
B0835254628771N00814005EA0216002275
B0835264628775N00814013EA0215802273
B0835274628778N00814020EA0215602271
B0835284628782N00814028EA0215402268
B0835294628786N00814036EA0215202267
B0835304628790N00814044EA0215102265
B0835314628794N00814051EA0215002264
B0835324628797N00814059EA0214802263
B0835334628801N00814066EA0214702261
B0835344628804N00814074EA0214502259
B0835354628808N00814082EA0214402258
B0835364628812N00814090EA0214302257
B0835374628816N00814098EA0214302257
B0835384628820N00814105EA0214202256
B0835394628823N00814112EA0214002254
B0835404628827N00814119EA0213802252
B0835414628831N00814127EA0213602250
B0835424628835N00814135EA0213602250
B0835434628839N00814142EA0213502249
B0835444628843N00814150EA0213402248
B0835454628846N00814157EA0213202247
B0835464628849N00814164EA0213102245
B0835474628853N00814172EA0212902243
B0835484628857N00814179EA0212702241
B0835494628860N00814187EA0212502239
B0835504628863N00814194EA0212202236
B0835514628866N00814202EA0212002234
B0835524628870N00814210EA0211702231
B0835534628873N00814218EA0211402228
B0835544628877N00814226EA0211102225
B0835554628881N00814234EA0210902223
B0835564628884N00814242EA0210702221
B0835574628886N00814250EA0210502218
B0835584628890N00814258EA0210202215
B0835594628893N00814266EA0209902213
B0836004628896N00814275EA0209702210
B0836014628899N00814283EA0209402208
B0836024628902N00814291EA0209302207
B0836034628905N00814299EA0209302206
B0836044628909N00814307EA0209102204
B0836054628912N00814315EA0208902203
B0836064628915N00814323EA0208702200
B0836074628919N00814331EA0208502199
B0836084628923N00814339EA0208602199
B0836094628927N00814347EA0208602200
B0836104628930N00814354EA0208802201
B0836114628933N00814359EA0209002203
B0836124628935N00814363EA0209002204
B0836134628938N00814367EA0209002204
B0836144628940N00814372EA0208902202
B0836154628943N00814377EA0208802201
B0836164628945N00814382EA0208702200
B0836174628948N00814386EA0208602200
B0836184628951N00814391EA0208502198
B0836194628953N00814396EA0208402197
B0836204628956N00814401EA0208302196
B0836214628960N00814407EA0208202195
B0836224628963N00814413EA0208102194
B0836234628966N00814418EA0208102194
B0836244628968N00814422EA0208102194
B0836254628971N00814427EA0208102194
B0836264628974N00814432EA0208102194
B0836274628977N00814437EA0208102194
B0836284628980N00814442EA0208202195
B0836294628983N00814448EA0208302196
B0836304628987N00814453EA0208502198
B0836314628990N00814458EA0208602199
B0836324628992N00814463EA0208702200
B0836334628996N00814468EA0208802201
B0836344628999N00814474EA0208902202
B0836354629003N00814480EA0209002202
B0836364629006N00814486EA0209002203
B0836374629009N00814493EA0209102204
B0836384629011N00814499EA0209202205
B0836394629014N00814504EA0209302205
B0836404629016N00814509EA0209202205
B0836414629020N00814515EA0209102203
B0836424629024N00814521EA0209002202
B0836434629028N00814528EA0209002203
B0836444629032N00814534EA0209102203
B0836454629035N00814540EA0209102204
B0836464629039N00814545EA0209102203
B0836474629042N00814550EA0209002203
B0836484629046N00814556EA0208802201
B0836494629050N00814562EA0208602199
B0836504629054N00814570EA0208502197
B0836514629059N00814577EA0208302195
B0836524629063N00814584EA0208202194
B0836534629067N00814591EA0208102193
B0836544629070N00814597EA0207902191
B0836554629074N00814604EA0207702189
B0836564629077N00814612EA0207402186
B0836574629081N00814619EA0207202184
B0836584629085N00814626EA0207002182
B0836594629089N00814633EA0206802180
B0837004629093N00814639EA0206702179
B0837014629098N00814646EA0206502177
B0837024629101N00814651EA0206402175
B0837034629105N00814657EA0206202173
B0837044629109N00814663EA0205902171
B0837054629114N00814669EA0205702169
B0837064629118N00814675EA0205502167
B0837074629122N00814682EA0205402165
B0837084629127N00814687EA0205202164
B0837094629131N00814693EA0205002162
B0837104629135N00814700EA0204802159
B0837114629138N00814707EA0204502156
B0837124629142N00814713EA0204202154
B0837134629147N00814720EA0203902150
B0837144629152N00814726EA0203602147
B0837154629157N00814733EA0203302144
B0837164629162N00814739EA0203002142
B0837174629166N00814746EA0202902140
B0837184629171N00814751EA0202702138
B0837194629176N00814757EA0202502136
B0837204629181N00814763EA0202302134
B0837214629185N00814769EA0202102133
B0837224629189N00814775EA0202002131
B0837234629193N00814780EA0201802129
B0837244629198N00814785EA0201502126
B0837254629202N00814790EA0201202124
B0837264629206N00814796EA0201002121
B0837274629211N00814803EA0200702118
B0837284629215N00814810EA0200602117
B0837294629220N00814817EA0200602118
B0837304629224N00814823EA0200802120
B0837314629228N00814828EA0201102122
B0837324629231N00814832EA0201202123
B0837334629233N00814835EA0201202123
B0837344629236N00814838EA0201102122
B0837354629239N00814843EA0201102122
B0837364629242N00814848EA0201102122
B0837374629246N00814853EA0201202123
B0837384629250N00814857EA0201302124
B0837394629253N00814861EA0201402125
B0837404629256N00814865EA0201602127
B0837414629259N00814870EA0201902130
B0837424629262N00814875EA0202202133
B0837434629264N00814879EA0202502136
B0837444629266N00814883EA0202802138
B0837454629267N00814888EA0202902140
B0837464629268N00814894EA0202902140
B0837474629270N00814899EA0203002141
B0837484629272N00814905EA0203302143
B0837494629274N00814909EA0203402145
B0837504629276N00814912EA0203502146
B0837514629277N00814916EA0203502146
B0837524629279N00814919EA0203502145
B0837534629282N00814923EA0203402144
B0837544629285N00814928EA0203302144
B0837554629287N00814933EA0203302143
B0837564629290N00814937EA0203202143
B0837574629294N00814942EA0203302143
B0837584629297N00814946EA0203302143
B0837594629301N00814949EA0203202143
B0838004629304N00814952EA0203102142
B0838014629308N00814956EA0203102141
B0838024629310N00814962EA0203002140
B0838034629313N00814967EA0202902140
B0838044629316N00814972EA0202902139
B0838054629318N00814978EA0202802138
B0838064629321N00814984EA0202702137
B0838074629324N00814990EA0202602136
B0838084629327N00814995EA0202602136
B0838094629330N00815000EA0202502135
B0838104629333N00815006EA0202502135
B0838114629336N00815011EA0202402134
B0838124629339N00815017EA0202302133
B0838134629342N00815023EA0202202132
B0838144629346N00815029EA0202102131
B0838154629349N00815035EA0202102131
B0838164629352N00815042EA0202002130
B0838174629355N00815048EA0201902129
B0838184629358N00815054EA0201902128
B0838194629361N00815061EA0201802127
B0838204629364N00815067EA0201702127
B0838214629367N00815073EA0201502125
B0838224629370N00815080EA0201402124
B0838234629373N00815087EA0201402123
B0838244629377N00815093EA0201302123
B0838254629380N00815100EA0201302123
B0838264629384N00815106EA0201302122
B0838274629388N00815112EA0201302122
B0838284629391N00815119EA0201102121
B0838294629394N00815126EA0201002119
B0838304629397N00815133EA0200802118
B0838314629401N00815140EA0200702116
B0838324629405N00815146EA0200602115
B0838334629408N00815153EA0200502114
B0838344629412N00815159EA0200302112
B0838354629415N00815165EA0200002110
B0838364629419N00815171EA0199802107
B0838374629422N00815177EA0199502104
B0838384629426N00815183EA0199302102
B0838394629429N00815190EA0199102100
B0838404629433N00815197EA0198902099
B0838414629436N00815203EA0198802097
B0838424629439N00815209EA0198702096
B0838434629443N00815215EA0198502094
B0838444629446N00815221EA0198302092
B0838454629449N00815228EA0198102090
B0838464629453N00815236EA0198002089
B0838474629457N00815243EA0197902088
B0838484629460N00815249EA0197902088
B0838494629463N00815255EA0197802087
B0838504629465N00815260EA0197702086
B0838514629468N00815266EA0197602085
B0838524629472N00815273EA0197502084
B0838534629474N00815280EA0197502084
B0838544629477N00815287EA0197502084
B0838554629480N00815292EA0197402083
B0838564629482N00815298EA0197302082
B0838574629485N00815305EA0197202081
B0838584629488N00815312EA0197102080
B0838594629491N00815318EA0197102080
B0839004629494N00815323EA0197002079
B0839014629497N00815328EA0196902078
B0839024629500N00815333EA0196702076
B0839034629502N00815339EA0196502073
B0839044629505N00815345EA0196302071
B0839054629508N00815352EA0196102070
B0839064629512N00815358EA0196002069
B0839074629515N00815364EA0196002068
B0839084629518N00815370EA0195902068
B0839094629520N00815376EA0195902067
B0839104629523N00815382EA0195902067
B0839114629526N00815387EA0195902067
B0839124629530N00815392EA0195902067
B0839134629533N00815396EA0195802066
B0839144629536N00815401EA0195702065
B0839154629539N00815407EA0195602064
B0839164629541N00815413EA0195602064
B0839174629543N00815418EA0195402063
B0839184629546N00815424EA0195302061
B0839194629549N00815429EA0195202060
B0839204629552N00815435EA0195102059
B0839214629555N00815441EA0195102059
B0839224629557N00815447EA0195002058
B0839234629559N00815452EA0195002058
B0839244629562N00815457EA0194902057
B0839254629565N00815462EA0194802056
B0839264629568N00815467EA0194602054
B0839274629572N00815473EA0194502053
B0839284629575N00815479EA0194402052
B0839294629578N00815484EA0194402052
B0839304629582N00815490EA0194402052
B0839314629585N00815495EA0194402051
B0839324629588N00815501EA0194302050
B0839334629591N00815507EA0194202049
B0839344629594N00815513EA0194002047
B0839354629597N00815518EA0193702045
B0839364629600N00815525EA0193502043
B0839374629604N00815531EA0193302041
B0839384629607N00815539EA0193102039
B0839394629611N00815545EA0192902036
B0839404629615N00815552EA0192702034
B0839414629618N00815559EA0192402032
B0839424629622N00815566EA0192202030
B0839434629625N00815573EA0192102028
B0839444629628N00815579EA0191902027
B0839454629631N00815585EA0191802025
B0839464629634N00815591EA0191602024
B0839474629637N00815597EA0191502022
B0839484629640N00815603EA0191402021
B0839494629643N00815609EA0191302020
B0839504629646N00815615EA0191202019
B0839514629648N00815621EA0191102018
B0839524629650N00815626EA0191002017
B0839534629653N00815631EA0190902016
B0839544629655N00815636EA0190902016
B0839554629657N00815641EA0190702014
B0839564629659N00815647EA0190602013
B0839574629661N00815653EA0190402011
B0839584629662N00815658EA0190202009
B0839594629665N00815663EA0190102008
B0840004629668N00815667EA0189802005
B0840014629672N00815672EA0189602003
B0840024629676N00815678EA0189502001
B0840034629679N00815685EA0189402001
B0840044629681N00815690EA0189402001
B0840054629683N00815695EA0189302000
B0840064629686N00815699EA0189201998
B0840074629688N00815704EA0188901996
B0840084629691N00815709EA0188601993
B0840094629694N00815715EA0188401990
B0840104629698N00815722EA0188201989
B0840114629702N00815728EA0188101987
B0840124629705N00815733EA0187901986
B0840134629708N00815739EA0187701984
B0840144629711N00815744EA0187501981
B0840154629714N00815750EA0187301979
B0840164629717N00815756EA0187101977
B0840174629720N00815762EA0186901976
B0840184629724N00815767EA0186801974
B0840194629727N00815772EA0186701973
B0840204629731N00815777EA0186501971
B0840214629734N00815781EA0186301970
B0840224629737N00815786EA0186201968
B0840234629741N00815791EA0186101967
B0840244629744N00815796EA0185901965
B0840254629747N00815801EA0185801964
B0840264629751N00815805EA0185601962
B0840274629754N00815811EA0185401960
B0840284629757N00815816EA0185301959
B0840294629760N00815821EA0185201958
B0840304629764N00815826EA0185101957
B0840314629767N00815830EA0185001956
B0840324629769N00815835EA0184801954
B0840334629772N00815840EA0184701953
B0840344629775N00815845EA0184501951
B0840354629778N00815849EA0184301949
B0840364629781N00815854EA0184101947
B0840374629784N00815859EA0183901945
B0840384629787N00815864EA0183701943
B0840394629790N00815869EA0183501941
B0840404629792N00815874EA0183301939
B0840414629795N00815879EA0183001936
B0840424629797N00815884EA0182801933
B0840434629800N00815889EA0182501930
B0840444629803N00815894EA0182201928
B0840454629805N00815899EA0181901925
B0840464629808N00815904EA0181701922
B0840474629810N00815910EA0181501920
B0840484629812N00815914EA0181201917
B0840494629813N00815919EA0180901915
B0840504629816N00815924EA0180701912
B0840514629818N00815929EA0180401910
B0840524629821N00815934EA0180201908
B0840534629822N00815939EA0180101907
B0840544629823N00815943EA0180001906
B0840554629825N00815946EA0180001905
B0840564629827N00815950EA0179801903
B0840574629828N00815953EA0179701902
B0840584629829N00815958EA0179601901
B0840594629829N00815964EA0179401900
B0841004629829N00815969EA0179301898
B0841014629829N00815973EA0179101896
B0841024629830N00815977EA0178801894
B0841034629831N00815982EA0178601891
B0841044629832N00815988EA0178501890
B0841054629833N00815994EA0178301888
B0841064629834N00816000EA0178301888
B0841074629835N00816004EA0178301888
B0841084629838N00816009EA0178201887
B0841094629840N00816013EA0178101886
B0841104629843N00816017EA0177901884
B0841114629845N00816023EA0177801883
B0841124629846N00816028EA0177701882
B0841134629848N00816032EA0177701882
B0841144629850N00816036EA0177801883
B0841154629852N00816041EA0177801883
B0841164629854N00816044EA0177901884
B0841174629855N00816047EA0177901883
B0841184629857N00816050EA0177801883
B0841194629858N00816054EA0177701882
B0841204629859N00816058EA0177601881
B0841214629860N00816063EA0177601880
B0841224629862N00816067EA0177601881
B0841234629864N00816071EA0177601881
B0841244629866N00816074EA0177601881
B0841254629867N00816078EA0177601881
B0841264629869N00816082EA0177501880
B0841274629870N00816086EA0177401878
B0841284629872N00816089EA0177201877
B0841294629874N00816093EA0177201876
B0841304629875N00816097EA0177101875
B0841314629877N00816101EA0177001874
B0841324629878N00816106EA0177001874
B0841334629879N00816109EA0177001874
B0841344629881N00816113EA0177001875
B0841354629883N00816117EA0177101875
B0841364629884N00816120EA0177001874
B0841374629885N00816125EA0177001874
B0841384629885N00816129EA0176901873
B0841394629887N00816134EA0176701871
B0841404629888N00816139EA0176601870
B0841414629890N00816144EA0176601870
B0841424629892N00816149EA0176601870
B0841434629894N00816154EA0176701871
B0841444629896N00816159EA0176701871
B0841454629898N00816162EA0176801872
B0841464629900N00816166EA0176701871
B0841474629903N00816171EA0176901873
B0841484629906N00816175EA0176901873
B0841494629908N00816178EA0177001874
B0841504629909N00816182EA0177101875
B0841514629910N00816185EA0177301877
B0841524629912N00816189EA0177301877
B0841534629913N00816194EA0177201876
B0841544629914N00816199EA0177201876
B0841554629916N00816204EA0177301877
B0841564629919N00816209EA0177401878
B0841574629921N00816213EA0177501879
B0841584629922N00816217EA0177601879
B0841594629924N00816220EA0177501879
B0842004629925N00816224EA0177401878
B0842014629927N00816229EA0177301877
B0842024629929N00816233EA0177201876
B0842034629932N00816236EA0177101875
B0842044629935N00816240EA0177101874
B0842054629939N00816244EA0177101874
B0842064629942N00816250EA0177101874
B0842074629944N00816255EA0177101874
B0842084629946N00816260EA0177101874
B0842094629947N00816264EA0177001873
B0842104629948N00816267EA0176701871
B0842114629950N00816273EA0176501868
B0842124629953N00816279EA0176201866
B0842134629955N00816286EA0176001864
B0842144629958N00816292EA0176001863
B0842154629961N00816297EA0175901862
B0842164629963N00816302EA0175701861
B0842174629966N00816308EA0175601859
B0842184629968N00816314EA0175401858
B0842194629971N00816320EA0175301856
B0842204629974N00816327EA0175201855
B0842214629977N00816333EA0175301856
B0842224629979N00816339EA0175401857
B0842234629982N00816344EA0175501858
B0842244629984N00816349EA0175701860
B0842254629986N00816353EA0175701860
B0842264629989N00816356EA0175701860
B0842274629992N00816359EA0175601858
B0842284629995N00816365EA0175401856
B0842294629997N00816371EA0175201855
B0842304629999N00816377EA0175201854
B0842314630002N00816382EA0175201854
B0842324630005N00816386EA0175101854
B0842334630008N00816390EA0175101853
B0842344630011N00816395EA0175001853
B0842354630014N00816400EA0175001852
B0842364630016N00816405EA0174901852
B0842374630019N00816410EA0174901851
B0842384630023N00816414EA0174801850
B0842394630026N00816419EA0174701849
B0842404630029N00816425EA0174601848
B0842414630031N00816430EA0174501848
B0842424630033N00816436EA0174501847
B0842434630036N00816440EA0174401846
B0842444630039N00816444EA0174301845
B0842454630042N00816448EA0174101844
B0842464630045N00816453EA0174001842
B0842474630049N00816457EA0173901841
B0842484630052N00816462EA0173901841
B0842494630056N00816466EA0173801841
B0842504630060N00816470EA0173801840
B0842514630063N00816474EA0173701839
B0842524630067N00816479EA0173701840
B0842534630070N00816483EA0173801840
B0842544630073N00816488EA0173801840
B0842554630076N00816493EA0173801840
B0842564630079N00816497EA0173801840
B0842574630082N00816502EA0173701839
B0842584630084N00816507EA0173701839
B0842594630087N00816512EA0173601838
B0843004630090N00816518EA0173501837
B0843014630094N00816524EA0173501837
B0843024630096N00816531EA0173401836
B0843034630099N00816537EA0173401836
B0843044630102N00816543EA0173501837
B0843054630104N00816547EA0173501837
B0843064630107N00816551EA0173501837
B0843074630109N00816556EA0173401835
B0843084630111N00816562EA0173201834
B0843094630114N00816568EA0173101833
B0843104630117N00816574EA0173001832
B0843114630119N00816580EA0172901831
B0843124630122N00816585EA0172801830
B0843134630125N00816589EA0172601828
B0843144630127N00816595EA0172401826
B0843154630129N00816601EA0172201824
B0843164630131N00816607EA0172101822
B0843174630133N00816613EA0171901821
B0843184630135N00816619EA0171801819
B0843194630138N00816624EA0171601818
B0843204630141N00816630EA0171501816
B0843214630145N00816634EA0171301814
B0843224630147N00816640EA0171201813
B0843234630149N00816645EA0171101812
B0843244630151N00816651EA0171001811
B0843254630151N00816657EA0170801810
B0843264630152N00816663EA0170701808
B0843274630152N00816668EA0170601807
B0843284630152N00816674EA0170401805
B0843294630153N00816680EA0170201803
B0843304630153N00816686EA0170001801
B0843314630154N00816692EA0170001801
B0843324630154N00816698EA0170001801
B0843334630153N00816704EA0170001801
B0843344630153N00816709EA0170001801
B0843354630154N00816714EA0170001801
B0843364630154N00816719EA0169901800
B0843374630154N00816724EA0169701798
B0843384630154N00816730EA0169601797
B0843394630154N00816736EA0169501796
B0843404630153N00816742EA0169401795
B0843414630152N00816748EA0169201793
B0843424630152N00816753EA0169101792
B0843434630151N00816759EA0168901790
B0843444630150N00816765EA0168701788
B0843454630149N00816771EA0168501786
B0843464630149N00816777EA0168401784
B0843474630148N00816784EA0168201782
B0843484630147N00816791EA0168101781
B0843494630146N00816797EA0168101782
B0843504630145N00816802EA0168101782
B0843514630144N00816807EA0168001781
B0843524630144N00816812EA0167901779
B0843534630144N00816818EA0167701777
B0843544630143N00816824EA0167501776
B0843554630142N00816830EA0167401774
B0843564630142N00816836EA0167301773
B0843574630141N00816841EA0167201772
B0843584630141N00816847EA0167101772
B0843594630140N00816853EA0167001770
B0844004630140N00816859EA0166901770
B0844014630139N00816864EA0166901769
B0844024630139N00816870EA0166801768
B0844034630140N00816875EA0166701767
B0844044630141N00816880EA0166501765
B0844054630142N00816886EA0166401764
B0844064630142N00816892EA0166301763
B0844074630142N00816898EA0166101762
B0844084630142N00816905EA0166001760
B0844094630142N00816911EA0165801758
B0844104630142N00816917EA0165601756
B0844114630142N00816923EA0165501755
B0844124630142N00816930EA0165301753
B0844134630142N00816936EA0165101751
B0844144630142N00816943EA0165001750
B0844154630142N00816949EA0164901749
B0844164630141N00816956EA0164901748
B0844174630141N00816963EA0164801748
B0844184630140N00816970EA0164701747
B0844194630140N00816976EA0164601746
B0844204630139N00816983EA0164501745
B0844214630138N00816989EA0164501744
B0844224630138N00816996EA0164401743
B0844234630138N00817002EA0164301742
B0844244630138N00817008EA0164201741
B0844254630137N00817015EA0164101740
B0844264630136N00817022EA0164001739
B0844274630136N00817028EA0163901739
B0844284630136N00817034EA0163801738
B0844294630136N00817041EA0163701736
B0844304630136N00817047EA0163601735
B0844314630136N00817054EA0163401733
B0844324630135N00817060EA0163201731
B0844334630135N00817066EA0162901729
B0844344630133N00817073EA0162701726
B0844354630132N00817080EA0162601725
B0844364630131N00817086EA0162701726
B0844374630131N00817092EA0162801727
B0844384630130N00817098EA0162801727
B0844394630130N00817104EA0162701726
B0844404630129N00817111EA0162601725
B0844414630129N00817118EA0162501724
B0844424630128N00817126EA0162501724
B0844434630127N00817132EA0162501724
B0844444630126N00817138EA0162601725
B0844454630126N00817144EA0162501724
B0844464630125N00817149EA0162301723
B0844474630123N00817155EA0162201721
B0844484630122N00817161EA0161901718
B0844494630122N00817168EA0161701717
B0844504630121N00817175EA0161701716
B0844514630120N00817182EA0161701716
B0844524630120N00817188EA0161601715
B0844534630119N00817194EA0161501715
B0844544630119N00817201EA0161401713
B0844554630119N00817208EA0161301712
B0844564630119N00817215EA0161301712
B0844574630118N00817222EA0161301712
B0844584630118N00817228EA0161301712
B0844594630118N00817234EA0161101711
B0845004630119N00817240EA0161001709
B0845014630120N00817246EA0160901708
B0845024630120N00817252EA0160701706
B0845034630121N00817259EA0160601705
B0845044630121N00817265EA0160601705
B0845054630122N00817271EA0160501704
B0845064630122N00817277EA0160501704
B0845074630123N00817283EA0160501704
B0845084630123N00817288EA0160401703
B0845094630123N00817293EA0160301702
B0845104630123N00817299EA0160101700
B0845114630123N00817305EA0160001699
B0845124630124N00817311EA0159801697
B0845134630124N00817317EA0159701696
B0845144630125N00817323EA0159701696
B0845154630125N00817328EA0159601694
B0845164630126N00817333EA0159401693
B0845174630126N00817339EA0159301692
B0845184630128N00817345EA0159201690
B0845194630128N00817351EA0159001689
B0845204630129N00817357EA0158901688
B0845214630129N00817362EA0158801687
B0845224630130N00817367EA0158701686
B0845234630130N00817373EA0158401683
B0845244630130N00817379EA0158201680
B0845254630130N00817385EA0157901678
B0845264630131N00817392EA0157801676
B0845274630130N00817398EA0157701676
B0845284630130N00817404EA0157601675
B0845294630128N00817410EA0157501674
B0845304630127N00817414EA0157501674
B0845314630125N00817419EA0157501673
B0845324630122N00817423EA0157401672
B0845334630120N00817428EA0157201671
B0845344630118N00817433EA0157101669
B0845354630116N00817438EA0156901667
B0845364630114N00817443EA0156801666
B0845374630112N00817449EA0156701665
B0845384630110N00817455EA0156601664
B0845394630108N00817460EA0156701665
B0845404630107N00817465EA0156701665
B0845414630105N00817471EA0156601664
B0845424630103N00817477EA0156401662
B0845434630102N00817483EA0156401662
B0845444630100N00817490EA0156601664
B0845454630098N00817496EA0156601664
B0845464630095N00817501EA0156601664
B0845474630093N00817505EA0156501663
B0845484630090N00817510EA0156301661
B0845494630089N00817515EA0156101659
B0845504630088N00817522EA0155901657
B0845514630089N00817529EA0155801656
B0845524630090N00817535EA0156001658
B0845534630091N00817540EA0156001658
B0845544630092N00817545EA0155901657
B0845554630094N00817549EA0155701655
B0845564630096N00817555EA0155501653
B0845574630098N00817561EA0155501652
B0845584630101N00817567EA0155601653
B0845594630102N00817571EA0155601653
B0846004630103N00817574EA0155401652
B0846014630103N00817578EA0155301651
B0846024630104N00817584EA0155101648
B0846034630105N00817590EA0154801646
B0846044630104N00817596EA0154701645
B0846054630101N00817601EA0154701644
B0846064630097N00817604EA0154601643
B0846074630091N00817604EA0154501643
B0846084630087N00817603EA0154501643
B0846094630083N00817603EA0154501643
B0846104630078N00817601EA0154501642
B0846114630073N00817597EA0154201640
B0846124630068N00817590EA0153901636
B0846134630063N00817581EA0153601634
B0846144630061N00817571EA0153501633
B0846154630062N00817560EA0153301630
B0846164630064N00817551EA0153001627
B0846174630067N00817543EA0152701624
B0846184630072N00817537EA0152601623
B0846194630078N00817532EA0152501622
B0846204630083N00817531EA0152401621
B0846214630088N00817532EA0152201619
B0846224630092N00817537EA0152001617
B0846234630094N00817543EA0151901616
B0846244630093N00817549EA0151901616
B0846254630090N00817554EA0151901616
B0846264630085N00817555EA0151801615
B0846274630079N00817554EA0151701614
B0846284630074N00817551EA0151701614
B0846294630070N00817547EA0151701614
B0846304630065N00817542EA0151701614
B0846314630062N00817535EA0151601613
B0846324630060N00817526EA0151401611
B0846334630060N00817515EA0151101608
B0846344630062N00817504EA0150901605
B0846354630065N00817495EA0150801604
B0846364630070N00817490EA0150701604
B0846374630075N00817487EA0150701603
B0846384630079N00817486EA0150601603
B0846394630084N00817487EA0150501602
B0846404630087N00817491EA0150301600
B0846414630089N00817495EA0150101598
B0846424630090N00817500EA0149901596
B0846434630091N00817505EA0149901596
B0846444630091N00817509EA0149901596
B0846454630092N00817512EA0149901595
B0846464630092N00817516EA0149801594
B0846474630092N00817520EA0149701593
B0846484630092N00817525EA0149501591
B0846494630090N00817531EA0149401591
B0846504630089N00817537EA0149401591
B0846514630089N00817542EA0149501592
B0846524630089N00817548EA0149601592
B0846534630088N00817551EA0149601592
B0846544630088N00817554EA0149601592
B0846554630087N00817556EA0149401590
B0846564630086N00817559EA0149101587
B0846574630086N00817564EA0148701583
B0846584630086N00817569EA0148401580
B0846594630086N00817575EA0148201578
B0847004630086N00817580EA0148101577
B0847014630087N00817584EA0147901575
B0847024630087N00817588EA0147701573
B0847034630088N00817592EA0147501571
B0847044630088N00817598EA0147301569
B0847054630086N00817605EA0147101567
B0847064630084N00817610EA0147001566
B0847074630081N00817613EA0146901565
B0847084630076N00817615EA0146801563
B0847094630071N00817616EA0146601562
B0847104630066N00817614EA0146401560
B0847114630061N00817610EA0146201557
B0847124630055N00817602EA0145901555
B0847134630051N00817593EA0145801554
B0847144630050N00817582EA0145801553
B0847154630050N00817571EA0145701553
B0847164630052N00817561EA0145701553
B0847174630056N00817554EA0145701553
B0847184630060N00817549EA0145601552
B0847194630064N00817545EA0145501550
B0847204630069N00817543EA0145301549
B0847214630073N00817544EA0145101546
B0847224630078N00817547EA0144801544
B0847234630080N00817551EA0144701543
B0847244630082N00817556EA0144601542
B0847254630082N00817561EA0144501540
B0847264630080N00817565EA0144301538
B0847274630078N00817570EA0144001536
B0847284630076N00817575EA0143801533
B0847294630072N00817579EA0143501530
B0847304630068N00817583EA0143201528
B0847314630064N00817587EA0142901524
B0847324630060N00817591EA0142901524
B0847334630057N00817594EA0142901524
B0847344630054N00817597EA0142801523
B0847354630052N00817600EA0142701522
B0847364630049N00817603EA0142601521
B0847374630045N00817605EA0142501520
B0847384630042N00817607EA0142301518
B0847394630038N00817610EA0142201517
B0847404630035N00817612EA0142001515
B0847414630030N00817614EA0141801513
B0847424630024N00817614EA0141701511
B0847434630018N00817613EA0141301508
B0847444630011N00817612EA0141101506
B0847454630005N00817610EA0141101506
B0847464629998N00817609EA0141301508
B0847474629993N00817608EA0141401508
B0847484629988N00817604EA0141301508
B0847494629982N00817599EA0141201507
B0847504629978N00817591EA0141101505
B0847514629974N00817582EA0140901504
B0847524629971N00817571EA0140901503
B0847534629970N00817560EA0140801502
B0847544629972N00817549EA0140701501
B0847554629975N00817541EA0140601500
B0847564629979N00817535EA0140501499
B0847574629983N00817531EA0140401498
B0847584629987N00817529EA0140301497
B0847594629991N00817527EA0140201496
B0848004629995N00817525EA0140101495
B0848014629998N00817525EA0140001495
B0848024630000N00817526EA0140001494
B0848034630002N00817528EA0139801493
B0848044630002N00817531EA0139701491
B0848054630003N00817534EA0139601491
B0848064630004N00817536EA0139501489
B0848074630004N00817539EA0139401488
B0848084630005N00817542EA0139201486
B0848094630005N00817545EA0139101485
B0848104630005N00817549EA0138901483
B0848114630006N00817552EA0138701481
B0848124630007N00817556EA0138701481
B0848134630008N00817559EA0138701481
B0848144630008N00817561EA0138701481
B0848154630009N00817563EA0138501479
B0848164630009N00817565EA0138201476
B0848174630010N00817568EA0137901473
B0848184630009N00817571EA0137701471
B0848194630008N00817575EA0137601469
B0848204630007N00817579EA0137401468
B0848214630003N00817581EA0137301467
B0848224629999N00817582EA0137001464
B0848234629995N00817583EA0136701461
B0848244629989N00817583EA0136401458
B0848254629982N00817582EA0136101455
B0848264629976N00817578EA0135901453
B0848274629969N00817572EA0135901453
B0848284629963N00817565EA0136001454
B0848294629958N00817558EA0136101455
B0848304629954N00817552EA0136201455
B0848314629950N00817545EA0136101455
B0848324629946N00817538EA0136001453
B0848334629940N00817529EA0135801452
B0848344629935N00817522EA0135801451
B0848354629930N00817514EA0135801452
B0848364629925N00817507EA0135901452
B0848374629921N00817500EA0135901452
B0848384629916N00817494EA0135901452
B0848394629911N00817488EA0135801451
B0848404629907N00817481EA0135701450
B0848414629903N00817473EA0135601449
B0848424629900N00817464EA0135501448
B0848434629897N00817455EA0135401447
B0848444629894N00817447EA0135301446
B0848454629892N00817438EA0135101444
B0848464629889N00817429EA0134901442
B0848474629887N00817420EA0134601440
B0848484629885N00817410EA0134401437
B0848494629885N00817401EA0134301436
B0848504629885N00817392EA0134201435
B0848514629887N00817384EA0134101434
B0848524629888N00817377EA0133901432
B0848534629890N00817370EA0133801431
B0848544629892N00817362EA0133601428
B0848554629894N00817354EA0133401426
B0848564629897N00817347EA0133201425
B0848574629900N00817339EA0133001423
B0848584629902N00817332EA0132801421
B0848594629905N00817325EA0132601419
B0849004629907N00817317EA0132401416
B0849014629910N00817311EA0132201414
B0849024629915N00817305EA0132001413
B0849034629919N00817301EA0131901412
B0849044629924N00817299EA0131901412
B0849054629928N00817297EA0131901411
B0849064629932N00817294EA0131801411
B0849074629935N00817291EA0131701409
B0849084629939N00817287EA0131501408
B0849094629943N00817285EA0131401406
B0849104629947N00817284EA0131301405
B0849114629951N00817284EA0131201404
B0849124629955N00817283EA0131201404
B0849134629958N00817282EA0131101403
B0849144629961N00817281EA0131001402
B0849154629965N00817282EA0130801400
B0849164629968N00817283EA0130501398
B0849174629971N00817284EA0130401396
B0849184629975N00817286EA0130401396
B0849194629978N00817287EA0130301395
B0849204629981N00817288EA0130301395
B0849214629983N00817289EA0130101393
B0849224629985N00817290EA0129901392
B0849234629988N00817292EA0129601388
B0849244629991N00817294EA0129301385
B0849254629994N00817297EA0129001382
B0849264629997N00817300EA0128801380
B0849274629999N00817303EA0128701379
B0849284630002N00817306EA0128601378
B0849294630004N00817308EA0128501376
B0849304630006N00817310EA0128201374
B0849314630008N00817313EA0128101373
B0849324630010N00817315EA0128101373
B0849334630011N00817317EA0128001371
B0849344630013N00817319EA0128001372
B0849354630013N00817319EA0128101373
B0849364630013N00817319EA0128101373
B0849374630013N00817319EA0128101373
B0849384630014N00817319EA0128101373
B0849394630014N00817318EA0128101373
B0849404630014N00817317EA0128101372
B0849414630014N00817316EA0128101373
B0849424630014N00817316EA0128101373
B0849434630014N00817316EA0128101373
B0849444630014N00817316EA0128101373
B0849454630013N00817316EA0128101372
B0849464630013N00817316EA0128101372
B0849474630013N00817316EA0128101372
B0849484630013N00817316EA0128101372
B0849494630013N00817315EA0128101372
B0849504630013N00817316EA0128101372
B0849514630013N00817316EA0128101372
B0849524630013N00817316EA0128101372
B0849534630013N00817316EA0128101372
B0849544630013N00817316EA0128101372
B0849554630013N00817316EA0128101372
B0849564630013N00817316EA0128101372
B0849574630013N00817316EA0128101372
B0849584630013N00817316EA0128101372
B0849594630013N00817316EA0128101372
B0850004630013N00817316EA0128101372
B0850014630013N00817316EA0128101372
B0850024630013N00817315EA0128101372
B0850034630013N00817315EA0128101372
B0850044630013N00817315EA0128101372
B0850054630013N00817315EA0128101372
B0850064630014N00817314EA0128101372
B0850074630015N00817314EA0128101372
B0850084630015N00817315EA0128101372
B0850094630015N00817315EA0128101372
B0850104630015N00817315EA0128101372
B0850114630015N00817315EA0128101372
B0850124630015N00817315EA0128101372
B0850134630015N00817315EA0128101372
B0850144630015N00817315EA0128101372
B0850154630015N00817315EA0128101372
B0850164630015N00817315EA0128101372
B0850174630015N00817315EA0128101372
B0850184630015N00817315EA0128101372
B0850194630016N00817316EA0128101371
B0850204630016N00817316EA0128101371
B0850214630016N00817317EA0128101371
B0850224630016N00817318EA0128101371
B0850234630017N00817319EA0128101371
B0850244630018N00817320EA0128101371
B0850254630018N00817320EA0128101371
B0850264630019N00817321EA0128101371
B0850274630019N00817322EA0128101371
B0850284630019N00817323EA0128101371
B0850294630019N00817324EA0128101371
B0850304630019N00817325EA0128101371
B0850314630020N00817326EA0128101371
B0850324630020N00817327EA0128101371
B0850334630021N00817328EA0128101371
B0850344630021N00817329EA0128101371
B0850354630021N00817329EA0128101371
B0850364630022N00817330EA0128101371
B0850374630022N00817331EA0128101371
B0850384630022N00817332EA0128101371
B0850394630023N00817332EA0128101371
B0850404630023N00817333EA0128101371
B0850414630024N00817334EA0128101370
B0850424630024N00817335EA0128101371
B0850434630025N00817336EA0128101370
B0850444630025N00817337EA0128101371
B0850454630026N00817338EA0128101371
B0850464630026N00817338EA0128101371
B0850474630026N00817339EA0128101371
B0850484630027N00817340EA0128101371
B0850494630027N00817340EA0128101371
B0850504630027N00817341EA0128101371
B0850514630027N00817342EA0128101371
B0850524630027N00817343EA0128101371
B0850534630028N00817343EA0128101370
B0850544630028N00817344EA0128101370
B0850554630029N00817346EA0128101370
B0850564630029N00817346EA0128101371
B0850574630029N00817347EA0128101371
B0850584630029N00817348EA0128101371
B0850594630029N00817349EA0128201371
B0851004630029N00817350EA0128101371
B0851014630030N00817351EA0128101371
B0851024630030N00817352EA0128101371
B0851034630031N00817353EA0128101370
B0851044630031N00817354EA0128101370
B0851054630031N00817355EA0128101370
B0851064630031N00817355EA0128101370
B0851074630031N00817356EA0128101370
B0851084630031N00817357EA0128201371
B0851094630031N00817357EA0128301372
B0851104630031N00817357EA0128201371
B0851114630031N00817357EA0128201371
B0851124630031N00817357EA0128201371
B0851134630031N00817357EA0128201371
LXSX;C1;GM:1.3
LXSX;S1;TS:1688026132;TL:1688028673;AS:2158;AL:1371;AT:2559;AB:1370
LXSX;S1;XS:0;XD:18.26;SP:52.6;MC:3.5;MS:-2.6;NB:2543
LXSX;S1;FL:24.9;TG:470;TC:1.1;AG:1347;GM:1.3
LXSX;S1;X0:46.41285,8.10932
LXSX;S1;X1:46.50245,8.27733
LXSX;S1;X2:46.50152,8.29340
LXSX;S1;X3:46.49813,8.28962
LXSX;S1;X4:46.50037,8.28885
GCEDBDEE42ED03F5E2D11022986A901A0
