AXSX005 SKYTRAXX
HFPLTPILOT:Sepp Bucher
HFGTYGLIDERTYPE:Advance Sigma11
HFDTM100GPSDATUM:WGS-84
HFRFWFIRMWAREVERSION:202301101323
HFRHWHARDWAREVERSION:4.0
HFTZNTIMEZONE:+1.00
HFSITSITE:Ahornach (Acereto)
HFDTE010323
LXSX;I1;OAB:20230227;OOB:20230103
LXSX;I1;ID:114075
LXSX;I1;AC:1;CAT:C
B1100054655576N01158054EA0139801430
B1100064655576N01158054EA0139801430
B1100074655576N01158054EA0139801430
B1100084655576N01158054EA0139801430
B1100094655576N01158054EA0139801430
B1100104655576N01158054EA0139801430
B1100114655576N01158054EA0139801430
B1100124655576N01158054EA0139801430
B1100134655576N01158054EA0139801430
B1100144655576N01158054EA0139801430
B1100154655575N01158054EA0139801430
B1100164655574N01158054EA0139701429
B1100174655573N01158054EA0139601428
B1100184655572N01158053EA0139601427
B1100194655571N01158053EA0139601427
B1100204655570N01158052EA0139301425
B1100214655567N01158050EA0139001422
B1100224655564N01158048EA0138801419
B1100234655562N01158045EA0138601418
B1100244655558N01158041EA0139001421
B1100254655555N01158037EA0139101422
B1100264655552N01158034EA0139101422
B1100274655548N01158032EA0139001421
B1100284655546N01158028EA0138901420
B1100294655544N01158022EA0138801420
B1100304655542N01158017EA0138701418
B1100314655540N01158012EA0138501416
B1100324655536N01158007EA0138301414
B1100334655533N01158002EA0138101413
B1100344655531N01157997EA0138001412
B1100354655528N01157991EA0137901411
B1100364655526N01157985EA0137901410
B1100374655525N01157979EA0137901410
B1100384655524N01157973EA0137901411
B1100394655524N01157967EA0137901411
B1100404655525N01157960EA0137901410
B1100414655526N01157953EA0138001411
B1100424655528N01157946EA0138101413
B1100434655530N01157940EA0138301414
B1100444655532N01157936EA0138401415
B1100454655535N01157931EA0138401416
B1100464655537N01157926EA0138301415
B1100474655540N01157921EA0138201413
B1100484655542N01157915EA0137901411
B1100494655543N01157909EA0137701409
B1100504655543N01157902EA0137601407
B1100514655544N01157894EA0137501406
B1100524655544N01157887EA0137401406
B1100534655545N01157880EA0137301405
B1100544655545N01157873EA0137201404
B1100554655545N01157867EA0137101402
B1100564655545N01157860EA0136901401
B1100574655545N01157852EA0136701399
B1100584655545N01157845EA0136501397
B1100594655544N01157837EA0136401395
B1101004655542N01157830EA0136301394
B1101014655538N01157824EA0136201394
B1101024655533N01157821EA0136201394
B1101034655528N01157821EA0136201394
B1101044655522N01157825EA0136201394
B1101054655518N01157830EA0136301395
B1101064655516N01157836EA0136401395
B1101074655515N01157842EA0136301394
B1101084655513N01157848EA0136101392
B1101094655513N01157855EA0135801390
B1101104655512N01157863EA0135601387
B1101114655510N01157871EA0135301385
B1101124655509N01157878EA0135201384
B1101134655507N01157884EA0135201383
B1101144655505N01157889EA0135101382
B1101154655503N01157894EA0134901381
B1101164655500N01157899EA0134701379
B1101174655498N01157906EA0134501376
B1101184655497N01157913EA0134301375
B1101194655494N01157920EA0134201373
B1101204655491N01157926EA0134101372
B1101214655488N01157932EA0134001371
B1101224655485N01157937EA0133901370
B1101234655481N01157941EA0133701369
B1101244655476N01157944EA0133601367
B1101254655472N01157944EA0133401365
B1101264655466N01157943EA0133201364
B1101274655462N01157941EA0133101362
B1101284655458N01157936EA0133001361
B1101294655454N01157932EA0132901360
B1101304655452N01157926EA0132801359
B1101314655450N01157921EA0132601358
B1101324655448N01157915EA0132501356
B1101334655446N01157908EA0132301354
B1101344655444N01157902EA0132101352
B1101354655441N01157895EA0131901351
B1101364655438N01157889EA0131801350
B1101374655436N01157884EA0131701349
B1101384655434N01157878EA0131601348
B1101394655431N01157872EA0131501346
B1101404655428N01157866EA0131401345
B1101414655425N01157859EA0131301344
B1101424655423N01157853EA0131201344
B1101434655420N01157847EA0131101342
B1101444655418N01157841EA0130901341
B1101454655416N01157835EA0130701339
B1101464655413N01157828EA0130601337
B1101474655410N01157820EA0130501337
B1101484655408N01157812EA0130501337
B1101494655407N01157805EA0130701339
B1101504655406N01157799EA0130901340
B1101514655405N01157794EA0131001342
B1101524655405N01157790EA0131101343
B1101534655407N01157785EA0131101343
B1101544655410N01157780EA0131201343
B1101554655415N01157777EA0131201344
B1101564655421N01157776EA0131301345
B1101574655425N01157777EA0131501346
B1101584655429N01157781EA0131501346
B1101594655431N01157786EA0131301345
B1102004655432N01157792EA0131001342
B1102014655433N01157799EA0130801339
B1102024655432N01157806EA0130501336
B1102034655429N01157813EA0130301334
B1102044655425N01157818EA0130201334
B1102054655421N01157822EA0130301334
B1102064655418N01157823EA0130301335
B1102074655414N01157824EA0130201334
B1102084655410N01157822EA0130101332
B1102094655406N01157820EA0130001332
B1102104655403N01157816EA0130001332
B1102114655399N01157812EA0130101332
B1102124655397N01157807EA0130101333
B1102134655394N01157802EA0130301334
B1102144655390N01157798EA0130501337
B1102154655387N01157795EA0130601338
B1102164655385N01157791EA0130601338
B1102174655384N01157785EA0130601337
B1102184655383N01157779EA0130501336
B1102194655384N01157771EA0130401335
B1102204655386N01157765EA0130301334
B1102214655389N01157759EA0130301334
B1102224655393N01157755EA0130201334
B1102234655397N01157753EA0130101332
B1102244655402N01157752EA0129901331
B1102254655407N01157752EA0129801329
B1102264655413N01157754EA0129801330
B1102274655418N01157757EA0129901331
B1102284655422N01157761EA0130001331
B1102294655425N01157767EA0130001332
B1102304655426N01157773EA0130201333
B1102314655426N01157780EA0130201333
B1102324655425N01157786EA0130001332
B1102334655422N01157792EA0129901331
B1102344655418N01157796EA0129801330
B1102354655413N01157800EA0129801329
B1102364655408N01157803EA0129701329
B1102374655403N01157804EA0129801329
B1102384655398N01157804EA0129901330
B1102394655394N01157802EA0129901331
B1102404655391N01157799EA0129901330
B1102414655389N01157795EA0129801329
B1102424655387N01157790EA0129601327
B1102434655387N01157784EA0129301325
B1102444655387N01157776EA0129101322
B1102454655389N01157769EA0128901320
B1102464655392N01157762EA0128801320
B1102474655396N01157757EA0128801319
B1102484655401N01157754EA0128601318
B1102494655406N01157754EA0128501317
B1102504655411N01157755EA0128401315
B1102514655416N01157758EA0128301314
B1102524655420N01157763EA0128201313
B1102534655424N01157769EA0128101312
B1102544655427N01157775EA0128001312
B1102554655430N01157782EA0128101313
B1102564655432N01157788EA0128201313
B1102574655434N01157794EA0128201314
B1102584655436N01157801EA0128101313
B1102594655436N01157807EA0127901311
B1103004655435N01157814EA0127801309
B1103014655432N01157821EA0127601307
B1103024655428N01157827EA0127401305
B1103034655424N01157831EA0127301304
B1103044655419N01157836EA0127301305
B1103054655416N01157840EA0127401306
B1103064655413N01157846EA0127501306
B1103074655411N01157852EA0127401306
B1103084655409N01157858EA0127401305
B1103094655405N01157863EA0127201303
B1103104655401N01157867EA0127001301
B1103114655396N01157869EA0126801299
B1103124655391N01157871EA0126601298
B1103134655387N01157871EA0126601297
B1103144655383N01157870EA0126401295
B1103154655380N01157869EA0126101292
B1103164655376N01157866EA0125801290
B1103174655372N01157862EA0125601287
B1103184655369N01157856EA0125301284
B1103194655365N01157850EA0125101282
B1103204655363N01157844EA0124901280
B1103214655360N01157838EA0124701279
B1103224655358N01157832EA0124701278
B1103234655357N01157826EA0124501276
B1103244655357N01157819EA0124201273
B1103254655358N01157812EA0123901270
B1103264655359N01157805EA0123701268
B1103274655361N01157797EA0123501266
B1103284655363N01157790EA0123301264
B1103294655365N01157783EA0123001261
B1103304655367N01157775EA0122801260
B1103314655369N01157767EA0122801259
B1103324655371N01157759EA0122801259
B1103334655372N01157752EA0122701258
B1103344655375N01157746EA0122601257
B1103354655378N01157741EA0122501256
B1103364655381N01157735EA0122301255
B1103374655383N01157728EA0122301254
B1103384655385N01157721EA0122401255
B1103394655387N01157713EA0122501256
B1103404655388N01157707EA0122701258
B1103414655389N01157701EA0122901260
B1103424655390N01157695EA0122901260
B1103434655390N01157689EA0122801259
B1103444655388N01157684EA0122701258
B1103454655386N01157678EA0122501256
B1103464655382N01157674EA0122301254
B1103474655378N01157672EA0122001252
B1103484655373N01157672EA0121901250
B1103494655369N01157676EA0121701248
B1103504655367N01157681EA0121501246
B1103514655365N01157688EA0121301244
B1103524655365N01157695EA0121201243
B1103534655367N01157702EA0121101242
B1103544655369N01157708EA0121001241
B1103554655372N01157715EA0120801239
B1103564655374N01157721EA0120701238
B1103574655375N01157729EA0120501236
B1103584655373N01157737EA0120501236
B1103594655371N01157745EA0120501236
B1104004655368N01157750EA0120401235
B1104014655364N01157753EA0120201233
B1104024655359N01157755EA0120001231
B1104034655354N01157756EA0119801229
B1104044655349N01157755EA0119501226
B1104054655343N01157753EA0119301224
B1104064655338N01157749EA0119201223
B1104074655335N01157744EA0119201223
B1104084655333N01157739EA0119101222
B1104094655332N01157733EA0119001221
B1104104655332N01157727EA0118901220
B1104114655333N01157720EA0118701218
B1104124655334N01157713EA0118501216
B1104134655335N01157706EA0118301214
B1104144655337N01157698EA0118101212
B1104154655338N01157690EA0117901210
B1104164655339N01157683EA0117701209
B1104174655340N01157675EA0117701208
B1104184655340N01157669EA0117501207
B1104194655341N01157662EA0117301205
B1104204655342N01157655EA0117201203
B1104214655342N01157647EA0117001201
B1104224655343N01157638EA0116901200
B1104234655342N01157630EA0116901200
B1104244655343N01157623EA0116901200
B1104254655343N01157617EA0116701198
B1104264655342N01157611EA0116501196
B1104274655340N01157604EA0116201194
B1104284655337N01157598EA0116001191
B1104294655334N01157592EA0116001191
B1104304655330N01157588EA0116001191
B1104314655327N01157584EA0116001191
B1104324655324N01157581EA0115901190
B1104334655321N01157579EA0115701188
B1104344655316N01157576EA0115501187
B1104354655311N01157575EA0115501186
B1104364655306N01157574EA0115501186
B1104374655301N01157574EA0115501186
B1104384655297N01157574EA0115401185
B1104394655292N01157574EA0115301184
B1104404655287N01157574EA0115201184
B1104414655282N01157573EA0115201183
B1104424655277N01157573EA0115201183
B1104434655272N01157573EA0115201183
B1104444655267N01157574EA0115101182
B1104454655262N01157573EA0115101182
B1104464655258N01157572EA0115001181
B1104474655252N01157571EA0114901180
B1104484655247N01157571EA0114901180
B1104494655243N01157570EA0114901180
B1104504655238N01157571EA0114801179
B1104514655234N01157570EA0114701178
B1104524655229N01157570EA0114501176
B1104534655224N01157570EA0114401175
B1104544655219N01157569EA0114301174
B1104554655214N01157568EA0114301174
B1104564655209N01157568EA0114201173
B1104574655205N01157567EA0114101172
B1104584655200N01157568EA0113901170
B1104594655196N01157568EA0113801169
B1105004655191N01157568EA0113601167
B1105014655186N01157567EA0113301164
B1105024655181N01157567EA0113201163
B1105034655177N01157566EA0113101163
B1105044655172N01157566EA0113101162
B1105054655168N01157566EA0113001161
B1105064655164N01157565EA0112801159
B1105074655161N01157563EA0112501156
B1105084655156N01157561EA0112201153
B1105094655151N01157559EA0112001152
B1105104655146N01157557EA0111901150
B1105114655142N01157555EA0111901150
B1105124655138N01157553EA0111901150
B1105134655134N01157551EA0111801149
B1105144655130N01157549EA0111601147
B1105154655126N01157546EA0111401145
B1105164655121N01157543EA0111301144
B1105174655117N01157541EA0111201143
B1105184655113N01157539EA0111001141
B1105194655109N01157537EA0110901140
B1105204655105N01157535EA0110701138
B1105214655101N01157533EA0110501136
B1105224655096N01157530EA0110301135
B1105234655091N01157528EA0110201133
B1105244655087N01157526EA0110201133
B1105254655083N01157524EA0110101133
B1105264655080N01157522EA0110101132
B1105274655076N01157521EA0110001131
B1105284655072N01157519EA0109801129
B1105294655068N01157517EA0109601127
B1105304655063N01157515EA0109501126
B1105314655059N01157513EA0109301124
B1105324655055N01157511EA0109201123
B1105334655051N01157509EA0109101122
B1105344655047N01157507EA0109001121
B1105354655043N01157505EA0108801119
B1105364655038N01157502EA0108601117
B1105374655033N01157500EA0108501116
B1105384655029N01157498EA0108401115
B1105394655025N01157496EA0108401115
B1105404655020N01157493EA0108301114
B1105414655016N01157491EA0108201113
B1105424655012N01157489EA0108101112
B1105434655008N01157487EA0108001111
B1105444655003N01157485EA0107901110
B1105454654999N01157483EA0107701108
B1105464654995N01157481EA0107501107
B1105474654991N01157479EA0107501106
B1105484654987N01157477EA0107401105
B1105494654983N01157476EA0107401105
B1105504654979N01157474EA0107201104
B1105514654976N01157473EA0107101102
B1105524654973N01157471EA0106901100
B1105534654969N01157469EA0106801099
B1105544654965N01157467EA0106601098
B1105554654962N01157464EA0106501096
B1105564654958N01157462EA0106401096
B1105574654955N01157459EA0106301095
B1105584654952N01157457EA0106201093
B1105594654948N01157455EA0106001091
B1106004654945N01157454EA0105901090
B1106014654941N01157452EA0105701089
B1106024654937N01157451EA0105601087
B1106034654933N01157451EA0105501086
B1106044654930N01157450EA0105301085
B1106054654926N01157450EA0105201083
B1106064654922N01157449EA0105001082
B1106074654919N01157449EA0104901081
B1106084654915N01157449EA0104801079
B1106094654911N01157448EA0104601078
B1106104654907N01157448EA0104401076
B1106114654903N01157448EA0104301074
B1106124654899N01157448EA0104201073
B1106134654895N01157448EA0104001072
B1106144654891N01157449EA0103901071
B1106154654887N01157450EA0103701069
B1106164654883N01157451EA0103601067
B1106174654879N01157452EA0103401066
B1106184654875N01157453EA0103201064
B1106194654871N01157455EA0103201063
B1106204654866N01157457EA0103101063
B1106214654863N01157459EA0102901061
B1106224654858N01157460EA0102801060
B1106234654855N01157463EA0102601058
B1106244654851N01157465EA0102501057
B1106254654846N01157468EA0102301055
B1106264654842N01157470EA0102201054
B1106274654838N01157473EA0102101053
B1106284654834N01157475EA0102001052
B1106294654829N01157477EA0101901051
B1106304654826N01157479EA0101801050
B1106314654821N01157481EA0101701049
B1106324654817N01157484EA0101501048
B1106334654813N01157487EA0101401046
B1106344654809N01157490EA0101301045
B1106354654805N01157493EA0101101044
B1106364654801N01157496EA0101001043
B1106374654797N01157499EA0100901042
B1106384654794N01157501EA0100901041
B1106394654790N01157502EA0100801040
B1106404654785N01157503EA0100701039
B1106414654781N01157505EA0100601038
B1106424654777N01157508EA0100501038
B1106434654773N01157511EA0100401037
B1106444654768N01157514EA0100301036
B1106454654764N01157516EA0100301036
B1106464654760N01157519EA0100301036
B1106474654756N01157522EA0100301036
B1106484654752N01157525EA0100201035
B1106494654748N01157527EA0100101033
B1106504654744N01157529EA0099901031
B1106514654739N01157532EA0099701030
B1106524654735N01157535EA0099601028
B1106534654731N01157538EA0099401027
B1106544654727N01157541EA0099201025
B1106554654722N01157544EA0099001023
B1106564654718N01157547EA0098801021
B1106574654714N01157551EA0098601019
B1106584654709N01157555EA0098401017
B1106594654705N01157559EA0098301016
B1107004654701N01157562EA0098201015
B1107014654697N01157565EA0098101014
B1107024654692N01157567EA0098001013
B1107034654688N01157569EA0097801011
B1107044654683N01157569EA0097701010
B1107054654678N01157569EA0097601009
B1107064654674N01157568EA0097701009
B1107074654670N01157567EA0097701010
B1107084654666N01157566EA0097601009
B1107094654663N01157565EA0097501008
B1107104654659N01157563EA0097401006
B1107114654654N01157559EA0097301005
B1107124654650N01157555EA0097301006
B1107134654646N01157551EA0097401007
B1107144654644N01157548EA0097401007
B1107154654642N01157545EA0097401007
B1107164654639N01157542EA0097201005
B1107174654635N01157538EA0097001003
B1107184654632N01157534EA0096901002
B1107194654629N01157529EA0096801001
B1107204654627N01157523EA0096701000
B1107214654625N01157517EA0096700999
B1107224654624N01157511EA0096500998
B1107234654623N01157505EA0096300996
B1107244654623N01157498EA0096200995
B1107254654623N01157490EA0096000993
B1107264654625N01157483EA0095900992
B1107274654627N01157477EA0095700990
B1107284654631N01157472EA0095500988
B1107294654635N01157468EA0095400987
B1107304654640N01157465EA0095200985
B1107314654645N01157463EA0095100983
B1107324654650N01157464EA0094900982
B1107334654655N01157466EA0094700980
B1107344654660N01157469EA0094600978
B1107354654664N01157474EA0094400977
B1107364654666N01157481EA0094300976
B1107374654668N01157488EA0094100974
B1107384654669N01157495EA0094000973
B1107394654667N01157502EA0093800971
B1107404654665N01157508EA0093700970
B1107414654661N01157513EA0093600969
B1107424654657N01157515EA0093500968
B1107434654653N01157516EA0093300966
B1107444654649N01157515EA0093200965
B1107454654646N01157512EA0093000963
B1107464654642N01157508EA0092800961
B1107474654640N01157502EA0092600959
B1107484654639N01157495EA0092400957
B1107494654639N01157488EA0092300956
B1107504654640N01157481EA0092100954
B1107514654641N01157474EA0092000953
B1107524654643N01157468EA0091900952
B1107534654645N01157462EA0091800951
B1107544654648N01157458EA0091700950
B1107554654651N01157454EA0091500949
B1107564654655N01157450EA0091400947
B1107574654659N01157447EA0091200945
B1107584654663N01157444EA0091000943
B1107594654668N01157442EA0090900942
B1108004654672N01157440EA0090800941
B1108014654677N01157438EA0090700940
B1108024654681N01157437EA0090500939
B1108034654686N01157437EA0090400938
B1108044654691N01157437EA0090300937
B1108054654696N01157437EA0090200936
B1108064654701N01157437EA0090200935
B1108074654706N01157436EA0090100935
B1108084654710N01157436EA0090100934
B1108094654715N01157435EA0090000934
B1108104654719N01157434EA0089900933
B1108114654724N01157434EA0089800931
B1108124654729N01157436EA0089600930
B1108134654733N01157438EA0089500928
B1108144654738N01157441EA0089300927
B1108154654742N01157444EA0089200926
B1108164654747N01157447EA0089100925
B1108174654751N01157448EA0089000923
B1108184654756N01157450EA0088800921
B1108194654761N01157451EA0088600920
B1108204654766N01157454EA0088500918
B1108214654770N01157457EA0088300917
B1108224654774N01157461EA0088200915
B1108234654777N01157466EA0088000914
B1108244654781N01157472EA0087900912
B1108254654784N01157477EA0087700911
B1108264654787N01157482EA0087600909
B1108274654790N01157489EA0087400907
B1108284654793N01157497EA0087100905
B1108294654795N01157505EA0086800901
B1108304654798N01157512EA0086600900
B1108314654800N01157520EA0086700900
B1108324654801N01157528EA0086800902
B1108334654801N01157535EA0086900903
B1108344654803N01157542EA0086800901
B1108354654804N01157549EA0086600900
B1108364654807N01157556EA0086600899
B1108374654810N01157563EA0086600899
B1108384654811N01157569EA0086600899
B1108394654814N01157574EA0086500899
B1108404654817N01157578EA0086400898
B1108414654819N01157583EA0086300896
B1108424654822N01157588EA0086100894
B1108434654823N01157595EA0085900893
B1108444654824N01157601EA0085700891
B1108454654822N01157607EA0085500889
B1108464654819N01157612EA0085300887
B1108474654814N01157614EA0085000884
B1108484654809N01157612EA0084700881
B1108494654805N01157609EA0084600880
B1108504654801N01157609EA0084500879
B1108514654797N01157612EA0084400878
B1108524654794N01157616EA0084100875
B1108534654790N01157620EA0084000873
B1108544654786N01157622EA0083800871
B1108554654782N01157625EA0083600869
B1108564654779N01157627EA0083300867
B1108574654774N01157630EA0083000864
B1108584654770N01157634EA0082900862
B1108594654765N01157638EA0082800862
B1109004654760N01157641EA0083000863
B1109014654756N01157644EA0083000864
B1109024654752N01157646EA0082900863
B1109034654749N01157647EA0082700861
B1109044654745N01157648EA0082600860
B1109054654742N01157650EA0082500859
B1109064654739N01157651EA0082600859
B1109074654738N01157652EA0082600860
B1109084654736N01157653EA0082600860
B1109094654735N01157653EA0082600860
B1109104654734N01157654EA0082600860
B1109114654733N01157654EA0082600860
B1109124654732N01157654EA0082600860
B1109134654732N01157654EA0082600860
B1109144654732N01157654EA0082600860
B1109154654732N01157655EA0082600860
B1109164654731N01157655EA0082600860
B1109174654731N01157655EA0082600860
B1109184654731N01157655EA0082600860
B1109194654731N01157655EA0082600860
B1109204654731N01157655EA0082600860
B1109214654731N01157655EA0082600860
B1109224654731N01157655EA0082600860
B1109234654731N01157655EA0082600860
B1109244654731N01157655EA0082600860
B1109254654731N01157654EA0082600860
B1109264654731N01157654EA0082600860
B1109274654731N01157654EA0082600860
B1109284654731N01157654EA0082600860
B1109294654731N01157654EA0082600860
B1109304654731N01157654EA0082600860
B1109314654731N01157654EA0082600860
B1109324654731N01157654EA0082600860
B1109334654731N01157654EA0082600860
B1109344654731N01157654EA0082600860
B1109354654731N01157654EA0082600860
B1109364654731N01157654EA0082600860
B1109374654731N01157654EA0082600860
LXSX;C1;GM:1.2
G038A4E82960AC57F4D139C754320B069
