AXSX005 SKYTRAXX
HFPLTPILOT:Sepp Bucher
HFGTYGLIDERTYPE:Niviuk Artik R
HFDTM100GPSDATUM:WGS-84
HFRFWFIRMWAREVERSION:202308041433
HFRHWHARDWAREVERSION:4.0
HFTZNTIMEZONE:+2.00
HFSITSITE:Fiesch_Galfera (Gal
HFDTE210823
LXSX;I1;OAB:20230814;OOB:20230804
LXSX;I1;ID:114075
LXSX;I1;AC:1;CAT:C
B1156224624294N00805776EA0198302179
B1156234624294N00805776EA0198302179
B1156244624294N00805776EA0198302179
B1156254624294N00805776EA0198302179
B1156264624294N00805776EA0198302179
B1156274624294N00805776EA0198202179
B1156284624294N00805776EA0198202179
B1156294624294N00805775EA0198302179
B1156304624293N00805775EA0198102177
B1156314624292N00805775EA0198002177
B1156324624292N00805776EA0198102178
B1156334624290N00805776EA0198002176
B1156344624288N00805776EA0197802175
B1156354624286N00805777EA0197702173
B1156364624283N00805777EA0197802175
B1156374624281N00805779EA0198102178
B1156384624279N00805782EA0198102177
B1156394624278N00805788EA0198002176
B1156404624276N00805794EA0198102177
B1156414624276N00805801EA0198202178
B1156424624276N00805806EA0198302179
B1156434624275N00805812EA0198502182
B1156444624273N00805817EA0198702184
B1156454624272N00805823EA0198902185
B1156464624271N00805829EA0199102187
B1156474624271N00805836EA0199202188
B1156484624270N00805844EA0199202189
B1156494624269N00805851EA0199302190
B1156504624268N00805857EA0199502191
B1156514624267N00805863EA0199602193
B1156524624267N00805870EA0199802194
B1156534624267N00805876EA0199902196
B1156544624267N00805882EA0199902196
B1156554624267N00805889EA0199902196
B1156564624267N00805896EA0200002196
B1156574624267N00805902EA0199902195
B1156584624267N00805909EA0199802195
B1156594624267N00805915EA0199702193
B1157004624267N00805923EA0199502191
B1157014624267N00805931EA0199302189
B1157024624268N00805939EA0199402190
B1157034624269N00805946EA0199402191
B1157044624269N00805952EA0199402190
B1157054624270N00805958EA0199302190
B1157064624270N00805965EA0199202189
B1157074624271N00805975EA0199102188
B1157084624271N00805984EA0199202189
B1157094624272N00805992EA0199402190
B1157104624272N00805999EA0199602192
B1157114624273N00806004EA0199602193
B1157124624275N00806010EA0199702193
B1157134624276N00806018EA0199702193
B1157144624278N00806026EA0199802194
B1157154624280N00806034EA0200002196
B1157164624282N00806040EA0200102197
B1157174624284N00806045EA0200402200
B1157184624286N00806051EA0200702203
B1157194624287N00806056EA0200802205
B1157204624288N00806063EA0200902205
B1157214624289N00806070EA0201002206
B1157224624291N00806077EA0201202208
B1157234624294N00806084EA0201502211
B1157244624296N00806091EA0201702214
B1157254624298N00806097EA0202002217
B1157264624299N00806103EA0202302219
B1157274624301N00806109EA0202502221
B1157284624303N00806116EA0202702223
B1157294624306N00806123EA0202902225
B1157304624309N00806129EA0203002227
B1157314624312N00806136EA0203202229
B1157324624315N00806142EA0203402231
B1157334624318N00806148EA0203602232
B1157344624319N00806155EA0203702233
B1157354624321N00806161EA0203802234
B1157364624323N00806168EA0203802234
B1157374624326N00806176EA0203702234
B1157384624329N00806185EA0203702233
B1157394624330N00806195EA0203902235
B1157404624332N00806205EA0204202238
B1157414624333N00806214EA0204602242
B1157424624334N00806220EA0205002246
B1157434624335N00806226EA0205202249
B1157444624336N00806233EA0205402251
B1157454624337N00806242EA0205502252
B1157464624337N00806252EA0205702253
B1157474624339N00806262EA0206002256
B1157484624341N00806271EA0206302260
B1157494624343N00806278EA0206602262
B1157504624346N00806284EA0206702264
B1157514624348N00806291EA0206802264
B1157524624350N00806299EA0206802264
B1157534624353N00806307EA0206902266
B1157544624356N00806316EA0207202269
B1157554624360N00806324EA0207602272
B1157564624364N00806332EA0207902276
B1157574624368N00806339EA0208202279
B1157584624373N00806346EA0208402281
B1157594624377N00806353EA0208602283
B1158004624381N00806361EA0208802284
B1158014624384N00806370EA0209102288
B1158024624387N00806378EA0209502292
B1158034624389N00806385EA0209902296
B1158044624391N00806391EA0210202299
B1158054624392N00806397EA0210402301
B1158064624394N00806404EA0210702304
B1158074624395N00806411EA0210902306
B1158084624396N00806419EA0211202309
B1158094624396N00806427EA0211502311
B1158104624397N00806434EA0211802315
B1158114624397N00806441EA0212202319
B1158124624398N00806448EA0212502322
B1158134624399N00806454EA0212802325
B1158144624401N00806460EA0213102328
B1158154624402N00806468EA0213402331
B1158164624404N00806476EA0213702334
B1158174624408N00806485EA0214102338
B1158184624411N00806493EA0214502342
B1158194624413N00806500EA0214702344
B1158204624416N00806506EA0214802345
B1158214624418N00806513EA0214702344
B1158224624420N00806521EA0214502342
B1158234624421N00806530EA0214302340
B1158244624422N00806539EA0213902336
B1158254624422N00806548EA0213702334
B1158264624422N00806557EA0213502332
B1158274624422N00806567EA0213402331
B1158284624422N00806576EA0213202329
B1158294624422N00806584EA0212902326
B1158304624423N00806592EA0212602324
B1158314624424N00806602EA0212302320
B1158324624424N00806612EA0212002317
B1158334624424N00806622EA0211702314
B1158344624423N00806632EA0211402311
B1158354624422N00806642EA0211302310
B1158364624423N00806652EA0211202309
B1158374624424N00806662EA0211102308
B1158384624425N00806672EA0210902306
B1158394624426N00806681EA0210702305
B1158404624428N00806691EA0210602303
B1158414624429N00806701EA0210502302
B1158424624430N00806712EA0210502303
B1158434624431N00806722EA0210602304
B1158444624432N00806732EA0210702304
B1158454624434N00806741EA0210702304
B1158464624436N00806750EA0210602304
B1158474624438N00806760EA0210602303
B1158484624439N00806770EA0210602303
B1158494624439N00806781EA0210702304
B1158504624438N00806790EA0210902306
B1158514624439N00806799EA0211102308
B1158524624440N00806806EA0211102308
B1158534624442N00806814EA0210902306
B1158544624445N00806822EA0210602303
B1158554624447N00806832EA0210202300
B1158564624448N00806843EA0209902296
B1158574624449N00806854EA0209802295
B1158584624451N00806865EA0209702295
B1158594624451N00806875EA0209702294
B1159004624453N00806884EA0209602293
B1159014624455N00806893EA0209502293
B1159024624457N00806903EA0209402292
B1159034624459N00806913EA0209302290
B1159044624460N00806922EA0209102289
B1159054624460N00806931EA0209002287
B1159064624461N00806940EA0208902286
B1159074624462N00806948EA0208702284
B1159084624464N00806957EA0208402282
B1159094624465N00806966EA0208302280
B1159104624467N00806976EA0208102278
B1159114624467N00806985EA0207902276
B1159124624467N00806995EA0207702275
B1159134624468N00807003EA0207602273
B1159144624469N00807013EA0207302271
B1159154624470N00807023EA0207102269
B1159164624470N00807032EA0207002267
B1159174624469N00807040EA0206802266
B1159184624465N00807045EA0206502262
B1159194624460N00807045EA0206102258
B1159204624456N00807040EA0205802255
B1159214624456N00807030EA0205302251
B1159224624462N00807021EA0204702245
B1159234624472N00807020EA0204302240
B1159244624480N00807029EA0203902236
B1159254624483N00807043EA0203602233
B1159264624477N00807051EA0203202229
B1159274624470N00807049EA0202702224
B1159284624468N00807038EA0202002217
B1159294624475N00807028EA0201202209
B1159304624486N00807030EA0200502202
B1159314624493N00807043EA0200202199
B1159324624491N00807057EA0200002197
B1159334624484N00807063EA0199702194
B1159344624478N00807056EA0199202189
B1159354624477N00807045EA0198702184
B1159364624484N00807035EA0198302180
B1159374624495N00807034EA0198002177
B1159384624503N00807041EA0197902175
B1159394624507N00807052EA0197902175
B1159404624508N00807061EA0197902176
B1159414624509N00807069EA0198002177
B1159424624510N00807075EA0197802175
B1159434624512N00807081EA0197502172
B1159444624515N00807089EA0197002167
B1159454624517N00807100EA0196602163
B1159464624519N00807111EA0196502161
B1159474624520N00807122EA0196402161
B1159484624521N00807130EA0196302160
B1159494624522N00807139EA0196202159
B1159504624524N00807147EA0196002157
B1159514624525N00807157EA0195702154
B1159524624526N00807168EA0195502152
B1159534624527N00807178EA0195502152
B1159544624528N00807188EA0195502152
B1159554624528N00807196EA0195502151
B1159564624528N00807204EA0195302150
B1159574624529N00807213EA0195102148
B1159584624530N00807223EA0194902146
B1159594624531N00807233EA0194702144
B1200004624532N00807243EA0194602143
B1200014624533N00807252EA0194402141
B1200024624534N00807261EA0194302140
B1200034624534N00807271EA0194102138
B1200044624534N00807281EA0193802135
B1200054624535N00807291EA0193602133
B1200064624535N00807301EA0193502132
B1200074624535N00807311EA0193402131
B1200084624536N00807320EA0193302129
B1200094624537N00807330EA0193002127
B1200104624537N00807339EA0192902125
B1200114624537N00807349EA0192702123
B1200124624538N00807359EA0192502122
B1200134624538N00807369EA0192402121
B1200144624537N00807379EA0192402120
B1200154624537N00807388EA0192302119
B1200164624538N00807397EA0192102117
B1200174624538N00807407EA0191902116
B1200184624538N00807416EA0191702114
B1200194624537N00807426EA0191502112
B1200204624537N00807436EA0191402110
B1200214624536N00807446EA0191202108
B1200224624536N00807456EA0191102107
B1200234624536N00807466EA0191002106
B1200244624536N00807475EA0190802104
B1200254624536N00807484EA0190602102
B1200264624535N00807493EA0190402100
B1200274624535N00807502EA0190202098
B1200284624535N00807512EA0190202098
B1200294624534N00807522EA0190102097
B1200304624533N00807532EA0190102097
B1200314624532N00807541EA0190102097
B1200324624530N00807549EA0190202098
B1200334624530N00807558EA0190202098
B1200344624529N00807567EA0190102097
B1200354624528N00807576EA0190002096
B1200364624527N00807586EA0190002096
B1200374624526N00807596EA0190002096
B1200384624524N00807605EA0190002096
B1200394624523N00807612EA0190002096
B1200404624522N00807621EA0189802094
B1200414624521N00807629EA0189602092
B1200424624520N00807639EA0189502090
B1200434624519N00807649EA0189302089
B1200444624520N00807658EA0189202088
B1200454624521N00807667EA0189102087
B1200464624522N00807675EA0188902085
B1200474624522N00807684EA0188802083
B1200484624523N00807693EA0188602081
B1200494624523N00807703EA0188402080
B1200504624524N00807712EA0188402079
B1200514624525N00807721EA0188302079
B1200524624526N00807729EA0188202078
B1200534624527N00807738EA0188002076
B1200544624528N00807747EA0187802073
B1200554624529N00807757EA0187602071
B1200564624529N00807766EA0187402069
B1200574624530N00807776EA0187302068
B1200584624532N00807785EA0187202067
B1200594624532N00807794EA0187002065
B1201004624533N00807803EA0186802063
B1201014624534N00807813EA0186502060
B1201024624535N00807823EA0186202057
B1201034624537N00807833EA0186102056
B1201044624538N00807843EA0186102056
B1201054624539N00807853EA0185902054
B1201064624539N00807862EA0185802053
B1201074624540N00807872EA0185602051
B1201084624541N00807882EA0185402049
B1201094624542N00807892EA0185202047
B1201104624543N00807902EA0185002045
B1201114624544N00807912EA0184902044
B1201124624545N00807922EA0184802043
B1201134624546N00807931EA0184602041
B1201144624548N00807940EA0184402039
B1201154624549N00807950EA0184202037
B1201164624550N00807960EA0184002035
B1201174624551N00807971EA0184002034
B1201184624551N00807980EA0183902033
B1201194624548N00807988EA0183602031
B1201204624543N00807995EA0183402029
B1201214624538N00807997EA0183102026
B1201224624532N00807994EA0182802023
B1201234624529N00807986EA0182502020
B1201244624531N00807977EA0182102016
B1201254624538N00807972EA0181502010
B1201264624547N00807975EA0181002004
B1201274624553N00807986EA0180702001
B1201284624551N00807999EA0180401999
B1201294624545N00808006EA0180001995
B1201304624538N00808002EA0179401989
B1201314624538N00807990EA0178601980
B1201324624546N00807981EA0177901973
B1201334624556N00807984EA0177201967
B1201344624561N00807997EA0176901963
B1201354624558N00808009EA0176701961
B1201364624549N00808011EA0176201956
B1201374624545N00808001EA0175401949
B1201384624549N00807989EA0174501939
B1201394624560N00807987EA0173701931
B1201404624567N00807998EA0173101925
B1201414624565N00808012EA0172601920
B1201424624556N00808014EA0172101915
B1201434624552N00808002EA0171201906
B1201444624558N00807991EA0170201896
B1201454624570N00807993EA0169201886
B1201464624574N00808008EA0168601880
B1201474624567N00808017EA0168001874
B1201484624559N00808010EA0167401868
B1201494624562N00807995EA0166501858
B1201504624573N00807991EA0165501848
B1201514624580N00808004EA0164601840
B1201524624576N00808016EA0164101835
B1201534624565N00808016EA0163601830
B1201544624563N00808001EA0163001824
B1201554624573N00807990EA0162201815
B1201564624583N00807998EA0161201806
B1201574624582N00808011EA0160501799
B1201584624573N00808015EA0160001794
B1201594624568N00808003EA0159701790
B1202004624573N00807991EA0158901783
B1202014624584N00807993EA0157901773
B1202024624589N00808006EA0157001764
B1202034624580N00808015EA0156801761
B1202044624572N00808007EA0156601760
B1202054624573N00807992EA0156301756
B1202064624583N00807984EA0155801751
B1202074624592N00807990EA0155401748
B1202084624596N00808001EA0155301746
B1202094624594N00808011EA0155301747
B1202104624589N00808016EA0155601749
B1202114624583N00808016EA0155901752
B1202124624580N00808016EA0156201755
B1202134624578N00808017EA0156301756
B1202144624576N00808018EA0156201756
B1202154624572N00808020EA0156101754
B1202164624567N00808020EA0155801751
B1202174624562N00808017EA0155601749
B1202184624557N00808011EA0155401747
B1202194624555N00808003EA0155201745
B1202204624555N00807994EA0155101744
B1202214624557N00807986EA0154901743
B1202224624560N00807979EA0154801741
B1202234624564N00807973EA0154601739
B1202244624568N00807967EA0154401737
B1202254624574N00807962EA0154101734
B1202264624580N00807961EA0153801731
B1202274624588N00807962EA0153501728
B1202284624595N00807965EA0153401727
B1202294624600N00807970EA0153401727
B1202304624604N00807976EA0153301726
B1202314624607N00807982EA0153201725
B1202324624609N00807989EA0153001723
B1202334624612N00807997EA0152801721
B1202344624614N00808006EA0152701719
B1202354624617N00808016EA0152601719
B1202364624619N00808026EA0152601719
B1202374624621N00808035EA0152701719
B1202384624623N00808045EA0152801721
B1202394624625N00808053EA0152901721
B1202404624627N00808061EA0152901722
B1202414624629N00808070EA0152901721
B1202424624630N00808080EA0152801721
B1202434624629N00808089EA0152801721
B1202444624628N00808099EA0152901721
B1202454624625N00808107EA0153001723
B1202464624622N00808113EA0153101724
B1202474624618N00808117EA0153201724
B1202484624614N00808120EA0153201725
B1202494624609N00808124EA0153201724
B1202504624604N00808126EA0153201724
B1202514624599N00808127EA0153101724
B1202524624594N00808127EA0153101724
B1202534624589N00808126EA0153201724
B1202544624584N00808125EA0153201724
B1202554624580N00808123EA0153101723
B1202564624577N00808122EA0152801720
B1202574624574N00808120EA0152501717
B1202584624570N00808117EA0152101713
B1202594624564N00808114EA0151801710
B1203004624559N00808111EA0151701709
B1203014624555N00808107EA0151601708
B1203024624551N00808105EA0151501707
B1203034624548N00808102EA0151301705
B1203044624545N00808099EA0151101703
B1203054624541N00808097EA0150801700
B1203064624536N00808093EA0150601697
B1203074624532N00808089EA0150401696
B1203084624529N00808084EA0150401696
B1203094624527N00808078EA0150401695
B1203104624525N00808073EA0150401696
B1203114624522N00808068EA0150501697
B1203124624519N00808065EA0150601698
B1203134624517N00808061EA0150701698
B1203144624515N00808056EA0150701699
B1203154624514N00808050EA0150801700
B1203164624515N00808043EA0150801700
B1203174624518N00808036EA0150701698
B1203184624524N00808030EA0150601697
B1203194624532N00808028EA0150501697
B1203204624539N00808028EA0150501697
B1203214624547N00808031EA0150701698
B1203224624553N00808036EA0150701699
B1203234624557N00808042EA0150701698
B1203244624562N00808049EA0150501697
B1203254624565N00808057EA0150401695
B1203264624567N00808067EA0150301694
B1203274624568N00808077EA0150101693
B1203284624567N00808086EA0150101692
B1203294624563N00808092EA0149901690
B1203304624558N00808093EA0149701689
B1203314624554N00808091EA0149701688
B1203324624551N00808085EA0149701689
B1203334624551N00808078EA0149801689
B1203344624553N00808071EA0149801689
B1203354624558N00808064EA0149901690
B1203364624564N00808059EA0150001691
B1203374624571N00808058EA0150201693
B1203384624578N00808061EA0150201693
B1203394624585N00808067EA0150101692
B1203404624590N00808076EA0150001691
B1203414624594N00808085EA0150001691
B1203424624598N00808094EA0150001691
B1203434624602N00808102EA0150001691
B1203444624606N00808110EA0149901689
B1203454624610N00808117EA0149701687
B1203464624614N00808124EA0149401685
B1203474624619N00808132EA0149101682
B1203484624623N00808140EA0148801679
B1203494624627N00808148EA0148501676
B1203504624631N00808156EA0148301673
B1203514624635N00808164EA0148001671
B1203524624640N00808172EA0147701667
B1203534624644N00808181EA0147401665
B1203544624649N00808189EA0147201662
B1203554624653N00808197EA0147001661
B1203564624657N00808205EA0146901660
B1203574624661N00808213EA0146901660
B1203584624662N00808221EA0146901660
B1203594624661N00808229EA0146801658
B1204004624657N00808236EA0146601657
B1204014624651N00808238EA0146501655
B1204024624646N00808235EA0146301653
B1204034624643N00808227EA0146001651
B1204044624645N00808218EA0145701647
B1204054624650N00808210EA0145401644
B1204064624658N00808207EA0145101642
B1204074624667N00808210EA0145001640
B1204084624673N00808219EA0144801638
B1204094624676N00808230EA0144801638
B1204104624674N00808239EA0144701637
B1204114624670N00808245EA0144601637
B1204124624665N00808247EA0144601636
B1204134624660N00808244EA0144501635
B1204144624657N00808239EA0144401634
B1204154624656N00808232EA0144201632
B1204164624657N00808224EA0144101631
B1204174624661N00808217EA0143801628
B1204184624667N00808211EA0143601626
B1204194624675N00808210EA0143301623
B1204204624683N00808213EA0143001620
B1204214624689N00808219EA0142801618
B1204224624693N00808229EA0142601616
B1204234624694N00808239EA0142501614
B1204244624692N00808248EA0142401614
B1204254624688N00808254EA0142401614
B1204264624684N00808257EA0142401614
B1204274624680N00808257EA0142401614
B1204284624676N00808255EA0142301613
B1204294624672N00808252EA0142201611
B1204304624670N00808246EA0142001609
B1204314624669N00808239EA0141701607
B1204324624670N00808231EA0141501604
B1204334624674N00808223EA0141201601
B1204344624681N00808218EA0140801597
B1204354624689N00808215EA0140501594
B1204364624697N00808217EA0140301592
B1204374624703N00808223EA0140101590
B1204384624708N00808231EA0139801588
B1204394624710N00808242EA0139601586
B1204404624709N00808252EA0139501585
B1204414624706N00808259EA0139501584
B1204424624702N00808263EA0139401583
B1204434624698N00808263EA0139301583
B1204444624694N00808262EA0139201581
B1204454624691N00808259EA0139101580
B1204464624688N00808254EA0138901578
B1204474624687N00808247EA0138601575
B1204484624688N00808239EA0138301572
B1204494624692N00808231EA0138001569
B1204504624698N00808225EA0137601565
B1204514624706N00808223EA0137201561
B1204524624714N00808227EA0136801557
B1204534624720N00808235EA0136501554
B1204544624723N00808245EA0136301552
B1204554624723N00808256EA0136201550
B1204564624721N00808264EA0136101550
B1204574624717N00808268EA0136101549
B1204584624713N00808270EA0136001549
B1204594624709N00808268EA0135901548
B1205004624706N00808265EA0135801546
B1205014624703N00808260EA0135601545
B1205024624702N00808254EA0135301542
B1205034624703N00808247EA0134901538
B1205044624706N00808239EA0134601534
B1205054624712N00808234EA0134201531
B1205064624720N00808232EA0133901528
B1205074624727N00808235EA0133601524
B1205084624734N00808242EA0133201521
B1205094624737N00808252EA0132901517
B1205104624738N00808263EA0132701515
B1205114624735N00808272EA0132501514
B1205124624732N00808277EA0132401513
B1205134624727N00808279EA0132301511
B1205144624722N00808276EA0132101510
B1205154624720N00808270EA0132001508
B1205164624719N00808263EA0131801506
B1205174624722N00808256EA0131501503
B1205184624726N00808250EA0131201500
B1205194624732N00808246EA0130901497
B1205204624738N00808244EA0130601494
B1205214624745N00808244EA0130401492
B1205224624752N00808247EA0130201490
B1205234624757N00808253EA0130001488
B1205244624761N00808261EA0129701486
B1205254624762N00808271EA0129501483
B1205264624761N00808281EA0129301481
B1205274624757N00808288EA0129001478
B1205284624752N00808290EA0128801476
B1205294624748N00808289EA0128501473
B1205304624745N00808283EA0128301471
B1205314624745N00808275EA0128001468
B1205324624748N00808267EA0127801465
B1205334624754N00808261EA0127501462
B1205344624761N00808260EA0127201460
B1205354624769N00808261EA0127001458
B1205364624775N00808267EA0126901457
B1205374624779N00808274EA0126801455
B1205384624782N00808284EA0126601454
B1205394624782N00808293EA0126501453
B1205404624780N00808300EA0126401451
B1205414624778N00808306EA0126101449
B1205424624774N00808310EA0125901446
B1205434624771N00808312EA0125601444
B1205444624766N00808311EA0125301441
B1205454624763N00808307EA0125101438
B1205464624762N00808300EA0124801435
B1205474624764N00808292EA0124501432
B1205484624769N00808285EA0124201429
B1205494624775N00808280EA0123901426
B1205504624782N00808280EA0123601423
B1205514624790N00808282EA0123201420
B1205524624797N00808286EA0123101418
B1205534624803N00808292EA0123001417
B1205544624806N00808300EA0122801416
B1205554624806N00808309EA0122701414
B1205564624805N00808317EA0122401411
B1205574624800N00808322EA0122101408
B1205584624795N00808324EA0121901406
B1205594624791N00808323EA0121801405
B1206004624789N00808321EA0121601403
B1206014624786N00808319EA0121401401
B1206024624783N00808317EA0121101398
B1206034624779N00808314EA0120701394
B1206044624776N00808310EA0120301390
B1206054624772N00808305EA0120101388
B1206064624769N00808301EA0120001387
B1206074624766N00808297EA0119901386
B1206084624764N00808294EA0119601383
B1206094624761N00808290EA0119301380
B1206104624758N00808285EA0118901376
B1206114624754N00808280EA0118601373
B1206124624750N00808275EA0118501371
B1206134624746N00808270EA0118401371
B1206144624743N00808266EA0118301370
B1206154624740N00808263EA0118101368
B1206164624736N00808259EA0117801365
B1206174624732N00808255EA0117501361
B1206184624727N00808251EA0117101358
B1206194624723N00808247EA0117101357
B1206204624719N00808242EA0117001356
B1206214624715N00808238EA0116901355
B1206224624711N00808235EA0116801354
B1206234624708N00808232EA0116501352
B1206244624705N00808230EA0116201349
B1206254624701N00808227EA0115801345
B1206264624696N00808224EA0115501341
B1206274624692N00808221EA0115201339
B1206284624687N00808218EA0115001337
B1206294624683N00808216EA0114801334
B1206304624679N00808214EA0114501331
B1206314624675N00808211EA0114101328
B1206324624670N00808209EA0113901325
B1206334624665N00808207EA0113901325
B1206344624660N00808204EA0113901325
B1206354624656N00808201EA0114001326
B1206364624653N00808198EA0114101327
B1206374624649N00808196EA0114101327
B1206384624646N00808194EA0114001326
B1206394624643N00808192EA0113901325
B1206404624639N00808189EA0113801324
B1206414624635N00808187EA0113801324
B1206424624632N00808184EA0113701323
B1206434624629N00808180EA0113601321
B1206444624625N00808177EA0113501321
B1206454624621N00808175EA0113401320
B1206464624617N00808174EA0113301319
B1206474624614N00808173EA0113201318
B1206484624610N00808171EA0113001315
B1206494624606N00808170EA0112801314
B1206504624602N00808168EA0112801314
B1206514624599N00808165EA0112801314
B1206524624596N00808161EA0112701313
B1206534624594N00808157EA0112601312
B1206544624591N00808155EA0112501310
B1206554624588N00808154EA0112201308
B1206564624584N00808153EA0111901305
B1206574624580N00808151EA0111701302
B1206584624577N00808148EA0111501301
B1206594624573N00808146EA0111401299
B1207004624570N00808145EA0111201297
B1207014624566N00808144EA0111001296
B1207024624562N00808143EA0110801293
B1207034624559N00808141EA0110501291
B1207044624555N00808138EA0110201288
B1207054624551N00808135EA0110001286
B1207064624548N00808133EA0109801283
B1207074624544N00808131EA0109601281
B1207084624541N00808129EA0109301278
B1207094624537N00808127EA0108901274
B1207104624533N00808124EA0108501270
B1207114624528N00808122EA0108301268
B1207124624523N00808120EA0108101266
B1207134624519N00808118EA0107901264
B1207144624515N00808116EA0107801263
B1207154624511N00808114EA0107601261
B1207164624507N00808111EA0107401259
B1207174624502N00808110EA0107201257
B1207184624499N00808111EA0107001255
B1207194624494N00808113EA0106801253
B1207204624491N00808116EA0106601251
B1207214624488N00808120EA0106401249
B1207224624485N00808126EA0106201246
B1207234624483N00808132EA0106001244
B1207244624480N00808139EA0105701242
B1207254624478N00808145EA0105501239
B1207264624476N00808153EA0105201237
B1207274624474N00808161EA0105101235
B1207284624473N00808169EA0104901234
B1207294624472N00808176EA0104801232
B1207304624472N00808184EA0104501230
B1207314624471N00808192EA0104301227
B1207324624471N00808200EA0103901224
B1207334624472N00808211EA0103601221
B1207344624473N00808221EA0103401219
B1207354624475N00808231EA0103301217
B1207364624478N00808240EA0103201217
B1207374624480N00808249EA0103101216
B1207384624484N00808257EA0103001214
B1207394624487N00808266EA0102801212
B1207404624491N00808276EA0102601211
B1207414624494N00808287EA0102501209
B1207424624499N00808296EA0102501209
B1207434624502N00808305EA0102501209
B1207444624506N00808314EA0102501209
B1207454624510N00808321EA0102501209
B1207464624515N00808330EA0102401208
B1207474624519N00808338EA0102401208
B1207484624524N00808346EA0102301207
B1207494624529N00808352EA0102201206
B1207504624535N00808358EA0102301207
B1207514624541N00808364EA0102101205
B1207524624547N00808369EA0102001204
B1207534624553N00808375EA0101801202
B1207544624559N00808382EA0101701201
B1207554624565N00808387EA0101501199
B1207564624572N00808391EA0101201196
B1207574624579N00808393EA0100801192
B1207584624586N00808395EA0100401188
B1207594624594N00808395EA0100101184
B1208004624602N00808393EA0099801182
B1208014624609N00808391EA0099701180
B1208024624616N00808390EA0099601179
B1208034624622N00808388EA0099601179
B1208044624627N00808384EA0099501179
B1208054624632N00808379EA0099501178
B1208064624635N00808373EA0099301176
B1208074624638N00808366EA0099201176
B1208084624641N00808359EA0099201175
B1208094624643N00808353EA0099201176
B1208104624643N00808348EA0099201175
B1208114624643N00808343EA0099201175
B1208124624643N00808338EA0099101175
B1208134624643N00808334EA0099101174
B1208144624643N00808329EA0099001173
B1208154624643N00808324EA0098901172
B1208164624643N00808319EA0098801171
B1208174624643N00808314EA0098701170
B1208184624643N00808308EA0098601169
B1208194624643N00808303EA0098501168
B1208204624643N00808298EA0098301166
B1208214624643N00808293EA0098101164
B1208224624641N00808289EA0097901162
B1208234624638N00808287EA0097701160
B1208244624634N00808286EA0097501158
B1208254624630N00808285EA0097301156
B1208264624627N00808283EA0097201155
B1208274624624N00808282EA0097001153
B1208284624622N00808280EA0096801151
B1208294624618N00808278EA0096601149
B1208304624614N00808276EA0096301146
B1208314624609N00808274EA0096201144
B1208324624605N00808271EA0096201145
B1208334624602N00808267EA0096301145
B1208344624599N00808264EA0096301146
B1208354624596N00808262EA0096301145
B1208364624594N00808261EA0096101143
B1208374624591N00808259EA0095801140
B1208384624588N00808256EA0095401137
B1208394624584N00808253EA0095101134
B1208404624580N00808249EA0094901132
B1208414624576N00808246EA0094701130
B1208424624573N00808245EA0094601129
B1208434624569N00808242EA0094601128
B1208444624566N00808240EA0094601128
B1208454624564N00808238EA0094701129
B1208464624563N00808236EA0094701129
B1208474624562N00808235EA0094701129
B1208484624562N00808234EA0094701129
B1208494624562N00808233EA0094701130
B1208504624562N00808232EA0094701129
B1208514624562N00808232EA0094701129
B1208524624562N00808233EA0094701129
B1208534624562N00808233EA0094701129
B1208544624562N00808233EA0094701129
B1208554624562N00808233EA0094701129
B1208564624562N00808233EA0094701129
B1208574624561N00808233EA0094701129
B1208584624561N00808233EA0094701129
B1208594624561N00808233EA0094701129
B1209004624561N00808233EA0094701129
B1209014624561N00808233EA0094701129
B1209024624561N00808234EA0094701129
B1209034624561N00808234EA0094701129
B1209044624561N00808234EA0094701129
B1209054624561N00808234EA0094701129
B1209064624561N00808234EA0094701129
B1209074624560N00808235EA0094701129
B1209084624560N00808235EA0094701129
B1209094624560N00808235EA0094701129
B1209104624559N00808235EA0094701129
B1209114624559N00808235EA0094701129
B1209124624558N00808236EA0094701129
B1209134624558N00808236EA0094701129
B1209144624558N00808236EA0094701129
B1209154624558N00808236EA0094701129
B1209164624558N00808236EA0094701129
B1209174624558N00808236EA0094701129
B1209184624558N00808236EA0094701129
B1209194624558N00808236EA0094701129
B1209204624558N00808236EA0094701129
B1209214624558N00808235EA0094701129
B1209224624558N00808234EA0094701128
B1209234624559N00808233EA0094701129
B1209244624559N00808232EA0094701128
B1209254624559N00808231EA0094701128
B1209264624560N00808230EA0094701128
B1209274624560N00808230EA0094701128
B1209284624561N00808229EA0094701128
B1209294624561N00808228EA0094701128
B1209304624561N00808227EA0094701128
B1209314624561N00808226EA0094701128
B1209324624561N00808225EA0094701128
B1209334624561N00808224EA0094701128
B1209344624561N00808223EA0094701128
B1209354624561N00808222EA0094601128
B1209364624561N00808221EA0094701128
B1209374624561N00808220EA0094701128
B1209384624561N00808219EA0094701128
B1209394624561N00808219EA0094701128
B1209404624561N00808220EA0094701128
B1209414624561N00808220EA0094701128
B1209424624561N00808220EA0094701128
B1209434624561N00808220EA0094701128
B1209444624561N00808220EA0094701128
B1209454624561N00808219EA0094701127
B1209464624561N00808219EA0094701128
LXSX;C1;GM:2.9
LXSX;S1;TS:1692618982;TL:1692619786;AS:2179;AL:1128;AT:2345;AB:1127
LXSX;S1;XS:0;XD:4.68;SP:55.0;MC:3.2;MS:-7.5;NB:806
LXSX;S1;FL:8.3;TG:0;TC:0.0;AG:235;GM:2.9
LXSX;S1;X0:46.40468,8.09632
LXSX;S1;X1:46.41333,8.13870
LXSX;S1;X2:46.40808,8.13543
LXSX;S1;X3:46.41064,8.13943
LXSX;S1;X4:46.40935,8.13708
G7C486B72EFC008ABD78B8440E52BD1A8
