AXSX005 SKYTRAXX
HFPLTPILOT:Sepp Bucher
HFGTYGLIDERTYPE:Niviuk Artik R
HFDTM100GPSDATUM:WGS-84
HFRFWFIRMWAREVERSION:202303142340
HFRHWHARDWAREVERSION:4.0
HFTZNTIMEZONE:+2.00
HFSITSITE:P Bergbahn Fiesch-Fiescheralp
HFDTE050723
LXSX;I1;OAB:20230703;OOB:20230103
LXSX;I1;ID:114075
LXSX;I1;AC:1;CAT:C
B1258354624085N00807994EA0101301059
B1258364624084N00807994EA0101301059
B1258374624084N00807994EA0101301059
B1258384624083N00807994EA0101301059
B1258394624083N00807993EA0101301059
B1258404624083N00807993EA0101301059
B1258414624083N00807993EA0101301059
B1258424624084N00807993EA0101301059
B1258434624084N00807994EA0101301059
B1258444624085N00807995EA0101301059
B1258454624085N00807996EA0101301059
B1258464624084N00807997EA0101301059
B1258474624084N00807997EA0101301059
B1258484624083N00807997EA0101301059
B1258494624081N00807997EA0101301059
B1258504624078N00807997EA0101301059
B1258514624074N00807996EA0101301060
B1258524624071N00807996EA0101301060
B1258534624067N00807996EA0101301060
B1258544624063N00807996EA0101401060
B1258554624060N00807997EA0101301060
B1258564624056N00807998EA0101301060
B1258574624053N00807998EA0101301060
B1258584624050N00807999EA0101301060
B1258594624047N00808000EA0101301060
B1259004624044N00808001EA0101301059
B1259014624042N00808001EA0101201059
B1259024624041N00808002EA0101201059
B1259034624039N00808003EA0101201059
B1259044624038N00808003EA0101201059
B1259054624037N00808004EA0101201059
B1259064624037N00808004EA0101201058
B1259074624036N00808005EA0101201058
B1259084624036N00808005EA0101201058
B1259094624035N00808004EA0101201059
B1259104624035N00808004EA0101201059
B1259114624034N00808005EA0101201058
B1259124624034N00808005EA0101201059
B1259134624032N00808005EA0101201059
B1259144624032N00808006EA0101201059
B1259154624031N00808006EA0101201058
B1259164624030N00808007EA0101201059
B1259174624029N00808007EA0101201059
B1259184624029N00808007EA0101201058
B1259194624029N00808007EA0101201058
B1259204624029N00808007EA0101201058
B1259214624029N00808006EA0101201058
B1259224624029N00808006EA0101201058
B1259234624029N00808006EA0101201058
B1259244624029N00808006EA0101201058
B1259254624029N00808005EA0101201058
B1259264624030N00808005EA0101201058
B1259274624030N00808004EA0101201058
B1259284624030N00808004EA0101201058
B1259294624030N00808004EA0101201058
B1259304624030N00808004EA0101201058
B1259314624030N00808004EA0101201058
B1259324624030N00808004EA0101201058
B1259334624031N00808003EA0101201058
B1259344624030N00808003EA0101201058
B1259354624030N00808003EA0101201058
B1259364624030N00808003EA0101201058
B1259374624030N00808003EA0101201058
B1259384624030N00808002EA0101201058
B1259394624030N00808002EA0101201058
B1259404624030N00808002EA0101201058
B1259414624030N00808002EA0101201058
B1259424624030N00808002EA0101201058
B1259434624030N00808002EA0101201058
B1259444624030N00808002EA0101201058
B1259454624030N00808003EA0101201058
B1259464624030N00808004EA0101201058
B1259474624030N00808003EA0101201058
B1259484624030N00808003EA0101201057
B1259494624030N00808004EA0101201058
B1259504624030N00808003EA0101201058
B1259514624030N00808003EA0101201058
B1259524624029N00808003EA0101201058
B1259534624029N00808003EA0101201058
B1259544624029N00808003EA0101201058
B1259554624029N00808002EA0101201058
B1259564624029N00808002EA0101201058
B1259574624029N00808002EA0101201058
B1259584624029N00808002EA0101201058
B1259594624029N00808002EA0101201057
B1300004624029N00808002EA0101201057
B1300014624029N00808002EA0101201057
B1300024624030N00808002EA0101201057
B1300034624030N00808002EA0101201058
B1300044624030N00808002EA0101201057
B1300054624030N00808002EA0101101057
B1300064624030N00808003EA0101101057
B1300074624030N00808003EA0101201057
B1300084624030N00808003EA0101201058
B1300094624030N00808003EA0101201058
B1300104624030N00808003EA0101201057
B1300114624031N00808003EA0101201058
B1300124624030N00808003EA0101201058
B1300134624031N00808003EA0101201058
B1300144624031N00808004EA0101201058
B1300154624031N00808004EA0101201058
B1300164624031N00808005EA0101201058
B1300174624031N00808005EA0101201058
B1300184624031N00808005EA0101201058
B1300194624031N00808005EA0101201058
B1300204624031N00808005EA0101201058
B1300214624031N00808005EA0101201058
B1300224624031N00808005EA0101201058
B1300234624031N00808005EA0101201058
B1300244624031N00808005EA0101201058
B1300254624031N00808005EA0101201058
B1300264624031N00808005EA0101201058
B1300274624032N00808005EA0101201058
B1300284624032N00808006EA0101201058
B1300294624032N00808006EA0101201058
B1300304624031N00808006EA0101201058
B1300314624032N00808006EA0101201058
B1300324624034N00808006EA0101201058
B1300334624037N00808006EA0101301058
B1300344624039N00808004EA0101301059
B1300354624042N00808005EA0101301059
B1300364624043N00808005EA0101201058
B1300374624044N00808005EA0101201058
B1300384624045N00808005EA0101201058
B1300394624045N00808005EA0101201058
B1300404624045N00808005EA0101201058
B1300414624045N00808005EA0101201058
B1300424624045N00808005EA0101201058
B1300434624045N00808005EA0101201058
B1300444624045N00808005EA0101201058
B1300454624045N00808005EA0101201058
B1300464624045N00808005EA0101201058
B1300474624045N00808005EA0101201058
B1300484624045N00808004EA0101201058
B1300494624047N00808004EA0101201058
B1300504624048N00808003EA0101201058
B1300514624050N00808002EA0101201058
B1300524624052N00808002EA0101201058
B1300534624055N00808001EA0101201058
B1300544624057N00808000EA0101301059
B1300554624061N00807999EA0101301059
B1300564624064N00807999EA0101301059
B1300574624068N00807998EA0101401060
B1300584624072N00807999EA0101401060
B1300594624076N00808001EA0101501061
B1301004624080N00808002EA0101401060
B1301014624085N00808004EA0101401060
B1301024624090N00808006EA0101501061
LXSX;C1;GM:1.0
LXSX;S1;TS:1688561915;TL:1688562062;AS:1059;AL:1061;AT:1061;AB:1057
LXSX;S1;XS:1;XD:0.22;SP:13.2;MC:0.3;MS:-0.2;NB:149
LXSX;S1;FL:0.3;TG:0;TC:0.0;AG:13;GM:1.0
LXSX;S1;X0:46.40142,8.13323
LXSX;S1;X1:46.40142,8.13323
LXSX;S1;X2:46.40051,8.13345
LXSX;S1;X3:46.40150,8.13343
LXSX;S1;X4:46.40150,8.13343
GAC6272AB3582C33C8DBB7600048EAA7C
