AXSX005 SKYTRAXX
HFPLTPILOT:Sepp Bucher
HFGTYGLIDERTYPE:Niviuk Artik R
HFDTM100GPSDATUM:WGS-84
HFRFWFIRMWAREVERSION:202303142340
HFRHWHARDWAREVERSION:4.0
HFTZNTIMEZONE:+2.00
HFSITSITE:Fiesch Kühboden 1 (
HFDTE190523
LXSX;I1;OAB:20230518;OOB:20230103
LXSX;I1;ID:114075
LXSX;I1;AC:1;CAT:C
B0958254624854N00806461EA0209002159
B0958264624854N00806461EA0209002159
B0958274624853N00806461EA0209002159
B0958284624853N00806461EA0209002159
B0958294624853N00806461EA0209002159
B0958304624853N00806461EA0209002159
B0958314624853N00806462EA0209002159
B0958324624853N00806462EA0209002159
B0958334624853N00806462EA0209002159
B0958344624853N00806462EA0209002159
B0958354624853N00806462EA0209002159
B0958364624853N00806462EA0209002159
B0958374624853N00806462EA0208902158
B0958384624853N00806462EA0209002159
B0958394624852N00806462EA0208702156
B0958404624851N00806465EA0208502154
B0958414624850N00806468EA0208402153
B0958424624847N00806472EA0208202151
B0958434624844N00806475EA0208402153
B0958444624840N00806477EA0209102160
B0958454624836N00806476EA0209502164
B0958464624831N00806474EA0209502164
B0958474624827N00806470EA0209702166
B0958484624823N00806469EA0209802167
B0958494624819N00806470EA0209902168
B0958504624815N00806472EA0209802167
B0958514624813N00806476EA0209902168
B0958524624811N00806480EA0210102170
B0958534624810N00806485EA0210302172
B0958544624809N00806489EA0210502174
B0958554624809N00806493EA0210602174
B0958564624808N00806498EA0210602175
B0958574624808N00806504EA0210802176
B0958584624809N00806511EA0211002179
B0958594624809N00806518EA0211402182
B0959004624810N00806523EA0211802187
B0959014624811N00806528EA0212102190
B0959024624812N00806533EA0212402193
B0959034624814N00806538EA0212602195
B0959044624815N00806542EA0212802197
B0959054624817N00806547EA0212902198
B0959064624817N00806552EA0212902198
B0959074624816N00806556EA0212902197
B0959084624815N00806561EA0212702196
B0959094624814N00806567EA0212702195
B0959104624814N00806573EA0212802196
B0959114624813N00806579EA0212802197
B0959124624814N00806584EA0212902198
B0959134624813N00806589EA0213002199
B0959144624813N00806595EA0213102200
B0959154624814N00806601EA0213202201
B0959164624814N00806607EA0213402203
B0959174624815N00806614EA0213702206
B0959184624816N00806619EA0213902208
B0959194624817N00806625EA0214102210
B0959204624819N00806630EA0214102210
B0959214624822N00806635EA0214102210
B0959224624829N00806639EA0214202211
B0959234624837N00806638EA0214402213
B0959244624844N00806631EA0214802217
B0959254624848N00806621EA0215202221
B0959264624849N00806611EA0215402223
B0959274624848N00806604EA0215702226
B0959284624848N00806597EA0216002229
B0959294624847N00806589EA0216202231
B0959304624846N00806581EA0216402233
B0959314624841N00806575EA0216302232
B0959324624835N00806573EA0216102230
B0959334624829N00806577EA0216102230
B0959344624825N00806583EA0216502234
B0959354624822N00806588EA0216802237
B0959364624821N00806591EA0217002239
B0959374624821N00806593EA0217102240
B0959384624820N00806597EA0217002240
B0959394624821N00806603EA0216902238
B0959404624822N00806611EA0217002239
B0959414624828N00806617EA0217302243
B0959424624834N00806620EA0217702246
B0959434624841N00806617EA0218202251
B0959444624846N00806612EA0218702256
B0959454624850N00806605EA0219102260
B0959464624851N00806597EA0219402263
B0959474624852N00806590EA0219502265
B0959484624850N00806582EA0219702266
B0959494624847N00806575EA0219902268
B0959504624842N00806571EA0220002269
B0959514624836N00806573EA0219902269
B0959524624833N00806579EA0219902269
B0959534624832N00806587EA0220202271
B0959544624834N00806594EA0220602275
B0959554624838N00806598EA0221102280
B0959564624843N00806600EA0221502284
B0959574624850N00806599EA0222002289
B0959584624856N00806595EA0222402293
B0959594624860N00806589EA0222702296
B1000004624862N00806582EA0223002299
B1000014624862N00806574EA0223002299
B1000024624859N00806567EA0223002299
B1000034624853N00806562EA0223202302
B1000044624848N00806559EA0223702306
B1000054624844N00806560EA0224002310
B1000064624840N00806562EA0224302313
B1000074624837N00806566EA0224502315
B1000084624836N00806572EA0224702316
B1000094624835N00806578EA0224802317
B1000104624837N00806586EA0224902319
B1000114624841N00806592EA0225202322
B1000124624847N00806596EA0225702326
B1000134624852N00806597EA0226302332
B1000144624856N00806596EA0226702337
B1000154624860N00806594EA0227002340
B1000164624864N00806591EA0227302342
B1000174624868N00806587EA0227402344
B1000184624872N00806581EA0227502345
B1000194624875N00806573EA0227502345
B1000204624876N00806562EA0227402344
B1000214624875N00806551EA0227502344
B1000224624871N00806542EA0227702346
B1000234624865N00806536EA0227902349
B1000244624859N00806532EA0228502355
B1000254624855N00806531EA0228902358
B1000264624850N00806531EA0229202362
B1000274624847N00806533EA0229402364
B1000284624844N00806536EA0229502365
B1000294624840N00806541EA0229502365
B1000304624836N00806548EA0229502365
B1000314624833N00806556EA0229702367
B1000324624832N00806564EA0230002370
B1000334624831N00806570EA0230402374
B1000344624830N00806576EA0230602376
B1000354624830N00806582EA0230802378
B1000364624831N00806588EA0231002380
B1000374624833N00806596EA0231302383
B1000384624834N00806603EA0231702387
B1000394624835N00806610EA0232202392
B1000404624835N00806616EA0232602396
B1000414624834N00806621EA0232702397
B1000424624833N00806627EA0232802398
B1000434624832N00806634EA0233002400
B1000444624833N00806642EA0233102401
B1000454624836N00806649EA0233202402
B1000464624840N00806656EA0233502405
B1000474624843N00806661EA0233802408
B1000484624845N00806666EA0234002410
B1000494624846N00806671EA0234102411
B1000504624850N00806675EA0234102411
B1000514624855N00806677EA0233902409
B1000524624862N00806677EA0233802408
B1000534624869N00806676EA0233802408
B1000544624875N00806676EA0234002411
B1000554624879N00806678EA0234202413
B1000564624881N00806682EA0234302414
B1000574624883N00806684EA0234402414
B1000584624886N00806686EA0234302413
B1000594624889N00806688EA0234202412
B1001004624893N00806692EA0234002410
B1001014624895N00806698EA0234002410
B1001024624898N00806703EA0234102411
B1001034624901N00806707EA0234102412
B1001044624903N00806712EA0234102411
B1001054624906N00806716EA0234002411
B1001064624909N00806720EA0233902409
B1001074624911N00806725EA0233802409
B1001084624914N00806731EA0233802408
B1001094624917N00806737EA0233902409
B1001104624920N00806742EA0234002410
B1001114624922N00806748EA0234102412
B1001124624923N00806752EA0234402414
B1001134624925N00806756EA0234602417
B1001144624927N00806759EA0234702417
B1001154624929N00806763EA0234602416
B1001164624932N00806767EA0234502415
B1001174624935N00806772EA0234302414
B1001184624938N00806777EA0234302413
B1001194624941N00806782EA0234302413
B1001204624945N00806786EA0234302413
B1001214624949N00806791EA0234402414
B1001224624952N00806795EA0234502415
B1001234624955N00806799EA0234402414
B1001244624957N00806805EA0234302414
B1001254624960N00806811EA0234402415
B1001264624963N00806818EA0234602416
B1001274624966N00806824EA0234802418
B1001284624969N00806829EA0235102421
B1001294624972N00806833EA0235502425
B1001304624976N00806838EA0235802428
B1001314624978N00806843EA0236102432
B1001324624981N00806848EA0236502435
B1001334624984N00806853EA0236802439
B1001344624987N00806857EA0237102442
B1001354624990N00806862EA0237502445
B1001364624993N00806867EA0237702448
B1001374624995N00806873EA0238002451
B1001384624997N00806880EA0238402454
B1001394624999N00806887EA0238702458
B1001404625000N00806893EA0239002460
B1001414625001N00806899EA0239202462
B1001424625002N00806905EA0239302463
B1001434625004N00806910EA0239102462
B1001444625006N00806917EA0239002460
B1001454625008N00806925EA0238902459
B1001464625010N00806935EA0239002460
B1001474625012N00806944EA0239202462
B1001484625014N00806952EA0239402464
B1001494625016N00806959EA0239602466
B1001504625017N00806965EA0239702467
B1001514625017N00806972EA0239702467
B1001524625018N00806978EA0239602466
B1001534625020N00806986EA0239302463
B1001544625022N00806994EA0239002460
B1001554625025N00807002EA0238902459
B1001564625027N00807010EA0238702457
B1001574625029N00807018EA0238602456
B1001584625031N00807026EA0238502455
B1001594625035N00807033EA0238302454
B1002004625038N00807040EA0238202452
B1002014625042N00807048EA0238102451
B1002024625044N00807056EA0237902449
B1002034625045N00807064EA0237702447
B1002044625046N00807072EA0237602446
B1002054625047N00807080EA0237402444
B1002064625050N00807088EA0237202442
B1002074625052N00807096EA0237002440
B1002084625055N00807104EA0236802438
B1002094625057N00807112EA0236702437
B1002104625060N00807119EA0236502435
B1002114625062N00807126EA0236302434
B1002124625065N00807133EA0236202432
B1002134625068N00807141EA0236002430
B1002144625071N00807148EA0235802429
B1002154625074N00807155EA0235702428
B1002164625077N00807162EA0235702427
B1002174625080N00807169EA0235602427
B1002184625083N00807176EA0235502426
B1002194625086N00807184EA0235302424
B1002204625089N00807191EA0235202423
B1002214625092N00807198EA0235202422
B1002224625095N00807204EA0235102421
B1002234625099N00807211EA0234902420
B1002244625103N00807217EA0234802418
B1002254625107N00807223EA0234602416
B1002264625111N00807229EA0234402414
B1002274625115N00807234EA0234102411
B1002284625120N00807240EA0233902409
B1002294625126N00807245EA0233702408
B1002304625132N00807249EA0233702407
B1002314625137N00807254EA0233602406
B1002324625141N00807258EA0233502405
B1002334625145N00807262EA0233502405
B1002344625149N00807267EA0233602406
B1002354625152N00807272EA0233702407
B1002364625155N00807276EA0233702407
B1002374625158N00807281EA0233602407
B1002384625161N00807286EA0233702407
B1002394625164N00807292EA0233602406
B1002404625168N00807298EA0233502405
B1002414625171N00807304EA0233502405
B1002424625174N00807310EA0233502406
B1002434625176N00807317EA0233602406
B1002444625179N00807323EA0233502406
B1002454625181N00807329EA0233502405
B1002464625183N00807335EA0233302404
B1002474625185N00807341EA0233202402
B1002484625188N00807348EA0233002400
B1002494625189N00807356EA0232702398
B1002504625189N00807365EA0232502395
B1002514625188N00807374EA0232402394
B1002524625189N00807382EA0232402394
B1002534625189N00807389EA0232302393
B1002544625190N00807395EA0232202392
B1002554625190N00807402EA0232002390
B1002564625190N00807409EA0231702388
B1002574625190N00807417EA0231402384
B1002584625191N00807425EA0231202382
B1002594625194N00807432EA0231102381
B1003004625197N00807439EA0230902379
B1003014625201N00807446EA0230802378
B1003024625204N00807452EA0230702377
B1003034625207N00807458EA0230502376
B1003044625212N00807465EA0230302373
B1003054625215N00807473EA0230002371
B1003064625219N00807481EA0229802369
B1003074625223N00807488EA0229702367
B1003084625227N00807495EA0229602366
B1003094625230N00807501EA0229502365
B1003104625233N00807507EA0229302363
B1003114625236N00807514EA0229002361
B1003124625240N00807521EA0228802358
B1003134625244N00807528EA0228702357
B1003144625248N00807535EA0228502356
B1003154625252N00807542EA0228302354
B1003164625255N00807549EA0228102352
B1003174625258N00807555EA0227902350
B1003184625262N00807562EA0227702347
B1003194625266N00807568EA0227402345
B1003204625270N00807575EA0227202343
B1003214625274N00807582EA0227002341
B1003224625277N00807588EA0226802339
B1003234625281N00807595EA0226602336
B1003244625285N00807601EA0226202332
B1003254625289N00807609EA0225702327
B1003264625294N00807617EA0225402324
B1003274625299N00807626EA0225202322
B1003284625303N00807634EA0225102321
B1003294625307N00807641EA0224902319
B1003304625312N00807647EA0224702318
B1003314625316N00807654EA0224502315
B1003324625320N00807661EA0224102311
B1003334625324N00807669EA0223802308
B1003344625328N00807677EA0223402304
B1003354625332N00807686EA0223202302
B1003364625337N00807694EA0223002300
B1003374625340N00807703EA0222902299
B1003384625344N00807710EA0222702297
B1003394625348N00807718EA0222502295
B1003404625352N00807725EA0222302293
B1003414625356N00807733EA0222002290
B1003424625361N00807740EA0221802288
B1003434625365N00807747EA0221502285
B1003444625370N00807754EA0221302282
B1003454625375N00807761EA0221002280
B1003464625379N00807769EA0220802277
B1003474625383N00807776EA0220502275
B1003484625388N00807783EA0220302272
B1003494625393N00807790EA0220002270
B1003504625398N00807797EA0219702267
B1003514625404N00807804EA0219502264
B1003524625408N00807811EA0219202262
B1003534625413N00807818EA0218902259
B1003544625418N00807826EA0218702257
B1003554625422N00807833EA0218602256
B1003564625427N00807840EA0218502255
B1003574625431N00807847EA0218302253
B1003584625436N00807853EA0218102251
B1003594625441N00807859EA0217902249
B1004004625446N00807866EA0217802247
B1004014625450N00807874EA0217602245
B1004024625454N00807882EA0217502244
B1004034625458N00807890EA0217502245
B1004044625463N00807898EA0217602245
B1004054625467N00807906EA0217702246
B1004064625470N00807914EA0217702247
B1004074625474N00807922EA0217702247
B1004084625478N00807931EA0217702247
B1004094625482N00807939EA0217802248
B1004104625485N00807948EA0218002250
B1004114625488N00807956EA0218102250
B1004124625491N00807965EA0218102251
B1004134625494N00807973EA0218102251
B1004144625497N00807982EA0218102251
B1004154625501N00807990EA0218102251
B1004164625505N00807998EA0218102251
B1004174625508N00808007EA0218202251
B1004184625511N00808016EA0218102251
B1004194625514N00808024EA0218002250
B1004204625517N00808032EA0218002250
B1004214625520N00808040EA0218002250
B1004224625522N00808048EA0217902249
B1004234625526N00808056EA0217702247
B1004244625529N00808065EA0217602245
B1004254625533N00808074EA0217502245
B1004264625537N00808083EA0217602246
B1004274625540N00808092EA0217602246
B1004284625543N00808101EA0217602246
B1004294625546N00808109EA0217702246
B1004304625549N00808118EA0217702247
B1004314625553N00808126EA0217702247
B1004324625556N00808134EA0217702247
B1004334625559N00808143EA0217802247
B1004344625562N00808152EA0217802248
B1004354625565N00808161EA0217802247
B1004364625568N00808170EA0217702246
B1004374625571N00808179EA0217602246
B1004384625574N00808188EA0217602246
B1004394625577N00808198EA0217602246
B1004404625579N00808207EA0217602245
B1004414625582N00808216EA0217502244
B1004424625585N00808225EA0217302243
B1004434625589N00808233EA0217202241
B1004444625592N00808243EA0217002239
B1004454625596N00808253EA0216902238
B1004464625599N00808263EA0216702237
B1004474625603N00808272EA0216702237
B1004484625607N00808281EA0216802238
B1004494625611N00808290EA0216902239
B1004504625613N00808299EA0217002240
B1004514625616N00808309EA0217002240
B1004524625619N00808318EA0217002240
B1004534625622N00808327EA0217002239
B1004544625625N00808337EA0216902239
B1004554625628N00808347EA0216802238
B1004564625631N00808357EA0216802237
B1004574625634N00808367EA0216802237
B1004584625637N00808377EA0216802238
B1004594625640N00808387EA0216802238
B1005004625643N00808396EA0216802238
B1005014625646N00808405EA0216902239
B1005024625649N00808414EA0216802238
B1005034625652N00808423EA0216702237
B1005044625655N00808432EA0216702237
B1005054625657N00808442EA0216602236
B1005064625660N00808451EA0216502235
B1005074625663N00808461EA0216502234
B1005084625666N00808470EA0216502235
B1005094625669N00808480EA0216502234
B1005104625671N00808489EA0216502234
B1005114625673N00808498EA0216402234
B1005124625676N00808507EA0216302233
B1005134625679N00808517EA0216202232
B1005144625682N00808526EA0216202231
B1005154625685N00808536EA0216002229
B1005164625688N00808545EA0215902228
B1005174625692N00808554EA0215802227
B1005184625696N00808563EA0215602226
B1005194625700N00808572EA0215502224
B1005204625703N00808581EA0215402223
B1005214625706N00808590EA0215202222
B1005224625710N00808599EA0215102220
B1005234625714N00808607EA0214902219
B1005244625718N00808616EA0214702217
B1005254625721N00808625EA0214502215
B1005264625725N00808634EA0214302213
B1005274625729N00808643EA0214202212
B1005284625732N00808652EA0214102211
B1005294625736N00808661EA0214002210
B1005304625741N00808669EA0213902208
B1005314625744N00808677EA0213702207
B1005324625748N00808685EA0213402204
B1005334625752N00808694EA0213102201
B1005344625755N00808702EA0212902198
B1005354625759N00808711EA0212702196
B1005364625763N00808719EA0212502194
B1005374625767N00808727EA0212302193
B1005384625770N00808734EA0212102191
B1005394625774N00808742EA0211902188
B1005404625777N00808750EA0211602186
B1005414625781N00808758EA0211402183
B1005424625784N00808766EA0211102181
B1005434625787N00808774EA0210902179
B1005444625790N00808782EA0210702177
B1005454625793N00808791EA0210502175
B1005464625796N00808800EA0210302173
B1005474625799N00808808EA0210202171
B1005484625803N00808817EA0210002170
B1005494625806N00808826EA0209802168
B1005504625809N00808834EA0209502165
B1005514625813N00808843EA0209302163
B1005524625816N00808852EA0209002160
B1005534625820N00808861EA0208802157
B1005544625824N00808870EA0208602155
B1005554625828N00808879EA0208402154
B1005564625831N00808888EA0208202152
B1005574625835N00808896EA0208002150
B1005584625839N00808905EA0207802147
B1005594625842N00808914EA0207502145
B1006004625846N00808923EA0207302143
B1006014625849N00808933EA0207102141
B1006024625852N00808943EA0207002140
B1006034625854N00808952EA0207002139
B1006044625856N00808962EA0206902139
B1006054625859N00808970EA0206902138
B1006064625861N00808979EA0206802137
B1006074625863N00808987EA0206702136
B1006084625865N00808996EA0206502135
B1006094625868N00809005EA0206402134
B1006104625870N00809014EA0206202132
B1006114625872N00809023EA0206002130
B1006124625874N00809033EA0205802128
B1006134625877N00809042EA0205702126
B1006144625879N00809051EA0205502125
B1006154625882N00809061EA0205402124
B1006164625884N00809070EA0205302122
B1006174625886N00809080EA0205102121
B1006184625889N00809090EA0205002120
B1006194625891N00809099EA0204902118
B1006204625893N00809109EA0204702117
B1006214625895N00809119EA0204602115
B1006224625898N00809129EA0204402113
B1006234625900N00809139EA0204202112
B1006244625903N00809149EA0204002110
B1006254625906N00809159EA0203802108
B1006264625909N00809169EA0203702107
B1006274625912N00809179EA0203602105
B1006284625915N00809189EA0203402103
B1006294625918N00809198EA0203202102
B1006304625922N00809207EA0203002100
B1006314625925N00809216EA0202802097
B1006324625928N00809226EA0202502095
B1006334625931N00809236EA0202302093
B1006344625934N00809246EA0202302092
B1006354625937N00809256EA0202202092
B1006364625939N00809265EA0202102091
B1006374625942N00809274EA0202002089
B1006384625944N00809283EA0201802087
B1006394625947N00809292EA0201602085
B1006404625949N00809302EA0201302083
B1006414625951N00809312EA0201202081
B1006424625953N00809322EA0201002080
B1006434625955N00809331EA0200902078
B1006444625958N00809340EA0200702077
B1006454625960N00809349EA0200602075
B1006464625963N00809358EA0200302073
B1006474625966N00809368EA0200202071
B1006484625968N00809378EA0200002070
B1006494625971N00809387EA0199902069
B1006504625974N00809397EA0199802068
B1006514625976N00809406EA0199702067
B1006524625978N00809414EA0199602065
B1006534625981N00809423EA0199402064
B1006544625984N00809433EA0199202062
B1006554625986N00809442EA0199102061
B1006564625989N00809451EA0199002060
B1006574625991N00809460EA0198902059
B1006584625994N00809469EA0198802057
B1006594625997N00809478EA0198702056
B1007004626000N00809488EA0198602055
B1007014626003N00809497EA0198502055
B1007024626005N00809507EA0198402054
B1007034626008N00809516EA0198302053
B1007044626010N00809524EA0198402053
B1007054626013N00809532EA0198402054
B1007064626016N00809538EA0198502055
B1007074626018N00809544EA0198502055
B1007084626020N00809550EA0198402053
B1007094626023N00809557EA0198202051
B1007104626025N00809565EA0198102050
B1007114626028N00809573EA0197902049
B1007124626030N00809580EA0197802048
B1007134626032N00809588EA0197702047
B1007144626034N00809595EA0197602046
B1007154626036N00809603EA0197502045
B1007164626038N00809611EA0197502045
B1007174626041N00809618EA0197602046
B1007184626044N00809625EA0197602046
B1007194626046N00809632EA0197602046
B1007204626048N00809639EA0197502045
B1007214626050N00809646EA0197302043
B1007224626053N00809654EA0197102040
B1007234626056N00809662EA0196902039
B1007244626058N00809671EA0196902038
B1007254626060N00809680EA0196902038
B1007264626063N00809688EA0196902038
B1007274626066N00809696EA0196802038
B1007284626069N00809704EA0196802037
B1007294626071N00809712EA0196702037
B1007304626072N00809719EA0196602036
B1007314626075N00809726EA0196502034
B1007324626078N00809733EA0196302033
B1007334626081N00809741EA0196102031
B1007344626083N00809749EA0196002029
B1007354626085N00809757EA0195802028
B1007364626088N00809765EA0195802028
B1007374626091N00809773EA0195902028
B1007384626094N00809780EA0196102030
B1007394626097N00809787EA0196302032
B1007404626100N00809793EA0196502034
B1007414626103N00809799EA0196702036
B1007424626106N00809804EA0196802038
B1007434626110N00809810EA0196902038
B1007444626114N00809816EA0196802038
B1007454626118N00809822EA0196702037
B1007464626122N00809828EA0196502035
B1007474626126N00809836EA0196402033
B1007484626128N00809845EA0196302032
B1007494626130N00809854EA0196202032
B1007504626131N00809864EA0196302032
B1007514626133N00809872EA0196302032
B1007524626134N00809881EA0196202032
B1007534626135N00809889EA0196202031
B1007544626136N00809898EA0196102030
B1007554626136N00809906EA0196102030
B1007564626136N00809914EA0196102031
B1007574626136N00809922EA0196102030
B1007584626136N00809929EA0196102031
B1007594626135N00809937EA0196202032
B1008004626134N00809944EA0196402034
B1008014626132N00809951EA0196602036
B1008024626130N00809957EA0196802037
B1008034626127N00809962EA0196802037
B1008044626124N00809966EA0196702036
B1008054626120N00809969EA0196702037
B1008064626116N00809971EA0197002039
B1008074626112N00809972EA0197102041
B1008084626109N00809971EA0197102041
B1008094626105N00809967EA0197102041
B1008104626101N00809963EA0197202041
B1008114626096N00809958EA0197402044
B1008124626094N00809953EA0197602046
B1008134626093N00809947EA0197802047
B1008144626092N00809941EA0197902049
B1008154626092N00809934EA0198102050
B1008164626093N00809926EA0198102051
B1008174626096N00809920EA0198102051
B1008184626101N00809915EA0198102051
B1008194626106N00809911EA0198102051
B1008204626112N00809910EA0198102050
B1008214626117N00809912EA0198002050
B1008224626122N00809916EA0197902049
B1008234626126N00809921EA0197902049
B1008244626128N00809929EA0197902049
B1008254626129N00809936EA0198002049
B1008264626129N00809944EA0198102051
B1008274626128N00809951EA0198302053
B1008284626127N00809957EA0198502054
B1008294626124N00809962EA0198602056
B1008304626121N00809967EA0198702057
B1008314626118N00809971EA0198802058
B1008324626114N00809974EA0199002060
B1008334626111N00809977EA0199202062
B1008344626107N00809978EA0199502064
B1008354626104N00809977EA0199602066
B1008364626102N00809974EA0199502065
B1008374626101N00809968EA0199402063
B1008384626100N00809961EA0199202061
B1008394626100N00809953EA0199102060
B1008404626101N00809945EA0199002059
B1008414626103N00809938EA0198902058
B1008424626106N00809931EA0198902059
B1008434626112N00809927EA0198902059
B1008444626117N00809924EA0199002060
B1008454626123N00809924EA0199002060
B1008464626129N00809926EA0199002060
B1008474626134N00809928EA0199002059
B1008484626139N00809933EA0198902059
B1008494626143N00809938EA0198902058
B1008504626147N00809945EA0198902059
B1008514626150N00809952EA0199102060
B1008524626152N00809960EA0199202062
B1008534626151N00809967EA0199402064
B1008544626150N00809975EA0199502065
B1008554626148N00809981EA0199702067
B1008564626147N00809988EA0199902069
B1008574626145N00809993EA0200102071
B1008584626142N00809998EA0200302072
B1008594626139N00810002EA0200402073
B1009004626137N00810005EA0200502074
B1009014626134N00810006EA0200502075
B1009024626132N00810006EA0200502074
B1009034626129N00810005EA0200302073
B1009044626125N00810002EA0200202071
B1009054626121N00809998EA0200102071
B1009064626119N00809992EA0200102071
B1009074626118N00809984EA0200102070
B1009084626119N00809977EA0200102070
B1009094626121N00809970EA0200002070
B1009104626124N00809963EA0200102071
B1009114626127N00809956EA0200002070
B1009124626131N00809951EA0199802068
B1009134626137N00809947EA0199602066
B1009144626142N00809945EA0199502065
B1009154626148N00809943EA0199402064
B1009164626155N00809945EA0199302062
B1009174626161N00809950EA0199102061
B1009184626166N00809957EA0199002059
B1009194626169N00809966EA0198902058
B1009204626171N00809976EA0198802058
B1009214626172N00809985EA0198802058
B1009224626172N00809994EA0198902059
B1009234626172N00810001EA0199102061
B1009244626172N00810008EA0199202062
B1009254626172N00810014EA0199302063
B1009264626172N00810020EA0199302063
B1009274626171N00810026EA0199202062
B1009284626170N00810031EA0199102061
B1009294626167N00810036EA0199102060
B1009304626164N00810039EA0199002060
B1009314626161N00810042EA0198902059
B1009324626157N00810044EA0198802057
B1009334626154N00810046EA0198702057
B1009344626150N00810047EA0198602056
B1009354626145N00810046EA0198502055
B1009364626142N00810045EA0198402054
B1009374626137N00810042EA0198202052
B1009384626133N00810039EA0198202052
B1009394626129N00810036EA0198202052
B1009404626125N00810033EA0198202052
B1009414626122N00810029EA0198302052
B1009424626118N00810026EA0198202051
B1009434626115N00810023EA0198102051
B1009444626111N00810020EA0198002050
B1009454626106N00810015EA0198002050
B1009464626103N00810010EA0198002050
B1009474626100N00810006EA0198102051
B1009484626097N00810001EA0198402054
B1009494626095N00809997EA0198602056
B1009504626093N00809993EA0198702057
B1009514626090N00809990EA0198902059
B1009524626088N00809988EA0199002060
B1009534626085N00809985EA0199002059
B1009544626083N00809982EA0198902059
B1009554626082N00809978EA0198902059
B1009564626080N00809974EA0198902059
B1009574626080N00809970EA0198902059
B1009584626080N00809964EA0198902059
B1009594626082N00809958EA0198802057
B1010004626086N00809951EA0198602056
B1010014626092N00809945EA0198502054
B1010024626099N00809942EA0198302053
B1010034626106N00809942EA0198302052
B1010044626113N00809944EA0198202052
B1010054626119N00809948EA0198102051
B1010064626123N00809953EA0198002050
B1010074626127N00809959EA0197902048
B1010084626131N00809967EA0197702046
B1010094626133N00809976EA0197502045
B1010104626134N00809985EA0197402043
B1010114626134N00809994EA0197302042
B1010124626133N00810002EA0197202042
B1010134626132N00810009EA0197202041
B1010144626131N00810015EA0197102041
B1010154626129N00810020EA0197002039
B1010164626125N00810025EA0196802038
B1010174626121N00810030EA0196802038
B1010184626117N00810033EA0196802038
B1010194626112N00810034EA0197002040
B1010204626108N00810034EA0197202042
B1010214626104N00810035EA0197502044
B1010224626101N00810036EA0197702046
B1010234626096N00810038EA0197802048
B1010244626093N00810040EA0198002050
B1010254626088N00810043EA0198202052
B1010264626085N00810045EA0198502054
B1010274626082N00810046EA0198502054
B1010284626080N00810046EA0198302053
B1010294626077N00810047EA0198102051
B1010304626073N00810048EA0197902048
B1010314626068N00810050EA0197602046
B1010324626063N00810052EA0197502045
B1010334626058N00810054EA0197502045
B1010344626053N00810055EA0197502044
B1010354626048N00810055EA0197402044
B1010364626044N00810053EA0197302042
B1010374626039N00810051EA0197102041
B1010384626035N00810048EA0197002040
B1010394626031N00810045EA0196802038
B1010404626026N00810041EA0196702036
B1010414626022N00810038EA0196502035
B1010424626016N00810035EA0196402034
B1010434626011N00810033EA0196402033
B1010444626006N00810032EA0196202032
B1010454626002N00810030EA0196002030
B1010464625998N00810028EA0195702027
B1010474625993N00810027EA0195402023
B1010484625989N00810026EA0195002020
B1010494625984N00810023EA0194802017
B1010504625979N00810021EA0194502015
B1010514625974N00810021EA0194402013
B1010524625969N00810022EA0194302012
B1010534625964N00810024EA0194202011
B1010544625960N00810025EA0194002010
B1010554625955N00810026EA0193802008
B1010564625949N00810026EA0193702007
B1010574625944N00810027EA0193602006
B1010584625939N00810026EA0193502004
B1010594625935N00810025EA0193302002
B1011004625930N00810024EA0193102000
B1011014625925N00810023EA0192801997
B1011024625919N00810023EA0192601996
B1011034625914N00810022EA0192601996
B1011044625909N00810021EA0192601995
B1011054625906N00810019EA0192501994
B1011064625903N00810019EA0192201992
B1011074625899N00810019EA0191901988
B1011084625894N00810019EA0191501984
B1011094625889N00810018EA0191101980
B1011104625884N00810018EA0190801978
B1011114625880N00810018EA0190601975
B1011124625875N00810018EA0190401974
B1011134625871N00810017EA0190201971
B1011144625866N00810016EA0189801968
B1011154625862N00810014EA0189501965
B1011164625856N00810013EA0189201962
B1011174625851N00810012EA0189001960
B1011184625846N00810011EA0188801958
B1011194625841N00810010EA0188601955
B1011204625837N00810009EA0188401954
B1011214625832N00810010EA0188301952
B1011224625827N00810012EA0188201951
B1011234625822N00810013EA0188201952
B1011244625818N00810014EA0188301952
B1011254625814N00810016EA0188301952
B1011264625811N00810019EA0188201952
B1011274625807N00810024EA0188201951
B1011284625804N00810028EA0188101951
B1011294625800N00810032EA0188101951
B1011304625796N00810035EA0188201951
B1011314625793N00810039EA0188301952
B1011324625790N00810044EA0188301952
B1011334625787N00810049EA0188301952
B1011344625784N00810053EA0188201951
B1011354625781N00810057EA0188101951
B1011364625775N00810062EA0188201952
B1011374625770N00810066EA0188601955
B1011384625767N00810068EA0188901958
B1011394625763N00810069EA0189101961
B1011404625760N00810070EA0189301962
B1011414625755N00810071EA0189401963
B1011424625750N00810073EA0189601965
B1011434625746N00810074EA0189601966
B1011444625741N00810076EA0189701966
B1011454625736N00810079EA0189801967
B1011464625731N00810083EA0189801968
B1011474625727N00810089EA0189901968
B1011484625724N00810097EA0190001970
B1011494625723N00810106EA0190201971
B1011504625722N00810115EA0190201971
B1011514625724N00810125EA0190101971
B1011524625727N00810134EA0190201971
B1011534625732N00810141EA0190301972
B1011544625738N00810145EA0190301973
B1011554625743N00810147EA0190401973
B1011564625749N00810146EA0190501974
B1011574625755N00810142EA0190601976
B1011584625758N00810136EA0190701977
B1011594625759N00810129EA0190801978
B1012004625759N00810123EA0191001979
B1012014625757N00810116EA0191101981
B1012024625755N00810112EA0191201982
B1012034625752N00810108EA0191301983
B1012044625749N00810105EA0191401983
B1012054625745N00810103EA0191301983
B1012064625741N00810099EA0191301982
B1012074625738N00810095EA0191201981
B1012084625734N00810091EA0191301982
B1012094625730N00810089EA0191501985
B1012104625727N00810087EA0191701987
B1012114625724N00810086EA0191901988
B1012124625721N00810085EA0191901988
B1012134625718N00810085EA0191901988
B1012144625714N00810088EA0191801988
B1012154625710N00810093EA0191701986
B1012164625705N00810101EA0191601986
B1012174625703N00810112EA0191701986
B1012184625704N00810122EA0191701986
B1012194625706N00810131EA0191601985
B1012204625711N00810138EA0191401984
B1012214625716N00810145EA0191401984
B1012224625721N00810151EA0191501984
B1012234625727N00810154EA0191501985
B1012244625732N00810157EA0191601985
B1012254625738N00810158EA0191601985
B1012264625743N00810158EA0191601986
B1012274625749N00810156EA0191501985
B1012284625753N00810153EA0191501984
B1012294625756N00810148EA0191401984
B1012304625759N00810141EA0191401984
B1012314625760N00810134EA0191501984
B1012324625761N00810127EA0191501984
B1012334625761N00810121EA0191701986
B1012344625761N00810115EA0191701987
B1012354625761N00810111EA0191901988
B1012364625759N00810107EA0192001989
B1012374625756N00810103EA0191901989
B1012384625752N00810101EA0191901989
B1012394625749N00810101EA0191901988
B1012404625744N00810104EA0191701987
B1012414625739N00810109EA0191601986
B1012424625735N00810116EA0191601985
B1012434625732N00810124EA0191601986
B1012444625731N00810134EA0191601986
B1012454625732N00810144EA0191601986
B1012464625734N00810154EA0191701986
B1012474625737N00810163EA0191701986
B1012484625742N00810170EA0191601985
B1012494625749N00810174EA0191501984
B1012504625755N00810177EA0191401984
B1012514625761N00810177EA0191501984
B1012524625767N00810177EA0191501984
B1012534625772N00810177EA0191501984
B1012544625777N00810177EA0191601985
B1012554625782N00810177EA0191601985
B1012564625787N00810174EA0191501984
B1012574625791N00810169EA0191401983
B1012584625793N00810162EA0191301982
B1012594625796N00810155EA0191401983
B1013004625798N00810149EA0191501984
B1013014625800N00810145EA0191501985
B1013024625801N00810140EA0191601985
B1013034625802N00810135EA0191501984
B1013044625802N00810129EA0191501985
B1013054625801N00810124EA0191601985
B1013064625800N00810119EA0191701986
B1013074625799N00810115EA0191801987
B1013084625799N00810112EA0191801987
B1013094625797N00810108EA0191801987
B1013104625795N00810106EA0191701986
B1013114625791N00810105EA0191701986
B1013124625787N00810106EA0191701986
B1013134625783N00810110EA0191701986
B1013144625779N00810116EA0191701986
B1013154625776N00810123EA0191701987
B1013164625774N00810132EA0191801987
B1013174625772N00810141EA0191901988
B1013184625771N00810151EA0191901989
B1013194625771N00810161EA0192001989
B1013204625773N00810172EA0192001989
B1013214625777N00810182EA0192001989
B1013224625781N00810191EA0192001989
B1013234625787N00810198EA0192001989
B1013244625792N00810204EA0192001990
B1013254625798N00810208EA0192001989
B1013264625804N00810211EA0191901988
B1013274625811N00810211EA0191701986
B1013284625816N00810208EA0191501984
B1013294625821N00810202EA0191301982
B1013304625823N00810195EA0191101980
B1013314625824N00810189EA0191101980
B1013324625825N00810184EA0191301982
B1013334625827N00810180EA0191501984
B1013344625830N00810177EA0191501984
B1013354625832N00810174EA0191501984
B1013364625835N00810170EA0191501984
B1013374625836N00810165EA0191401983
B1013384625836N00810158EA0191401983
B1013394625836N00810151EA0191501984
B1013404625835N00810144EA0191701986
B1013414625834N00810139EA0192101990
B1013424625833N00810135EA0192401993
B1013434625832N00810131EA0192501994
B1013444625831N00810127EA0192401993
B1013454625831N00810122EA0192301992
B1013464625831N00810116EA0192301992
B1013474625831N00810110EA0192401993
B1013484625831N00810104EA0192401993
B1013494625833N00810100EA0192501994
B1013504625836N00810097EA0192401993
B1013514625840N00810094EA0192301992
B1013524625845N00810092EA0192201991
B1013534625851N00810090EA0192001989
B1013544625857N00810089EA0191901988
B1013554625865N00810090EA0191801987
B1013564625873N00810094EA0191701986
B1013574625879N00810100EA0191801987
B1013584625885N00810107EA0191901988
B1013594625890N00810115EA0192101990
B1014004625894N00810124EA0192201991
B1014014625896N00810132EA0192201991
B1014024625897N00810142EA0192201991
B1014034625896N00810152EA0192101990
B1014044625894N00810161EA0192101990
B1014054625892N00810167EA0192101990
B1014064625888N00810171EA0192101990
B1014074625884N00810173EA0192201991
B1014084625880N00810173EA0192301992
B1014094625877N00810171EA0192401993
B1014104625875N00810168EA0192501994
B1014114625873N00810165EA0192501994
B1014124625873N00810161EA0192501994
B1014134625873N00810157EA0192401993
B1014144625873N00810152EA0192401993
B1014154625873N00810148EA0192301992
B1014164625874N00810143EA0192201991
B1014174625876N00810138EA0192101990
B1014184625878N00810133EA0192001989
B1014194625880N00810127EA0191901988
B1014204625882N00810122EA0191801987
B1014214625882N00810117EA0191701986
B1014224625883N00810111EA0191601985
B1014234625884N00810106EA0191501984
B1014244625885N00810100EA0191501984
B1014254625885N00810094EA0191601985
B1014264625886N00810090EA0191701986
B1014274625888N00810085EA0191601985
B1014284625890N00810081EA0191601985
B1014294625891N00810077EA0191501984
B1014304625892N00810072EA0191301982
B1014314625892N00810067EA0191101980
B1014324625891N00810062EA0190901978
B1014334625891N00810056EA0190801977
B1014344625891N00810051EA0190601975
B1014354625889N00810046EA0190401973
B1014364625887N00810042EA0190101970
B1014374625883N00810038EA0190001969
B1014384625878N00810036EA0190101970
B1014394625874N00810036EA0190301972
B1014404625871N00810035EA0190401973
B1014414625869N00810034EA0190301972
B1014424625866N00810033EA0190101970
B1014434625863N00810031EA0190001969
B1014444625859N00810030EA0189801967
B1014454625855N00810029EA0189701966
B1014464625852N00810028EA0189701966
B1014474625849N00810026EA0189601965
B1014484625847N00810025EA0189401963
B1014494625844N00810023EA0189301962
B1014504625840N00810021EA0189101960
B1014514625836N00810020EA0188801957
B1014524625833N00810019EA0188601955
B1014534625828N00810019EA0188601955
B1014544625824N00810019EA0188501954
B1014554625820N00810020EA0188501954
B1014564625816N00810022EA0188501954
B1014574625812N00810025EA0188401953
B1014584625809N00810028EA0188301952
B1014594625805N00810032EA0188201951
B1015004625800N00810035EA0188101950
B1015014625796N00810039EA0188001949
B1015024625791N00810042EA0188001949
B1015034625786N00810046EA0188001949
B1015044625782N00810049EA0187901948
B1015054625777N00810051EA0187801947
B1015064625772N00810052EA0187801947
B1015074625767N00810052EA0187801947
B1015084625762N00810051EA0187801947
B1015094625758N00810049EA0187901948
B1015104625754N00810046EA0188001949
B1015114625751N00810044EA0188001949
B1015124625747N00810043EA0188001949
B1015134625743N00810041EA0188101950
B1015144625739N00810039EA0188001949
B1015154625736N00810037EA0188001949
B1015164625732N00810034EA0188001949
B1015174625730N00810031EA0188001949
B1015184625727N00810027EA0187901948
B1015194625724N00810024EA0187801947
B1015204625722N00810021EA0187701946
B1015214625719N00810017EA0187501944
B1015224625716N00810013EA0187301942
B1015234625714N00810008EA0187201941
B1015244625712N00810002EA0187101940
B1015254625710N00809996EA0187001939
B1015264625709N00809990EA0187001939
B1015274625708N00809985EA0187001939
B1015284625707N00809980EA0187001939
B1015294625706N00809975EA0186901938
B1015304625705N00809969EA0186701936
B1015314625704N00809964EA0186501934
B1015324625703N00809958EA0186301932
B1015334625702N00809951EA0186201931
B1015344625700N00809945EA0186101930
B1015354625698N00809939EA0186201931
B1015364625697N00809934EA0186201931
B1015374625695N00809929EA0186201931
B1015384625692N00809924EA0186301932
B1015394625690N00809919EA0186201931
B1015404625689N00809915EA0186201931
B1015414625687N00809910EA0186101930
B1015424625685N00809905EA0186001929
B1015434625684N00809900EA0185901928
B1015444625682N00809896EA0185901928
B1015454625681N00809891EA0185801927
B1015464625680N00809886EA0185701926
B1015474625679N00809881EA0185501924
B1015484625678N00809876EA0185201921
B1015494625676N00809870EA0185001919
B1015504625674N00809864EA0184901918
B1015514625673N00809858EA0184801917
B1015524625671N00809852EA0184801917
B1015534625670N00809846EA0184801917
B1015544625669N00809841EA0184701916
B1015554625668N00809834EA0184601915
B1015564625666N00809828EA0184701916
B1015574625664N00809823EA0184801917
B1015584625661N00809818EA0185001919
B1015594625660N00809813EA0185201921
B1016004625659N00809807EA0185301922
B1016014625660N00809801EA0185401923
B1016024625660N00809796EA0185401923
B1016034625660N00809790EA0185501924
B1016044625662N00809784EA0185501924
B1016054625664N00809777EA0185501924
B1016064625668N00809770EA0185401923
B1016074625673N00809764EA0185501924
B1016084625680N00809759EA0185601924
B1016094625687N00809757EA0185701926
B1016104625695N00809756EA0185701926
B1016114625703N00809757EA0185701926
B1016124625711N00809761EA0185801927
B1016134625718N00809766EA0185901927
B1016144625724N00809772EA0185801927
B1016154625728N00809781EA0185701926
B1016164625731N00809790EA0185701926
B1016174625732N00809799EA0185801927
B1016184625732N00809807EA0185901928
B1016194625730N00809812EA0186001929
B1016204625728N00809815EA0186001929
B1016214625725N00809816EA0186101930
B1016224625723N00809815EA0186201931
B1016234625722N00809813EA0186201931
B1016244625721N00809808EA0186301932
B1016254625720N00809803EA0186301932
B1016264625722N00809797EA0186401933
B1016274625724N00809791EA0186501934
B1016284625728N00809785EA0186501934
B1016294625733N00809779EA0186501934
B1016304625740N00809775EA0186601935
B1016314625748N00809773EA0186601935
B1016324625756N00809775EA0186701936
B1016334625764N00809779EA0186801937
B1016344625770N00809786EA0186801937
B1016354625775N00809794EA0186901938
B1016364625777N00809803EA0186801937
B1016374625778N00809812EA0186901937
B1016384625778N00809819EA0186901938
B1016394625776N00809825EA0187001939
B1016404625774N00809829EA0187101940
B1016414625771N00809831EA0187101940
B1016424625768N00809832EA0187101940
B1016434625765N00809831EA0187301942
B1016444625762N00809828EA0187401943
B1016454625761N00809825EA0187501944
B1016464625760N00809820EA0187501944
B1016474625760N00809815EA0187601945
B1016484625761N00809809EA0187701946
B1016494625763N00809803EA0187701946
B1016504625766N00809797EA0187801947
B1016514625770N00809791EA0187901948
B1016524625775N00809786EA0187901948
B1016534625781N00809782EA0187901948
B1016544625789N00809780EA0187901948
B1016554625797N00809780EA0187901948
B1016564625806N00809784EA0187901948
B1016574625813N00809790EA0188001949
B1016584625818N00809798EA0188101950
B1016594625822N00809807EA0188101950
B1017004625823N00809816EA0188201951
B1017014625823N00809824EA0188201951
B1017024625822N00809831EA0188301952
B1017034625820N00809836EA0188301952
B1017044625818N00809839EA0188401953
B1017054625815N00809839EA0188401953
B1017064625812N00809837EA0188401953
B1017074625809N00809834EA0188401953
B1017084625806N00809831EA0188501954
B1017094625804N00809828EA0188601955
B1017104625802N00809824EA0188601955
B1017114625800N00809819EA0188601955
B1017124625799N00809814EA0188601955
B1017134625797N00809809EA0188601955
B1017144625795N00809805EA0188601955
B1017154625793N00809801EA0188401953
B1017164625790N00809796EA0188301952
B1017174625788N00809790EA0188101950
B1017184625785N00809784EA0188001949
B1017194625783N00809779EA0188001949
B1017204625780N00809773EA0188101950
B1017214625778N00809768EA0188001949
B1017224625776N00809762EA0188001949
B1017234625773N00809757EA0187901948
B1017244625770N00809752EA0187801947
B1017254625768N00809746EA0187801947
B1017264625765N00809741EA0187801947
B1017274625762N00809735EA0187801947
B1017284625760N00809729EA0187801947
B1017294625758N00809723EA0187601945
B1017304625756N00809717EA0187501944
B1017314625753N00809711EA0187401943
B1017324625750N00809705EA0187201941
B1017334625748N00809698EA0187101940
B1017344625746N00809692EA0186901938
B1017354625742N00809686EA0186801937
B1017364625739N00809681EA0186801937
B1017374625736N00809676EA0186701936
B1017384625734N00809670EA0186601935
B1017394625730N00809665EA0186501934
B1017404625727N00809659EA0186401933
B1017414625724N00809654EA0186401933
B1017424625721N00809648EA0186401933
B1017434625718N00809643EA0186401933
B1017444625715N00809638EA0186501934
B1017454625712N00809633EA0186701936
B1017464625709N00809628EA0186701936
B1017474625707N00809623EA0186801937
B1017484625704N00809617EA0186801937
B1017494625700N00809612EA0186801936
B1017504625697N00809607EA0186801937
B1017514625694N00809601EA0186801937
B1017524625691N00809596EA0186701936
B1017534625688N00809590EA0186701936
B1017544625684N00809584EA0186601935
B1017554625681N00809578EA0186501934
B1017564625677N00809572EA0186501934
B1017574625673N00809567EA0186601935
B1017584625670N00809561EA0186701936
B1017594625667N00809555EA0186701936
B1018004625665N00809550EA0186901938
B1018014625662N00809545EA0187001939
B1018024625660N00809540EA0187101940
B1018034625658N00809535EA0187101940
B1018044625655N00809529EA0187001939
B1018054625653N00809523EA0187201941
B1018064625650N00809518EA0187401943
B1018074625647N00809512EA0187601945
B1018084625645N00809506EA0187601945
B1018094625643N00809500EA0187701946
B1018104625641N00809495EA0187801947
B1018114625638N00809490EA0187701946
B1018124625636N00809484EA0187801947
B1018134625633N00809477EA0187901948
B1018144625631N00809470EA0188201951
B1018154625629N00809464EA0188501954
B1018164625628N00809458EA0188701956
B1018174625626N00809453EA0188801957
B1018184625624N00809446EA0188601955
B1018194625622N00809439EA0188401953
B1018204625619N00809431EA0188201951
B1018214625616N00809423EA0188301952
B1018224625614N00809415EA0188401953
B1018234625613N00809408EA0188501954
B1018244625612N00809402EA0188501954
B1018254625611N00809396EA0188401953
B1018264625610N00809390EA0188201951
B1018274625608N00809383EA0188101950
B1018284625605N00809376EA0188001949
B1018294625602N00809370EA0188101950
B1018304625599N00809364EA0188301952
B1018314625597N00809358EA0188401953
B1018324625596N00809351EA0188501954
B1018334625594N00809345EA0188601954
B1018344625592N00809340EA0188701956
B1018354625590N00809334EA0188701956
B1018364625590N00809326EA0188601955
B1018374625589N00809317EA0188501954
B1018384625588N00809308EA0188501954
B1018394625586N00809300EA0188501954
B1018404625584N00809292EA0188701956
B1018414625583N00809285EA0188801957
B1018424625581N00809278EA0188901958
B1018434625580N00809271EA0188901958
B1018444625578N00809265EA0188901958
B1018454625576N00809258EA0188901958
B1018464625574N00809251EA0189001959
B1018474625574N00809244EA0189001958
B1018484625572N00809237EA0188901958
B1018494625570N00809230EA0188801957
B1018504625569N00809224EA0188901958
B1018514625568N00809218EA0188901958
B1018524625569N00809212EA0188701956
B1018534625570N00809205EA0188301952
B1018544625571N00809196EA0188001949
B1018554625572N00809187EA0187801947
B1018564625573N00809178EA0187701946
B1018574625573N00809169EA0187501944
B1018584625572N00809161EA0187301942
B1018594625570N00809154EA0187201941
B1019004625569N00809148EA0187001939
B1019014625567N00809143EA0186801937
B1019024625565N00809138EA0186601935
B1019034625563N00809132EA0186401933
B1019044625561N00809127EA0186201931
B1019054625559N00809121EA0186001929
B1019064625558N00809115EA0185801927
B1019074625556N00809109EA0185601925
B1019084625554N00809104EA0185401923
B1019094625553N00809098EA0185201921
B1019104625551N00809091EA0184901918
B1019114625550N00809085EA0184601915
B1019124625548N00809079EA0184401913
B1019134625546N00809073EA0184101910
B1019144625543N00809067EA0183801907
B1019154625540N00809062EA0183501904
B1019164625537N00809057EA0183201901
B1019174625534N00809053EA0183101900
B1019184625532N00809049EA0182901898
B1019194625529N00809045EA0182701896
B1019204625526N00809040EA0182401893
B1019214625523N00809035EA0182201891
B1019224625520N00809030EA0182101890
B1019234625516N00809026EA0182001889
B1019244625513N00809022EA0181801887
B1019254625512N00809016EA0181601885
B1019264625511N00809009EA0181201881
B1019274625511N00809000EA0180701876
B1019284625513N00808991EA0180301872
B1019294625513N00808981EA0180001869
B1019304625514N00808972EA0179801867
B1019314625513N00808964EA0179601865
B1019324625511N00808955EA0179501864
B1019334625509N00808946EA0179201861
B1019344625506N00808936EA0179101860
B1019354625503N00808928EA0179101860
B1019364625500N00808921EA0179301862
B1019374625497N00808914EA0179301862
B1019384625494N00808908EA0179201861
B1019394625491N00808902EA0179001859
B1019404625487N00808895EA0178801857
B1019414625483N00808889EA0178801857
B1019424625479N00808882EA0178901858
B1019434625475N00808877EA0179001859
B1019444625471N00808872EA0179301862
B1019454625468N00808869EA0179501864
B1019464625464N00808865EA0179501864
B1019474625461N00808861EA0179301862
B1019484625457N00808857EA0179101860
B1019494625452N00808852EA0179101860
B1019504625447N00808848EA0179101860
B1019514625443N00808843EA0179201861
B1019524625438N00808839EA0179301862
B1019534625434N00808834EA0179301862
B1019544625430N00808830EA0179301862
B1019554625425N00808825EA0179301862
B1019564625420N00808821EA0179201861
B1019574625415N00808817EA0179201861
B1019584625410N00808813EA0179301862
B1019594625405N00808808EA0179301862
B1020004625401N00808803EA0179301862
B1020014625396N00808799EA0179401863
B1020024625392N00808795EA0179301862
B1020034625387N00808792EA0179201861
B1020044625382N00808787EA0179001859
B1020054625375N00808782EA0178801857
B1020064625370N00808776EA0179101860
B1020074625366N00808771EA0179301862
B1020084625362N00808767EA0179301862
B1020094625359N00808763EA0179001859
B1020104625354N00808759EA0178601855
B1020114625348N00808755EA0178201851
B1020124625341N00808751EA0178001849
B1020134625335N00808746EA0178001849
B1020144625329N00808740EA0178001849
B1020154625325N00808735EA0178101850
B1020164625321N00808729EA0178101850
B1020174625317N00808723EA0177901848
B1020184625312N00808717EA0177601845
B1020194625307N00808712EA0177401843
B1020204625301N00808707EA0177301842
B1020214625296N00808702EA0177101840
B1020224625291N00808696EA0176901838
B1020234625285N00808691EA0176801837
B1020244625280N00808686EA0176701836
B1020254625274N00808681EA0176701836
B1020264625269N00808677EA0176601835
B1020274625263N00808673EA0176501834
B1020284625257N00808669EA0176401833
B1020294625252N00808666EA0176301832
B1020304625246N00808663EA0176101830
B1020314625240N00808659EA0176101830
B1020324625235N00808655EA0176001829
B1020334625229N00808652EA0175801827
B1020344625223N00808648EA0175601825
B1020354625218N00808645EA0175601825
B1020364625213N00808642EA0175301822
B1020374625207N00808638EA0175101820
B1020384625201N00808634EA0174901818
B1020394625195N00808631EA0174601815
B1020404625188N00808627EA0174401813
B1020414625182N00808623EA0174301812
B1020424625176N00808618EA0174101810
B1020434625170N00808614EA0174001809
B1020444625165N00808610EA0173801807
B1020454625159N00808607EA0173701806
B1020464625153N00808604EA0173501804
B1020474625148N00808600EA0173301802
B1020484625142N00808596EA0173201801
B1020494625136N00808592EA0173101800
B1020504625131N00808588EA0172901798
B1020514625126N00808584EA0172801797
B1020524625121N00808581EA0172701796
B1020534625117N00808577EA0172401793
B1020544625112N00808573EA0172201791
B1020554625107N00808569EA0171901788
B1020564625101N00808565EA0171601785
B1020574625096N00808560EA0171401783
B1020584625090N00808556EA0171201780
B1020594625085N00808552EA0171001779
B1021004625081N00808549EA0170701776
B1021014625075N00808546EA0170401773
B1021024625070N00808544EA0170001769
B1021034625064N00808541EA0169801767
B1021044625059N00808539EA0169601765
B1021054625053N00808535EA0169401763
B1021064625048N00808532EA0169101760
B1021074625043N00808529EA0169001759
B1021084625038N00808525EA0168801757
B1021094625033N00808521EA0168601755
B1021104625028N00808517EA0168301752
B1021114625022N00808513EA0168001749
B1021124625017N00808508EA0167801747
B1021134625012N00808504EA0167701746
B1021144625006N00808499EA0167501744
B1021154625001N00808494EA0167201741
B1021164624996N00808490EA0167001739
B1021174624991N00808487EA0166901738
B1021184624985N00808484EA0166701736
B1021194624981N00808481EA0166301732
B1021204624975N00808478EA0166001729
B1021214624970N00808474EA0165801727
B1021224624965N00808470EA0165701725
B1021234624960N00808466EA0165501724
B1021244624955N00808462EA0165201721
B1021254624950N00808458EA0165001719
B1021264624945N00808454EA0164701716
B1021274624939N00808450EA0164401713
B1021284624934N00808446EA0164101710
B1021294624929N00808443EA0163801707
B1021304624923N00808439EA0163601705
B1021314624918N00808435EA0163401703
B1021324624913N00808431EA0163101700
B1021334624908N00808427EA0162801697
B1021344624903N00808424EA0162301692
B1021354624897N00808421EA0162001688
B1021364624891N00808417EA0161701686
B1021374624885N00808414EA0161401683
B1021384624880N00808409EA0161101680
B1021394624874N00808406EA0160801677
B1021404624868N00808403EA0160701675
B1021414624862N00808400EA0160501674
B1021424624856N00808397EA0160201670
B1021434624851N00808393EA0159801667
B1021444624845N00808391EA0159601665
B1021454624839N00808388EA0159401662
B1021464624833N00808385EA0159101659
B1021474624827N00808382EA0158801656
B1021484624821N00808378EA0158501654
B1021494624815N00808375EA0158301652
B1021504624809N00808371EA0158101650
B1021514624803N00808367EA0157901648
B1021524624797N00808363EA0157801646
B1021534624792N00808359EA0157501644
B1021544624787N00808355EA0157301641
B1021554624781N00808351EA0157101639
B1021564624775N00808347EA0156901638
B1021574624769N00808344EA0156501634
B1021584624763N00808342EA0156301631
B1021594624757N00808340EA0156101629
B1022004624751N00808337EA0155901628
B1022014624745N00808333EA0155701625
B1022024624740N00808329EA0155501623
B1022034624733N00808326EA0155301622
B1022044624727N00808324EA0155201620
B1022054624721N00808321EA0155001618
B1022064624715N00808319EA0154801616
B1022074624709N00808317EA0154701615
B1022084624703N00808315EA0154501613
B1022094624697N00808312EA0154301611
B1022104624692N00808310EA0154301611
B1022114624687N00808307EA0154301611
B1022124624682N00808304EA0154301611
B1022134624677N00808302EA0154201610
B1022144624672N00808299EA0154101609
B1022154624667N00808297EA0154101609
B1022164624663N00808293EA0154101609
B1022174624661N00808287EA0154001608
B1022184624662N00808280EA0153601604
B1022194624669N00808275EA0153201600
B1022204624676N00808278EA0152601594
B1022214624681N00808289EA0152001588
B1022224624677N00808300EA0151601584
B1022234624670N00808301EA0151001578
B1022244624667N00808291EA0150701575
B1022254624674N00808283EA0150001568
B1022264624683N00808289EA0149001558
B1022274624685N00808303EA0148001548
B1022284624678N00808308EA0147001538
B1022294624673N00808299EA0146401531
B1022304624680N00808289EA0145901526
B1022314624689N00808294EA0145101518
B1022324624690N00808309EA0143901507
B1022334624682N00808315EA0142901497
B1022344624677N00808304EA0142501492
B1022354624683N00808293EA0142301491
B1022364624693N00808292EA0142001488
B1022374624699N00808304EA0141501482
B1022384624697N00808317EA0140601474
B1022394624688N00808320EA0140101468
B1022404624682N00808313EA0139701464
B1022414624682N00808302EA0139601463
B1022424624690N00808296EA0139101459
B1022434624698N00808302EA0138501453
B1022444624700N00808315EA0137701445
B1022454624693N00808324EA0136801435
B1022464624685N00808319EA0136001428
B1022474624685N00808306EA0135601423
B1022484624693N00808300EA0135301420
B1022494624702N00808307EA0134801415
B1022504624702N00808320EA0134001407
B1022514624695N00808325EA0133001397
B1022524624687N00808315EA0132401391
B1022534624693N00808302EA0132101388
B1022544624703N00808301EA0131801385
B1022554624709N00808312EA0131101378
B1022564624705N00808324EA0130201369
B1022574624697N00808322EA0129201359
B1022584624696N00808310EA0128501352
B1022594624703N00808301EA0128001347
B1023004624711N00808309EA0127301340
B1023014624710N00808324EA0126201329
B1023024624701N00808327EA0125401321
B1023034624697N00808316EA0124801315
B1023044624701N00808306EA0124701314
B1023054624709N00808305EA0124601312
B1023064624716N00808316EA0124301310
B1023074624718N00808329EA0124101307
B1023084624715N00808340EA0123901306
B1023094624710N00808346EA0124001306
B1023104624706N00808348EA0124101308
B1023114624702N00808348EA0124201309
B1023124624698N00808348EA0124201308
B1023134624693N00808348EA0124001307
B1023144624688N00808346EA0123801305
B1023154624682N00808344EA0123701303
B1023164624677N00808342EA0124001306
B1023174624673N00808341EA0124201308
B1023184624669N00808340EA0124201309
B1023194624665N00808339EA0124101308
B1023204624661N00808337EA0124001306
B1023214624656N00808333EA0123901305
B1023224624652N00808329EA0123901306
B1023234624649N00808325EA0124001307
B1023244624647N00808321EA0124101307
B1023254624645N00808319EA0124001307
B1023264624642N00808317EA0123901305
B1023274624638N00808313EA0123701303
B1023284624635N00808308EA0123501301
B1023294624632N00808302EA0123501301
B1023304624629N00808297EA0123601302
B1023314624626N00808292EA0123701303
B1023324624624N00808287EA0123601302
B1023334624621N00808282EA0123501301
B1023344624618N00808276EA0123301299
B1023354624615N00808271EA0123201298
B1023364624611N00808266EA0123201298
B1023374624608N00808262EA0123401300
B1023384624604N00808258EA0123301299
B1023394624602N00808255EA0123201298
B1023404624600N00808251EA0123001296
B1023414624597N00808247EA0122801294
B1023424624595N00808243EA0122501291
B1023434624592N00808238EA0122301288
B1023444624589N00808233EA0122101286
B1023454624587N00808228EA0121801284
B1023464624585N00808223EA0121601282
B1023474624582N00808219EA0121401279
B1023484624580N00808214EA0121201277
B1023494624577N00808210EA0120801274
B1023504624575N00808207EA0120401270
B1023514624572N00808203EA0120001266
B1023524624569N00808200EA0119701263
B1023534624565N00808196EA0119401260
B1023544624562N00808193EA0119101257
B1023554624560N00808191EA0118901255
B1023564624558N00808189EA0118701252
B1023574624556N00808186EA0118401250
B1023584624553N00808183EA0118201247
B1023594624549N00808181EA0117801244
B1024004624546N00808182EA0117501241
B1024014624540N00808183EA0117301239
B1024024624536N00808184EA0117201237
B1024034624532N00808185EA0117101236
B1024044624529N00808185EA0117001235
B1024054624525N00808186EA0117001235
B1024064624521N00808188EA0117201237
B1024074624519N00808190EA0117301238
B1024084624517N00808194EA0117301238
B1024094624515N00808198EA0117301238
B1024104624513N00808202EA0117201237
B1024114624509N00808209EA0117001235
B1024124624507N00808216EA0117001235
B1024134624505N00808225EA0117101236
B1024144624504N00808233EA0117401239
B1024154624503N00808240EA0117601241
B1024164624502N00808245EA0117701242
B1024174624502N00808251EA0117701241
B1024184624501N00808257EA0117501240
B1024194624501N00808266EA0117401239
B1024204624501N00808276EA0117401239
B1024214624503N00808286EA0117501240
B1024224624505N00808295EA0117801243
B1024234624506N00808302EA0118001244
B1024244624507N00808310EA0118001245
B1024254624509N00808318EA0118001244
B1024264624511N00808328EA0117901244
B1024274624515N00808339EA0117901244
B1024284624519N00808348EA0118001244
B1024294624524N00808356EA0118201246
B1024304624528N00808363EA0118301247
B1024314624533N00808369EA0118301247
B1024324624537N00808376EA0118301247
B1024334624542N00808383EA0118101246
B1024344624546N00808390EA0118001244
B1024354624551N00808396EA0117901243
B1024364624556N00808403EA0117701241
B1024374624561N00808410EA0117501239
B1024384624567N00808417EA0117301237
B1024394624572N00808423EA0117301237
B1024404624577N00808428EA0117301237
B1024414624582N00808433EA0117201236
B1024424624588N00808437EA0117001234
B1024434624594N00808443EA0116801232
B1024444624602N00808449EA0116801232
B1024454624609N00808454EA0116901233
B1024464624615N00808457EA0117001234
B1024474624621N00808460EA0117101235
B1024484624627N00808461EA0117101234
B1024494624633N00808463EA0116901232
B1024504624640N00808464EA0116601230
B1024514624648N00808465EA0116501229
B1024524624655N00808464EA0116501229
B1024534624661N00808461EA0116601230
B1024544624666N00808459EA0116701231
B1024554624671N00808456EA0116701231
B1024564624676N00808454EA0116601230
B1024574624682N00808452EA0116401228
B1024584624687N00808450EA0116301226
B1024594624693N00808447EA0116101225
B1025004624700N00808444EA0116001224
B1025014624706N00808442EA0116001224
B1025024624711N00808439EA0115901223
B1025034624717N00808436EA0115801222
B1025044624723N00808433EA0115701220
B1025054624729N00808428EA0115501219
B1025064624735N00808423EA0115501219
B1025074624741N00808419EA0115601219
B1025084624746N00808416EA0115701221
B1025094624751N00808412EA0115801221
B1025104624753N00808408EA0115601220
B1025114624755N00808401EA0115501218
B1025124624756N00808395EA0115401217
B1025134624755N00808389EA0115401217
B1025144624752N00808386EA0115301216
B1025154624748N00808386EA0115201215
B1025164624745N00808388EA0115101214
B1025174624742N00808393EA0115101214
B1025184624739N00808398EA0115101214
B1025194624737N00808403EA0115101214
B1025204624735N00808408EA0115001213
B1025214624733N00808414EA0114901212
B1025224624730N00808420EA0114801211
B1025234624727N00808426EA0114601209
B1025244624724N00808431EA0114601209
B1025254624721N00808437EA0114501208
B1025264624719N00808442EA0114401207
B1025274624716N00808448EA0114301205
B1025284624713N00808453EA0114101204
B1025294624709N00808457EA0114001203
B1025304624706N00808456EA0113801201
B1025314624703N00808452EA0113701199
B1025324624703N00808446EA0113601198
B1025334624706N00808439EA0113501197
B1025344624710N00808434EA0113401197
B1025354624714N00808429EA0113501197
B1025364624716N00808425EA0113501197
B1025374624719N00808419EA0113301195
B1025384624722N00808413EA0113001193
B1025394624725N00808407EA0112801191
B1025404624727N00808401EA0112701189
B1025414624727N00808395EA0112501187
B1025424624725N00808390EA0112201184
B1025434624723N00808387EA0112001182
B1025444624719N00808386EA0111801180
B1025454624716N00808387EA0111601179
B1025464624713N00808390EA0111301176
B1025474624710N00808394EA0111101173
B1025484624707N00808399EA0110801170
B1025494624703N00808402EA0110501168
B1025504624699N00808406EA0110301166
B1025514624696N00808410EA0110101163
B1025524624693N00808414EA0109901161
B1025534624689N00808418EA0109701159
B1025544624685N00808423EA0109601158
B1025554624681N00808427EA0109501157
B1025564624677N00808428EA0109501157
B1025574624674N00808426EA0109401156
B1025584624672N00808422EA0109401156
B1025594624671N00808416EA0109401156
B1026004624672N00808410EA0109301155
B1026014624673N00808404EA0109201154
B1026024624676N00808398EA0109201154
B1026034624678N00808392EA0109301155
B1026044624680N00808387EA0109401156
B1026054624682N00808382EA0109501157
B1026064624683N00808377EA0109501157
B1026074624684N00808373EA0109401156
B1026084624683N00808370EA0109301155
B1026094624681N00808367EA0109201154
B1026104624679N00808366EA0109101153
B1026114624677N00808365EA0109101153
B1026124624675N00808367EA0109101153
B1026134624673N00808370EA0109101152
B1026144624671N00808375EA0109001152
B1026154624670N00808380EA0109001152
B1026164624668N00808383EA0109001151
B1026174624666N00808387EA0109001151
B1026184624664N00808390EA0109001151
B1026194624662N00808393EA0108901150
B1026204624659N00808394EA0108801149
B1026214624657N00808393EA0108801149
B1026224624655N00808390EA0108801150
B1026234624655N00808386EA0108801149
B1026244624656N00808381EA0108601148
B1026254624656N00808378EA0108501146
B1026264624655N00808374EA0108301144
B1026274624654N00808369EA0108101143
B1026284624654N00808365EA0108101142
B1026294624653N00808361EA0108001141
B1026304624653N00808358EA0107801139
B1026314624652N00808355EA0107501136
B1026324624650N00808351EA0107101132
B1026334624648N00808347EA0106801129
B1026344624646N00808342EA0106601127
B1026354624643N00808339EA0106501126
B1026364624642N00808336EA0106501126
B1026374624640N00808333EA0106501126
B1026384624639N00808331EA0106501126
B1026394624638N00808329EA0106401124
B1026404624636N00808327EA0106101122
B1026414624634N00808325EA0105901120
B1026424624632N00808322EA0105701118
B1026434624630N00808319EA0105601117
B1026444624628N00808316EA0105601116
B1026454624627N00808313EA0105501116
B1026464624625N00808311EA0105301114
B1026474624623N00808310EA0105001111
B1026484624620N00808308EA0104801108
B1026494624617N00808305EA0104601107
B1026504624615N00808301EA0104701107
B1026514624614N00808298EA0104801108
B1026524624613N00808295EA0104901109
B1026534624612N00808293EA0104801108
B1026544624612N00808293EA0104501105
B1026554624611N00808291EA0104101101
B1026564624608N00808289EA0103701097
B1026574624605N00808285EA0103601097
B1026584624603N00808282EA0103401095
B1026594624601N00808280EA0103401095
B1027004624599N00808279EA0103401094
B1027014624596N00808278EA0103101091
B1027024624593N00808276EA0102701087
B1027034624590N00808273EA0102501086
B1027044624587N00808269EA0102401084
B1027054624584N00808265EA0102301083
B1027064624582N00808261EA0102301084
B1027074624580N00808258EA0102301083
B1027084624577N00808254EA0102001081
B1027094624575N00808251EA0101801078
B1027104624572N00808248EA0101701077
B1027114624570N00808246EA0101801078
B1027124624569N00808244EA0101901079
B1027134624568N00808243EA0101901079
B1027144624567N00808243EA0102001080
B1027154624567N00808242EA0101901079
B1027164624566N00808242EA0102001080
B1027174624566N00808241EA0102001080
B1027184624566N00808241EA0101901079
B1027194624565N00808241EA0101901079
B1027204624565N00808240EA0101901079
B1027214624565N00808239EA0101901078
B1027224624565N00808238EA0101901079
B1027234624564N00808237EA0101901079
B1027244624564N00808237EA0101901079
B1027254624564N00808236EA0101901079
B1027264624562N00808235EA0101901079
B1027274624562N00808234EA0101901079
B1027284624561N00808233EA0101901079
B1027294624560N00808231EA0101901079
B1027304624560N00808230EA0101901079
B1027314624559N00808229EA0101901079
B1027324624559N00808227EA0101901078
B1027334624558N00808226EA0101901078
B1027344624558N00808224EA0101901078
B1027354624558N00808223EA0101901079
B1027364624558N00808221EA0101901078
B1027374624557N00808219EA0101901078
B1027384624557N00808218EA0101901078
B1027394624557N00808218EA0101901078
B1027404624557N00808218EA0101901078
B1027414624558N00808218EA0101901078
B1027424624558N00808218EA0101901078
B1027434624558N00808218EA0101901078
B1027444624559N00808218EA0101901078
B1027454624559N00808218EA0101901078
B1027464624559N00808219EA0101901078
B1027474624558N00808218EA0101901078
B1027484624558N00808218EA0101901078
B1027494624558N00808218EA0101901078
B1027504624558N00808218EA0101901078
B1027514624558N00808218EA0101901078
B1027524624558N00808218EA0101901078
B1027534624558N00808219EA0101901078
B1027544624558N00808218EA0101901078
B1027554624558N00808218EA0101901078
B1027564624558N00808218EA0101901078
B1027574624558N00808218EA0101901078
B1027584624559N00808218EA0101901078
B1027594624559N00808218EA0101901078
B1028004624558N00808218EA0101901078
B1028014624558N00808218EA0101901078
B1028024624558N00808218EA0101901077
B1028034624558N00808217EA0101901078
B1028044624558N00808217EA0101901078
B1028054624558N00808217EA0101901078
B1028064624558N00808217EA0101901078
B1028074624558N00808217EA0101901077
B1028084624559N00808216EA0101901077
B1028094624559N00808216EA0101901077
B1028104624559N00808215EA0101901077
B1028114624559N00808215EA0101901077
B1028124624559N00808215EA0101901077
B1028134624559N00808214EA0101901077
B1028144624559N00808214EA0101901077
B1028154624559N00808214EA0101901077
B1028164624559N00808214EA0101901077
B1028174624559N00808214EA0101901077
B1028184624559N00808214EA0101901077
B1028194624559N00808215EA0101901077
B1028204624558N00808216EA0101901077
B1028214624558N00808217EA0101901077
B1028224624558N00808217EA0101901077
B1028234624558N00808218EA0101901077
B1028244624558N00808218EA0101901077
B1028254624558N00808218EA0101901077
B1028264624558N00808218EA0101901077
B1028274624558N00808218EA0101901077
B1028284624558N00808218EA0101901077
B1028294624558N00808218EA0101901077
B1028304624558N00808218EA0101901077
B1028314624558N00808218EA0101901077
B1028324624558N00808218EA0101901077
B1028334624558N00808218EA0101901077
B1028344624558N00808218EA0101901077
B1028354624558N00808218EA0101901077
LXSX;C1;GM:3.1
LXSX;S1;TS:1684490305;TL:1684492115;AS:2159;AL:1077;AT:2467;AB:1077
LXSX;S1;XS:1;XD:9.14;SP:55.4;MC:3.2;MS:-7.2;NB:1812
LXSX;S1;FL:17.0;TG:316;TC:1.7;AG:731;GM:3.1
LXSX;S1;X0:46.41365,8.11050
LXSX;S1;X1:46.41417,8.10885
LXSX;S1;X2:46.43620,8.16690
LXSX;S1;X3:46.40858,8.13898
LXSX;S1;X4:46.40930,8.13697
G6D481873C303D5602DD5EF1D0B10FE8D
