AXSX005 SKYTRAXX
HFPLTPILOT:Sepp Bucher
HFGTYGLIDERTYPE:Niviuk Artik R
HFDTM100GPSDATUM:WGS-84
HFRFWFIRMWAREVERSION:202303142340
HFRHWHARDWAREVERSION:4.0
HFTZNTIMEZONE:+1.00
HFSITSITE:Castelo de Vide_La Pe
HFDTE100623
LXSX;I1;OAB:20230605;OOB:20230103
LXSX;I1;ID:114075
LXSX;I1;AC:1;CAT:C
B1143003924051N00727545WA0070500767
B1143013924051N00727545WA0070500767
B1143023924051N00727545WA0070500767
B1143033924051N00727545WA0070500767
B1143043924051N00727544WA0070500767
B1143053924051N00727544WA0070500767
B1143063924051N00727545WA0070500767
B1143073924051N00727545WA0070500767
B1143083924051N00727546WA0070500767
B1143093924051N00727545WA0070500767
B1143103924051N00727545WA0070500767
B1143113924051N00727544WA0070500767
B1143123924051N00727544WA0070500767
B1143133924051N00727544WA0070400766
B1143143924051N00727545WA0070400766
B1143153924050N00727547WA0070300765
B1143163924050N00727549WA0070200764
B1143173924049N00727551WA0070100763
B1143183924048N00727554WA0070000762
B1143193924047N00727557WA0070100763
B1143203924047N00727560WA0070300765
B1143213924046N00727563WA0070300765
B1143223924045N00727566WA0070200764
B1143233924043N00727569WA0070100763
B1143243924042N00727572WA0070100763
B1143253924040N00727576WA0070100763
B1143263924038N00727580WA0070000762
B1143273924036N00727583WA0070000762
B1143283924035N00727586WA0070000762
B1143293924034N00727590WA0069800760
B1143303924034N00727595WA0069800760
B1143313924033N00727599WA0070000762
B1143323924031N00727603WA0070000762
B1143333924029N00727606WA0069700759
B1143343924027N00727609WA0069800760
B1143353924026N00727614WA0069900761
B1143363924025N00727618WA0070000762
B1143373924023N00727621WA0070100763
B1143383924021N00727624WA0069900761
B1143393924019N00727627WA0070000763
B1143403924017N00727632WA0070000762
B1143413924016N00727636WA0069900761
B1143423924014N00727641WA0069900761
B1143433924011N00727644WA0069900761
B1143443924009N00727647WA0070000762
B1143453924007N00727651WA0069900761
B1143463924006N00727655WA0069800760
B1143473924004N00727660WA0069700759
B1143483924002N00727663WA0069700759
B1143493923999N00727665WA0069600758
B1143503923996N00727667WA0069600758
B1143513923993N00727669WA0069600758
B1143523923991N00727672WA0069500758
B1143533923988N00727675WA0069500757
B1143543923985N00727678WA0069400756
B1143553923982N00727680WA0069400756
B1143563923979N00727684WA0069400756
B1143573923977N00727688WA0069400756
B1143583923975N00727691WA0069300755
B1143593923972N00727695WA0069300755
B1144003923971N00727700WA0069200754
B1144013923969N00727705WA0069100753
B1144023923967N00727710WA0069000752
B1144033923964N00727716WA0068900751
B1144043923962N00727721WA0068900750
B1144053923959N00727727WA0068900750
B1144063923958N00727732WA0068900751
B1144073923956N00727737WA0068900751
B1144083923956N00727743WA0068900751
B1144093923955N00727748WA0068800750
B1144103923954N00727754WA0068800750
B1144113923953N00727760WA0068700749
B1144123923953N00727766WA0068700749
B1144133923953N00727772WA0068700749
B1144143923953N00727778WA0068600748
B1144153923953N00727783WA0068500747
B1144163923954N00727789WA0068500747
B1144173923954N00727795WA0068500747
B1144183923954N00727800WA0068400746
B1144193923955N00727805WA0068300745
B1144203923956N00727811WA0068200744
B1144213923957N00727817WA0068200744
B1144223923958N00727823WA0068200744
B1144233923959N00727829WA0068200744
B1144243923960N00727834WA0068200744
B1144253923961N00727839WA0068200744
B1144263923962N00727844WA0068100743
B1144273923962N00727849WA0067900741
B1144283923964N00727855WA0067600738
B1144293923964N00727862WA0067400736
B1144303923966N00727868WA0067300735
B1144313923966N00727875WA0067300735
B1144323923967N00727881WA0067300735
B1144333923968N00727887WA0067200734
B1144343923969N00727893WA0067100733
B1144353923970N00727900WA0067000732
B1144363923971N00727907WA0067000732
B1144373923972N00727914WA0066900731
B1144383923974N00727920WA0066900731
B1144393923975N00727926WA0066700729
B1144403923976N00727933WA0066500727
B1144413923978N00727940WA0066300725
B1144423923979N00727947WA0066200723
B1144433923981N00727954WA0066200724
B1144443923983N00727961WA0066200724
B1144453923985N00727968WA0066200724
B1144463923987N00727975WA0066200724
B1144473923988N00727983WA0066200723
B1144483923990N00727990WA0066200723
B1144493923993N00727997WA0066200723
B1144503923994N00728004WA0066200723
B1144513923996N00728011WA0066200724
B1144523923997N00728017WA0066200724
B1144533923999N00728024WA0066200723
B1144543924001N00728030WA0066100722
B1144553924003N00728037WA0065900721
B1144563924004N00728043WA0065800719
B1144573924007N00728051WA0065600718
B1144583924010N00728058WA0065600717
B1144593924013N00728064WA0065600717
B1145003924016N00728070WA0065600717
B1145013924019N00728075WA0065500716
B1145023924021N00728080WA0065300714
B1145033924023N00728086WA0065000711
B1145043924026N00728094WA0064700709
B1145053924030N00728101WA0064700708
B1145063924032N00728108WA0064900710
B1145073924035N00728115WA0065200713
B1145083924036N00728121WA0065400715
B1145093924037N00728127WA0065600717
B1145103924038N00728132WA0065700718
B1145113924038N00728137WA0065700718
B1145123924038N00728144WA0065800719
B1145133924038N00728150WA0065800719
B1145143924036N00728157WA0065900720
B1145153924034N00728163WA0066100722
B1145163924031N00728168WA0066200723
B1145173924028N00728171WA0066300724
B1145183924024N00728173WA0066400725
B1145193924020N00728172WA0066400725
B1145203924016N00728170WA0066300724
B1145213924012N00728166WA0066300724
B1145223924009N00728161WA0066200723
B1145233924008N00728154WA0066200723
B1145243924007N00728148WA0066100722
B1145253924008N00728141WA0066000721
B1145263924010N00728135WA0065900720
B1145273924014N00728129WA0065800719
B1145283924019N00728125WA0065700718
B1145293924025N00728122WA0065600717
B1145303924031N00728122WA0065600717
B1145313924038N00728123WA0065700718
B1145323924043N00728125WA0065900719
B1145333924048N00728127WA0066000721
B1145343924052N00728130WA0066200723
B1145353924056N00728133WA0066300724
B1145363924060N00728136WA0066400725
B1145373924064N00728139WA0066500726
B1145383924068N00728142WA0066500726
B1145393924073N00728146WA0066500726
B1145403924076N00728150WA0066600727
B1145413924080N00728155WA0066700728
B1145423924082N00728160WA0066700728
B1145433924082N00728167WA0066700728
B1145443924081N00728173WA0066700728
B1145453924078N00728179WA0066700728
B1145463924074N00728183WA0066800729
B1145473924069N00728184WA0066800729
B1145483924064N00728184WA0066900730
B1145493924059N00728181WA0066900730
B1145503924055N00728177WA0067000731
B1145513924052N00728171WA0067000731
B1145523924050N00728165WA0067000731
B1145533924051N00728157WA0067000731
B1145543924053N00728150WA0066900730
B1145553924058N00728143WA0066900730
B1145563924064N00728139WA0067000731
B1145573924069N00728136WA0067200733
B1145583924074N00728134WA0067400735
B1145593924078N00728133WA0067500736
B1146003924083N00728134WA0067500736
B1146013924088N00728136WA0067400735
B1146023924092N00728141WA0067400735
B1146033924096N00728147WA0067500735
B1146043924098N00728152WA0067600737
B1146053924099N00728157WA0067600737
B1146063924100N00728162WA0067600737
B1146073924100N00728168WA0067600736
B1146083924099N00728174WA0067500736
B1146093924097N00728180WA0067400735
B1146103924093N00728186WA0067400734
B1146113924089N00728189WA0067400735
B1146123924085N00728191WA0067600737
B1146133924080N00728192WA0067700738
B1146143924076N00728192WA0067900739
B1146153924072N00728192WA0067900740
B1146163924067N00728191WA0067900740
B1146173924063N00728188WA0067900739
B1146183924059N00728183WA0067900739
B1146193924057N00728176WA0067900739
B1146203924057N00728169WA0067900739
B1146213924059N00728162WA0067900739
B1146223924063N00728156WA0067900740
B1146233924067N00728152WA0067800739
B1146243924073N00728150WA0067700738
B1146253924080N00728152WA0067700738
B1146263924085N00728157WA0067700738
B1146273924087N00728165WA0067800739
B1146283924087N00728172WA0068000740
B1146293924087N00728178WA0068200743
B1146303924085N00728183WA0068400745
B1146313924084N00728187WA0068500745
B1146323924081N00728191WA0068400745
B1146333924077N00728195WA0068300744
B1146343924073N00728198WA0068300743
B1146353924068N00728200WA0068200743
B1146363924063N00728201WA0068300744
B1146373924058N00728201WA0068400745
B1146383924053N00728200WA0068400745
B1146393924048N00728197WA0068400745
B1146403924044N00728193WA0068400745
B1146413924041N00728188WA0068400745
B1146423924038N00728183WA0068500745
B1146433924037N00728177WA0068500746
B1146443924037N00728170WA0068400745
B1146453924038N00728164WA0068300744
B1146463924040N00728157WA0068200743
B1146473924044N00728151WA0068100742
B1146483924048N00728145WA0068100741
B1146493924053N00728141WA0067900740
B1146503924059N00728138WA0067800739
B1146513924066N00728137WA0067700738
B1146523924072N00728136WA0067600737
B1146533924078N00728137WA0067500736
B1146543924084N00728140WA0067400734
B1146553924089N00728144WA0067300733
B1146563924093N00728149WA0067400734
B1146573924097N00728154WA0067500736
B1146583924099N00728159WA0067600736
B1146593924101N00728164WA0067600736
B1147003924101N00728170WA0067600736
B1147013924101N00728176WA0067500736
B1147023924101N00728183WA0067500736
B1147033924100N00728189WA0067500736
B1147043924098N00728196WA0067600736
B1147053924096N00728201WA0067600737
B1147063924094N00728207WA0067600737
B1147073924092N00728212WA0067600737
B1147083924088N00728216WA0067600736
B1147093924084N00728221WA0067500736
B1147103924080N00728224WA0067500735
B1147113924076N00728226WA0067500735
B1147123924071N00728227WA0067500735
B1147133924067N00728226WA0067400734
B1147143924062N00728224WA0067200733
B1147153924057N00728222WA0067100732
B1147163924052N00728220WA0067100732
B1147173924048N00728217WA0067200732
B1147183924043N00728214WA0067200732
B1147193924039N00728212WA0067200732
B1147203924036N00728209WA0067200732
B1147213924033N00728205WA0067100731
B1147223924030N00728200WA0067000730
B1147233924028N00728195WA0066800729
B1147243924027N00728189WA0066700727
B1147253924026N00728183WA0066600726
B1147263924025N00728177WA0066500726
B1147273924025N00728170WA0066500725
B1147283924025N00728163WA0066500725
B1147293924025N00728157WA0066500726
B1147303924026N00728150WA0066500726
B1147313924028N00728143WA0066600726
B1147323924031N00728137WA0066600727
B1147333924033N00728130WA0066700728
B1147343924035N00728123WA0066900729
B1147353924038N00728118WA0066900730
B1147363924042N00728112WA0067000730
B1147373924046N00728106WA0067000731
B1147383924050N00728101WA0067100731
B1147393924053N00728096WA0067100732
B1147403924057N00728091WA0067100732
B1147413924062N00728087WA0067200732
B1147423924067N00728084WA0067300733
B1147433924073N00728084WA0067300733
B1147443924080N00728085WA0067300733
B1147453924086N00728088WA0067300733
B1147463924091N00728093WA0067400735
B1147473924095N00728097WA0067600736
B1147483924098N00728102WA0067600736
B1147493924099N00728107WA0067400735
B1147503924100N00728113WA0067300733
B1147513924099N00728120WA0067100731
B1147523924097N00728127WA0067000730
B1147533924094N00728131WA0066900729
B1147543924090N00728133WA0066700727
B1147553924085N00728132WA0066500725
B1147563924081N00728130WA0066300723
B1147573924077N00728127WA0066100721
B1147583924073N00728123WA0066000720
B1147593924069N00728118WA0065900719
B1148003924066N00728113WA0065900719
B1148013924063N00728108WA0065900719
B1148023924060N00728104WA0066000720
B1148033924057N00728099WA0066100721
B1148043924054N00728093WA0066300722
B1148053924052N00728088WA0066400724
B1148063924049N00728083WA0066700726
B1148073924046N00728079WA0066900729
B1148083924043N00728076WA0067100730
B1148093924040N00728074WA0067100731
B1148103924036N00728075WA0067100730
B1148113924033N00728078WA0067000729
B1148123924029N00728083WA0067000730
B1148133924026N00728089WA0067200731
B1148143924025N00728095WA0067400734
B1148153924025N00728100WA0067500735
B1148163924027N00728106WA0067700736
B1148173924030N00728111WA0067700737
B1148183924035N00728116WA0067800737
B1148193924040N00728119WA0067800737
B1148203924046N00728120WA0067900738
B1148213924052N00728121WA0068100741
B1148223924057N00728121WA0068200742
B1148233924063N00728120WA0068300742
B1148243924068N00728117WA0068300742
B1148253924073N00728111WA0068200741
B1148263924077N00728104WA0068100741
B1148273924079N00728095WA0068200742
B1148283924080N00728087WA0068400743
B1148293924079N00728081WA0068600745
B1148303924077N00728075WA0068800747
B1148313924076N00728070WA0068900748
B1148323924073N00728067WA0069000749
B1148333924070N00728064WA0069100750
B1148343924066N00728062WA0069200752
B1148353924063N00728062WA0069400753
B1148363924059N00728065WA0069400754
B1148373924057N00728069WA0069500754
B1148383924055N00728074WA0069500755
B1148393924055N00728080WA0069700756
B1148403924055N00728087WA0069900758
B1148413924058N00728093WA0070100760
B1148423924063N00728096WA0070300763
B1148433924070N00728096WA0070400764
B1148443924075N00728092WA0070500764
B1148453924080N00728086WA0070500765
B1148463924083N00728079WA0070800767
B1148473924084N00728071WA0070900768
B1148483924083N00728065WA0071000769
B1148493924081N00728058WA0071100770
B1148503924078N00728053WA0071200772
B1148513924075N00728050WA0071400774
B1148523924072N00728050WA0071500775
B1148533924068N00728051WA0071600776
B1148543924065N00728054WA0071600776
B1148553924063N00728058WA0071700776
B1148563924060N00728063WA0071800777
B1148573924058N00728069WA0071900779
B1148583924058N00728075WA0072100781
B1148593924061N00728081WA0072300783
B1149003924064N00728086WA0072600785
B1149013924069N00728088WA0072800787
B1149023924075N00728088WA0072900788
B1149033924081N00728086WA0073000789
B1149043924086N00728081WA0073100791
B1149053924089N00728073WA0073200791
B1149063924090N00728065WA0073200792
B1149073924089N00728057WA0073300793
B1149083924086N00728051WA0073600795
B1149093924083N00728047WA0073800798
B1149103924080N00728045WA0073900799
B1149113924077N00728045WA0074000799
B1149123924073N00728047WA0074000800
B1149133924069N00728050WA0074200801
B1149143924066N00728054WA0074400803
B1149153924064N00728059WA0074600806
B1149163924065N00728065WA0074800807
B1149173924067N00728071WA0075000809
B1149183924071N00728076WA0075300812
B1149193924076N00728079WA0075500815
B1149203924081N00728080WA0075700817
B1149213924086N00728078WA0075800818
B1149223924091N00728073WA0075900819
B1149233924096N00728067WA0076000819
B1149243924098N00728059WA0076000820
B1149253924099N00728050WA0076100821
B1149263924099N00728042WA0076400823
B1149273924098N00728035WA0076600825
B1149283924097N00728029WA0076800827
B1149293924095N00728023WA0076900829
B1149303924092N00728019WA0077100830
B1149313924088N00728015WA0077200831
B1149323924084N00728013WA0077200832
B1149333924080N00728015WA0077300832
B1149343924076N00728018WA0077300832
B1149353924073N00728024WA0077400833
B1149363924073N00728031WA0077500835
B1149373924073N00728037WA0077700836
B1149383924075N00728042WA0077900838
B1149393924080N00728047WA0078100840
B1149403924085N00728050WA0078200842
B1149413924091N00728050WA0078400844
B1149423924097N00728047WA0078500845
B1149433924101N00728041WA0078600846
B1149443924104N00728034WA0078700847
B1149453924104N00728026WA0078900848
B1149463924101N00728019WA0079100850
B1149473924098N00728015WA0079200852
B1149483924093N00728013WA0079400854
B1149493924090N00728012WA0079500855
B1149503924086N00728014WA0079600856
B1149513924083N00728017WA0079700856
B1149523924080N00728022WA0079700857
B1149533924079N00728028WA0079800858
B1149543924080N00728036WA0080000859
B1149553924082N00728042WA0080200861
B1149563924086N00728046WA0080500865
B1149573924091N00728048WA0080700867
B1149583924097N00728048WA0080800868
B1149593924102N00728046WA0080900868
B1150003924108N00728041WA0081000869
B1150013924112N00728034WA0081100870
B1150023924113N00728026WA0081200871
B1150033924112N00728019WA0081400873
B1150043924110N00728012WA0081600875
B1150053924108N00728008WA0081800877
B1150063924104N00728005WA0082000879
B1150073924100N00728004WA0082100881
B1150083924097N00728005WA0082200882
B1150093924093N00728008WA0082300882
B1150103924091N00728013WA0082400883
B1150113924092N00728019WA0082500884
B1150123924094N00728025WA0082700886
B1150133924098N00728029WA0082800888
B1150143924104N00728031WA0083000889
B1150153924110N00728030WA0083000890
B1150163924116N00728026WA0083100890
B1150173924120N00728019WA0083200891
B1150183924122N00728010WA0083300893
B1150193924121N00728003WA0083500894
B1150203924118N00727997WA0083700897
B1150213924115N00727994WA0083900898
B1150223924111N00727994WA0084000900
B1150233924107N00727995WA0084200901
B1150243924104N00727998WA0084300903
B1150253924103N00728003WA0084500904
B1150263924102N00728008WA0084600905
B1150273924102N00728013WA0084700907
B1150283924104N00728019WA0085000909
B1150293924107N00728023WA0085200911
B1150303924112N00728026WA0085300913
B1150313924118N00728026WA0085500915
B1150323924124N00728024WA0085700916
B1150333924130N00728019WA0085800917
B1150343924133N00728012WA0085900918
B1150353924134N00728004WA0086000919
B1150363924132N00727997WA0086000920
B1150373924129N00727992WA0086100921
B1150383924124N00727989WA0086300923
B1150393924120N00727989WA0086500925
B1150403924116N00727991WA0086700926
B1150413924113N00727995WA0086900929
B1150423924111N00727999WA0087200931
B1150433924110N00728004WA0087400934
B1150443924111N00728009WA0087700936
B1150453924112N00728014WA0087900938
B1150463924116N00728019WA0088100940
B1150473924120N00728022WA0088200942
B1150483924125N00728024WA0088300942
B1150493924132N00728024WA0088300942
B1150503924137N00728022WA0088300943
B1150513924143N00728019WA0088400943
B1150523924147N00728014WA0088300942
B1150533924149N00728006WA0088100941
B1150543924150N00727997WA0088200942
B1150553924148N00727989WA0088400943
B1150563924145N00727982WA0088500945
B1150573924142N00727977WA0088700947
B1150583924138N00727973WA0089000949
B1150593924134N00727971WA0089200951
B1151003924130N00727970WA0089400953
B1151013924126N00727969WA0089500955
B1151023924122N00727970WA0089700956
B1151033924118N00727972WA0089800958
B1151043924114N00727976WA0090000960
B1151053924112N00727980WA0090200962
B1151063924111N00727985WA0090500964
B1151073924111N00727991WA0090700966
B1151083924113N00727996WA0090900968
B1151093924116N00728001WA0091100970
B1151103924121N00728004WA0091200972
B1151113924126N00728005WA0091200972
B1151123924132N00728004WA0091200972
B1151133924137N00728002WA0091100971
B1151143924142N00727998WA0091000970
B1151153924147N00727992WA0090900969
B1151163924150N00727985WA0090800968
B1151173924152N00727975WA0090800968
B1151183924151N00727966WA0090800968
B1151193924149N00727958WA0090900969
B1151203924145N00727951WA0091200971
B1151213924140N00727946WA0091400974
B1151223924137N00727942WA0091700976
B1151233924134N00727938WA0091900979
B1151243924130N00727935WA0092000980
B1151253924125N00727932WA0092200982
B1151263924121N00727931WA0092400983
B1151273924116N00727932WA0092500984
B1151283924112N00727935WA0092600986
B1151293924108N00727939WA0092800988
B1151303924106N00727944WA0093100991
B1151313924107N00727951WA0093400993
B1151323924110N00727956WA0093600996
B1151333924115N00727959WA0093700997
B1151343924120N00727958WA0093900999
B1151353924125N00727954WA0093900999
B1151363924128N00727948WA0094000999
B1151373924130N00727940WA0094101001
B1151383924128N00727932WA0094401004
B1151393924125N00727927WA0094701007
B1151403924121N00727924WA0095001010
B1151413924117N00727925WA0095101011
B1151423924113N00727928WA0095201012
B1151433924110N00727933WA0095401013
B1151443924108N00727940WA0095601016
B1151453924109N00727947WA0095801018
B1151463924111N00727952WA0096001020
B1151473924115N00727956WA0096101021
B1151483924120N00727959WA0096301023
B1151493924124N00727960WA0096401024
B1151503924129N00727961WA0096501025
B1151513924134N00727960WA0096601026
B1151523924139N00727956WA0096701027
B1151533924143N00727950WA0096601026
B1151543924145N00727942WA0096701027
B1151553924145N00727934WA0096801028
B1151563924143N00727926WA0097001030
B1151573924140N00727921WA0097101031
B1151583924135N00727917WA0097401034
B1151593924131N00727915WA0097701037
B1152003924126N00727915WA0098001040
B1152013924123N00727916WA0098201042
B1152023924119N00727917WA0098301043
B1152033924115N00727920WA0098601046
B1152043924112N00727924WA0098701047
B1152053924110N00727929WA0098801049
B1152063924110N00727934WA0099001050
B1152073924111N00727940WA0099101051
B1152083924114N00727944WA0099101052
B1152093924119N00727947WA0099101051
B1152103924124N00727947WA0099001050
B1152113924130N00727945WA0098901049
B1152123924135N00727940WA0098901049
B1152133924139N00727933WA0098901049
B1152143924142N00727924WA0099001051
B1152153924142N00727916WA0099201052
B1152163924140N00727908WA0099401054
B1152173924137N00727902WA0099501056
B1152183924135N00727895WA0099701057
B1152193924131N00727890WA0099901060
B1152203924127N00727886WA0100201062
B1152213924123N00727884WA0100301064
B1152223924118N00727885WA0100401064
B1152233924114N00727887WA0100501065
B1152243924110N00727891WA0100601067
B1152253924106N00727895WA0100901069
B1152263924104N00727900WA0101101072
B1152273924104N00727904WA0101301073
B1152283924106N00727909WA0101401075
B1152293924109N00727912WA0101501075
B1152303924114N00727914WA0101501076
B1152313924119N00727914WA0101501076
B1152323924125N00727910WA0101501075
B1152333924129N00727904WA0101501075
B1152343924132N00727896WA0101501076
B1152353924132N00727887WA0101601077
B1152363924129N00727879WA0101701077
B1152373924125N00727874WA0101701078
B1152383924119N00727871WA0101801078
B1152393924113N00727871WA0101901079
B1152403924108N00727872WA0102001081
B1152413924103N00727875WA0102201083
B1152423924099N00727878WA0102401085
B1152433924097N00727882WA0102601087
B1152443924095N00727887WA0102801089
B1152453924094N00727892WA0103001090
B1152463924095N00727898WA0103201092
B1152473924098N00727902WA0103301093
B1152483924103N00727905WA0103301094
B1152493924108N00727906WA0103401095
B1152503924113N00727905WA0103501096
B1152513924118N00727903WA0103601097
B1152523924122N00727899WA0103701097
B1152533924125N00727892WA0103601097
B1152543924126N00727884WA0103601096
B1152553924125N00727876WA0103501096
B1152563924122N00727869WA0103501096
B1152573924117N00727863WA0103701097
B1152583924112N00727859WA0103801099
B1152593924107N00727856WA0104001100
B1153003924102N00727855WA0104101102
B1153013924097N00727856WA0104201103
B1153023924093N00727858WA0104301103
B1153033924090N00727862WA0104301104
B1153043924089N00727867WA0104401104
B1153053924089N00727872WA0104301104
B1153063924090N00727876WA0104301104
B1153073924092N00727879WA0104201103
B1153083924096N00727882WA0104001101
B1153093924100N00727883WA0103801098
B1153103924104N00727885WA0103501096
B1153113924109N00727885WA0103401094
B1153123924115N00727884WA0103201093
B1153133924120N00727880WA0103101092
B1153143924125N00727875WA0103001091
B1153153924128N00727868WA0103001091
B1153163924131N00727861WA0103001091
B1153173924132N00727853WA0103001091
B1153183924131N00727845WA0103101091
B1153193924129N00727838WA0103101092
B1153203924126N00727831WA0103201092
B1153213924122N00727825WA0103201093
B1153223924119N00727820WA0103401095
B1153233924116N00727814WA0103501096
B1153243924113N00727809WA0103501096
B1153253924111N00727805WA0103601097
B1153263924107N00727801WA0103601097
B1153273924104N00727799WA0103601097
B1153283924100N00727798WA0103501096
B1153293924097N00727798WA0103501096
B1153303924093N00727798WA0103401094
B1153313924091N00727799WA0103301094
B1153323924088N00727800WA0103101092
B1153333924087N00727802WA0102901090
B1153343924086N00727806WA0102601087
B1153353924086N00727812WA0102301084
B1153363924086N00727817WA0102101082
B1153373924088N00727823WA0102201083
B1153383924090N00727828WA0102201083
B1153393924092N00727833WA0102101082
B1153403924094N00727836WA0102001081
B1153413924096N00727840WA0101801079
B1153423924099N00727845WA0101401075
B1153433924101N00727850WA0101101071
B1153443924104N00727855WA0100901070
B1153453924107N00727859WA0100701068
B1153463924110N00727862WA0100401065
B1153473924112N00727866WA0100101062
B1153483924115N00727871WA0099801059
B1153493924118N00727876WA0099501056
B1153503924120N00727881WA0099301054
B1153513924124N00727885WA0099201052
B1153523924127N00727889WA0098901050
B1153533924130N00727893WA0098701048
B1153543924134N00727897WA0098401045
B1153553924137N00727901WA0098201042
B1153563924140N00727906WA0097901040
B1153573924144N00727909WA0097801039
B1153583924147N00727913WA0097601037
B1153593924150N00727916WA0097401035
B1154003924154N00727920WA0097101032
B1154013924158N00727924WA0096901029
B1154023924162N00727929WA0096701027
B1154033924165N00727933WA0096601027
B1154043924169N00727937WA0096401025
B1154053924172N00727940WA0096201023
B1154063924176N00727943WA0095801019
B1154073924179N00727947WA0095601017
B1154083924183N00727952WA0095501015
B1154093924187N00727956WA0095301014
B1154103924192N00727960WA0095201013
B1154113924197N00727963WA0095001011
B1154123924201N00727965WA0094801008
B1154133924205N00727968WA0094401005
B1154143924210N00727971WA0094101002
B1154153924216N00727973WA0093901000
B1154163924222N00727975WA0093700997
B1154173924229N00727975WA0093600997
B1154183924235N00727975WA0093400995
B1154193924241N00727975WA0093100992
B1154203924246N00727976WA0092900990
B1154213924253N00727976WA0092600987
B1154223924260N00727976WA0092600987
B1154233924267N00727975WA0092500986
B1154243924274N00727975WA0092400985
B1154253924280N00727976WA0092300984
B1154263924286N00727978WA0092200983
B1154273924292N00727979WA0092100982
B1154283924298N00727979WA0091900980
B1154293924304N00727980WA0091800979
B1154303924310N00727982WA0091600977
B1154313924316N00727985WA0091400975
B1154323924322N00727987WA0091300974
B1154333924329N00727989WA0091200973
B1154343924335N00727989WA0091000971
B1154353924342N00727991WA0090900970
B1154363924348N00727992WA0090700968
B1154373924355N00727995WA0090500966
B1154383924362N00727996WA0090400965
B1154393924370N00727996WA0090300964
B1154403924377N00727996WA0090200963
B1154413924385N00727995WA0090100962
B1154423924392N00727996WA0090100961
B1154433924399N00727996WA0090000961
B1154443924407N00727996WA0089900960
B1154453924415N00727996WA0089800959
B1154463924423N00727995WA0089700958
B1154473924431N00727995WA0089700958
B1154483924438N00727994WA0089600957
B1154493924445N00727994WA0089400954
B1154503924453N00727993WA0089200952
B1154513924460N00727993WA0088900950
B1154523924467N00727995WA0088700948
B1154533924474N00727999WA0088500946
B1154543924481N00728003WA0088400945
B1154553924486N00728007WA0088300944
B1154563924491N00728010WA0088300944
B1154573924496N00728014WA0088100942
B1154583924500N00728018WA0087900940
B1154593924504N00728022WA0087600937
B1155003924509N00728027WA0087400935
B1155013924514N00728032WA0087300934
B1155023924518N00728036WA0087300934
B1155033924521N00728041WA0087200933
B1155043924524N00728045WA0087100932
B1155053924528N00728050WA0086900930
B1155063924532N00728054WA0086800929
B1155073924535N00728059WA0086700928
B1155083924538N00728064WA0086700927
B1155093924541N00728069WA0086700928
B1155103924544N00728073WA0086700928
B1155113924547N00728077WA0086600927
B1155123924549N00728081WA0086400925
B1155133924551N00728086WA0086200923
B1155143924553N00728091WA0086000921
B1155153924556N00728097WA0085900920
B1155163924558N00728102WA0085800919
B1155173924561N00728107WA0085700918
B1155183924563N00728111WA0085700917
B1155193924565N00728116WA0085500916
B1155203924568N00728121WA0085400915
B1155213924570N00728127WA0085300914
B1155223924571N00728132WA0085400915
B1155233924573N00728137WA0085500916
B1155243924576N00728142WA0085500916
B1155253924578N00728147WA0085500916
B1155263924579N00728152WA0085500916
B1155273924581N00728157WA0085400915
B1155283924583N00728162WA0085300914
B1155293924584N00728168WA0085300914
B1155303924586N00728173WA0085200913
B1155313924586N00728179WA0085100912
B1155323924587N00728184WA0085000911
B1155333924588N00728190WA0084900910
B1155343924589N00728196WA0084800909
B1155353924590N00728201WA0084700908
B1155363924591N00728207WA0084600907
B1155373924592N00728213WA0084500906
B1155383924593N00728218WA0084300904
B1155393924594N00728224WA0084100902
B1155403924596N00728231WA0084000901
B1155413924597N00728237WA0083800899
B1155423924599N00728243WA0083700898
B1155433924600N00728249WA0083600896
B1155443924603N00728255WA0083400895
B1155453924604N00728261WA0083200892
B1155463924606N00728267WA0082900890
B1155473924608N00728274WA0082700888
B1155483924609N00728280WA0082600887
B1155493924611N00728287WA0082500886
B1155503924613N00728293WA0082400884
B1155513924615N00728299WA0082200883
B1155523924617N00728305WA0082000881
B1155533924619N00728312WA0081900879
B1155543924621N00728318WA0081700878
B1155553924623N00728325WA0081600877
B1155563924624N00728331WA0081500876
B1155573924627N00728338WA0081500876
B1155583924629N00728344WA0081400875
B1155593924630N00728351WA0081300874
B1156003924632N00728357WA0081200873
B1156013924634N00728363WA0081100872
B1156023924636N00728370WA0081100871
B1156033924638N00728377WA0081000871
B1156043924639N00728384WA0081000871
B1156053924641N00728390WA0080900870
B1156063924643N00728396WA0080900870
B1156073924645N00728402WA0080900870
B1156083924646N00728408WA0080800869
B1156093924648N00728415WA0080800868
B1156103924650N00728421WA0080700868
B1156113924652N00728428WA0080600867
B1156123924653N00728434WA0080600867
B1156133924655N00728441WA0080600867
B1156143924657N00728447WA0080600867
B1156153924658N00728453WA0080600866
B1156163924660N00728459WA0080500866
B1156173924661N00728466WA0080400865
B1156183924662N00728472WA0080400865
B1156193924663N00728478WA0080400865
B1156203924665N00728485WA0080400865
B1156213924666N00728490WA0080400865
B1156223924667N00728496WA0080400865
B1156233924668N00728502WA0080300864
B1156243924669N00728508WA0080300864
B1156253924670N00728514WA0080300864
B1156263924672N00728520WA0080200863
B1156273924674N00728526WA0080200863
B1156283924676N00728532WA0080200862
B1156293924677N00728538WA0080100862
B1156303924679N00728544WA0080100862
B1156313924681N00728549WA0080100862
B1156323924682N00728555WA0080100862
B1156333924684N00728561WA0080100862
B1156343924685N00728567WA0080100862
B1156353924687N00728572WA0080100861
B1156363924689N00728578WA0080000861
B1156373924691N00728583WA0079900859
B1156383924693N00728589WA0079800859
B1156393924695N00728594WA0079700858
B1156403924697N00728599WA0079600857
B1156413924700N00728605WA0079600857
B1156423924701N00728610WA0079600857
B1156433924703N00728615WA0079600857
B1156443924706N00728620WA0079700858
B1156453924708N00728625WA0079900860
B1156463924711N00728629WA0080100862
B1156473924713N00728632WA0080300864
B1156483924714N00728635WA0080300864
B1156493924716N00728638WA0080200863
B1156503924717N00728641WA0080100862
B1156513924719N00728646WA0080000861
B1156523924722N00728651WA0080000861
B1156533924724N00728656WA0080000861
B1156543924725N00728661WA0080100862
B1156553924726N00728665WA0080200863
B1156563924727N00728669WA0080300863
B1156573924727N00728672WA0080200863
B1156583924728N00728676WA0080200863
B1156593924729N00728679WA0080100862
B1157003924730N00728683WA0080000861
B1157013924731N00728687WA0080000860
B1157023924733N00728691WA0079900860
B1157033924736N00728694WA0079900859
B1157043924739N00728697WA0079800859
B1157053924742N00728700WA0079800859
B1157063924745N00728703WA0079800858
B1157073924750N00728705WA0079600857
B1157083924754N00728706WA0079600857
B1157093924760N00728706WA0079600857
B1157103924766N00728706WA0079600857
B1157113924772N00728704WA0079600857
B1157123924778N00728701WA0079600857
B1157133924783N00728697WA0079600857
B1157143924789N00728691WA0079600857
B1157153924793N00728684WA0079500856
B1157163924797N00728676WA0079500855
B1157173924799N00728667WA0079400855
B1157183924801N00728658WA0079300854
B1157193924801N00728649WA0079200853
B1157203924800N00728639WA0079300854
B1157213924797N00728631WA0079300854
B1157223924794N00728624WA0079400855
B1157233924791N00728618WA0079400855
B1157243924788N00728613WA0079400855
B1157253924784N00728608WA0079300854
B1157263924781N00728603WA0079200853
B1157273924778N00728598WA0079100851
B1157283924774N00728593WA0078800849
B1157293924769N00728588WA0078700847
B1157303924765N00728584WA0078600847
B1157313924761N00728581WA0078700848
B1157323924757N00728578WA0078800849
B1157333924753N00728575WA0079000851
B1157343924750N00728573WA0079100852
B1157353924746N00728572WA0079200852
B1157363924744N00728570WA0079200852
B1157373924741N00728569WA0079100852
B1157383924738N00728567WA0079000851
B1157393924735N00728566WA0078900850
B1157403924732N00728566WA0078700848
B1157413924728N00728565WA0078600847
B1157423924724N00728566WA0078500846
B1157433924721N00728567WA0078500846
B1157443924717N00728568WA0078500846
B1157453924714N00728568WA0078500845
B1157463924710N00728569WA0078400844
B1157473924706N00728570WA0078300844
B1157483924702N00728572WA0078300844
B1157493924699N00728574WA0078300843
B1157503924696N00728575WA0078300844
B1157513924693N00728577WA0078400844
B1157523924690N00728579WA0078400845
B1157533924688N00728582WA0078400845
B1157543924686N00728584WA0078400845
B1157553924683N00728587WA0078400844
B1157563924681N00728590WA0078400844
B1157573924679N00728593WA0078400844
B1157583924677N00728596WA0078300844
B1157593924676N00728599WA0078200843
B1158003924674N00728602WA0078100841
B1158013924672N00728605WA0077900840
B1158023924670N00728608WA0077800838
B1158033924667N00728612WA0077700837
B1158043924665N00728616WA0077600837
B1158053924662N00728620WA0077600837
B1158063924659N00728624WA0077700838
B1158073924657N00728627WA0077800839
B1158083924655N00728630WA0078000840
B1158093924653N00728633WA0078100842
B1158103924651N00728636WA0078200843
B1158113924648N00728638WA0078300843
B1158123924645N00728640WA0078400844
B1158133924643N00728642WA0078500845
B1158143924640N00728644WA0078600847
B1158153924638N00728646WA0078800848
B1158163924635N00728648WA0078900850
B1158173924632N00728649WA0079000851
B1158183924631N00728651WA0079100852
B1158193924630N00728654WA0079100852
B1158203924631N00728658WA0079100851
B1158213924633N00728662WA0079100851
B1158223924636N00728667WA0079100852
B1158233924641N00728670WA0079200852
B1158243924647N00728672WA0079300853
B1158253924653N00728672WA0079400855
B1158263924660N00728671WA0079500855
B1158273924665N00728667WA0079700857
B1158283924670N00728662WA0079800858
B1158293924675N00728655WA0079900859
B1158303924678N00728648WA0080000860
B1158313924679N00728640WA0080000861
B1158323924679N00728632WA0080000861
B1158333924677N00728625WA0079900860
B1158343924674N00728619WA0079800859
B1158353924670N00728613WA0079900859
B1158363924666N00728609WA0080100862
B1158373924662N00728605WA0080300863
B1158383924660N00728601WA0080400865
B1158393924657N00728598WA0080500865
B1158403924654N00728596WA0080400865
B1158413924651N00728595WA0080300864
B1158423924647N00728595WA0080200863
B1158433924645N00728596WA0080100862
B1158443924642N00728598WA0080000861
B1158453924639N00728600WA0079900860
B1158463924637N00728604WA0079800859
B1158473924635N00728608WA0079700858
B1158483924635N00728612WA0079700857
B1158493924634N00728617WA0079600856
B1158503924634N00728622WA0079600856
B1158513924634N00728628WA0079600856
B1158523924634N00728633WA0079600856
B1158533924633N00728638WA0079700857
B1158543924632N00728642WA0079800858
B1158553924630N00728646WA0080000860
B1158563924629N00728650WA0080100861
B1158573924629N00728654WA0080200863
B1158583924628N00728658WA0080400865
B1158593924626N00728662WA0080700867
B1159003924624N00728666WA0080900869
B1159013924624N00728670WA0081200872
B1159023924624N00728675WA0081600876
B1159033924627N00728679WA0081900879
B1159043924630N00728682WA0082100882
B1159053924635N00728683WA0082300884
B1159063924641N00728684WA0082400885
B1159073924647N00728683WA0082500886
B1159083924654N00728681WA0082900889
B1159093924660N00728675WA0083400894
B1159103924665N00728668WA0083600896
B1159113924666N00728660WA0083800898
B1159123924666N00728652WA0083800899
B1159133924664N00728644WA0084100902
B1159143924661N00728638WA0084400904
B1159153924658N00728634WA0084600906
B1159163924655N00728630WA0084800908
B1159173924651N00728627WA0085000911
B1159183924647N00728626WA0085300913
B1159193924643N00728626WA0085500916
B1159203924640N00728628WA0085800918
B1159213924639N00728630WA0086100921
B1159223924638N00728634WA0086300923
B1159233924640N00728638WA0086500925
B1159243924643N00728642WA0086700927
B1159253924647N00728646WA0086900929
B1159263924654N00728647WA0087200932
B1159273924660N00728645WA0087400935
B1159283924665N00728640WA0087600936
B1159293924668N00728631WA0087700937
B1159303924669N00728622WA0088000941
B1159313924668N00728613WA0088300944
B1159323924666N00728606WA0088700947
B1159333924664N00728602WA0089000950
B1159343924660N00728600WA0089100951
B1159353924657N00728600WA0089200953
B1159363924654N00728601WA0089400954
B1159373924652N00728603WA0089500956
B1159383924650N00728606WA0089700957
B1159393924649N00728610WA0089900959
B1159403924650N00728615WA0090000961
B1159413924652N00728620WA0090300963
B1159423924655N00728625WA0090600967
B1159433924660N00728628WA0091100971
B1159443924665N00728629WA0091400975
B1159453924671N00728628WA0091700978
B1159463924677N00728625WA0092000980
B1159473924681N00728619WA0092200982
B1159483924684N00728611WA0092400984
B1159493924685N00728602WA0092600986
B1159503924684N00728594WA0092800988
B1159513924680N00728587WA0093100991
B1159523924676N00728584WA0093500995
B1159533924673N00728584WA0093700997
B1159543924670N00728585WA0093900999
B1159553924667N00728588WA0094101002
B1159563924666N00728592WA0094401005
B1159573924665N00728596WA0094701007
B1159583924667N00728601WA0094901009
B1159593924670N00728606WA0095001010
B1200003924674N00728610WA0095201013
B1200013924680N00728612WA0095501015
B1200023924687N00728612WA0095701018
B1200033924694N00728609WA0096101021
B1200043924700N00728603WA0096501025
B1200053924703N00728595WA0096901029
B1200063924704N00728587WA0097201033
B1200073924704N00728580WA0097501036
B1200083924702N00728573WA0097801038
B1200093924698N00728569WA0098001041
B1200103924695N00728566WA0098301044
B1200113924691N00728565WA0098601047
B1200123924688N00728566WA0098901049
B1200133924685N00728568WA0099101052
B1200143924683N00728571WA0099301054
B1200153924683N00728576WA0099401055
B1200163924684N00728581WA0099701057
B1200173924687N00728586WA0100001060
B1200183924692N00728590WA0100201063
B1200193924698N00728591WA0100501066
B1200203924704N00728591WA0100901070
B1200213924710N00728589WA0101201073
B1200223924715N00728585WA0101501076
B1200233924720N00728579WA0101701078
B1200243924724N00728571WA0102001081
B1200253924726N00728563WA0102301084
B1200263924726N00728555WA0102601087
B1200273924724N00728547WA0102801089
B1200283924721N00728541WA0103101092
B1200293924716N00728538WA0103401095
B1200303924712N00728537WA0103701098
B1200313924709N00728538WA0104001101
B1200323924706N00728540WA0104301105
B1200333924703N00728543WA0104601107
B1200343924702N00728546WA0104701108
B1200353924702N00728551WA0104801110
B1200363924704N00728555WA0105001111
B1200373924708N00728560WA0105301115
B1200383924712N00728563WA0105701118
B1200393924717N00728564WA0106001122
B1200403924722N00728563WA0106401125
B1200413924727N00728559WA0106501127
B1200423924731N00728553WA0106701128
B1200433924735N00728546WA0106901131
B1200443924737N00728538WA0107201133
B1200453924737N00728530WA0107401136
B1200463924735N00728523WA0107601138
B1200473924731N00728518WA0107801140
B1200483924727N00728514WA0108101142
B1200493924723N00728512WA0108301145
B1200503924719N00728512WA0108501146
B1200513924716N00728513WA0108601147
B1200523924713N00728516WA0108601148
B1200533924710N00728519WA0108701149
B1200543924708N00728524WA0108801150
B1200553924707N00728529WA0108901151
B1200563924707N00728535WA0109001152
B1200573924709N00728540WA0109101152
B1200583924712N00728546WA0109101153
B1200593924714N00728551WA0109201154
B1201003924718N00728557WA0109301155
B1201013924722N00728562WA0109401156
B1201023924726N00728565WA0109501157
B1201033924730N00728568WA0109601158
B1201043924736N00728569WA0109501157
B1201053924742N00728569WA0109401156
B1201063924750N00728568WA0109401156
B1201073924757N00728565WA0109501157
B1201083924764N00728559WA0109801160
B1201093924769N00728551WA0110301165
B1201103924770N00728543WA0110601168
B1201113924769N00728535WA0110901171
B1201123924768N00728528WA0111201174
B1201133924765N00728523WA0111501177
B1201143924762N00728519WA0111801180
B1201153924758N00728518WA0111901181
B1201163924755N00728519WA0112101183
B1201173924752N00728521WA0112301185
B1201183924750N00728526WA0112401186
B1201193924750N00728531WA0112401186
B1201203924751N00728536WA0112501187
B1201213924756N00728540WA0112501187
B1201223924761N00728543WA0112501188
B1201233924767N00728543WA0112601188
B1201243924774N00728542WA0112601188
B1201253924781N00728538WA0112701189
B1201263924787N00728531WA0112901191
B1201273924791N00728523WA0113101193
B1201283924792N00728514WA0113401196
B1201293924792N00728506WA0113701199
B1201303924789N00728500WA0114001202
B1201313924786N00728495WA0114201204
B1201323924783N00728493WA0114401207
B1201333924779N00728493WA0114601208
B1201343924777N00728495WA0114801210
B1201353924775N00728499WA0114901211
B1201363924774N00728503WA0115001212
B1201373924776N00728508WA0115001212
B1201383924779N00728512WA0115001213
B1201393924784N00728516WA0115101213
B1201403924790N00728517WA0115101214
B1201413924796N00728517WA0115301215
B1201423924803N00728515WA0115401216
B1201433924809N00728510WA0115501217
B1201443924814N00728504WA0115601219
B1201453924818N00728495WA0115801221
B1201463924818N00728487WA0116001222
B1201473924817N00728479WA0116101224
B1201483924814N00728472WA0116301226
B1201493924809N00728468WA0116501228
B1201503924805N00728466WA0116701230
B1201513924801N00728467WA0116901232
B1201523924798N00728468WA0117101234
B1201533924796N00728471WA0117301236
B1201543924796N00728474WA0117401236
B1201553924797N00728479WA0117301236
B1201563924799N00728483WA0117401237
B1201573924803N00728487WA0117501238
B1201583924809N00728489WA0117501238
B1201593924816N00728488WA0117601239
B1202003924822N00728486WA0117801241
B1202013924828N00728481WA0117901242
B1202023924832N00728474WA0118001243
B1202033924835N00728466WA0118101244
B1202043924836N00728458WA0118301246
B1202053924835N00728450WA0118401247
B1202063924833N00728444WA0118601250
B1202073924829N00728441WA0118801252
B1202083924826N00728440WA0119101254
B1202093924823N00728441WA0119201256
B1202103924821N00728444WA0119301256
B1202113924821N00728448WA0119401257
B1202123924822N00728453WA0119401257
B1202133924826N00728457WA0119501258
B1202143924831N00728460WA0119501259
B1202153924837N00728462WA0119601260
B1202163924844N00728462WA0119701260
B1202173924850N00728460WA0119901262
B1202183924857N00728456WA0120001264
B1202193924862N00728450WA0120201265
B1202203924865N00728443WA0120301266
B1202213924866N00728435WA0120401267
B1202223924867N00728427WA0120501269
B1202233924867N00728420WA0120701271
B1202243924865N00728414WA0120901273
B1202253924862N00728409WA0121101275
B1202263924858N00728407WA0121301276
B1202273924855N00728406WA0121501278
B1202283924851N00728407WA0121601280
B1202293924849N00728409WA0121801281
B1202303924848N00728414WA0121801282
B1202313924849N00728419WA0121901283
B1202323924850N00728424WA0122001284
B1202333924854N00728429WA0122201286
B1202343924859N00728432WA0122401288
B1202353924865N00728434WA0122601290
B1202363924871N00728433WA0122701291
B1202373924877N00728429WA0122801292
B1202383924882N00728424WA0122801292
B1202393924887N00728418WA0122901293
B1202403924890N00728411WA0123001294
B1202413924893N00728404WA0123001294
B1202423924893N00728396WA0123001295
B1202433924890N00728389WA0123101295
B1202443924887N00728384WA0123301297
B1202453924882N00728380WA0123601300
B1202463924878N00728379WA0123901303
B1202473924875N00728380WA0124101305
B1202483924873N00728382WA0124201306
B1202493924871N00728385WA0124301307
B1202503924870N00728390WA0124301308
B1202513924870N00728395WA0124401308
B1202523924871N00728401WA0124601310
B1202533924874N00728407WA0124701312
B1202543924878N00728411WA0125001314
B1202553924884N00728414WA0125101316
B1202563924889N00728414WA0125201317
B1202573924895N00728412WA0125201317
B1202583924901N00728408WA0125201317
B1202593924907N00728401WA0125301317
B1203003924911N00728393WA0125401318
B1203013924913N00728385WA0125301318
B1203023924913N00728377WA0125401319
B1203033924910N00728369WA0125601320
B1203043924907N00728364WA0125701322
B1203053924903N00728360WA0126001324
B1203063924899N00728359WA0126201327
B1203073924896N00728361WA0126301328
B1203083924893N00728364WA0126401329
B1203093924892N00728369WA0126601331
B1203103924891N00728374WA0126701332
B1203113924892N00728380WA0126901334
B1203123924894N00728385WA0127001335
B1203133924897N00728389WA0127001335
B1203143924902N00728393WA0127101336
B1203153924908N00728394WA0127201337
B1203163924914N00728392WA0127201337
B1203173924920N00728386WA0127201337
B1203183924923N00728378WA0127201337
B1203193924924N00728369WA0127301338
B1203203924922N00728362WA0127401339
B1203213924919N00728356WA0127601341
B1203223924915N00728351WA0127801343
B1203233924911N00728348WA0128001345
B1203243924908N00728346WA0128201347
B1203253924903N00728345WA0128201348
B1203263924900N00728346WA0128201347
B1203273924896N00728347WA0128201347
B1203283924893N00728350WA0128201347
B1203293924893N00728354WA0128101347
B1203303924892N00728359WA0128001345
B1203313924893N00728363WA0127801343
B1203323924895N00728368WA0127601341
B1203333924899N00728373WA0127301339
B1203343924903N00728376WA0127101336
B1203353924910N00728379WA0126901334
B1203363924916N00728379WA0126601331
B1203373924923N00728376WA0126501330
B1203383924930N00728372WA0126401329
B1203393924937N00728366WA0126501330
B1203403924943N00728360WA0126601331
B1203413924947N00728354WA0126701332
B1203423924952N00728347WA0126701332
B1203433924955N00728340WA0126701332
B1203443924958N00728332WA0126801333
B1203453924959N00728324WA0126801334
B1203463924958N00728316WA0126901334
B1203473924957N00728310WA0127001335
B1203483924955N00728304WA0127001336
B1203493924951N00728300WA0127001335
B1203503924947N00728298WA0127001335
B1203513924943N00728299WA0127001335
B1203523924939N00728301WA0126901335
B1203533924937N00728303WA0126901335
B1203543924937N00728306WA0126901334
B1203553924936N00728310WA0126701333
B1203563924937N00728315WA0126601332
B1203573924938N00728320WA0126701332
B1203583924940N00728325WA0126801333
B1203593924944N00728328WA0126801333
B1204003924948N00728330WA0126701332
B1204013924954N00728331WA0126601331
B1204023924960N00728331WA0126501331
B1204033924967N00728329WA0126601331
B1204043924973N00728326WA0126601332
B1204053924979N00728321WA0126701332
B1204063924983N00728315WA0126701332
B1204073924987N00728308WA0126601331
B1204083924989N00728300WA0126501330
B1204093924990N00728291WA0126501330
B1204103924989N00728283WA0126401330
B1204113924986N00728275WA0126401329
B1204123924982N00728270WA0126401329
B1204133924977N00728266WA0126401329
B1204143924973N00728263WA0126401329
B1204153924969N00728260WA0126401329
B1204163924965N00728259WA0126301329
B1204173924961N00728258WA0126301329
B1204183924957N00728257WA0126301328
B1204193924955N00728258WA0126201327
B1204203924952N00728259WA0126101326
B1204213924949N00728261WA0126001325
B1204223924946N00728265WA0125801324
B1204233924945N00728269WA0125701322
B1204243924943N00728273WA0125501321
B1204253924941N00728278WA0125301319
B1204263924941N00728283WA0125101316
B1204273924941N00728288WA0124701313
B1204283924941N00728294WA0124401310
B1204293924941N00728299WA0124101306
B1204303924941N00728305WA0123701302
B1204313924941N00728311WA0123401300
B1204323924942N00728318WA0123101297
B1204333924944N00728323WA0123001295
B1204343924946N00728328WA0122701293
B1204353924947N00728333WA0122401289
B1204363924949N00728337WA0122001285
B1204373924951N00728343WA0121401280
B1204383924954N00728348WA0120901274
B1204393924958N00728354WA0120501270
B1204403924961N00728360WA0120101267
B1204413924964N00728365WA0119901264
B1204423924968N00728370WA0119701262
B1204433924972N00728374WA0119301259
B1204443924976N00728379WA0118901254
B1204453924979N00728384WA0118501250
B1204463924984N00728389WA0118101247
B1204473924989N00728394WA0117801243
B1204483924995N00728399WA0117501241
B1204493925000N00728404WA0117401239
B1204503925005N00728409WA0117301239
B1204513925010N00728414WA0117301238
B1204523925016N00728419WA0117201238
B1204533925022N00728423WA0117201237
B1204543925028N00728426WA0117301239
B1204553925034N00728429WA0117501240
B1204563925039N00728430WA0117501241
B1204573925043N00728432WA0117501240
B1204583925048N00728434WA0117301238
B1204593925053N00728437WA0117101236
B1205003925058N00728440WA0116901234
B1205013925064N00728442WA0116801233
B1205023925069N00728445WA0116701232
B1205033925075N00728448WA0116601231
B1205043925080N00728450WA0116401230
B1205053925086N00728453WA0116301228
B1205063925091N00728456WA0116101227
B1205073925096N00728459WA0115901224
B1205083925101N00728463WA0115501221
B1205093925108N00728466WA0115301218
B1205103925114N00728469WA0115101216
B1205113925121N00728471WA0114801214
B1205123925127N00728474WA0114601211
B1205133925133N00728477WA0114401209
B1205143925139N00728479WA0114101206
B1205153925145N00728481WA0113901204
B1205163925152N00728483WA0113701203
B1205173925158N00728485WA0113601202
B1205183925163N00728488WA0113601201
B1205193925168N00728490WA0113401200
B1205203925173N00728492WA0113201198
B1205213925178N00728495WA0112901195
B1205223925184N00728498WA0112601191
B1205233925191N00728501WA0112201187
B1205243925197N00728504WA0111901185
B1205253925203N00728507WA0111801184
B1205263925209N00728510WA0111701182
B1205273925215N00728513WA0111501180
B1205283925219N00728516WA0111301178
B1205293925225N00728519WA0111001176
B1205303925231N00728522WA0110801173
B1205313925237N00728526WA0110701172
B1205323925243N00728529WA0110601171
B1205333925249N00728533WA0110501171
B1205343925254N00728536WA0110401169
B1205353925259N00728539WA0110301168
B1205363925264N00728542WA0110101166
B1205373925270N00728545WA0109901164
B1205383925276N00728547WA0109601162
B1205393925282N00728550WA0109401160
B1205403925288N00728552WA0109301158
B1205413925294N00728553WA0109101157
B1205423925300N00728553WA0108901155
B1205433925307N00728554WA0108701152
B1205443925313N00728556WA0108401150
B1205453925319N00728558WA0108301148
B1205463925326N00728560WA0108101146
B1205473925332N00728562WA0107901145
B1205483925337N00728563WA0107801143
B1205493925343N00728564WA0107701142
B1205503925349N00728564WA0107401140
B1205513925356N00728565WA0107201137
B1205523925362N00728565WA0107001136
B1205533925369N00728566WA0106901134
B1205543925375N00728566WA0106701133
B1205553925382N00728566WA0106601131
B1205563925388N00728566WA0106401129
B1205573925395N00728565WA0106301128
B1205583925402N00728565WA0106201127
B1205593925408N00728564WA0106101126
B1206003925415N00728564WA0106001125
B1206013925422N00728563WA0105901124
B1206023925428N00728562WA0105701122
B1206033925435N00728561WA0105601121
B1206043925442N00728560WA0105501120
B1206053925449N00728559WA0105401120
B1206063925455N00728557WA0105401119
B1206073925462N00728556WA0105201118
B1206083925468N00728555WA0105101117
B1206093925475N00728553WA0105001115
B1206103925481N00728552WA0104801113
B1206113925488N00728552WA0104601112
B1206123925495N00728550WA0104401109
B1206133925503N00728549WA0104301108
B1206143925510N00728548WA0104201108
B1206153925517N00728547WA0104101107
B1206163925524N00728545WA0104101106
B1206173925531N00728543WA0103901105
B1206183925538N00728542WA0103801103
B1206193925546N00728541WA0103701102
B1206203925552N00728540WA0103601101
B1206213925559N00728539WA0103501101
B1206223925566N00728537WA0103501100
B1206233925572N00728536WA0103501100
B1206243925579N00728535WA0103401099
B1206253925586N00728533WA0103301098
B1206263925592N00728531WA0103201097
B1206273925599N00728529WA0103101096
B1206283925606N00728528WA0103001095
B1206293925613N00728527WA0102901094
B1206303925621N00728525WA0102901094
B1206313925628N00728524WA0102801093
B1206323925635N00728522WA0102701092
B1206333925642N00728520WA0102701092
B1206343925648N00728519WA0102601091
B1206353925656N00728517WA0102501090
B1206363925663N00728515WA0102301088
B1206373925670N00728513WA0102201087
B1206383925677N00728512WA0102101086
B1206393925684N00728512WA0101901084
B1206403925691N00728511WA0101801083
B1206413925699N00728509WA0101601081
B1206423925706N00728508WA0101401079
B1206433925713N00728507WA0101201077
B1206443925721N00728506WA0101101076
B1206453925728N00728505WA0100901074
B1206463925736N00728503WA0100901073
B1206473925743N00728501WA0100801073
B1206483925750N00728500WA0100701072
B1206493925758N00728499WA0100801073
B1206503925765N00728498WA0100701072
B1206513925772N00728496WA0100701072
B1206523925779N00728494WA0100701072
B1206533925786N00728493WA0100701072
B1206543925793N00728491WA0100601071
B1206553925800N00728490WA0100401069
B1206563925808N00728487WA0100301068
B1206573925815N00728485WA0100201067
B1206583925822N00728483WA0100201067
B1206593925830N00728481WA0100201067
B1207003925837N00728479WA0100101066
B1207013925844N00728476WA0100101066
B1207023925851N00728473WA0100001065
B1207033925857N00728471WA0099801063
B1207043925864N00728469WA0099701062
B1207053925871N00728467WA0099501060
B1207063925878N00728465WA0099401059
B1207073925885N00728463WA0099301058
B1207083925892N00728461WA0099101056
B1207093925900N00728459WA0099001055
B1207103925906N00728457WA0098901054
B1207113925913N00728455WA0098801053
B1207123925921N00728454WA0098701052
B1207133925928N00728452WA0098601051
B1207143925935N00728451WA0098501050
B1207153925942N00728449WA0098401049
B1207163925949N00728448WA0098201047
B1207173925957N00728446WA0098001045
B1207183925964N00728444WA0097901044
B1207193925971N00728443WA0097801043
B1207203925978N00728442WA0097701042
B1207213925985N00728441WA0097601041
B1207223925992N00728440WA0097501040
B1207233925999N00728439WA0097301038
B1207243926007N00728437WA0097201037
B1207253926014N00728436WA0097101036
B1207263926022N00728435WA0097001035
B1207273926029N00728434WA0096901034
B1207283926036N00728433WA0096801032
B1207293926043N00728431WA0096601031
B1207303926050N00728430WA0096501030
B1207313926057N00728429WA0096301028
B1207323926064N00728428WA0096201027
B1207333926072N00728426WA0096101026
B1207343926079N00728425WA0096001025
B1207353926086N00728423WA0095901024
B1207363926093N00728422WA0095701022
B1207373926100N00728420WA0095601021
B1207383926107N00728419WA0095401019
B1207393926115N00728418WA0095201017
B1207403926122N00728416WA0095101016
B1207413926129N00728415WA0095001014
B1207423926136N00728414WA0094801013
B1207433926144N00728413WA0094701012
B1207443926151N00728411WA0094501010
B1207453926158N00728410WA0094401009
B1207463926166N00728409WA0094201007
B1207473926173N00728407WA0094001005
B1207483926180N00728407WA0093901003
B1207493926187N00728406WA0093601001
B1207503926194N00728405WA0093400999
B1207513926201N00728404WA0093200997
B1207523926208N00728403WA0093000995
B1207533926215N00728402WA0092800992
B1207543926223N00728401WA0092500990
B1207553926230N00728400WA0092300987
B1207563926237N00728399WA0092100985
B1207573926244N00728397WA0091900984
B1207583926251N00728396WA0091800982
B1207593926257N00728394WA0091600980
B1208003926264N00728393WA0091400978
B1208013926271N00728391WA0091200976
B1208023926277N00728390WA0090900973
B1208033926284N00728388WA0090700971
B1208043926291N00728386WA0090500969
B1208053926299N00728385WA0090300967
B1208063926305N00728383WA0090100965
B1208073926312N00728382WA0089800962
B1208083926318N00728381WA0089600960
B1208093926325N00728379WA0089300957
B1208103926332N00728378WA0089100955
B1208113926339N00728377WA0088900953
B1208123926347N00728376WA0088800952
B1208133926354N00728376WA0088800952
B1208143926361N00728375WA0088900953
B1208153926367N00728373WA0088800952
B1208163926373N00728372WA0088700951
B1208173926380N00728371WA0088400948
B1208183926387N00728370WA0088200946
B1208193926395N00728369WA0088100945
B1208203926402N00728368WA0088000944
B1208213926410N00728367WA0088100944
B1208223926417N00728366WA0088000944
B1208233926423N00728365WA0088000944
B1208243926431N00728364WA0087900943
B1208253926438N00728363WA0087900942
B1208263926445N00728362WA0087800942
B1208273926452N00728362WA0087800942
B1208283926460N00728361WA0087700941
B1208293926467N00728361WA0087700941
B1208303926475N00728361WA0087700940
B1208313926482N00728361WA0087600940
B1208323926490N00728361WA0087600940
B1208333926497N00728361WA0087600940
B1208343926504N00728361WA0087600939
B1208353926511N00728361WA0087500939
B1208363926518N00728361WA0087400938
B1208373926525N00728361WA0087300936
B1208383926533N00728362WA0087100935
B1208393926540N00728363WA0087000933
B1208403926548N00728365WA0086900932
B1208413926554N00728366WA0086800932
B1208423926562N00728367WA0086900932
B1208433926569N00728368WA0086900932
B1208443926575N00728368WA0086800932
B1208453926582N00728369WA0086800931
B1208463926589N00728370WA0086700931
B1208473926597N00728371WA0086700930
B1208483926604N00728372WA0086600930
B1208493926610N00728373WA0086600930
B1208503926616N00728374WA0086600930
B1208513926623N00728375WA0086700930
B1208523926629N00728375WA0086700931
B1208533926635N00728376WA0086900932
B1208543926640N00728376WA0087000933
B1208553926646N00728377WA0087100934
B1208563926651N00728377WA0087000934
B1208573926656N00728379WA0087000934
B1208583926662N00728380WA0087000933
B1208593926667N00728382WA0087000934
B1209003926673N00728383WA0087100935
B1209013926678N00728384WA0087200936
B1209023926684N00728386WA0087300937
B1209033926688N00728390WA0087400938
B1209043926691N00728394WA0087500939
B1209053926693N00728399WA0087800941
B1209063926694N00728403WA0088100945
B1209073926695N00728406WA0088400948
B1209083926694N00728409WA0088600950
B1209093926691N00728411WA0088800951
B1209103926687N00728412WA0088900953
B1209113926683N00728412WA0089200955
B1209123926679N00728411WA0089500958
B1209133926675N00728407WA0089600960
B1209143926672N00728401WA0089700960
B1209153926670N00728394WA0089700960
B1209163926668N00728386WA0089600960
B1209173926667N00728377WA0089600959
B1209183926668N00728367WA0089500959
B1209193926670N00728356WA0089400958
B1209203926673N00728347WA0089400958
B1209213926678N00728338WA0089400957
B1209223926683N00728329WA0089300957
B1209233926688N00728322WA0089300956
B1209243926695N00728315WA0089300956
B1209253926701N00728309WA0089400957
B1209263926708N00728305WA0089400958
B1209273926714N00728303WA0089500958
B1209283926720N00728302WA0089500958
B1209293926726N00728303WA0089500958
B1209303926732N00728304WA0089500958
B1209313926736N00728307WA0089500958
B1209323926740N00728312WA0089600959
B1209333926744N00728316WA0089800961
B1209343926747N00728321WA0090000964
B1209353926749N00728325WA0090300966
B1209363926751N00728329WA0090400968
B1209373926753N00728333WA0090500969
B1209383926755N00728338WA0090600970
B1209393926756N00728344WA0090700971
B1209403926757N00728350WA0090900972
B1209413926759N00728355WA0091100974
B1209423926761N00728360WA0091400977
B1209433926763N00728365WA0091600980
B1209443926765N00728370WA0091800982
B1209453926766N00728376WA0092100985
B1209463926768N00728380WA0092300987
B1209473926771N00728384WA0092600989
B1209483926773N00728387WA0092700991
B1209493926773N00728391WA0092900992
B1209503926773N00728394WA0092900993
B1209513926772N00728397WA0093100994
B1209523926770N00728399WA0093200995
B1209533926768N00728399WA0093200995
B1209543926764N00728396WA0093100995
B1209553926760N00728392WA0093100994
B1209563926757N00728386WA0093100994
B1209573926755N00728380WA0093000994
B1209583926754N00728372WA0093000993
B1209593926754N00728363WA0093000993
B1210003926756N00728353WA0092900992
B1210013926759N00728344WA0092800991
B1210023926765N00728336WA0092800991
B1210033926772N00728330WA0092900992
B1210043926778N00728326WA0093000994
B1210053926785N00728323WA0093300996
B1210063926791N00728321WA0093600999
B1210073926796N00728321WA0093801002
B1210083926801N00728323WA0094101004
B1210093926805N00728327WA0094301006
B1210103926810N00728331WA0094501008
B1210113926815N00728334WA0094601010
B1210123926820N00728336WA0094801012
B1210133926824N00728339WA0095101014
B1210143926829N00728343WA0095301016
B1210153926832N00728347WA0095401017
B1210163926836N00728350WA0095501019
B1210173926839N00728353WA0095701021
B1210183926841N00728357WA0095801022
B1210193926842N00728361WA0095901022
B1210203926842N00728366WA0096001023
B1210213926841N00728370WA0096101025
B1210223926839N00728372WA0096301026
B1210233926836N00728372WA0096301027
B1210243926833N00728370WA0096301027
B1210253926829N00728366WA0096301026
B1210263926827N00728360WA0096201025
B1210273926824N00728353WA0096101024
B1210283926823N00728344WA0096001023
B1210293926823N00728334WA0096001023
B1210303926825N00728325WA0096001023
B1210313926828N00728316WA0096001023
B1210323926833N00728308WA0096001024
B1210333926839N00728302WA0096101025
B1210343926845N00728297WA0096301026
B1210353926852N00728294WA0096401027
B1210363926858N00728292WA0096501028
B1210373926864N00728291WA0096601029
B1210383926869N00728292WA0096601029
B1210393926874N00728294WA0096501029
B1210403926879N00728298WA0096501029
B1210413926884N00728303WA0096701030
B1210423926887N00728307WA0096901032
B1210433926890N00728311WA0097201035
B1210443926892N00728314WA0097401037
B1210453926893N00728317WA0097501038
B1210463926895N00728321WA0097601040
B1210473926897N00728325WA0097701040
B1210483926898N00728330WA0097801042
B1210493926899N00728334WA0098001043
B1210503926900N00728338WA0098101045
B1210513926900N00728342WA0098401047
B1210523926900N00728346WA0098501049
B1210533926900N00728350WA0098701050
B1210543926899N00728354WA0098801051
B1210553926900N00728358WA0099001053
B1210563926900N00728362WA0099201056
B1210573926900N00728367WA0099501058
B1210583926900N00728371WA0099701061
B1210593926899N00728375WA0100001063
B1211003926899N00728378WA0100201065
B1211013926899N00728382WA0100401067
B1211023926899N00728386WA0100501068
B1211033926899N00728390WA0100501069
B1211043926899N00728395WA0100701070
B1211053926898N00728398WA0100801071
B1211063926897N00728398WA0100601069
B1211073926894N00728397WA0100301067
B1211083926890N00728395WA0100101064
B1211093926886N00728392WA0100001064
B1211103926883N00728386WA0100101064
B1211113926882N00728379WA0100101064
B1211123926884N00728370WA0100001063
B1211133926888N00728362WA0099901063
B1211143926894N00728356WA0100001063
B1211153926900N00728351WA0100101065
B1211163926906N00728348WA0100301066
B1211173926913N00728347WA0100301067
B1211183926919N00728347WA0100301066
B1211193926926N00728348WA0100301066
B1211203926932N00728351WA0100301067
B1211213926937N00728354WA0100401067
B1211223926941N00728356WA0100501068
B1211233926944N00728359WA0100501068
B1211243926946N00728362WA0100401067
B1211253926948N00728366WA0100101064
B1211263926950N00728371WA0099901062
B1211273926953N00728376WA0099801061
B1211283926955N00728380WA0099701060
B1211293926956N00728385WA0099601059
B1211303926957N00728389WA0099501058
B1211313926956N00728392WA0099401057
B1211323926955N00728396WA0099201055
B1211333926953N00728399WA0099001054
B1211343926951N00728401WA0098901052
B1211353926949N00728404WA0098701051
B1211363926946N00728406WA0098601049
B1211373926943N00728408WA0098401047
B1211383926940N00728409WA0098201045
B1211393926937N00728411WA0098001044
B1211403926933N00728412WA0097901042
B1211413926930N00728413WA0097701040
B1211423926926N00728414WA0097601039
B1211433926923N00728414WA0097401038
B1211443926919N00728413WA0097301036
B1211453926915N00728412WA0097101035
B1211463926911N00728410WA0097001033
B1211473926907N00728407WA0096901032
B1211483926903N00728404WA0096801031
B1211493926899N00728401WA0096601030
B1211503926895N00728397WA0096501028
B1211513926892N00728394WA0096401027
B1211523926888N00728390WA0096101025
B1211533926884N00728386WA0095901022
B1211543926880N00728382WA0095601019
B1211553926876N00728377WA0095401017
B1211563926872N00728372WA0095201015
B1211573926868N00728367WA0095001013
B1211583926865N00728362WA0094801011
B1211593926861N00728357WA0094601008
B1212003926857N00728351WA0094301006
B1212013926852N00728346WA0094101003
B1212023926848N00728340WA0093901002
B1212033926844N00728335WA0093801001
B1212043926841N00728330WA0093701000
B1212053926838N00728327WA0093600998
B1212063926834N00728325WA0093300996
B1212073926830N00728323WA0093100994
B1212083926826N00728323WA0092900991
B1212093926822N00728324WA0092700990
B1212103926819N00728327WA0092600988
B1212113926816N00728330WA0092400986
B1212123926814N00728334WA0092200985
B1212133926814N00728338WA0092000982
B1212143926812N00728342WA0091800980
B1212153926811N00728347WA0091500978
B1212163926811N00728352WA0091200975
B1212173926812N00728357WA0091000972
B1212183926812N00728363WA0090800970
B1212193926814N00728369WA0090500968
B1212203926814N00728375WA0090300965
B1212213926816N00728380WA0090100964
B1212223926818N00728386WA0090000963
B1212233926820N00728392WA0089900961
B1212243926823N00728397WA0089700959
B1212253926825N00728403WA0089500957
B1212263926827N00728408WA0089300955
B1212273926830N00728414WA0089100953
B1212283926832N00728419WA0089000952
B1212293926835N00728425WA0088800950
B1212303926838N00728430WA0088600948
B1212313926840N00728436WA0088400946
B1212323926842N00728441WA0088200944
B1212333926845N00728447WA0088000942
B1212343926848N00728453WA0087900941
B1212353926851N00728458WA0087700939
B1212363926854N00728464WA0087600937
B1212373926857N00728469WA0087400935
B1212383926860N00728474WA0087300934
B1212393926863N00728479WA0087100933
B1212403926866N00728484WA0086900931
B1212413926869N00728490WA0086800929
B1212423926871N00728495WA0086600928
B1212433926874N00728500WA0086400925
B1212443926877N00728505WA0086100923
B1212453926880N00728510WA0085800920
B1212463926884N00728515WA0085500917
B1212473926887N00728520WA0085400915
B1212483926891N00728525WA0085200913
B1212493926893N00728530WA0085000911
B1212503926896N00728534WA0084700909
B1212513926899N00728539WA0084500906
B1212523926901N00728544WA0084200903
B1212533926904N00728549WA0083900900
B1212543926907N00728554WA0083600898
B1212553926910N00728559WA0083500896
B1212563926913N00728563WA0083400895
B1212573926916N00728567WA0083200894
B1212583926919N00728572WA0083100892
B1212593926923N00728576WA0083000891
B1213003926926N00728580WA0082800889
B1213013926930N00728585WA0082700888
B1213023926933N00728590WA0082600887
B1213033926937N00728594WA0082500887
B1213043926940N00728598WA0082500886
B1213053926943N00728602WA0082300884
B1213063926946N00728606WA0082100882
B1213073926950N00728610WA0081900880
B1213083926953N00728615WA0081600877
B1213093926956N00728619WA0081500876
B1213103926960N00728624WA0081400874
B1213113926964N00728628WA0081200873
B1213123926968N00728632WA0081100871
B1213133926971N00728636WA0080800869
B1213143926975N00728641WA0080700868
B1213153926979N00728645WA0080500866
B1213163926983N00728649WA0080500866
B1213173926987N00728653WA0080400864
B1213183926991N00728657WA0080200862
B1213193926995N00728661WA0079900860
B1213203926999N00728665WA0079600857
B1213213927003N00728670WA0079400854
B1213223927008N00728675WA0079200852
B1213233927012N00728680WA0079100851
B1213243927016N00728684WA0079000850
B1213253927020N00728688WA0078800849
B1213263927024N00728693WA0078600846
B1213273927028N00728697WA0078200843
B1213283927033N00728701WA0078000840
B1213293927038N00728705WA0077800838
B1213303927042N00728709WA0077700838
B1213313927046N00728712WA0077600836
B1213323927049N00728715WA0077400834
B1213333927054N00728718WA0077100831
B1213343927057N00728721WA0076800828
B1213353927062N00728725WA0076500825
B1213363927066N00728729WA0076300823
B1213373927071N00728732WA0076100821
B1213383927075N00728735WA0076000820
B1213393927079N00728739WA0075900819
B1213403927084N00728742WA0075900819
B1213413927089N00728745WA0075800818
B1213423927092N00728749WA0075700817
B1213433927095N00728753WA0075600816
B1213443927098N00728757WA0075500815
B1213453927102N00728762WA0075500815
B1213463927106N00728766WA0075400814
B1213473927111N00728770WA0075300813
B1213483927115N00728773WA0075300813
B1213493927119N00728776WA0075300812
B1213503927123N00728780WA0075100811
B1213513927126N00728785WA0075000810
B1213523927129N00728790WA0074900809
B1213533927133N00728795WA0074900809
B1213543927137N00728799WA0074900808
B1213553927141N00728803WA0074800808
B1213563927145N00728807WA0074800807
B1213573927147N00728812WA0074700806
B1213583927150N00728816WA0074500804
B1213593927153N00728820WA0074200802
B1214003927156N00728825WA0073800798
B1214013927160N00728830WA0073500795
B1214023927164N00728836WA0073300792
B1214033927167N00728841WA0073100790
B1214043927171N00728846WA0072900788
B1214053927174N00728850WA0072700786
B1214063927176N00728854WA0072500784
B1214073927179N00728858WA0072200781
B1214083927182N00728863WA0071800777
B1214093927185N00728868WA0071500774
B1214103927188N00728873WA0071300772
B1214113927192N00728878WA0071100770
B1214123927195N00728882WA0070900769
B1214133927198N00728886WA0070800767
B1214143927201N00728890WA0070500764
B1214153927204N00728894WA0070200761
B1214163927206N00728899WA0069900758
B1214173927209N00728904WA0069600756
B1214183927212N00728909WA0069400753
B1214193927215N00728914WA0069300752
B1214203927218N00728918WA0069100750
B1214213927221N00728923WA0068900748
B1214223927225N00728927WA0068700746
B1214233927229N00728931WA0068400743
B1214243927233N00728934WA0068100739
B1214253927237N00728938WA0067800736
B1214263927241N00728943WA0067600735
B1214273927245N00728947WA0067300732
B1214283927249N00728951WA0067100730
B1214293927253N00728955WA0066900728
B1214303927256N00728959WA0066700725
B1214313927259N00728963WA0066400723
B1214323927263N00728968WA0066200721
B1214333927267N00728972WA0066000718
B1214343927271N00728976WA0065700716
B1214353927276N00728981WA0065600714
B1214363927280N00728985WA0065400712
B1214373927284N00728990WA0065200711
B1214383927288N00728995WA0065000709
B1214393927292N00729000WA0064900707
B1214403927296N00729005WA0064800707
B1214413927300N00729009WA0064800706
B1214423927303N00729013WA0064700705
B1214433927306N00729017WA0064500704
B1214443927309N00729022WA0064400702
B1214453927313N00729027WA0064100699
B1214463927317N00729031WA0064000698
B1214473927321N00729036WA0063900697
B1214483927325N00729040WA0063800696
B1214493927329N00729045WA0063700695
B1214503927333N00729049WA0063600694
B1214513927336N00729053WA0063400692
B1214523927340N00729057WA0063300691
B1214533927344N00729061WA0063100689
B1214543927349N00729065WA0062800686
B1214553927354N00729069WA0062600684
B1214563927359N00729074WA0062400682
B1214573927364N00729080WA0062300681
B1214583927368N00729085WA0062200680
B1214593927372N00729091WA0062200680
B1215003927374N00729097WA0062200680
B1215013927376N00729102WA0062300680
B1215023927377N00729107WA0062200680
B1215033927378N00729112WA0062200680
B1215043927379N00729116WA0062200680
B1215053927379N00729120WA0062200679
B1215063927378N00729124WA0062100678
B1215073927377N00729128WA0062000678
B1215083927374N00729132WA0062000678
B1215093927371N00729134WA0062100678
B1215103927368N00729135WA0062300680
B1215113927365N00729137WA0062500682
B1215123927363N00729139WA0062500683
B1215133927361N00729141WA0062600683
B1215143927359N00729144WA0062600684
B1215153927356N00729146WA0062800685
B1215163927353N00729148WA0063000687
B1215173927351N00729149WA0063100689
B1215183927350N00729149WA0063200689
B1215193927347N00729150WA0063100688
B1215203927345N00729150WA0062900686
B1215213927343N00729152WA0062700684
B1215223927340N00729154WA0062600683
B1215233927338N00729158WA0062400681
B1215243927337N00729162WA0062100678
B1215253927337N00729167WA0062000677
B1215263927337N00729172WA0061900677
B1215273927338N00729176WA0061900676
B1215283927339N00729180WA0061800675
B1215293927341N00729183WA0061600673
B1215303927343N00729187WA0061500672
B1215313927345N00729191WA0061300670
B1215323927349N00729195WA0061100669
B1215333927353N00729199WA0061000667
B1215343927359N00729201WA0060900666
B1215353927365N00729202WA0060800665
B1215363927371N00729202WA0060700664
B1215373927377N00729200WA0060700663
B1215383927383N00729197WA0060500662
B1215393927390N00729192WA0060400661
B1215403927396N00729186WA0060300659
B1215413927401N00729178WA0060200658
B1215423927404N00729169WA0060100658
B1215433927406N00729161WA0060100657
B1215443927405N00729154WA0059900656
B1215453927404N00729148WA0059800654
B1215463927401N00729143WA0059600653
B1215473927399N00729139WA0059400651
B1215483927396N00729135WA0059200649
B1215493927393N00729132WA0059000647
B1215503927390N00729129WA0058800645
B1215513927387N00729128WA0058600643
B1215523927383N00729128WA0058400641
B1215533927379N00729129WA0058200639
B1215543927375N00729129WA0058100637
B1215553927372N00729130WA0058000636
B1215563927369N00729132WA0057900635
B1215573927366N00729135WA0057900635
B1215583927364N00729138WA0058000636
B1215593927362N00729139WA0058100637
B1216003927360N00729140WA0058100637
B1216013927359N00729140WA0058000636
B1216023927357N00729139WA0057900635
B1216033927354N00729139WA0057700633
B1216043927351N00729139WA0057500631
B1216053927347N00729139WA0057400630
B1216063927344N00729139WA0057300629
B1216073927341N00729139WA0057300629
B1216083927339N00729140WA0057200628
B1216093927336N00729140WA0057200628
B1216103927334N00729140WA0057100627
B1216113927330N00729139WA0057100627
B1216123927327N00729139WA0057100627
B1216133927323N00729139WA0057200628
B1216143927320N00729139WA0057200628
B1216153927317N00729139WA0057200628
B1216163927315N00729137WA0057200627
B1216173927312N00729136WA0057100626
B1216183927309N00729135WA0057000625
B1216193927305N00729133WA0056900624
B1216203927302N00729131WA0056800624
B1216213927298N00729129WA0056800624
B1216223927295N00729127WA0056800624
B1216233927292N00729126WA0056900624
B1216243927290N00729124WA0056900625
B1216253927287N00729121WA0056900625
B1216263927285N00729118WA0056800624
B1216273927281N00729114WA0056700623
B1216283927278N00729112WA0056700622
B1216293927276N00729109WA0056600621
B1216303927273N00729108WA0056500620
B1216313927270N00729106WA0056400619
B1216323927267N00729104WA0056300618
B1216333927265N00729102WA0056100616
B1216343927262N00729099WA0055900615
B1216353927258N00729095WA0055800613
B1216363927255N00729093WA0055600611
B1216373927252N00729091WA0055400610
B1216383927249N00729090WA0055300608
B1216393927247N00729090WA0055100606
B1216403927245N00729092WA0054800603
B1216413927243N00729094WA0054500600
B1216423927243N00729097WA0054300598
B1216433927243N00729100WA0054000595
B1216443927243N00729105WA0053600591
B1216453927244N00729109WA0053200587
B1216463927245N00729115WA0053000585
B1216473927247N00729120WA0052900584
B1216483927248N00729125WA0052900584
B1216493927249N00729129WA0052800583
B1216503927250N00729133WA0052700582
B1216513927251N00729136WA0052500580
B1216523927251N00729140WA0052200577
B1216533927251N00729145WA0052000575
B1216543927251N00729151WA0051900574
B1216553927252N00729155WA0051900574
B1216563927252N00729159WA0052000575
B1216573927252N00729163WA0052100576
B1216583927252N00729166WA0052100576
B1216593927252N00729169WA0052100576
B1217003927252N00729171WA0052200576
B1217013927251N00729174WA0052100576
B1217023927249N00729175WA0052100576
B1217033927248N00729176WA0052100576
B1217043927246N00729177WA0052100575
B1217053927244N00729178WA0052000575
B1217063927241N00729180WA0052100575
B1217073927239N00729181WA0052100575
B1217083927236N00729181WA0052100575
B1217093927233N00729181WA0052200576
B1217103927231N00729181WA0052200576
B1217113927229N00729182WA0052100575
B1217123927227N00729182WA0052000574
B1217133927224N00729182WA0051800573
B1217143927222N00729183WA0051700571
B1217153927220N00729185WA0051600570
B1217163927218N00729187WA0051500569
B1217173927217N00729190WA0051500569
B1217183927217N00729192WA0051400568
B1217193927216N00729196WA0051300568
B1217203927216N00729199WA0051400568
B1217213927215N00729202WA0051400568
B1217223927214N00729204WA0051300567
B1217233927213N00729205WA0051200566
B1217243927213N00729207WA0051000564
B1217253927213N00729210WA0050800562
B1217263927213N00729214WA0050600560
B1217273927212N00729217WA0050400558
B1217283927211N00729220WA0050300557
B1217293927211N00729223WA0050100555
B1217303927212N00729227WA0049900553
B1217313927213N00729231WA0049800552
B1217323927214N00729234WA0049700550
B1217333927215N00729238WA0049500549
B1217343927217N00729242WA0049200546
B1217353927218N00729246WA0049000544
B1217363927218N00729250WA0048900543
B1217373927218N00729253WA0048800542
B1217383927217N00729255WA0048800541
B1217393927216N00729256WA0048600540
B1217403927215N00729257WA0048400538
B1217413927212N00729257WA0048200536
B1217423927209N00729257WA0048100534
B1217433927205N00729255WA0048000533
B1217443927201N00729250WA0047900533
B1217453927198N00729243WA0047900532
B1217463927197N00729235WA0047900532
B1217473927197N00729227WA0047900532
B1217483927198N00729219WA0047800532
B1217493927200N00729210WA0047800531
B1217503927203N00729200WA0047600529
B1217513927206N00729192WA0047400528
B1217523927210N00729184WA0047200526
B1217533927215N00729176WA0047000523
B1217543927220N00729169WA0046600520
B1217553927227N00729162WA0046400517
B1217563927234N00729156WA0046200515
B1217573927242N00729152WA0046000514
B1217583927249N00729149WA0045900512
B1217593927255N00729146WA0045800511
B1218003927262N00729143WA0045500508
B1218013927269N00729142WA0045300506
B1218023927276N00729141WA0045000503
B1218033927283N00729140WA0044800501
B1218043927290N00729140WA0044600499
B1218053927296N00729140WA0044500498
B1218063927303N00729140WA0044500497
B1218073927308N00729141WA0044500497
B1218083927314N00729142WA0044400497
B1218093927319N00729144WA0044400497
B1218103927325N00729145WA0044400497
B1218113927331N00729145WA0044300496
B1218123927336N00729145WA0044300495
B1218133927341N00729147WA0044200495
B1218143927345N00729150WA0044200495
B1218153927349N00729153WA0044300496
B1218163927353N00729156WA0044500497
B1218173927357N00729158WA0044600499
B1218183927361N00729160WA0044700500
B1218193927365N00729162WA0044600499
B1218203927369N00729164WA0044500498
B1218213927372N00729165WA0044400496
B1218223927376N00729167WA0044100494
B1218233927380N00729169WA0043900491
B1218243927383N00729172WA0043600488
B1218253927386N00729175WA0043400486
B1218263927388N00729178WA0043200485
B1218273927391N00729181WA0043100483
B1218283927393N00729183WA0042900481
B1218293927394N00729185WA0042600478
B1218303927396N00729188WA0042400476
B1218313927396N00729191WA0042100473
B1218323927397N00729194WA0041800470
B1218333927397N00729198WA0041600468
B1218343927397N00729201WA0041400466
B1218353927396N00729204WA0041300465
B1218363927396N00729207WA0041100463
B1218373927397N00729209WA0040900461
B1218383927397N00729212WA0040700459
B1218393927396N00729215WA0040600458
B1218403927395N00729218WA0040400456
B1218413927394N00729220WA0040300455
B1218423927394N00729223WA0040200454
B1218433927394N00729225WA0040200454
B1218443927394N00729228WA0040100453
B1218453927394N00729229WA0040000452
B1218463927394N00729230WA0040000452
B1218473927394N00729231WA0039900450
B1218483927394N00729232WA0039600447
B1218493927395N00729234WA0039200444
B1218503927394N00729236WA0039000441
B1218513927393N00729239WA0038900441
B1218523927393N00729241WA0038900441
B1218533927393N00729243WA0038900441
B1218543927393N00729245WA0038900440
B1218553927393N00729246WA0038800440
B1218563927393N00729247WA0038600437
B1218573927393N00729248WA0038300435
B1218583927393N00729250WA0038200433
B1218593927392N00729252WA0038000432
B1219003927391N00729254WA0038100432
B1219013927392N00729254WA0038200433
B1219023927392N00729254WA0038200433
B1219033927392N00729254WA0038200433
B1219043927392N00729254WA0038200433
B1219053927392N00729254WA0038200433
B1219063927392N00729254WA0038200433
B1219073927392N00729254WA0038200433
B1219083927392N00729254WA0038200433
B1219093927392N00729254WA0038200433
B1219103927392N00729255WA0038200433
B1219113927392N00729255WA0038200433
B1219123927392N00729255WA0038200433
B1219133927392N00729255WA0038200433
B1219143927392N00729255WA0038200433
B1219153927392N00729255WA0038200433
B1219163927392N00729255WA0038200433
B1219173927392N00729255WA0038200432
B1219183927392N00729255WA0038200433
B1219193927392N00729255WA0038200433
B1219203927392N00729255WA0038200433
B1219213927392N00729255WA0038200432
B1219223927392N00729254WA0038200433
B1219233927392N00729254WA0038200432
B1219243927392N00729254WA0038200432
B1219253927393N00729254WA0038200432
B1219263927393N00729253WA0038200432
B1219273927393N00729253WA0038200432
B1219283927393N00729252WA0038200432
B1219293927393N00729252WA0038200432
B1219303927393N00729252WA0038200432
B1219313927393N00729252WA0038200432
B1219323927394N00729251WA0038200432
B1219333927394N00729251WA0038200432
B1219343927394N00729251WA0038200432
B1219353927394N00729251WA0038200432
B1219363927394N00729251WA0038200432
B1219373927394N00729251WA0038200432
B1219383927394N00729251WA0038200432
B1219393927395N00729251WA0038200432
B1219403927395N00729251WA0038200432
B1219413927395N00729250WA0038200432
B1219423927395N00729250WA0038200432
B1219433927396N00729249WA0038200432
B1219443927396N00729248WA0038200432
B1219453927396N00729247WA0038200432
B1219463927397N00729247WA0038200432
B1219473927397N00729246WA0038200432
B1219483927398N00729246WA0038200432
B1219493927398N00729245WA0038200432
B1219503927398N00729244WA0038200432
B1219513927399N00729244WA0038200432
B1219523927399N00729243WA0038200432
B1219533927399N00729242WA0038200432
B1219543927400N00729242WA0038200432
B1219553927400N00729241WA0038200432
B1219563927401N00729241WA0038200432
B1219573927401N00729240WA0038200432
B1219583927401N00729239WA0038200432
B1219593927402N00729239WA0038200432
B1220003927402N00729238WA0038200432
B1220013927403N00729237WA0038200432
B1220023927403N00729237WA0038200432
B1220033927403N00729236WA0038200432
B1220043927404N00729236WA0038200432
B1220053927404N00729235WA0038200431
B1220063927404N00729235WA0038200432
B1220073927405N00729235WA0038200431
B1220083927406N00729235WA0038200432
B1220093927407N00729234WA0038200432
B1220103927407N00729234WA0038200432
B1220113927408N00729234WA0038200432
B1220123927408N00729233WA0038200431
B1220133927409N00729233WA0038200432
B1220143927409N00729232WA0038200432
B1220153927409N00729231WA0038200432
B1220163927409N00729231WA0038200432
B1220173927409N00729230WA0038200432
B1220183927409N00729229WA0038200432
B1220193927409N00729229WA0038300432
B1220203927410N00729228WA0038200432
B1220213927410N00729227WA0038300432
B1220223927409N00729227WA0038300432
B1220233927409N00729227WA0038300432
B1220243927409N00729226WA0038300432
B1220253927409N00729226WA0038300432
B1220263927408N00729226WA0038300432
B1220273927409N00729226WA0038300432
B1220283927409N00729226WA0038300432
B1220293927408N00729226WA0038300432
B1220303927408N00729226WA0038300432
B1220313927408N00729226WA0038300432
B1220323927408N00729226WA0038300432
B1220333927408N00729226WA0038300432
B1220343927408N00729226WA0038300432
B1220353927408N00729226WA0038300432
B1220363927408N00729226WA0038300431
LXSX;C1;GM:1.2
LXSX;S1;TS:1686397380;TL:1686399636;AS:767;AL:431;AT:1348;AB:431
LXSX;S1;XS:0;XD:8.40;SP:50.1;MC:3.0;MS:-3.5;NB:2258
LXSX;S1;FL:20.2;TG:511;TC:1.6;AG:1243;GM:1.2
LXSX;S1;X0:39.40085,-7.45907
LXSX;S1;X1:39.40154,-7.47020
LXSX;S1;X2:39.40147,-7.46372
LXSX;S1;X3:39.44820,-7.47190
LXSX;S1;X4:39.45655,-7.48750
GA94716946485558916B62F64A66A4E47
