AXSX005 SKYTRAXX
HFPLTPILOT:Sepp Bucher
HFGTYGLIDERTYPE:Niviuk Artik R
HFDTM100GPSDATUM:WGS-84
HFRFWFIRMWAREVERSION:202308041433
HFRHWHARDWAREVERSION:4.0
HFTZNTIMEZONE:+2.00
HFSITSITE:Fiesch Kühboden 1 (
HFDTE200923
LXSX;I1;OAB:20230918;OOB:20230901
LXSX;I1;ID:114075
LXSX;I1;AC:1;CAT:C
B0844344624857N00806471EA0206202151
B0844354624857N00806471EA0206202151
B0844364624857N00806471EA0206202151
B0844374624857N00806471EA0206202151
B0844384624857N00806471EA0206202151
B0844394624857N00806472EA0206202151
B0844404624857N00806472EA0206202151
B0844414624857N00806472EA0206202151
B0844424624857N00806472EA0206202151
B0844434624857N00806472EA0206202151
B0844444624857N00806472EA0206202151
B0844454624857N00806472EA0206202151
B0844464624856N00806472EA0206102150
B0844474624856N00806473EA0206102150
B0844484624855N00806474EA0206002150
B0844494624855N00806475EA0205902148
B0844504624853N00806478EA0205602145
B0844514624850N00806480EA0205502144
B0844524624847N00806482EA0205302142
B0844534624844N00806485EA0205102140
B0844544624841N00806488EA0205202142
B0844554624838N00806493EA0205202141
B0844564624836N00806500EA0205202141
B0844574624834N00806507EA0205102140
B0844584624832N00806514EA0205002139
B0844594624831N00806522EA0204902138
B0845004624830N00806530EA0204802137
B0845014624829N00806539EA0205002139
B0845024624829N00806547EA0205202141
B0845034624829N00806553EA0205402143
B0845044624830N00806558EA0205302142
B0845054624831N00806564EA0205202141
B0845064624831N00806570EA0205002140
B0845074624831N00806577EA0204702136
B0845084624831N00806584EA0204502134
B0845094624831N00806591EA0204502134
B0845104624831N00806599EA0204502134
B0845114624830N00806605EA0204502134
B0845124624828N00806611EA0204402133
B0845134624826N00806617EA0204302132
B0845144624824N00806623EA0204102130
B0845154624821N00806628EA0204002129
B0845164624818N00806634EA0203902128
B0845174624814N00806639EA0203902128
B0845184624810N00806643EA0203802127
B0845194624806N00806647EA0203702126
B0845204624803N00806651EA0203602125
B0845214624800N00806657EA0203402123
B0845224624798N00806663EA0203302122
B0845234624795N00806669EA0203202121
B0845244624792N00806675EA0203102120
B0845254624790N00806681EA0203002119
B0845264624787N00806687EA0202902118
B0845274624784N00806693EA0202802117
B0845284624781N00806699EA0202702116
B0845294624779N00806705EA0202602115
B0845304624776N00806711EA0202502114
B0845314624774N00806718EA0202402113
B0845324624773N00806725EA0202402113
B0845334624771N00806732EA0202302112
B0845344624769N00806739EA0202202111
B0845354624766N00806746EA0202202111
B0845364624763N00806754EA0202202111
B0845374624761N00806762EA0202302111
B0845384624759N00806770EA0202202111
B0845394624758N00806777EA0202302111
B0845404624756N00806783EA0202302111
B0845414624753N00806789EA0202202111
B0845424624752N00806795EA0202102109
B0845434624750N00806801EA0201802107
B0845444624749N00806808EA0201602105
B0845454624748N00806815EA0201502103
B0845464624747N00806822EA0201302102
B0845474624745N00806829EA0201302101
B0845484624744N00806836EA0201202101
B0845494624742N00806842EA0201202101
B0845504624739N00806847EA0201002099
B0845514624737N00806852EA0200802097
B0845524624735N00806858EA0200702096
B0845534624734N00806865EA0200502094
B0845544624735N00806873EA0200402093
B0845554624737N00806880EA0200402093
B0845564624740N00806886EA0200402093
B0845574624742N00806891EA0200402093
B0845584624744N00806895EA0200302092
B0845594624747N00806899EA0200102090
B0846004624751N00806904EA0199802087
B0846014624754N00806910EA0199602085
B0846024624758N00806916EA0199502084
B0846034624762N00806922EA0199502084
B0846044624764N00806927EA0199502084
B0846054624767N00806932EA0199402083
B0846064624770N00806938EA0199302082
B0846074624773N00806944EA0199102080
B0846084624776N00806950EA0199002079
B0846094624780N00806955EA0198902078
B0846104624783N00806961EA0198802077
B0846114624787N00806967EA0198702076
B0846124624790N00806972EA0198602075
B0846134624794N00806978EA0198402073
B0846144624797N00806984EA0198202071
B0846154624801N00806990EA0198102070
B0846164624805N00806996EA0197902068
B0846174624809N00807002EA0197802067
B0846184624813N00807007EA0197702066
B0846194624817N00807012EA0197502064
B0846204624821N00807018EA0197302062
B0846214624826N00807025EA0197102060
B0846224624831N00807032EA0197002059
B0846234624837N00807040EA0197202061
B0846244624842N00807045EA0197502064
B0846254624848N00807046EA0197702066
B0846264624853N00807045EA0197802067
B0846274624858N00807044EA0197802067
B0846284624863N00807045EA0197702066
B0846294624869N00807048EA0197702065
B0846304624875N00807053EA0197702066
B0846314624879N00807060EA0197902068
B0846324624881N00807067EA0198002068
B0846334624881N00807074EA0198002068
B0846344624879N00807081EA0198002069
B0846354624876N00807086EA0198002069
B0846364624871N00807088EA0198102070
B0846374624867N00807086EA0198002069
B0846384624864N00807080EA0198002069
B0846394624863N00807072EA0198002069
B0846404624864N00807063EA0198102069
B0846414624867N00807055EA0198202071
B0846424624871N00807048EA0198302072
B0846434624876N00807043EA0198502074
B0846444624880N00807040EA0198702075
B0846454624885N00807039EA0198802077
B0846464624891N00807040EA0198902078
B0846474624896N00807043EA0199102080
B0846484624900N00807049EA0199202081
B0846494624902N00807056EA0199202081
B0846504624902N00807064EA0199202081
B0846514624900N00807072EA0199302082
B0846524624898N00807079EA0199402083
B0846534624894N00807083EA0199402083
B0846544624890N00807083EA0199402083
B0846554624886N00807080EA0199302082
B0846564624883N00807074EA0199202081
B0846574624882N00807066EA0199202081
B0846584624882N00807058EA0199302082
B0846594624884N00807051EA0199402083
B0847004624887N00807044EA0199402083
B0847014624890N00807038EA0199502084
B0847024624896N00807035EA0199502084
B0847034624902N00807034EA0199602085
B0847044624909N00807036EA0199602085
B0847054624914N00807041EA0199702086
B0847064624918N00807048EA0199902087
B0847074624921N00807056EA0200102089
B0847084624922N00807064EA0200202091
B0847094624920N00807071EA0200302092
B0847104624916N00807074EA0200402093
B0847114624911N00807073EA0200502093
B0847124624907N00807069EA0200502094
B0847134624905N00807063EA0200602095
B0847144624903N00807056EA0200802097
B0847154624905N00807049EA0200902098
B0847164624908N00807042EA0201002098
B0847174624912N00807036EA0201002099
B0847184624918N00807032EA0201102100
B0847194624924N00807031EA0201202101
B0847204624930N00807032EA0201302102
B0847214624935N00807035EA0201502104
B0847224624940N00807038EA0201602105
B0847234624944N00807043EA0201702105
B0847244624949N00807050EA0201802106
B0847254624950N00807058EA0201902108
B0847264624950N00807065EA0202002109
B0847274624947N00807071EA0202002109
B0847284624943N00807074EA0202102110
B0847294624938N00807073EA0202102110
B0847304624933N00807067EA0202202111
B0847314624932N00807058EA0202202111
B0847324624933N00807049EA0202302112
B0847334624937N00807041EA0202402113
B0847344624943N00807035EA0202602115
B0847354624949N00807033EA0202702116
B0847364624956N00807033EA0202702116
B0847374624962N00807036EA0202802117
B0847384624968N00807041EA0203102119
B0847394624971N00807046EA0203302121
B0847404624974N00807052EA0203402123
B0847414624974N00807058EA0203502124
B0847424624972N00807064EA0203602125
B0847434624968N00807069EA0203602125
B0847444624965N00807071EA0203802126
B0847454624960N00807070EA0203902128
B0847464624956N00807066EA0204002129
B0847474624954N00807059EA0204002129
B0847484624954N00807051EA0204102130
B0847494624955N00807042EA0204202130
B0847504624956N00807034EA0204302132
B0847514624959N00807027EA0204502133
B0847524624965N00807023EA0204502134
B0847534624971N00807021EA0204502134
B0847544624977N00807022EA0204502134
B0847554624982N00807027EA0204602135
B0847564624985N00807034EA0204702135
B0847574624985N00807041EA0204702136
B0847584624982N00807047EA0204702136
B0847594624978N00807052EA0204902137
B0848004624974N00807053EA0204902138
B0848014624969N00807052EA0205002139
B0848024624965N00807047EA0205002139
B0848034624963N00807039EA0205102140
B0848044624964N00807030EA0205202141
B0848054624966N00807023EA0205302142
B0848064624971N00807017EA0205402143
B0848074624978N00807015EA0205502143
B0848084624984N00807015EA0205602145
B0848094624990N00807018EA0205702146
B0848104624994N00807023EA0205802147
B0848114624997N00807030EA0205902148
B0848124624999N00807037EA0206002149
B0848134625000N00807044EA0206202151
B0848144625001N00807050EA0206402152
B0848154624999N00807056EA0206402153
B0848164624996N00807060EA0206402153
B0848174624991N00807063EA0206402153
B0848184624987N00807063EA0206402153
B0848194624982N00807059EA0206502154
B0848204624980N00807053EA0206502154
B0848214624979N00807045EA0206502154
B0848224624980N00807036EA0206502154
B0848234624983N00807029EA0206602154
B0848244624988N00807023EA0206602155
B0848254624994N00807019EA0206602155
B0848264625001N00807020EA0206802157
B0848274625006N00807024EA0206902158
B0848284625010N00807030EA0207002158
B0848294625011N00807038EA0206902158
B0848304625009N00807044EA0207002159
B0848314625005N00807048EA0207002158
B0848324625001N00807047EA0206902158
B0848334624996N00807042EA0206902158
B0848344624993N00807035EA0207002159
B0848354624992N00807028EA0207102160
B0848364624991N00807021EA0207202160
B0848374624992N00807013EA0207202161
B0848384624995N00807006EA0207302161
B0848394625000N00807000EA0207202161
B0848404625007N00806996EA0207202161
B0848414625014N00806997EA0207302162
B0848424625021N00807002EA0207502163
B0848434625025N00807009EA0207702166
B0848444625027N00807015EA0207902168
B0848454625028N00807020EA0208102170
B0848464625028N00807024EA0208202171
B0848474625025N00807028EA0208202171
B0848484625022N00807029EA0208002169
B0848494625018N00807029EA0207902168
B0848504625013N00807024EA0207802167
B0848514625011N00807017EA0207802167
B0848524625011N00807008EA0207802167
B0848534625013N00806999EA0207902167
B0848544625017N00806992EA0208002169
B0848554625022N00806986EA0208202171
B0848564625028N00806983EA0208302172
B0848574625034N00806982EA0208502174
B0848584625040N00806983EA0208602175
B0848594625045N00806987EA0208602175
B0849004625048N00806993EA0208502174
B0849014625050N00806999EA0208502174
B0849024625049N00807006EA0208502174
B0849034625047N00807010EA0208402173
B0849044625042N00807012EA0208402173
B0849054625038N00807012EA0208502174
B0849064625034N00807008EA0208502174
B0849074625030N00807003EA0208602175
B0849084625028N00806997EA0208702176
B0849094625028N00806990EA0208702176
B0849104625028N00806981EA0208702176
B0849114625032N00806973EA0208702176
B0849124625038N00806967EA0208702176
B0849134625046N00806964EA0208702176
B0849144625052N00806964EA0208802177
B0849154625058N00806968EA0208902178
B0849164625062N00806973EA0209002179
B0849174625062N00806980EA0209002179
B0849184625060N00806985EA0209002179
B0849194625056N00806988EA0209102180
B0849204625051N00806988EA0209102180
B0849214625047N00806985EA0209302182
B0849224625045N00806978EA0209402183
B0849234625044N00806970EA0209402183
B0849244625046N00806961EA0209402183
B0849254625050N00806952EA0209602184
B0849264625055N00806946EA0209602185
B0849274625062N00806943EA0209602185
B0849284625069N00806943EA0209702186
B0849294625074N00806947EA0209702186
B0849304625078N00806953EA0209802187
B0849314625078N00806961EA0210002188
B0849324625076N00806967EA0210102190
B0849334625073N00806969EA0210102190
B0849344625068N00806967EA0210202191
B0849354625064N00806963EA0210302192
B0849364625061N00806958EA0210502194
B0849374625059N00806952EA0210702195
B0849384625058N00806945EA0210702196
B0849394625059N00806936EA0210702196
B0849404625062N00806928EA0210602195
B0849414625067N00806920EA0210502194
B0849424625074N00806916EA0210602195
B0849434625081N00806916EA0210702196
B0849444625087N00806921EA0210802197
B0849454625090N00806928EA0211002199
B0849464625090N00806934EA0211202201
B0849474625087N00806938EA0211402203
B0849484625083N00806939EA0211502204
B0849494625079N00806938EA0211602205
B0849504625075N00806934EA0211802207
B0849514625073N00806928EA0211902208
B0849524625071N00806921EA0211902208
B0849534625072N00806912EA0211902208
B0849544625075N00806903EA0211902208
B0849554625081N00806895EA0211902208
B0849564625087N00806890EA0212102210
B0849574625094N00806889EA0212202211
B0849584625100N00806892EA0212302212
B0849594625104N00806898EA0212502214
B0850004625105N00806904EA0212702216
B0850014625104N00806909EA0212802217
B0850024625100N00806911EA0213002219
B0850034625096N00806910EA0213002219
B0850044625092N00806906EA0213102220
B0850054625088N00806900EA0213302222
B0850064625087N00806892EA0213502224
B0850074625087N00806882EA0213702226
B0850084625090N00806873EA0213802227
B0850094625094N00806865EA0214002229
B0850104625099N00806860EA0214102230
B0850114625105N00806857EA0214202231
B0850124625112N00806859EA0214202231
B0850134625116N00806865EA0214302232
B0850144625118N00806871EA0214502234
B0850154625117N00806877EA0214702236
B0850164625113N00806879EA0214802237
B0850174625109N00806879EA0215002239
B0850184625104N00806877EA0215302242
B0850194625100N00806871EA0215502245
B0850204625098N00806864EA0215702246
B0850214625099N00806855EA0215802247
B0850224625101N00806845EA0215902249
B0850234625105N00806837EA0216102250
B0850244625111N00806832EA0216202252
B0850254625118N00806831EA0216302252
B0850264625124N00806835EA0216302252
B0850274625128N00806841EA0216302253
B0850284625129N00806848EA0216502254
B0850294625126N00806854EA0216602256
B0850304625122N00806856EA0216702257
B0850314625117N00806854EA0216902259
B0850324625112N00806848EA0217202262
B0850334625110N00806839EA0217502265
B0850344625110N00806829EA0217802268
B0850354625113N00806819EA0218002270
B0850364625117N00806812EA0218102271
B0850374625124N00806806EA0218302273
B0850384625130N00806804EA0218402274
B0850394625136N00806806EA0218502275
B0850404625141N00806811EA0218402274
B0850414625142N00806819EA0218302273
B0850424625140N00806825EA0218302273
B0850434625135N00806829EA0218402273
B0850444625130N00806828EA0218602276
B0850454625125N00806824EA0218902279
B0850464625122N00806816EA0219202283
B0850474625121N00806807EA0219602286
B0850484625122N00806798EA0219802288
B0850494625125N00806788EA0219902290
B0850504625130N00806781EA0220202292
B0850514625136N00806776EA0220302294
B0850524625142N00806775EA0220402294
B0850534625147N00806778EA0220402294
B0850544625152N00806783EA0220302294
B0850554625154N00806790EA0220302294
B0850564625153N00806796EA0220302293
B0850574625150N00806802EA0220402294
B0850584625145N00806804EA0220602296
B0850594625140N00806804EA0220802299
B0851004625136N00806803EA0221102302
B0851014625132N00806801EA0221402305
B0851024625129N00806800EA0221602307
B0851034625125N00806799EA0221802308
B0851044625121N00806796EA0222002310
B0851054625117N00806793EA0222202312
B0851064625113N00806789EA0222502315
B0851074625110N00806786EA0222702318
B0851084625107N00806782EA0222802319
B0851094625105N00806778EA0222902320
B0851104625102N00806772EA0222902320
B0851114625100N00806763EA0222902320
B0851124625101N00806752EA0222802319
B0851134625105N00806743EA0222702318
B0851144625111N00806737EA0222802319
B0851154625118N00806735EA0222802319
B0851164625124N00806738EA0222902319
B0851174625128N00806744EA0222902320
B0851184625129N00806751EA0223102321
B0851194625128N00806758EA0223202322
B0851204625125N00806763EA0223402325
B0851214625122N00806765EA0223602327
B0851224625118N00806763EA0223802329
B0851234625114N00806758EA0223802329
B0851244625111N00806750EA0223802329
B0851254625110N00806740EA0223902330
B0851264625112N00806731EA0224002331
B0851274625117N00806724EA0224002331
B0851284625123N00806720EA0224002331
B0851294625129N00806719EA0224102332
B0851304625135N00806722EA0224202333
B0851314625139N00806727EA0224302334
B0851324625141N00806732EA0224402335
B0851334625141N00806738EA0224502337
B0851344625139N00806743EA0224602338
B0851354625136N00806746EA0224702339
B0851364625132N00806747EA0224802339
B0851374625127N00806745EA0225002341
B0851384625123N00806740EA0225102342
B0851394625120N00806733EA0225202343
B0851404625119N00806725EA0225302344
B0851414625120N00806716EA0225302345
B0851424625123N00806707EA0225402346
B0851434625128N00806701EA0225402346
B0851444625134N00806697EA0225502346
B0851454625141N00806697EA0225502346
B0851464625146N00806701EA0225602348
B0851474625150N00806706EA0225702349
B0851484625150N00806713EA0225902351
B0851494625148N00806717EA0226002351
B0851504625144N00806719EA0226002352
B0851514625139N00806717EA0226002352
B0851524625134N00806712EA0226102353
B0851534625132N00806704EA0226302354
B0851544625132N00806695EA0226302355
B0851554625135N00806686EA0226402355
B0851564625140N00806679EA0226502356
B0851574625146N00806675EA0226602358
B0851584625153N00806675EA0226802360
B0851594625157N00806679EA0226902361
B0852004625160N00806686EA0227002362
B0852014625159N00806693EA0227002362
B0852024625155N00806698EA0227102363
B0852034625150N00806700EA0227202364
B0852044625145N00806698EA0227402366
B0852054625141N00806693EA0227602368
B0852064625139N00806687EA0227702369
B0852074625139N00806679EA0227802370
B0852084625141N00806670EA0227902371
B0852094625144N00806662EA0228002372
B0852104625150N00806656EA0228102373
B0852114625157N00806655EA0228002372
B0852124625162N00806660EA0227902371
B0852134625165N00806667EA0227902371
B0852144625164N00806675EA0228102373
B0852154625161N00806679EA0228302375
B0852164625157N00806680EA0228402376
B0852174625152N00806678EA0228502377
B0852184625147N00806674EA0228502377
B0852194625144N00806667EA0228602378
B0852204625142N00806659EA0228602379
B0852214625142N00806650EA0228702380
B0852224625145N00806642EA0228702380
B0852234625151N00806637EA0228702380
B0852244625157N00806635EA0228702379
B0852254625163N00806639EA0228702379
B0852264625166N00806646EA0228602379
B0852274625164N00806653EA0228602378
B0852284625159N00806658EA0228502378
B0852294625153N00806659EA0228602379
B0852304625147N00806658EA0228902381
B0852314625142N00806656EA0229102383
B0852324625138N00806654EA0229202384
B0852334625134N00806652EA0229202384
B0852344625129N00806650EA0229202385
B0852354625124N00806646EA0229302386
B0852364625120N00806639EA0229402387
B0852374625117N00806630EA0229402387
B0852384625118N00806620EA0229502388
B0852394625121N00806611EA0229502388
B0852404625127N00806606EA0229502388
B0852414625134N00806606EA0229502388
B0852424625139N00806611EA0229502388
B0852434625142N00806619EA0229602389
B0852444625141N00806627EA0229702390
B0852454625138N00806633EA0229902392
B0852464625133N00806637EA0230102394
B0852474625128N00806640EA0230302396
B0852484625124N00806642EA0230402397
B0852494625119N00806644EA0230702400
B0852504625115N00806645EA0230902402
B0852514625110N00806645EA0231002404
B0852524625107N00806643EA0231202405
B0852534625102N00806640EA0231202406
B0852544625098N00806635EA0231302406
B0852554625096N00806627EA0231202406
B0852564625095N00806618EA0231102405
B0852574625098N00806609EA0231002403
B0852584625104N00806603EA0230902402
B0852594625110N00806602EA0230902402
B0853004625115N00806605EA0230802402
B0853014625118N00806612EA0230902402
B0853024625117N00806619EA0231002403
B0853034625114N00806625EA0231102404
B0853044625110N00806629EA0231302406
B0853054625106N00806632EA0231502408
B0853064625101N00806633EA0231502409
B0853074625097N00806634EA0231602410
B0853084625092N00806635EA0231602410
B0853094625087N00806635EA0231702411
B0853104625082N00806635EA0231802412
B0853114625078N00806633EA0232002414
B0853124625074N00806629EA0232102415
B0853134625071N00806623EA0232202416
B0853144625069N00806615EA0232202416
B0853154625070N00806606EA0232202416
B0853164625074N00806597EA0232202416
B0853174625080N00806592EA0232202416
B0853184625087N00806592EA0232202416
B0853194625092N00806597EA0232202416
B0853204625095N00806604EA0232402417
B0853214625096N00806612EA0232602420
B0853224625095N00806617EA0232802422
B0853234625093N00806621EA0232902423
B0853244625089N00806623EA0233002424
B0853254625085N00806624EA0233002425
B0853264625081N00806626EA0233102425
B0853274625078N00806628EA0233202426
B0853284625075N00806631EA0233302427
B0853294625071N00806633EA0233402428
B0853304625067N00806633EA0233402428
B0853314625062N00806632EA0233402428
B0853324625058N00806627EA0233502429
B0853334625054N00806620EA0233502429
B0853344625053N00806610EA0233502430
B0853354625056N00806600EA0233602430
B0853364625062N00806593EA0233602430
B0853374625069N00806590EA0233602431
B0853384625075N00806593EA0233702431
B0853394625078N00806599EA0233802432
B0853404625078N00806606EA0233802432
B0853414625076N00806613EA0233902433
B0853424625073N00806618EA0234002435
B0853434625069N00806620EA0234102436
B0853444625063N00806620EA0234102436
B0853454625059N00806615EA0234202436
B0853464625055N00806608EA0234102436
B0853474625053N00806599EA0234202437
B0853484625054N00806589EA0234302438
B0853494625058N00806581EA0234402439
B0853504625063N00806576EA0234502439
B0853514625070N00806575EA0234402439
B0853524625076N00806577EA0234502440
B0853534625080N00806582EA0234602441
B0853544625083N00806588EA0234802443
B0853554625084N00806594EA0235002445
B0853564625082N00806600EA0235102446
B0853574625078N00806603EA0235202447
B0853584625074N00806604EA0235402449
B0853594625069N00806601EA0235602451
B0854004625066N00806594EA0235702452
B0854014625064N00806586EA0235902454
B0854024625065N00806576EA0235902454
B0854034625069N00806568EA0235902455
B0854044625074N00806564EA0235902454
B0854054625081N00806563EA0235802454
B0854064625087N00806565EA0235902454
B0854074625092N00806568EA0236102456
B0854084625097N00806573EA0236202458
B0854094625099N00806579EA0236402459
B0854104625099N00806585EA0236502460
B0854114625095N00806589EA0236402460
B0854124625090N00806589EA0236402460
B0854134625084N00806584EA0236502461
B0854144625081N00806575EA0236802464
B0854154625079N00806566EA0237302468
B0854164625079N00806558EA0237702472
B0854174625081N00806552EA0237902475
B0854184625083N00806547EA0238002475
B0854194625087N00806542EA0238002475
B0854204625092N00806537EA0237902475
B0854214625099N00806533EA0237902474
B0854224625106N00806533EA0237902474
B0854234625112N00806537EA0237902475
B0854244625116N00806544EA0238002476
B0854254625117N00806551EA0238002476
B0854264625115N00806557EA0238102477
B0854274625110N00806559EA0238202478
B0854284625106N00806558EA0238202478
B0854294625101N00806552EA0238402480
B0854304625097N00806545EA0238602482
B0854314625095N00806535EA0238902484
B0854324625096N00806525EA0239102486
B0854334625099N00806516EA0239102487
B0854344625104N00806508EA0239202488
B0854354625110N00806503EA0239302489
B0854364625117N00806502EA0239302489
B0854374625123N00806506EA0239202488
B0854384625126N00806512EA0239202488
B0854394625126N00806520EA0239202488
B0854404625124N00806526EA0239202488
B0854414625120N00806529EA0239302489
B0854424625114N00806529EA0239402491
B0854434625109N00806526EA0239602492
B0854444625104N00806521EA0239902495
B0854454625100N00806516EA0240102497
B0854464625096N00806510EA0240302499
B0854474625093N00806503EA0240502501
B0854484625092N00806494EA0240702503
B0854494625092N00806484EA0240902505
B0854504625094N00806474EA0240902506
B0854514625100N00806467EA0240902505
B0854524625107N00806464EA0240802504
B0854534625114N00806467EA0240802504
B0854544625118N00806473EA0240802505
B0854554625119N00806481EA0240902505
B0854564625117N00806487EA0241102508
B0854574625113N00806491EA0241302510
B0854584625109N00806490EA0241402511
B0854594625103N00806486EA0241402511
B0855004625098N00806478EA0241602512
B0855014625097N00806467EA0241702514
B0855024625097N00806457EA0241902516
B0855034625098N00806448EA0242102518
B0855044625100N00806440EA0242302520
B0855054625102N00806432EA0242402521
B0855064625105N00806424EA0242502522
B0855074625110N00806418EA0242502522
B0855084625118N00806414EA0242502522
B0855094625125N00806414EA0242602522
B0855104625130N00806419EA0242502522
B0855114625132N00806426EA0242502522
B0855124625131N00806433EA0242502522
B0855134625128N00806438EA0242602523
B0855144625123N00806440EA0242702524
B0855154625118N00806438EA0242902526
B0855164625114N00806431EA0242902527
B0855174625111N00806422EA0243002527
B0855184625111N00806412EA0243102528
B0855194625113N00806402EA0243302530
B0855204625116N00806394EA0243502532
B0855214625121N00806387EA0243602533
B0855224625127N00806384EA0243602533
B0855234625134N00806385EA0243602534
B0855244625139N00806389EA0243602533
B0855254625142N00806396EA0243602533
B0855264625143N00806403EA0243602533
B0855274625141N00806410EA0243602533
B0855284625138N00806415EA0243602534
B0855294625134N00806417EA0243702534
B0855304625128N00806417EA0243802536
B0855314625124N00806414EA0244002538
B0855324625119N00806410EA0244202540
B0855334625115N00806406EA0244402542
B0855344625111N00806403EA0244702544
B0855354625107N00806400EA0244802546
B0855364625104N00806396EA0245002547
B0855374625101N00806391EA0245002547
B0855384625099N00806383EA0244902546
B0855394625099N00806373EA0244802546
B0855404625102N00806364EA0244702544
B0855414625108N00806357EA0244502543
B0855424625115N00806355EA0244402541
B0855434625121N00806357EA0244302541
B0855444625126N00806363EA0244402542
B0855454625130N00806368EA0244602544
B0855464625134N00806373EA0244702545
B0855474625138N00806377EA0244702545
B0855484625142N00806381EA0244702545
B0855494625148N00806385EA0244702545
B0855504625153N00806389EA0244802546
B0855514625158N00806393EA0244802546
B0855524625162N00806398EA0244802546
B0855534625166N00806402EA0244702545
B0855544625171N00806407EA0244702545
B0855554625175N00806411EA0244702545
B0855564625179N00806416EA0244602544
B0855574625183N00806420EA0244602544
B0855584625187N00806423EA0244502544
B0855594625191N00806426EA0244502543
B0856004625196N00806429EA0244402542
B0856014625201N00806433EA0244202541
B0856024625206N00806437EA0244102540
B0856034625210N00806441EA0244102539
B0856044625215N00806445EA0244102539
B0856054625220N00806448EA0244202540
B0856064625225N00806451EA0244202540
B0856074625230N00806454EA0244102540
B0856084625235N00806457EA0244102540
B0856094625239N00806461EA0244202541
B0856104625244N00806464EA0244302541
B0856114625249N00806468EA0244302542
B0856124625253N00806472EA0244402542
B0856134625256N00806476EA0244302541
B0856144625261N00806480EA0244102540
B0856154625265N00806485EA0244102540
B0856164625269N00806490EA0244202541
B0856174625273N00806495EA0244202541
B0856184625277N00806500EA0244302541
B0856194625282N00806505EA0244302541
B0856204625286N00806509EA0244302541
B0856214625291N00806513EA0244202540
B0856224625296N00806518EA0244102539
B0856234625301N00806523EA0243902538
B0856244625307N00806528EA0243802537
B0856254625312N00806533EA0243702535
B0856264625317N00806538EA0243502534
B0856274625321N00806544EA0243302532
B0856284625326N00806550EA0243202530
B0856294625331N00806555EA0243102529
B0856304625335N00806561EA0242902528
B0856314625340N00806566EA0242802527
B0856324625344N00806571EA0242602525
B0856334625349N00806576EA0242402523
B0856344625354N00806582EA0242202521
B0856354625359N00806588EA0242102519
B0856364625364N00806593EA0241902518
B0856374625368N00806599EA0241802517
B0856384625373N00806604EA0241702516
B0856394625377N00806610EA0241602515
B0856404625381N00806615EA0241402513
B0856414625385N00806621EA0241202511
B0856424625390N00806626EA0241002509
B0856434625394N00806631EA0240802507
B0856444625399N00806636EA0240602505
B0856454625404N00806641EA0240502504
B0856464625408N00806646EA0240302502
B0856474625413N00806650EA0240102500
B0856484625418N00806655EA0239902498
B0856494625423N00806660EA0239802496
B0856504625428N00806665EA0239602494
B0856514625434N00806670EA0239402493
B0856524625438N00806675EA0239402492
B0856534625443N00806680EA0239202491
B0856544625448N00806684EA0239102490
B0856554625453N00806690EA0238902488
B0856564625458N00806695EA0238802487
B0856574625463N00806701EA0238602485
B0856584625467N00806707EA0238502484
B0856594625472N00806713EA0238402483
B0857004625476N00806719EA0238402482
B0857014625480N00806724EA0238302482
B0857024625484N00806730EA0238202481
B0857034625488N00806735EA0238102480
B0857044625493N00806741EA0237902478
B0857054625497N00806746EA0237802476
B0857064625502N00806751EA0237602475
B0857074625506N00806758EA0237502473
B0857084625511N00806763EA0237302472
B0857094625515N00806769EA0237202471
B0857104625519N00806775EA0237102470
B0857114625524N00806781EA0236902468
B0857124625528N00806786EA0236702466
B0857134625533N00806792EA0236602465
B0857144625538N00806798EA0236502464
B0857154625543N00806803EA0236502463
B0857164625549N00806808EA0236402463
B0857174625554N00806813EA0236402463
B0857184625559N00806818EA0236302461
B0857194625564N00806822EA0236202460
B0857204625570N00806827EA0236102460
B0857214625575N00806832EA0236102459
B0857224625581N00806837EA0236002459
B0857234625586N00806842EA0236002458
B0857244625592N00806847EA0236002458
B0857254625597N00806851EA0235902458
B0857264625602N00806856EA0235902457
B0857274625608N00806862EA0235902458
B0857284625614N00806867EA0236002459
B0857294625620N00806872EA0236202461
B0857304625625N00806876EA0236402463
B0857314625630N00806880EA0236602465
B0857324625635N00806884EA0236702466
B0857334625639N00806887EA0236802467
B0857344625645N00806890EA0237002468
B0857354625651N00806892EA0237102470
B0857364625657N00806892EA0237302472
B0857374625663N00806888EA0237302472
B0857384625668N00806882EA0237302472
B0857394625672N00806873EA0237302471
B0857404625675N00806864EA0237302472
B0857414625675N00806854EA0237402473
B0857424625674N00806846EA0237502474
B0857434625671N00806838EA0237702475
B0857444625666N00806833EA0237802477
B0857454625661N00806830EA0238002479
B0857464625657N00806830EA0238202481
B0857474625653N00806833EA0238502483
B0857484625651N00806837EA0238602485
B0857494625649N00806841EA0238702486
B0857504625649N00806846EA0238802487
B0857514625650N00806852EA0238802487
B0857524625652N00806859EA0238802486
B0857534625656N00806866EA0238902488
B0857544625660N00806873EA0239202490
B0857554625662N00806878EA0239402493
B0857564625666N00806883EA0239602495
B0857574625669N00806887EA0239602494
B0857584625673N00806891EA0239502494
B0857594625678N00806895EA0239302492
B0858004625684N00806898EA0239202491
B0858014625689N00806902EA0239202490
B0858024625692N00806909EA0239002489
B0858034625695N00806916EA0238902487
B0858044625698N00806924EA0238702486
B0858054625701N00806932EA0238702485
B0858064625705N00806940EA0238702486
B0858074625709N00806947EA0238902488
B0858084625712N00806954EA0239102490
B0858094625715N00806960EA0239202490
B0858104625719N00806966EA0239202491
B0858114625722N00806972EA0239202490
B0858124625726N00806979EA0239102490
B0858134625729N00806987EA0239002489
B0858144625732N00806994EA0239002489
B0858154625735N00807000EA0239002489
B0858164625738N00807007EA0239102489
B0858174625740N00807015EA0239202490
B0858184625742N00807022EA0239202491
B0858194625744N00807029EA0239302492
B0858204625746N00807035EA0239302492
B0858214625749N00807041EA0239302492
B0858224625752N00807048EA0239202491
B0858234625755N00807055EA0239302492
B0858244625757N00807062EA0239202491
B0858254625759N00807069EA0239202490
B0858264625762N00807077EA0239102489
B0858274625765N00807084EA0239002489
B0858284625767N00807092EA0238902488
B0858294625768N00807100EA0238802487
B0858304625770N00807108EA0238702485
B0858314625772N00807117EA0238602484
B0858324625774N00807126EA0238502484
B0858334625777N00807135EA0238502484
B0858344625779N00807143EA0238502484
B0858354625781N00807151EA0238502484
B0858364625783N00807158EA0238402483
B0858374625785N00807165EA0238202481
B0858384625787N00807174EA0238002479
B0858394625790N00807183EA0237602475
B0858404625793N00807194EA0237302472
B0858414625796N00807204EA0237202470
B0858424625799N00807214EA0237202470
B0858434625801N00807224EA0237102470
B0858444625803N00807233EA0237002469
B0858454625805N00807241EA0236902468
B0858464625807N00807249EA0236602465
B0858474625809N00807259EA0236302461
B0858484625811N00807269EA0236002458
B0858494625813N00807280EA0235802457
B0858504625816N00807290EA0235802457
B0858514625818N00807299EA0235802457
B0858524625821N00807308EA0235802456
B0858534625822N00807317EA0235702456
B0858544625825N00807326EA0235502453
B0858554625827N00807335EA0235302452
B0858564625830N00807345EA0235202450
B0858574625831N00807355EA0235102449
B0858584625833N00807365EA0235002448
B0858594625835N00807375EA0234902447
B0859004625836N00807385EA0234802446
B0859014625838N00807394EA0234702445
B0859024625840N00807404EA0234602444
B0859034625841N00807414EA0234402443
B0859044625843N00807425EA0234302442
B0859054625845N00807435EA0234202441
B0859064625846N00807445EA0234202441
B0859074625847N00807455EA0234102439
B0859084625849N00807464EA0234002439
B0859094625851N00807474EA0233902438
B0859104625853N00807484EA0233802437
B0859114625854N00807494EA0233702435
B0859124625856N00807504EA0233502434
B0859134625859N00807514EA0233402432
B0859144625861N00807525EA0233302432
B0859154625863N00807535EA0233302431
B0859164625866N00807544EA0233202431
B0859174625868N00807553EA0233202430
B0859184625869N00807563EA0233102429
B0859194625871N00807572EA0233002428
B0859204625872N00807581EA0232802427
B0859214625873N00807590EA0232702425
B0859224625874N00807599EA0232502424
B0859234625876N00807608EA0232302422
B0859244625878N00807618EA0232102419
B0859254625879N00807628EA0231902418
B0859264625880N00807638EA0231702416
B0859274625882N00807648EA0231602414
B0859284625883N00807658EA0231502413
B0859294625885N00807668EA0231402412
B0859304625887N00807677EA0231302411
B0859314625888N00807686EA0231102409
B0859324625890N00807696EA0230902407
B0859334625891N00807706EA0230702405
B0859344625893N00807715EA0230502403
B0859354625896N00807725EA0230402402
B0859364625898N00807735EA0230202400
B0859374625899N00807744EA0230102399
B0859384625901N00807754EA0230002398
B0859394625902N00807763EA0229802396
B0859404625904N00807772EA0229602394
B0859414625906N00807782EA0229402392
B0859424625908N00807791EA0229202390
B0859434625909N00807801EA0229002388
B0859444625910N00807811EA0228902386
B0859454625912N00807821EA0228802386
B0859464625913N00807830EA0228702385
B0859474625914N00807839EA0228502383
B0859484625916N00807848EA0228302381
B0859494625917N00807857EA0228102378
B0859504625919N00807867EA0227902376
B0859514625921N00807876EA0227702374
B0859524625922N00807886EA0227502373
B0859534625924N00807895EA0227302371
B0859544625926N00807904EA0227202369
B0859554625927N00807913EA0227002367
B0859564625928N00807923EA0226702365
B0859574625930N00807932EA0226502362
B0859584625932N00807942EA0226302360
B0859594625934N00807952EA0226102359
B0900004625935N00807961EA0226002357
B0900014625937N00807971EA0225802356
B0900024625938N00807980EA0225702354
B0900034625940N00807990EA0225502353
B0900044625942N00807999EA0225402351
B0900054625943N00808009EA0225302350
B0900064625944N00808018EA0225202349
B0900074625946N00808027EA0225102348
B0900084625947N00808036EA0224902346
B0900094625949N00808045EA0224702344
B0900104625952N00808055EA0224602343
B0900114625955N00808065EA0224502342
B0900124625958N00808074EA0224302340
B0900134625960N00808083EA0224102337
B0900144625964N00808092EA0223902336
B0900154625967N00808102EA0223702334
B0900164625970N00808110EA0223402331
B0900174625974N00808120EA0223102328
B0900184625977N00808129EA0222902326
B0900194625980N00808138EA0222702323
B0900204625983N00808148EA0222502322
B0900214625986N00808158EA0222302320
B0900224625989N00808167EA0222202319
B0900234625991N00808176EA0222102318
B0900244625994N00808185EA0222002316
B0900254625996N00808193EA0221802314
B0900264625998N00808202EA0221502312
B0900274626001N00808211EA0221202309
B0900284626003N00808221EA0221002307
B0900294626006N00808230EA0220902306
B0900304626007N00808239EA0220702304
B0900314626010N00808248EA0220602303
B0900324626012N00808257EA0220502301
B0900334626014N00808266EA0220302300
B0900344626016N00808275EA0220202298
B0900354626017N00808284EA0220002296
B0900364626019N00808293EA0219902295
B0900374626020N00808302EA0219702293
B0900384626022N00808310EA0219502291
B0900394626023N00808320EA0219302289
B0900404626025N00808329EA0219002287
B0900414626027N00808340EA0218802284
B0900424626029N00808350EA0218602282
B0900434626031N00808360EA0218502281
B0900444626032N00808370EA0218402281
B0900454626034N00808379EA0218302280
B0900464626036N00808389EA0218202278
B0900474626038N00808398EA0217902275
B0900484626040N00808409EA0217702273
B0900494626042N00808419EA0217602272
B0900504626044N00808430EA0217502271
B0900514626047N00808440EA0217402270
B0900524626049N00808450EA0217402270
B0900534626051N00808459EA0217302269
B0900544626053N00808469EA0217102267
B0900554626055N00808479EA0216902265
B0900564626057N00808490EA0216702263
B0900574626059N00808500EA0216602262
B0900584626061N00808511EA0216502261
B0900594626064N00808521EA0216502261
B0901004626066N00808531EA0216502261
B0901014626068N00808540EA0216302259
B0901024626070N00808550EA0216202258
B0901034626072N00808559EA0215802254
B0901044626076N00808569EA0215602252
B0901054626079N00808579EA0215502250
B0901064626081N00808589EA0215402250
B0901074626083N00808598EA0215302249
B0901084626085N00808607EA0215302248
B0901094626087N00808615EA0215002246
B0901104626090N00808623EA0214802244
B0901114626092N00808633EA0214602242
B0901124626094N00808643EA0214302239
B0901134626095N00808654EA0214202238
B0901144626096N00808665EA0214202238
B0901154626098N00808675EA0214102237
B0901164626101N00808684EA0214002236
B0901174626103N00808694EA0213802234
B0901184626105N00808703EA0213602232
B0901194626107N00808712EA0213402230
B0901204626109N00808722EA0213202227
B0901214626112N00808732EA0213002226
B0901224626114N00808741EA0212802224
B0901234626115N00808750EA0212602222
B0901244626117N00808760EA0212402220
B0901254626119N00808769EA0212102217
B0901264626120N00808779EA0211902214
B0901274626122N00808789EA0211702213
B0901284626123N00808800EA0211502211
B0901294626124N00808810EA0211302209
B0901304626125N00808819EA0211102207
B0901314626126N00808829EA0211002206
B0901324626127N00808839EA0210702203
B0901334626128N00808850EA0210402200
B0901344626130N00808860EA0210202198
B0901354626131N00808871EA0210002196
B0901364626132N00808882EA0209902195
B0901374626134N00808892EA0209802193
B0901384626135N00808902EA0209702192
B0901394626137N00808912EA0209402190
B0901404626137N00808922EA0209202187
B0901414626138N00808933EA0208902184
B0901424626139N00808944EA0208602182
B0901434626140N00808955EA0208502180
B0901444626140N00808965EA0208302179
B0901454626140N00808975EA0208202177
B0901464626141N00808985EA0208002175
B0901474626142N00808995EA0207702172
B0901484626143N00809006EA0207502170
B0901494626143N00809018EA0207202167
B0901504626144N00809029EA0207102166
B0901514626144N00809041EA0207002165
B0901524626144N00809052EA0206902164
B0901534626145N00809063EA0206802163
B0901544626145N00809073EA0206702162
B0901554626145N00809084EA0206502160
B0901564626145N00809095EA0206302158
B0901574626145N00809107EA0206102156
B0901584626146N00809119EA0206002155
B0901594626146N00809130EA0206002154
B0902004626147N00809141EA0205902154
B0902014626148N00809152EA0205802153
B0902024626148N00809163EA0205802153
B0902034626149N00809174EA0205702152
B0902044626150N00809185EA0205602151
B0902054626150N00809196EA0205502149
B0902064626150N00809207EA0205402148
B0902074626151N00809219EA0205302148
B0902084626152N00809229EA0205202147
B0902094626152N00809240EA0205202146
B0902104626153N00809251EA0205102146
B0902114626153N00809263EA0205002145
B0902124626154N00809274EA0205002145
B0902134626155N00809285EA0205002145
B0902144626155N00809296EA0205102145
B0902154626156N00809307EA0205102146
B0902164626156N00809317EA0205202146
B0902174626157N00809328EA0205102146
B0902184626157N00809338EA0205102146
B0902194626158N00809349EA0205102146
B0902204626158N00809359EA0205202146
B0902214626159N00809368EA0205302147
B0902224626159N00809376EA0205302148
B0902234626160N00809384EA0205302147
B0902244626161N00809392EA0205202146
B0902254626161N00809401EA0205102145
B0902264626162N00809410EA0205002144
B0902274626163N00809419EA0204902144
B0902284626164N00809427EA0205002144
B0902294626166N00809435EA0205002145
B0902304626167N00809442EA0205002144
B0902314626168N00809449EA0204902143
B0902324626169N00809457EA0204702141
B0902334626169N00809465EA0204502139
B0902344626170N00809474EA0204302137
B0902354626171N00809483EA0204202136
B0902364626171N00809492EA0204102135
B0902374626171N00809501EA0204102135
B0902384626171N00809509EA0204002134
B0902394626171N00809518EA0203902133
B0902404626172N00809526EA0203802132
B0902414626172N00809534EA0203602130
B0902424626172N00809544EA0203502129
B0902434626171N00809553EA0203402128
B0902444626172N00809562EA0203302127
B0902454626172N00809572EA0203302126
B0902464626172N00809581EA0203202126
B0902474626172N00809590EA0203202125
B0902484626172N00809600EA0203102125
B0902494626172N00809609EA0203102124
B0902504626172N00809619EA0203102124
B0902514626172N00809629EA0203102124
B0902524626171N00809638EA0203102124
B0902534626171N00809647EA0203102124
B0902544626171N00809656EA0203002123
B0902554626172N00809665EA0202802122
B0902564626172N00809675EA0202702120
B0902574626173N00809685EA0202602119
B0902584626174N00809696EA0202602119
B0902594626174N00809706EA0202702120
B0903004626175N00809715EA0202802121
B0903014626176N00809723EA0202802121
B0903024626176N00809732EA0202702121
B0903034626177N00809741EA0202702120
B0903044626178N00809751EA0202602119
B0903054626180N00809760EA0202502118
B0903064626181N00809770EA0202502118
B0903074626182N00809779EA0202502118
B0903084626183N00809787EA0202402118
B0903094626183N00809796EA0202302117
B0903104626184N00809805EA0202202115
B0903114626184N00809814EA0202002113
B0903124626185N00809824EA0201802111
B0903134626185N00809834EA0201702110
B0903144626185N00809844EA0201502108
B0903154626185N00809854EA0201402107
B0903164626185N00809863EA0201202105
B0903174626185N00809872EA0201002103
B0903184626187N00809882EA0200702100
B0903194626188N00809892EA0200502098
B0903204626189N00809903EA0200402096
B0903214626190N00809913EA0200202095
B0903224626191N00809922EA0200102094
B0903234626193N00809930EA0200002093
B0903244626194N00809939EA0199802090
B0903254626195N00809949EA0199602088
B0903264626197N00809959EA0199302086
B0903274626199N00809968EA0199202084
B0903284626201N00809978EA0199002083
B0903294626202N00809987EA0198902082
B0903304626204N00809997EA0198802080
B0903314626205N00810007EA0198602079
B0903324626208N00810017EA0198502077
B0903334626210N00810027EA0198402076
B0903344626213N00810037EA0198302075
B0903354626215N00810047EA0198202075
B0903364626217N00810056EA0198202075
B0903374626220N00810066EA0198202074
B0903384626222N00810075EA0198102074
B0903394626225N00810083EA0198002073
B0903404626227N00810092EA0198002073
B0903414626230N00810101EA0198002073
B0903424626233N00810109EA0198002072
B0903434626236N00810118EA0197902071
B0903444626238N00810127EA0197802070
B0903454626240N00810136EA0197602068
B0903464626242N00810145EA0197502067
B0903474626244N00810153EA0197202064
B0903484626247N00810162EA0197002062
B0903494626251N00810172EA0196702059
B0903504626255N00810181EA0196502057
B0903514626258N00810191EA0196402056
B0903524626260N00810201EA0196302055
B0903534626263N00810211EA0196202054
B0903544626264N00810220EA0196202053
B0903554626266N00810229EA0196102052
B0903564626269N00810238EA0195902051
B0903574626271N00810248EA0195802049
B0903584626272N00810258EA0195602048
B0903594626274N00810268EA0195502047
B0904004626276N00810279EA0195402046
B0904014626279N00810289EA0195402045
B0904024626281N00810299EA0195402046
B0904034626284N00810309EA0195702049
B0904044626288N00810318EA0196102052
B0904054626291N00810326EA0196502056
B0904064626295N00810332EA0196902061
B0904074626298N00810338EA0197202064
B0904084626301N00810343EA0197602067
B0904094626304N00810349EA0197902070
B0904104626308N00810354EA0198102073
B0904114626311N00810360EA0198502076
B0904124626315N00810366EA0198702079
B0904134626316N00810372EA0198902080
B0904144626315N00810378EA0198902081
B0904154626312N00810384EA0199002081
B0904164626308N00810388EA0199302084
B0904174626304N00810390EA0199602087
B0904184626301N00810389EA0200002091
B0904194626298N00810387EA0200402095
B0904204626296N00810384EA0200902100
B0904214626296N00810380EA0201202103
B0904224626297N00810376EA0201502106
B0904234626300N00810373EA0201702108
B0904244626304N00810370EA0202002111
B0904254626310N00810368EA0202302114
B0904264626314N00810368EA0202602117
B0904274626319N00810372EA0202902120
B0904284626323N00810377EA0203202123
B0904294626325N00810385EA0203402125
B0904304626326N00810392EA0203602127
B0904314626326N00810399EA0203902130
B0904324626324N00810405EA0204202133
B0904334626320N00810410EA0204402135
B0904344626316N00810414EA0204802139
B0904354626311N00810415EA0205202143
B0904364626309N00810415EA0205502146
B0904374626308N00810412EA0205702148
B0904384626310N00810408EA0205802149
B0904394626313N00810403EA0206002151
B0904404626319N00810401EA0206402154
B0904414626325N00810401EA0206802159
B0904424626329N00810403EA0207202162
B0904434626334N00810405EA0207602167
B0904444626337N00810407EA0207902170
B0904454626340N00810409EA0208002171
B0904464626344N00810413EA0208102172
B0904474626348N00810417EA0208202172
B0904484626352N00810424EA0208302174
B0904494626353N00810431EA0208402175
B0904504626352N00810439EA0208502175
B0904514626348N00810445EA0208602176
B0904524626342N00810449EA0208802179
B0904534626337N00810450EA0209402184
B0904544626333N00810451EA0209902189
B0904554626331N00810451EA0210202193
B0904564626330N00810450EA0210502196
B0904574626329N00810449EA0210702198
B0904584626328N00810447EA0210902199
B0904594626327N00810443EA0211002200
B0905004626328N00810439EA0211102202
B0905014626331N00810436EA0211302204
B0905024626335N00810435EA0211502206
B0905034626341N00810437EA0211702207
B0905044626346N00810442EA0212002210
B0905054626350N00810449EA0212402215
B0905064626351N00810456EA0212602217
B0905074626351N00810464EA0212802219
B0905084626351N00810472EA0213002221
B0905094626351N00810481EA0213202223
B0905104626350N00810489EA0213402224
B0905114626348N00810496EA0213502225
B0905124626345N00810501EA0213602227
B0905134626342N00810505EA0213802228
B0905144626339N00810505EA0213902229
B0905154626337N00810503EA0214002231
B0905164626335N00810500EA0214302234
B0905174626334N00810497EA0214602237
B0905184626333N00810495EA0214902239
B0905194626331N00810494EA0215002241
B0905204626328N00810493EA0215102242
B0905214626326N00810493EA0215202243
B0905224626322N00810491EA0215302243
B0905234626320N00810489EA0215402244
B0905244626319N00810486EA0215402245
B0905254626319N00810482EA0215402245
B0905264626320N00810478EA0215402245
B0905274626322N00810473EA0215502246
B0905284626324N00810468EA0215602246
B0905294626326N00810464EA0215702248
B0905304626328N00810460EA0215802249
B0905314626330N00810456EA0216002250
B0905324626332N00810452EA0216102252
B0905334626333N00810447EA0216202253
B0905344626334N00810442EA0216402254
B0905354626333N00810436EA0216402255
B0905364626332N00810429EA0216602257
B0905374626332N00810423EA0216702258
B0905384626333N00810417EA0216802259
B0905394626336N00810413EA0216802258
B0905404626338N00810410EA0216702257
B0905414626340N00810407EA0216602257
B0905424626344N00810406EA0216602257
B0905434626348N00810407EA0216802258
B0905444626353N00810413EA0216802259
B0905454626357N00810421EA0217102262
B0905464626358N00810429EA0217402265
B0905474626358N00810438EA0217702268
B0905484626357N00810446EA0218002270
B0905494626354N00810454EA0218302273
B0905504626350N00810461EA0218502275
B0905514626345N00810466EA0218602277
B0905524626340N00810469EA0218902279
B0905534626334N00810470EA0218902280
B0905544626330N00810469EA0218902279
B0905554626327N00810466EA0218802279
B0905564626326N00810462EA0218702277
B0905574626326N00810458EA0218402275
B0905584626329N00810454EA0218102272
B0905594626333N00810451EA0217902270
B0906004626338N00810450EA0217702268
B0906014626343N00810451EA0217502266
B0906024626349N00810455EA0217302264
B0906034626355N00810461EA0217302263
B0906044626361N00810470EA0217502265
B0906054626366N00810478EA0217902270
B0906064626369N00810485EA0218402274
B0906074626371N00810490EA0218702277
B0906084626373N00810495EA0218802279
B0906094626377N00810501EA0218902279
B0906104626382N00810508EA0218902279
B0906114626387N00810515EA0219002280
B0906124626392N00810522EA0219202282
B0906134626398N00810527EA0219402284
B0906144626402N00810532EA0219702287
B0906154626407N00810535EA0220002290
B0906164626411N00810536EA0220202293
B0906174626415N00810535EA0220302294
B0906184626419N00810532EA0220302294
B0906194626423N00810529EA0220402295
B0906204626426N00810524EA0220502296
B0906214626428N00810519EA0220602297
B0906224626429N00810513EA0220702298
B0906234626427N00810506EA0220902299
B0906244626425N00810500EA0221002300
B0906254626421N00810496EA0221202302
B0906264626417N00810493EA0221302303
B0906274626413N00810491EA0221402305
B0906284626408N00810491EA0221602307
B0906294626402N00810492EA0221702308
B0906304626397N00810497EA0221802308
B0906314626392N00810505EA0221802308
B0906324626387N00810514EA0221902309
B0906334626384N00810525EA0222202312
B0906344626383N00810534EA0222402315
B0906354626384N00810543EA0222502316
B0906364626386N00810553EA0222702317
B0906374626388N00810563EA0222902319
B0906384626391N00810574EA0223102321
B0906394626395N00810583EA0223202322
B0906404626400N00810589EA0223302324
B0906414626405N00810593EA0223502326
B0906424626410N00810595EA0223802328
B0906434626414N00810595EA0224102331
B0906444626418N00810595EA0224202333
B0906454626420N00810592EA0224302334
B0906464626423N00810588EA0224302333
B0906474626424N00810583EA0224302334
B0906484626426N00810577EA0224302334
B0906494626427N00810571EA0224502335
B0906504626427N00810565EA0224602337
B0906514626426N00810559EA0224702338
B0906524626424N00810553EA0224902340
B0906534626422N00810547EA0225102342
B0906544626419N00810542EA0225302343
B0906554626415N00810540EA0225402344
B0906564626410N00810539EA0225502346
B0906574626405N00810539EA0225702348
B0906584626400N00810539EA0225902350
B0906594626395N00810541EA0226002351
B0907004626391N00810545EA0226002351
B0907014626386N00810550EA0226002351
B0907024626382N00810556EA0225902350
B0907034626378N00810564EA0225802348
B0907044626376N00810573EA0225602346
B0907054626374N00810585EA0225402345
B0907064626373N00810597EA0225302343
B0907074626373N00810608EA0225302343
B0907084626373N00810618EA0225302344
B0907094626374N00810629EA0225402344
B0907104626376N00810639EA0225402345
B0907114626379N00810649EA0225302344
B0907124626383N00810659EA0225302344
B0907134626387N00810668EA0225302344
B0907144626393N00810675EA0225302343
B0907154626400N00810681EA0225202343
B0907164626407N00810685EA0225402345
B0907174626413N00810688EA0225702348
B0907184626419N00810690EA0226002351
B0907194626423N00810692EA0226202353
B0907204626427N00810695EA0226302353
B0907214626433N00810697EA0226302354
B0907224626439N00810698EA0226202353
B0907234626445N00810699EA0226302354
B0907244626451N00810698EA0226502356
B0907254626456N00810695EA0226702358
B0907264626459N00810692EA0226902360
B0907274626461N00810688EA0226902360
B0907284626465N00810684EA0227102362
B0907294626469N00810680EA0227402365
B0907304626471N00810675EA0227602367
B0907314626471N00810670EA0227802369
B0907324626469N00810665EA0227702368
B0907334626464N00810661EA0227702368
B0907344626459N00810660EA0228002371
B0907354626455N00810661EA0228202373
B0907364626451N00810664EA0228302374
B0907374626446N00810669EA0228302374
B0907384626442N00810676EA0228302374
B0907394626438N00810684EA0228202373
B0907404626436N00810694EA0228202374
B0907414626435N00810705EA0228302374
B0907424626436N00810716EA0228302374
B0907434626439N00810727EA0228302374
B0907444626444N00810735EA0228302374
B0907454626449N00810742EA0228402375
B0907464626455N00810747EA0228402375
B0907474626461N00810750EA0228502376
B0907484626467N00810753EA0228502377
B0907494626473N00810753EA0228602377
B0907504626478N00810752EA0228702379
B0907514626483N00810750EA0228802380
B0907524626487N00810747EA0229002381
B0907534626491N00810744EA0229302384
B0907544626495N00810740EA0229502387
B0907554626497N00810736EA0229702389
B0907564626498N00810732EA0229702388
B0907574626499N00810727EA0229602387
B0907584626498N00810722EA0229602387
B0907594626495N00810717EA0229502386
B0908004626492N00810712EA0229402386
B0908014626489N00810707EA0229402385
B0908024626484N00810704EA0229402385
B0908034626480N00810703EA0229302385
B0908044626474N00810703EA0229402385
B0908054626469N00810704EA0229502386
B0908064626463N00810709EA0229502387
B0908074626457N00810716EA0229502386
B0908084626453N00810724EA0229502386
B0908094626449N00810734EA0229402386
B0908104626446N00810743EA0229402386
B0908114626445N00810753EA0229402385
B0908124626445N00810764EA0229302384
B0908134626447N00810775EA0229102382
B0908144626451N00810785EA0229002381
B0908154626457N00810793EA0229002381
B0908164626463N00810799EA0229002381
B0908174626468N00810803EA0229102382
B0908184626473N00810806EA0229202383
B0908194626478N00810810EA0229202383
B0908204626485N00810814EA0229202383
B0908214626491N00810816EA0229202383
B0908224626498N00810818EA0229302384
B0908234626504N00810818EA0229502386
B0908244626508N00810819EA0229602387
B0908254626513N00810819EA0229602387
B0908264626517N00810819EA0229502386
B0908274626523N00810818EA0229402385
B0908284626529N00810818EA0229202384
B0908294626534N00810817EA0229202383
B0908304626540N00810817EA0229302384
B0908314626546N00810816EA0229302385
B0908324626551N00810814EA0229302384
B0908334626556N00810813EA0229202383
B0908344626561N00810813EA0229102382
B0908354626567N00810813EA0229002381
B0908364626574N00810813EA0228902380
B0908374626580N00810813EA0228902380
B0908384626585N00810812EA0228802380
B0908394626590N00810811EA0228702379
B0908404626595N00810812EA0228602378
B0908414626602N00810812EA0228502376
B0908424626608N00810812EA0228402375
B0908434626615N00810810EA0228402375
B0908444626621N00810808EA0228502376
B0908454626626N00810806EA0228502376
B0908464626631N00810804EA0228402376
B0908474626636N00810802EA0228402375
B0908484626642N00810799EA0228402375
B0908494626648N00810797EA0228402375
B0908504626653N00810796EA0228402375
B0908514626659N00810796EA0228402375
B0908524626665N00810796EA0228302375
B0908534626670N00810796EA0228302374
B0908544626676N00810796EA0228202374
B0908554626681N00810795EA0228202373
B0908564626687N00810795EA0228102372
B0908574626693N00810794EA0228002372
B0908584626699N00810793EA0228002371
B0908594626706N00810791EA0227902370
B0909004626712N00810791EA0227802369
B0909014626719N00810793EA0227702369
B0909024626725N00810797EA0227702369
B0909034626731N00810801EA0227802369
B0909044626736N00810804EA0227802369
B0909054626742N00810807EA0227802369
B0909064626747N00810810EA0227802369
B0909074626753N00810814EA0227702368
B0909084626759N00810818EA0227602368
B0909094626765N00810823EA0227602368
B0909104626770N00810827EA0227602367
B0909114626775N00810831EA0227502366
B0909124626780N00810835EA0227302365
B0909134626786N00810840EA0227102362
B0909144626791N00810844EA0226902360
B0909154626798N00810850EA0226802359
B0909164626804N00810855EA0226702359
B0909174626810N00810861EA0226702359
B0909184626816N00810866EA0226702358
B0909194626822N00810870EA0226602357
B0909204626827N00810875EA0226402356
B0909214626832N00810881EA0226202354
B0909224626838N00810887EA0226002352
B0909234626845N00810892EA0225902350
B0909244626852N00810897EA0225902350
B0909254626858N00810903EA0225902350
B0909264626864N00810908EA0225902350
B0909274626869N00810914EA0225902351
B0909284626874N00810919EA0225902351
B0909294626879N00810924EA0225902350
B0909304626885N00810929EA0225902350
B0909314626890N00810934EA0225802350
B0909324626895N00810940EA0225802349
B0909334626900N00810946EA0225902350
B0909344626905N00810950EA0225902350
B0909354626910N00810953EA0225902350
B0909364626915N00810956EA0225702349
B0909374626920N00810960EA0225502347
B0909384626925N00810964EA0225202344
B0909394626931N00810970EA0224902340
B0909404626937N00810976EA0224702338
B0909414626942N00810982EA0224502337
B0909424626948N00810988EA0224502336
B0909434626953N00810993EA0224302335
B0909444626958N00810998EA0224102333
B0909454626964N00811003EA0223902330
B0909464626969N00811007EA0223602328
B0909474626976N00811012EA0223502326
B0909484626981N00811018EA0223402326
B0909494626986N00811023EA0223502327
B0909504626990N00811028EA0223602327
B0909514626995N00811032EA0223402325
B0909524627000N00811035EA0223102322
B0909534627006N00811039EA0222602318
B0909544627012N00811044EA0222402315
B0909554627018N00811051EA0222302314
B0909564627024N00811056EA0222202314
B0909574627028N00811061EA0222202314
B0909584627032N00811066EA0222102313
B0909594627036N00811071EA0222002311
B0910004627041N00811077EA0221802310
B0910014627047N00811083EA0221702308
B0910024627052N00811089EA0221502306
B0910034627058N00811094EA0221402306
B0910044627063N00811099EA0221402305
B0910054627068N00811105EA0221202304
B0910064627074N00811111EA0221102302
B0910074627080N00811117EA0220902300
B0910084627086N00811123EA0220802299
B0910094627093N00811129EA0221002301
B0910104627099N00811136EA0221302304
B0910114627104N00811141EA0221602307
B0910124627107N00811146EA0221702309
B0910134627112N00811150EA0221802310
B0910144627116N00811155EA0221802310
B0910154627121N00811161EA0221802309
B0910164627125N00811167EA0221802310
B0910174627130N00811173EA0222002311
B0910184627135N00811177EA0222102312
B0910194627140N00811180EA0222002312
B0910204627145N00811180EA0221802310
B0910214627152N00811178EA0221602308
B0910224627158N00811176EA0221502307
B0910234627164N00811175EA0221502306
B0910244627170N00811177EA0221502306
B0910254627174N00811181EA0221402306
B0910264627179N00811184EA0221402305
B0910274627184N00811188EA0221302305
B0910284627189N00811192EA0221302304
B0910294627195N00811196EA0221202303
B0910304627201N00811200EA0221202303
B0910314627207N00811204EA0221202303
B0910324627212N00811209EA0221302305
B0910334627217N00811213EA0221402305
B0910344627223N00811218EA0221302304
B0910354627228N00811222EA0221202304
B0910364627233N00811228EA0221102303
B0910374627239N00811234EA0221102303
B0910384627244N00811240EA0221202304
B0910394627248N00811246EA0221302305
B0910404627252N00811250EA0221502306
B0910414627255N00811255EA0221502306
B0910424627258N00811260EA0221402305
B0910434627262N00811267EA0221202304
B0910444627266N00811274EA0221202303
B0910454627271N00811281EA0221202303
B0910464627275N00811287EA0221202304
B0910474627280N00811292EA0221302304
B0910484627284N00811297EA0221302305
B0910494627289N00811303EA0221302305
B0910504627293N00811308EA0221302305
B0910514627298N00811313EA0221302304
B0910524627303N00811318EA0221202304
B0910534627307N00811323EA0221202303
B0910544627312N00811328EA0221102302
B0910554627316N00811335EA0221002302
B0910564627319N00811341EA0220902300
B0910574627323N00811348EA0220602298
B0910584627327N00811354EA0220402295
B0910594627332N00811360EA0220102292
B0911004627337N00811367EA0219802289
B0911014627342N00811374EA0219602287
B0911024627347N00811382EA0219502286
B0911034627352N00811390EA0219302285
B0911044627357N00811397EA0219302284
B0911054627362N00811404EA0219202283
B0911064627367N00811410EA0219102282
B0911074627373N00811417EA0218902281
B0911084627379N00811423EA0218702279
B0911094627385N00811430EA0218502277
B0911104627391N00811438EA0218402275
B0911114627399N00811445EA0218202274
B0911124627406N00811453EA0218302274
B0911134627413N00811460EA0218402275
B0911144627420N00811466EA0218502276
B0911154627426N00811472EA0218502276
B0911164627432N00811478EA0218402275
B0911174627438N00811483EA0218302274
B0911184627445N00811489EA0218102272
B0911194627451N00811496EA0217902270
B0911204627457N00811503EA0217702268
B0911214627464N00811510EA0217602267
B0911224627470N00811516EA0217402266
B0911234627477N00811523EA0217302265
B0911244627483N00811529EA0217202264
B0911254627490N00811535EA0217102262
B0911264627496N00811541EA0217002261
B0911274627503N00811546EA0217102262
B0911284627510N00811551EA0217202264
B0911294627516N00811557EA0217302264
B0911304627521N00811563EA0217202263
B0911314627526N00811568EA0217002261
B0911324627531N00811574EA0216702258
B0911334627537N00811581EA0216402256
B0911344627545N00811588EA0216302254
B0911354627551N00811594EA0216102252
B0911364627559N00811599EA0216002251
B0911374627565N00811604EA0215902250
B0911384627572N00811609EA0215802250
B0911394627577N00811615EA0215802249
B0911404627584N00811621EA0215702248
B0911414627590N00811626EA0215602247
B0911424627597N00811631EA0215402245
B0911434627603N00811636EA0215102243
B0911444627609N00811643EA0214902240
B0911454627614N00811652EA0214502236
B0911464627620N00811660EA0214302234
B0911474627624N00811668EA0214102232
B0911484627627N00811676EA0214002231
B0911494627627N00811685EA0213802229
B0911504627628N00811693EA0213602227
B0911514627629N00811702EA0213302224
B0911524627631N00811710EA0212902220
B0911534627633N00811720EA0212602216
B0911544627633N00811730EA0212302214
B0911554627634N00811740EA0212102211
B0911564627634N00811751EA0211802209
B0911574627634N00811760EA0211602207
B0911584627635N00811769EA0211402205
B0911594627636N00811777EA0211202202
B0912004627637N00811786EA0210902200
B0912014627638N00811796EA0210702198
B0912024627638N00811806EA0210502196
B0912034627639N00811815EA0210402194
B0912044627639N00811825EA0210302194
B0912054627640N00811833EA0210302194
B0912064627642N00811841EA0210302193
B0912074627643N00811849EA0210202193
B0912084627645N00811857EA0210102192
B0912094627647N00811865EA0210002191
B0912104627649N00811873EA0210002190
B0912114627651N00811882EA0209902189
B0912124627653N00811890EA0209902189
B0912134627656N00811898EA0209802188
B0912144627658N00811906EA0209802188
B0912154627661N00811914EA0209702187
B0912164627663N00811921EA0209702187
B0912174627665N00811929EA0209602186
B0912184627668N00811936EA0209502185
B0912194627671N00811944EA0209302183
B0912204627675N00811952EA0209202182
B0912214627678N00811960EA0209102181
B0912224627681N00811968EA0209002180
B0912234627683N00811976EA0208902179
B0912244627685N00811984EA0208802178
B0912254627688N00811992EA0208702177
B0912264627692N00812000EA0208602175
B0912274627695N00812008EA0208402174
B0912284627699N00812016EA0208302173
B0912294627703N00812024EA0208202172
B0912304627707N00812031EA0208102171
B0912314627711N00812038EA0208002170
B0912324627715N00812046EA0207802168
B0912334627720N00812053EA0207702167
B0912344627724N00812061EA0207502165
B0912354627728N00812068EA0207502165
B0912364627732N00812076EA0207402164
B0912374627735N00812084EA0207202162
B0912384627739N00812092EA0207102161
B0912394627743N00812101EA0207002160
B0912404627746N00812109EA0206902159
B0912414627749N00812117EA0206802157
B0912424627752N00812125EA0206602156
B0912434627756N00812133EA0206602155
B0912444627759N00812142EA0206502154
B0912454627762N00812150EA0206302153
B0912464627765N00812158EA0206202152
B0912474627769N00812166EA0206002150
B0912484627773N00812173EA0205902149
B0912494627776N00812181EA0205802148
B0912504627779N00812189EA0205702147
B0912514627782N00812197EA0205602146
B0912524627786N00812204EA0205502145
B0912534627788N00812212EA0205302143
B0912544627792N00812220EA0205202141
B0912554627794N00812228EA0205002140
B0912564627797N00812236EA0204902138
B0912574627800N00812245EA0204802137
B0912584627804N00812252EA0204702136
B0912594627807N00812259EA0204502135
B0913004627810N00812267EA0204302133
B0913014627813N00812274EA0204102131
B0913024627817N00812282EA0203902128
B0913034627820N00812290EA0203702127
B0913044627823N00812299EA0203602125
B0913054627827N00812306EA0203502124
B0913064627830N00812314EA0203302123
B0913074627834N00812321EA0203102121
B0913084627837N00812329EA0203002119
B0913094627840N00812337EA0202802117
B0913104627844N00812345EA0202602116
B0913114627848N00812353EA0202502115
B0913124627851N00812360EA0202502114
B0913134627854N00812368EA0202402113
B0913144627857N00812375EA0202202112
B0913154627861N00812382EA0202002110
B0913164627865N00812390EA0201902108
B0913174627868N00812398EA0201702107
B0913184627871N00812406EA0201602105
B0913194627874N00812414EA0201502104
B0913204627878N00812421EA0201402103
B0913214627881N00812429EA0201202102
B0913224627884N00812436EA0201002100
B0913234627888N00812444EA0200902098
B0913244627892N00812452EA0200702096
B0913254627895N00812461EA0200602095
B0913264627898N00812469EA0200502094
B0913274627900N00812477EA0200402094
B0913284627904N00812484EA0200402093
B0913294627907N00812492EA0200302092
B0913304627911N00812500EA0200202091
B0913314627914N00812508EA0200102090
B0913324627918N00812516EA0200002089
B0913334627921N00812524EA0200002089
B0913344627925N00812532EA0200002089
B0913354627929N00812540EA0200002089
B0913364627932N00812548EA0200002089
B0913374627936N00812555EA0200102090
B0913384627939N00812564EA0200002089
B0913394627943N00812572EA0200002089
B0913404627946N00812580EA0199902088
B0913414627948N00812588EA0199902087
B0913424627951N00812597EA0199802086
B0913434627954N00812605EA0199702086
B0913444627956N00812613EA0199602085
B0913454627959N00812621EA0199602085
B0913464627962N00812630EA0199502084
B0913474627964N00812638EA0199502084
B0913484627967N00812646EA0199402083
B0913494627970N00812654EA0199402082
B0913504627973N00812663EA0199302082
B0913514627976N00812671EA0199202081
B0913524627978N00812680EA0199202080
B0913534627981N00812689EA0199102079
B0913544627985N00812697EA0199002079
B0913554627988N00812706EA0199002078
B0913564627992N00812715EA0198902077
B0913574627996N00812723EA0198802077
B0913584628000N00812731EA0198802076
B0913594628004N00812740EA0198702075
B0914004628008N00812748EA0198602074
B0914014628012N00812757EA0198602074
B0914024628016N00812765EA0198502073
B0914034628020N00812773EA0198502073
B0914044628025N00812782EA0198402072
B0914054628029N00812790EA0198302072
B0914064628033N00812798EA0198302071
B0914074628038N00812807EA0198102070
B0914084628043N00812816EA0198002068
B0914094628047N00812824EA0197902067
B0914104628052N00812833EA0197802066
B0914114628056N00812841EA0197702065
B0914124628061N00812850EA0197602064
B0914134628066N00812858EA0197502063
B0914144628071N00812867EA0197402062
B0914154628075N00812875EA0197302060
B0914164628080N00812884EA0197102059
B0914174628085N00812892EA0197002058
B0914184628089N00812901EA0196902057
B0914194628094N00812910EA0196802056
B0914204628099N00812919EA0196702054
B0914214628103N00812927EA0196602053
B0914224628108N00812935EA0196402052
B0914234628113N00812943EA0196202050
B0914244628118N00812951EA0196102048
B0914254628123N00812960EA0195902047
B0914264628128N00812969EA0195802045
B0914274628133N00812977EA0195702044
B0914284628139N00812986EA0195602044
B0914294628145N00812994EA0195602044
B0914304628150N00813002EA0195802045
B0914314628156N00813009EA0196002047
B0914324628161N00813014EA0196102048
B0914334628166N00813019EA0196102048
B0914344628172N00813023EA0196102048
B0914354628179N00813027EA0196102048
B0914364628186N00813031EA0196102048
B0914374628192N00813035EA0196102048
B0914384628198N00813039EA0196002048
B0914394628203N00813044EA0196002047
B0914404628208N00813049EA0195802045
B0914414628214N00813055EA0195602043
B0914424628220N00813061EA0195402042
B0914434628225N00813067EA0195302040
B0914444628231N00813074EA0195202039
B0914454628236N00813081EA0195202039
B0914464628242N00813087EA0195202039
B0914474628248N00813093EA0195302040
B0914484628253N00813098EA0195302040
B0914494628258N00813103EA0195402041
B0914504628263N00813109EA0195302040
B0914514628269N00813114EA0195202039
B0914524628275N00813119EA0195002037
B0914534628282N00813125EA0195002037
B0914544628287N00813132EA0195002036
B0914554628293N00813139EA0194902036
B0914564628298N00813145EA0194902035
B0914574628303N00813152EA0194802035
B0914584628309N00813160EA0194702034
B0914594628314N00813168EA0194702034
B0915004628320N00813176EA0194802035
B0915014628325N00813183EA0195002036
B0915024628330N00813190EA0195102038
B0915034628335N00813196EA0195302039
B0915044628340N00813201EA0195402040
B0915054628344N00813207EA0195302040
B0915064628348N00813214EA0195302039
B0915074628352N00813221EA0195202038
B0915084628355N00813229EA0195102037
B0915094628359N00813237EA0194902036
B0915104628363N00813246EA0194802034
B0915114628366N00813254EA0194702034
B0915124628371N00813262EA0194602033
B0915134628374N00813271EA0194602032
B0915144628378N00813279EA0194502031
B0915154628381N00813287EA0194402030
B0915164628384N00813295EA0194402030
B0915174628388N00813303EA0194302029
B0915184628391N00813311EA0194302029
B0915194628395N00813319EA0194202028
B0915204628398N00813326EA0194102027
B0915214628402N00813334EA0194102027
B0915224628407N00813341EA0194002026
B0915234628412N00813349EA0194102027
B0915244628416N00813356EA0194102027
B0915254628420N00813364EA0194202028
B0915264628424N00813372EA0194202028
B0915274628429N00813379EA0194302029
B0915284628433N00813386EA0194302029
B0915294628437N00813394EA0194402030
B0915304628440N00813402EA0194502031
B0915314628443N00813409EA0194502031
B0915324628447N00813417EA0194602032
B0915334628451N00813425EA0194602032
B0915344628456N00813432EA0194602031
B0915354628461N00813439EA0194502030
B0915364628466N00813446EA0194402029
B0915374628470N00813454EA0194202028
B0915384628473N00813463EA0194002025
B0915394628477N00813473EA0193902025
B0915404628481N00813482EA0193902025
B0915414628487N00813490EA0194102026
B0915424628492N00813497EA0194302028
B0915434628496N00813504EA0194302028
B0915444628499N00813512EA0194302028
B0915454628504N00813520EA0194202027
B0915464628509N00813527EA0194102026
B0915474628514N00813535EA0194102026
B0915484628519N00813544EA0194102026
B0915494628523N00813552EA0194202027
B0915504628526N00813560EA0194202027
B0915514628529N00813568EA0194102026
B0915524628533N00813575EA0194002025
B0915534628537N00813583EA0193802023
B0915544628541N00813591EA0193702022
B0915554628545N00813600EA0193502020
B0915564628549N00813608EA0193402019
B0915574628554N00813616EA0193302018
B0915584628557N00813624EA0193202017
B0915594628561N00813632EA0193002015
B0916004628565N00813640EA0192902014
B0916014628569N00813648EA0192702012
B0916024628573N00813656EA0192602011
B0916034628577N00813665EA0192502009
B0916044628581N00813673EA0192302008
B0916054628585N00813681EA0192202007
B0916064628589N00813688EA0192102006
B0916074628593N00813696EA0192002005
B0916084628597N00813704EA0191902003
B0916094628601N00813712EA0191802002
B0916104628605N00813720EA0191702001
B0916114628609N00813727EA0191602001
B0916124628614N00813735EA0191502000
B0916134628618N00813743EA0191401999
B0916144628621N00813751EA0191301998
B0916154628625N00813759EA0191301997
B0916164628629N00813768EA0191201997
B0916174628632N00813776EA0191201996
B0916184628636N00813784EA0191101995
B0916194628639N00813792EA0191001994
B0916204628643N00813801EA0190901993
B0916214628647N00813809EA0190801992
B0916224628650N00813818EA0190801992
B0916234628653N00813827EA0190701992
B0916244628656N00813836EA0190701991
B0916254628660N00813845EA0190701992
B0916264628663N00813853EA0190701992
B0916274628667N00813861EA0190701991
B0916284628670N00813870EA0190701991
B0916294628673N00813879EA0190601990
B0916304628677N00813888EA0190601990
B0916314628681N00813897EA0190501989
B0916324628685N00813905EA0190501989
B0916334628689N00813914EA0190501989
B0916344628692N00813923EA0190401988
B0916354628696N00813931EA0190301987
B0916364628700N00813941EA0190201986
B0916374628704N00813950EA0190201986
B0916384628708N00813959EA0190201986
B0916394628712N00813968EA0190201986
B0916404628716N00813976EA0190201986
B0916414628720N00813985EA0190201986
B0916424628724N00813993EA0190201985
B0916434628728N00814002EA0190201985
B0916444628732N00814011EA0190101985
B0916454628736N00814020EA0190101985
B0916464628740N00814028EA0190101985
B0916474628744N00814037EA0190101985
B0916484628748N00814046EA0190001984
B0916494628753N00814055EA0190001983
B0916504628757N00814064EA0189901982
B0916514628762N00814073EA0189801982
B0916524628767N00814082EA0189801981
B0916534628771N00814091EA0189701980
B0916544628776N00814100EA0189601979
B0916554628780N00814109EA0189501979
B0916564628785N00814119EA0189401978
B0916574628789N00814128EA0189401977
B0916584628794N00814137EA0189301977
B0916594628798N00814145EA0189301976
B0917004628802N00814154EA0189101975
B0917014628807N00814163EA0189001973
B0917024628812N00814172EA0188901972
B0917034628816N00814182EA0188801971
B0917044628820N00814191EA0188701970
B0917054628824N00814200EA0188601969
B0917064628828N00814209EA0188501968
B0917074628833N00814217EA0188301966
B0917084628837N00814226EA0188201965
B0917094628841N00814235EA0188101964
B0917104628845N00814244EA0188001963
B0917114628850N00814253EA0187901962
B0917124628854N00814262EA0187901961
B0917134628858N00814270EA0187801961
B0917144628862N00814279EA0187701960
B0917154628866N00814288EA0187601959
B0917164628871N00814297EA0187501958
B0917174628875N00814306EA0187501957
B0917184628880N00814314EA0187401956
B0917194628884N00814323EA0187301955
B0917204628889N00814331EA0187201954
B0917214628893N00814340EA0187001953
B0917224628897N00814348EA0186901952
B0917234628902N00814357EA0186901951
B0917244628906N00814366EA0186801951
B0917254628911N00814375EA0186801950
B0917264628915N00814384EA0186801950
B0917274628919N00814393EA0186801950
B0917284628924N00814402EA0186701950
B0917294628927N00814410EA0186701949
B0917304628932N00814419EA0186601948
B0917314628936N00814428EA0186501948
B0917324628941N00814436EA0186501947
B0917334628945N00814445EA0186401947
B0917344628949N00814454EA0186401946
B0917354628953N00814463EA0186301946
B0917364628957N00814472EA0186301945
B0917374628962N00814481EA0186301945
B0917384628966N00814490EA0186201944
B0917394628971N00814499EA0186201944
B0917404628975N00814508EA0186201944
B0917414628980N00814516EA0186101943
B0917424628984N00814525EA0186101943
B0917434628989N00814534EA0186001942
B0917444628993N00814543EA0186001942
B0917454628998N00814552EA0185901941
B0917464629002N00814560EA0185901941
B0917474629007N00814569EA0185901940
B0917484629011N00814578EA0185801940
B0917494629016N00814586EA0185801940
B0917504629020N00814595EA0185701939
B0917514629025N00814603EA0185601938
B0917524629030N00814612EA0185501937
B0917534629035N00814621EA0185401936
B0917544629039N00814629EA0185401935
B0917554629044N00814638EA0185301935
B0917564629049N00814646EA0185201934
B0917574629053N00814654EA0185101933
B0917584629057N00814663EA0184901930
B0917594629062N00814672EA0184701928
B0918004629066N00814682EA0184601927
B0918014629071N00814691EA0184401926
B0918024629075N00814700EA0184401925
B0918034629080N00814708EA0184301925
B0918044629084N00814716EA0184401925
B0918054629088N00814724EA0184301924
B0918064629092N00814731EA0184201923
B0918074629097N00814738EA0184001921
B0918084629102N00814744EA0183801920
B0918094629107N00814751EA0183601918
B0918104629113N00814758EA0183501916
B0918114629119N00814764EA0183301915
B0918124629125N00814771EA0183301914
B0918134629130N00814779EA0183201914
B0918144629134N00814787EA0183201913
B0918154629139N00814795EA0183101912
B0918164629144N00814802EA0183001911
B0918174629150N00814809EA0182901910
B0918184629155N00814817EA0182701908
B0918194629160N00814825EA0182601907
B0918204629164N00814834EA0182501906
B0918214629168N00814842EA0182401905
B0918224629174N00814850EA0182301904
B0918234629178N00814859EA0182201903
B0918244629182N00814868EA0182101902
B0918254629185N00814877EA0181901900
B0918264629188N00814887EA0181701898
B0918274629192N00814896EA0181501896
B0918284629197N00814906EA0181301894
B0918294629201N00814916EA0181201892
B0918304629204N00814926EA0181101892
B0918314629209N00814934EA0181001891
B0918324629213N00814943EA0180901890
B0918334629217N00814951EA0180801889
B0918344629222N00814959EA0180601887
B0918354629226N00814968EA0180401884
B0918364629229N00814977EA0180201883
B0918374629232N00814987EA0180101881
B0918384629235N00814997EA0179901880
B0918394629238N00815007EA0179801879
B0918404629241N00815016EA0179801878
B0918414629245N00815025EA0179801878
B0918424629250N00815034EA0179801878
B0918434629255N00815041EA0179901879
B0918444629260N00815049EA0180201882
B0918454629264N00815057EA0180401884
B0918464629268N00815064EA0180501885
B0918474629271N00815069EA0180501885
B0918484629276N00815074EA0180401884
B0918494629280N00815080EA0180301883
B0918504629285N00815086EA0180101881
B0918514629291N00815092EA0179901879
B0918524629297N00815098EA0179801878
B0918534629302N00815103EA0179701877
B0918544629307N00815109EA0179601876
B0918554629312N00815116EA0179401874
B0918564629317N00815123EA0179101871
B0918574629321N00815132EA0178901869
B0918584629326N00815140EA0178601866
B0918594629331N00815149EA0178501865
B0919004629335N00815157EA0178401864
B0919014629339N00815165EA0178201862
B0919024629343N00815174EA0178001860
B0919034629346N00815184EA0177801858
B0919044629350N00815194EA0177501855
B0919054629354N00815203EA0177401854
B0919064629358N00815213EA0177401854
B0919074629362N00815222EA0177501854
B0919084629366N00815229EA0177501854
B0919094629368N00815236EA0177401854
B0919104629371N00815244EA0177201852
B0919114629374N00815253EA0177001850
B0919124629377N00815263EA0176901849
B0919134629380N00815272EA0176901848
B0919144629382N00815281EA0176901849
B0919154629386N00815288EA0177001850
B0919164629389N00815295EA0177001849
B0919174629392N00815303EA0176901848
B0919184629396N00815311EA0176801848
B0919194629400N00815320EA0176901848
B0919204629404N00815328EA0176901848
B0919214629406N00815336EA0177001849
B0919224629409N00815343EA0176901848
B0919234629412N00815351EA0176801847
B0919244629416N00815359EA0176701846
B0919254629420N00815367EA0176501844
B0919264629424N00815376EA0176401843
B0919274629428N00815384EA0176401843
B0919284629431N00815391EA0176501844
B0919294629434N00815398EA0176401844
B0919304629437N00815404EA0176501844
B0919314629441N00815412EA0176501844
B0919324629445N00815419EA0176601845
B0919334629448N00815425EA0176601845
B0919344629452N00815430EA0176501844
B0919354629455N00815436EA0176401842
B0919364629459N00815442EA0176301841
B0919374629464N00815449EA0176201841
B0919384629468N00815457EA0176101840
B0919394629472N00815465EA0176101840
B0919404629476N00815472EA0176001839
B0919414629479N00815480EA0176001838
B0919424629482N00815488EA0175901838
B0919434629484N00815496EA0175801837
B0919444629487N00815504EA0175701836
B0919454629489N00815513EA0175601835
B0919464629492N00815521EA0175601834
B0919474629494N00815529EA0175501834
B0919484629496N00815538EA0175401833
B0919494629498N00815546EA0175301832
B0919504629501N00815555EA0175201831
B0919514629503N00815563EA0175101829
B0919524629506N00815572EA0175001828
B0919534629509N00815580EA0174801826
B0919544629513N00815587EA0174601824
B0919554629517N00815596EA0174301821
B0919564629520N00815605EA0174101819
B0919574629524N00815614EA0173901817
B0919584629528N00815622EA0173801816
B0919594629532N00815630EA0173601815
B0920004629536N00815638EA0173501813
B0920014629539N00815646EA0173301811
B0920024629542N00815654EA0173001808
B0920034629546N00815663EA0172801806
B0920044629549N00815672EA0172601805
B0920054629552N00815681EA0172601804
B0920064629555N00815690EA0172501803
B0920074629557N00815699EA0172501803
B0920084629559N00815707EA0172401802
B0920094629562N00815715EA0172301801
B0920104629564N00815723EA0172201800
B0920114629567N00815732EA0172101799
B0920124629568N00815740EA0172001798
B0920134629569N00815747EA0172001798
B0920144629570N00815754EA0171901796
B0920154629572N00815762EA0171701794
B0920164629575N00815770EA0171501793
B0920174629576N00815778EA0171301791
B0920184629576N00815788EA0171101789
B0920194629577N00815796EA0171101788
B0920204629578N00815805EA0171001787
B0920214629580N00815813EA0170701785
B0920224629583N00815822EA0170501783
B0920234629586N00815832EA0170301780
B0920244629587N00815842EA0170101779
B0920254629588N00815851EA0170101778
B0920264629590N00815860EA0170001778
B0920274629593N00815867EA0169901777
B0920284629596N00815876EA0169701775
B0920294629598N00815885EA0169501772
B0920304629599N00815894EA0169301770
B0920314629602N00815904EA0169201769
B0920324629605N00815913EA0169001768
B0920334629608N00815922EA0169001767
B0920344629611N00815931EA0168801765
B0920354629614N00815939EA0168601764
B0920364629615N00815948EA0168401761
B0920374629618N00815957EA0168201759
B0920384629620N00815966EA0167901756
B0920394629622N00815976EA0167801755
B0920404629624N00815985EA0167701754
B0920414629626N00815994EA0167601753
B0920424629628N00816003EA0167501752
B0920434629630N00816012EA0167401751
B0920444629633N00816021EA0167301750
B0920454629635N00816029EA0167201749
B0920464629638N00816038EA0167101748
B0920474629641N00816046EA0167001747
B0920484629643N00816054EA0167001747
B0920494629646N00816061EA0166901746
B0920504629648N00816070EA0166701744
B0920514629651N00816078EA0166501742
B0920524629654N00816087EA0166401741
B0920534629657N00816096EA0166301740
B0920544629659N00816105EA0166301740
B0920554629661N00816114EA0166401740
B0920564629662N00816122EA0166401740
B0920574629663N00816129EA0166301739
B0920584629665N00816136EA0166101737
B0920594629667N00816144EA0165801735
B0921004629669N00816152EA0165601732
B0921014629670N00816160EA0165201728
B0921024629672N00816169EA0164901726
B0921034629674N00816179EA0164801724
B0921044629677N00816188EA0164601723
B0921054629679N00816197EA0164501721
B0921064629681N00816206EA0164301720
B0921074629683N00816215EA0164201719
B0921084629685N00816224EA0164101717
B0921094629686N00816233EA0163901715
B0921104629688N00816242EA0163801714
B0921114629691N00816251EA0163501711
B0921124629694N00816260EA0163301709
B0921134629697N00816269EA0163201708
B0921144629699N00816278EA0163001707
B0921154629701N00816287EA0162901705
B0921164629702N00816295EA0162801704
B0921174629704N00816304EA0162701703
B0921184629706N00816312EA0162501701
B0921194629709N00816321EA0162301699
B0921204629710N00816330EA0162101697
B0921214629712N00816338EA0162001696
B0921224629714N00816347EA0161901694
B0921234629716N00816354EA0161701693
B0921244629718N00816362EA0161601691
B0921254629720N00816371EA0161301689
B0921264629722N00816379EA0161101687
B0921274629724N00816388EA0160901685
B0921284629727N00816397EA0160701683
B0921294629729N00816405EA0160701683
B0921304629731N00816413EA0160601682
B0921314629733N00816421EA0160601681
B0921324629735N00816429EA0160501680
B0921334629737N00816438EA0160301679
B0921344629738N00816446EA0160201677
B0921354629741N00816454EA0160101676
B0921364629743N00816463EA0160001675
B0921374629745N00816471EA0159901675
B0921384629747N00816479EA0159701673
B0921394629749N00816487EA0159501671
B0921404629751N00816496EA0159301668
B0921414629753N00816505EA0159101666
B0921424629755N00816514EA0158901664
B0921434629757N00816523EA0158801663
B0921444629759N00816532EA0158701662
B0921454629761N00816541EA0158601661
B0921464629762N00816549EA0158401659
B0921474629764N00816557EA0158201658
B0921484629766N00816566EA0158001656
B0921494629768N00816575EA0157901654
B0921504629770N00816583EA0157701652
B0921514629773N00816592EA0157501651
B0921524629774N00816601EA0157401649
B0921534629776N00816609EA0157201647
B0921544629778N00816617EA0157101646
B0921554629780N00816625EA0156901644
B0921564629781N00816633EA0156701642
B0921574629783N00816640EA0156501640
B0921584629785N00816648EA0156301637
B0921594629787N00816656EA0156001635
B0922004629790N00816664EA0155901634
B0922014629791N00816671EA0155801633
B0922024629793N00816677EA0155801633
B0922034629794N00816683EA0155601631
B0922044629795N00816689EA0155401629
B0922054629797N00816696EA0155201626
B0922064629798N00816703EA0154901624
B0922074629800N00816711EA0154801623
B0922084629802N00816718EA0154801623
B0922094629803N00816724EA0154801622
B0922104629805N00816730EA0154701621
B0922114629805N00816737EA0154501620
B0922124629806N00816744EA0154301618
B0922134629808N00816751EA0154201616
B0922144629810N00816758EA0154101616
B0922154629810N00816765EA0154101616
B0922164629811N00816772EA0154101615
B0922174629812N00816778EA0154001614
B0922184629813N00816785EA0153901613
B0922194629814N00816792EA0153801612
B0922204629815N00816799EA0153701611
B0922214629816N00816806EA0153601610
B0922224629818N00816812EA0153601610
B0922234629819N00816819EA0153501609
B0922244629821N00816825EA0153401608
B0922254629822N00816832EA0153301607
B0922264629823N00816838EA0153101606
B0922274629824N00816845EA0153001604
B0922284629826N00816852EA0152901603
B0922294629828N00816859EA0152801602
B0922304629830N00816865EA0152701601
B0922314629832N00816872EA0152601600
B0922324629834N00816878EA0152501599
B0922334629835N00816885EA0152401598
B0922344629837N00816891EA0152301597
B0922354629839N00816898EA0152201596
B0922364629840N00816904EA0152001594
B0922374629842N00816911EA0151901593
B0922384629844N00816917EA0151801592
B0922394629845N00816924EA0151701590
B0922404629846N00816931EA0151601589
B0922414629848N00816938EA0151401588
B0922424629849N00816944EA0151301587
B0922434629851N00816951EA0151201586
B0922444629853N00816958EA0151101584
B0922454629855N00816964EA0151001583
B0922464629856N00816971EA0150901582
B0922474629858N00816978EA0150801581
B0922484629859N00816985EA0150601580
B0922494629861N00816992EA0150501579
B0922504629863N00816999EA0150401578
B0922514629865N00817005EA0150301576
B0922524629867N00817012EA0150201575
B0922534629869N00817019EA0150101574
B0922544629871N00817026EA0150001573
B0922554629873N00817033EA0149801572
B0922564629874N00817039EA0149701571
B0922574629876N00817046EA0149601569
B0922584629879N00817053EA0149501569
B0922594629881N00817060EA0149501568
B0923004629883N00817067EA0149401567
B0923014629885N00817073EA0149301566
B0923024629887N00817080EA0149201565
B0923034629889N00817087EA0149101564
B0923044629891N00817094EA0149001563
B0923054629892N00817101EA0148901562
B0923064629894N00817108EA0148801561
B0923074629896N00817115EA0148701560
B0923084629897N00817122EA0148701560
B0923094629898N00817129EA0148601559
B0923104629900N00817136EA0148501558
B0923114629901N00817143EA0148401557
B0923124629902N00817150EA0148301556
B0923134629903N00817157EA0148201555
B0923144629905N00817165EA0148101554
B0923154629907N00817172EA0148001553
B0923164629909N00817179EA0147901552
B0923174629910N00817186EA0147901551
B0923184629912N00817193EA0147801551
B0923194629913N00817200EA0147701550
B0923204629914N00817207EA0147601549
B0923214629916N00817214EA0147501548
B0923224629918N00817221EA0147501547
B0923234629920N00817228EA0147401546
B0923244629922N00817234EA0147301546
B0923254629924N00817241EA0147301545
B0923264629927N00817248EA0147201544
B0923274629929N00817255EA0147001543
B0923284629931N00817262EA0146901542
B0923294629934N00817269EA0146901541
B0923304629936N00817275EA0146801540
B0923314629939N00817282EA0146701539
B0923324629941N00817289EA0146601538
B0923334629943N00817296EA0146501537
B0923344629945N00817303EA0146401536
B0923354629948N00817310EA0146301535
B0923364629950N00817317EA0146201534
B0923374629954N00817323EA0146101533
B0923384629957N00817330EA0146001532
B0923394629960N00817336EA0145901531
B0923404629963N00817342EA0145801530
B0923414629966N00817348EA0145701529
B0923424629970N00817354EA0145601528
B0923434629973N00817360EA0145501527
B0923444629976N00817365EA0145301525
B0923454629979N00817371EA0145201524
B0923464629982N00817377EA0145101523
B0923474629985N00817383EA0145001522
B0923484629988N00817389EA0144901521
B0923494629991N00817394EA0144701519
B0923504629994N00817400EA0144601517
B0923514629997N00817407EA0144501516
B0923524630000N00817412EA0144401515
B0923534630003N00817418EA0144301514
B0923544630007N00817424EA0144101513
B0923554630010N00817430EA0144001512
B0923564630013N00817436EA0143901511
B0923574630016N00817442EA0143801510
B0923584630020N00817448EA0143701508
B0923594630023N00817454EA0143601507
B0924004630026N00817461EA0143501507
B0924014630028N00817467EA0143401506
B0924024630031N00817473EA0143301504
B0924034630034N00817478EA0143101503
B0924044630037N00817484EA0142901501
B0924054630041N00817491EA0142801500
B0924064630043N00817497EA0142701498
B0924074630046N00817503EA0142601498
B0924084630049N00817509EA0142501497
B0924094630051N00817515EA0142401496
B0924104630052N00817522EA0142301494
B0924114630051N00817529EA0142101492
B0924124630049N00817536EA0142001491
B0924134630047N00817543EA0141801490
B0924144630044N00817550EA0141701488
B0924154630041N00817557EA0141601487
B0924164630038N00817564EA0141501486
B0924174630034N00817571EA0141301484
B0924184630030N00817577EA0141201483
B0924194630025N00817582EA0141101482
B0924204630021N00817587EA0141001481
B0924214630016N00817592EA0140801479
B0924224630011N00817596EA0140701478
B0924234630005N00817600EA0140601477
B0924244630000N00817604EA0140401475
B0924254629994N00817606EA0140301474
B0924264629988N00817609EA0140201473
B0924274629982N00817610EA0140101471
B0924284629976N00817610EA0139901470
B0924294629969N00817609EA0139801468
B0924304629963N00817608EA0139701467
B0924314629957N00817606EA0139501466
B0924324629951N00817604EA0139401465
B0924334629945N00817601EA0139301464
B0924344629939N00817597EA0139201462
B0924354629934N00817593EA0139001461
B0924364629928N00817589EA0138901460
B0924374629922N00817585EA0138801459
B0924384629917N00817580EA0138701458
B0924394629912N00817575EA0138601457
B0924404629908N00817569EA0138501456
B0924414629903N00817564EA0138401455
B0924424629898N00817557EA0138401454
B0924434629894N00817551EA0138301453
B0924444629889N00817545EA0138201452
B0924454629885N00817538EA0138101452
B0924464629881N00817531EA0138101451
B0924474629878N00817524EA0138001450
B0924484629874N00817517EA0137901449
B0924494629871N00817509EA0137801448
B0924504629867N00817502EA0137701447
B0924514629864N00817494EA0137701447
B0924524629860N00817487EA0137601446
B0924534629856N00817479EA0137501445
B0924544629853N00817472EA0137401444
B0924554629850N00817465EA0137301443
B0924564629846N00817457EA0137101441
B0924574629843N00817450EA0137101440
B0924584629840N00817442EA0137001439
B0924594629837N00817434EA0136901438
B0925004629835N00817426EA0136801438
B0925014629833N00817419EA0136701437
B0925024629831N00817411EA0136601436
B0925034629829N00817403EA0136501435
B0925044629828N00817396EA0136501434
B0925054629826N00817389EA0136401434
B0925064629824N00817382EA0136301433
B0925074629823N00817375EA0136201432
B0925084629822N00817367EA0136101430
B0925094629822N00817359EA0136001429
B0925104629822N00817351EA0135901428
B0925114629823N00817344EA0135801427
B0925124629825N00817336EA0135701426
B0925134629828N00817330EA0135601425
B0925144629830N00817324EA0135501424
B0925154629834N00817318EA0135301423
B0925164629837N00817312EA0135201422
B0925174629840N00817307EA0135101420
B0925184629844N00817302EA0135001419
B0925194629848N00817297EA0134801418
B0925204629853N00817292EA0134701417
B0925214629856N00817287EA0134601415
B0925224629861N00817282EA0134501414
B0925234629865N00817278EA0134401413
B0925244629869N00817274EA0134401413
B0925254629872N00817269EA0134201412
B0925264629876N00817265EA0134101410
B0925274629880N00817261EA0134001409
B0925284629884N00817257EA0133801407
B0925294629888N00817253EA0133701406
B0925304629892N00817250EA0133601405
B0925314629897N00817246EA0133501404
B0925324629900N00817241EA0133401402
B0925334629904N00817236EA0133201401
B0925344629908N00817231EA0133101400
B0925354629911N00817227EA0132901398
B0925364629916N00817222EA0132801397
B0925374629919N00817218EA0132701396
B0925384629923N00817215EA0132601394
B0925394629928N00817212EA0132401393
B0925404629932N00817210EA0132301392
B0925414629937N00817209EA0132201391
B0925424629942N00817209EA0132101390
B0925434629946N00817210EA0132001389
B0925444629950N00817212EA0131901387
B0925454629954N00817213EA0131801386
B0925464629959N00817214EA0131601385
B0925474629964N00817213EA0131501384
B0925484629968N00817213EA0131401383
B0925494629972N00817214EA0131301381
B0925504629976N00817217EA0131101379
B0925514629979N00817223EA0130901377
B0925524629980N00817231EA0130701376
B0925534629979N00817238EA0130601375
B0925544629978N00817245EA0130601374
B0925554629976N00817250EA0130601374
B0925564629974N00817255EA0130501373
B0925574629974N00817261EA0130301371
B0925584629975N00817268EA0130101369
B0925594629978N00817275EA0129901367
B0926004629981N00817280EA0129801366
B0926014629984N00817284EA0129901367
B0926024629989N00817287EA0129801366
B0926034629992N00817289EA0129701365
B0926044629995N00817292EA0129601364
B0926054629998N00817296EA0129401362
B0926064630003N00817300EA0129101359
B0926074630006N00817304EA0128701355
B0926084630010N00817309EA0128501353
B0926094630014N00817314EA0128501353
B0926104630017N00817319EA0128501353
B0926114630020N00817324EA0128501353
B0926124630022N00817328EA0128501352
B0926134630024N00817330EA0128501353
B0926144630025N00817332EA0128601354
B0926154630026N00817333EA0128601354
B0926164630026N00817334EA0128601353
B0926174630026N00817334EA0128601353
B0926184630026N00817334EA0128601353
B0926194630026N00817334EA0128601353
B0926204630026N00817334EA0128601353
B0926214630026N00817334EA0128601353
B0926224630026N00817334EA0128601353
B0926234630026N00817334EA0128601353
B0926244630026N00817334EA0128601353
B0926254630026N00817334EA0128601353
B0926264630026N00817334EA0128601353
B0926274630026N00817334EA0128601353
B0926284630026N00817334EA0128601353
B0926294630026N00817334EA0128601353
B0926304630026N00817334EA0128601353
B0926314630026N00817334EA0128601353
B0926324630026N00817334EA0128601353
B0926334630026N00817333EA0128601353
B0926344630026N00817333EA0128601353
B0926354630026N00817333EA0128601353
B0926364630026N00817334EA0128601353
B0926374630026N00817333EA0128601353
B0926384630026N00817333EA0128601353
B0926394630026N00817333EA0128601353
B0926404630026N00817332EA0128601353
B0926414630026N00817332EA0128601353
B0926424630026N00817331EA0128601353
B0926434630026N00817331EA0128601353
B0926444630026N00817331EA0128601353
B0926454630026N00817330EA0128601353
B0926464630026N00817330EA0128601353
B0926474630026N00817330EA0128601353
B0926484630026N00817330EA0128601353
B0926494630026N00817330EA0128601352
B0926504630026N00817330EA0128601352
B0926514630026N00817330EA0128601352
B0926524630026N00817330EA0128601352
B0926534630027N00817330EA0128601352
B0926544630027N00817330EA0128601352
B0926554630027N00817330EA0128601352
B0926564630027N00817331EA0128601352
B0926574630027N00817331EA0128601352
B0926584630027N00817332EA0128601352
B0926594630027N00817333EA0128601352
B0927004630028N00817334EA0128601352
B0927014630028N00817335EA0128601352
B0927024630028N00817335EA0128601352
B0927034630028N00817337EA0128601352
B0927044630028N00817337EA0128601352
B0927054630029N00817338EA0128601352
B0927064630029N00817339EA0128601352
B0927074630029N00817340EA0128501352
B0927084630029N00817341EA0128601352
B0927094630029N00817342EA0128601352
B0927104630029N00817344EA0128601352
B0927114630029N00817345EA0128601352
B0927124630029N00817346EA0128601352
B0927134630029N00817347EA0128601352
B0927144630029N00817347EA0128601352
B0927154630030N00817348EA0128601352
B0927164630030N00817349EA0128601352
B0927174630031N00817349EA0128601352
B0927184630031N00817350EA0128601352
B0927194630031N00817350EA0128601352
B0927204630032N00817351EA0128601352
B0927214630032N00817352EA0128601352
B0927224630033N00817352EA0128601352
B0927234630033N00817353EA0128601352
B0927244630034N00817353EA0128601352
B0927254630035N00817354EA0128601352
B0927264630035N00817354EA0128601352
B0927274630035N00817354EA0128601352
B0927284630036N00817354EA0128701352
B0927294630036N00817354EA0128701352
B0927304630035N00817354EA0128701352
B0927314630035N00817355EA0128701352
B0927324630035N00817354EA0128701352
B0927334630035N00817354EA0128701352
B0927344630036N00817354EA0128701352
B0927354630036N00817354EA0128701352
B0927364630036N00817354EA0128701352
B0927374630037N00817354EA0128701352
B0927384630037N00817353EA0128701352
B0927394630038N00817353EA0128701353
B0927404630038N00817353EA0128801353
B0927414630038N00817352EA0128801353
B0927424630039N00817352EA0128801353
B0927434630039N00817351EA0128801353
B0927444630039N00817352EA0128801354
B0927454630040N00817352EA0128801354
B0927464630040N00817352EA0128901354
B0927474630041N00817351EA0128901354
B0927484630041N00817351EA0128901354
B0927494630041N00817350EA0128901354
B0927504630041N00817350EA0128901354
B0927514630042N00817350EA0128901354
B0927524630042N00817349EA0128901354
B0927534630042N00817349EA0128901354
B0927544630042N00817349EA0128901354
B0927554630042N00817349EA0128901354
B0927564630042N00817349EA0128901354
B0927574630042N00817349EA0128901354
B0927584630042N00817349EA0128901354
B0927594630042N00817349EA0128901354
B0928004630043N00817349EA0128901354
B0928014630043N00817349EA0128901354
LXSX;C1;GM:1.3
LXSX;S1;TS:1695199474;TL:1695202081;AS:2151;AL:1354;AT:2547;AB:1352
LXSX;S1;XS:0;XD:19.22;SP:53.0;MC:3.2;MS:-2.5;NB:2609
LXSX;S1;FL:27.9;TG:479;TC:0.9;AG:1052;GM:1.3
LXSX;S1;X0:46.41425,8.10792
LXSX;S1;X1:46.41465,8.11802
LXSX;S1;X2:46.41913,8.10642
LXSX;S1;X3:46.50042,8.29303
LXSX;S1;X4:46.49747,8.28828
G4617FE0C714F67A15D512F7885D3352C
