AXSX005 SKYTRAXX
HFPLTPILOT:Sepp Bucher
HFGTYGLIDERTYPE:Advance Sigma11
HFDTM100GPSDATUM:WGS-84
HFRFWFIRMWAREVERSION:202303142340
HFRHWHARDWAREVERSION:4.0
HFTZNTIMEZONE:+2.00
HFSITSITE:Colli di San Fermo 
HFDTE140423
LXSX;I1;OAB:20230410;OOB:20230103
LXSX;I1;ID:114075
LXSX;I1;AC:1;CAT:C
B1100464544582N00956897EA0135401280
B1100474544583N00956898EA0135401280
B1100484544583N00956898EA0135501280
B1100494544583N00956897EA0135501280
B1100504544583N00956897EA0135501280
B1100514544583N00956897EA0135501280
B1100524544583N00956897EA0135501280
B1100534544583N00956897EA0135501280
B1100544544583N00956897EA0135501280
B1100554544583N00956897EA0135401280
B1100564544583N00956897EA0135501280
B1100574544583N00956897EA0135501280
B1100584544582N00956896EA0135301279
B1100594544581N00956895EA0135301279
B1101004544581N00956894EA0135301278
B1101014544580N00956892EA0135201278
B1101024544579N00956890EA0135101277
B1101034544577N00956889EA0135101276
B1101044544575N00956887EA0134901275
B1101054544573N00956886EA0134701273
B1101064544570N00956885EA0134601272
B1101074544567N00956884EA0134501271
B1101084544564N00956883EA0134401270
B1101094544561N00956882EA0134301269
B1101104544558N00956883EA0134301269
B1101114544555N00956884EA0134301269
B1101124544551N00956884EA0134201268
B1101134544548N00956883EA0134101267
B1101144544544N00956880EA0134001266
B1101154544541N00956879EA0134001265
B1101164544537N00956878EA0133901265
B1101174544535N00956877EA0133801264
B1101184544532N00956877EA0133701262
B1101194544529N00956875EA0133501260
B1101204544525N00956873EA0133501261
B1101214544521N00956871EA0133201258
B1101224544517N00956869EA0133101257
B1101234544514N00956868EA0133101256
B1101244544510N00956867EA0133001256
B1101254544507N00956865EA0133101256
B1101264544504N00956864EA0133101256
B1101274544501N00956863EA0133101256
B1101284544497N00956863EA0133101256
B1101294544493N00956863EA0133101256
B1101304544489N00956864EA0133101257
B1101314544485N00956864EA0133101257
B1101324544482N00956864EA0133201257
B1101334544478N00956865EA0133201257
B1101344544475N00956865EA0133001256
B1101354544472N00956866EA0132901254
B1101364544467N00956868EA0132701253
B1101374544462N00956871EA0132801253
B1101384544458N00956873EA0132801254
B1101394544455N00956875EA0132901255
B1101404544451N00956877EA0132901254
B1101414544448N00956879EA0132801253
B1101424544443N00956882EA0132601251
B1101434544438N00956885EA0132501250
B1101444544434N00956888EA0132401249
B1101454544429N00956892EA0132401250
B1101464544425N00956896EA0132501250
B1101474544421N00956899EA0132601251
B1101484544417N00956902EA0132501250
B1101494544413N00956904EA0132401250
B1101504544409N00956908EA0132401249
B1101514544405N00956912EA0132401249
B1101524544401N00956916EA0132301248
B1101534544397N00956920EA0132201247
B1101544544393N00956924EA0132001246
B1101554544388N00956929EA0131901244
B1101564544384N00956934EA0131801244
B1101574544380N00956938EA0131801243
B1101584544376N00956943EA0131701242
B1101594544371N00956947EA0131601242
B1102004544367N00956951EA0131501240
B1102014544363N00956955EA0131401239
B1102024544358N00956959EA0131301238
B1102034544354N00956963EA0131201237
B1102044544350N00956968EA0131201237
B1102054544345N00956972EA0131301238
B1102064544342N00956975EA0131301238
B1102074544338N00956978EA0131301238
B1102084544334N00956982EA0131301238
B1102094544330N00956987EA0131301238
B1102104544326N00956992EA0131401239
B1102114544322N00956998EA0131501240
B1102124544318N00957004EA0131701242
B1102134544315N00957011EA0131901244
B1102144544314N00957018EA0132001245
B1102154544313N00957026EA0132001245
B1102164544312N00957034EA0132001245
B1102174544310N00957042EA0132001245
B1102184544308N00957049EA0132001245
B1102194544306N00957055EA0132101245
B1102204544304N00957060EA0132001244
B1102214544301N00957064EA0131801243
B1102224544298N00957065EA0131601241
B1102234544294N00957063EA0131401239
B1102244544292N00957059EA0131301237
B1102254544291N00957054EA0131201237
B1102264544292N00957049EA0131201237
B1102274544295N00957045EA0131201237
B1102284544299N00957041EA0131201236
B1102294544302N00957037EA0131301237
B1102304544307N00957034EA0131401238
B1102314544312N00957031EA0131501240
B1102324544317N00957029EA0131701241
B1102334544321N00957028EA0131901244
B1102344544326N00957027EA0132201246
B1102354544330N00957026EA0132301248
B1102364544332N00957023EA0132301247
B1102374544333N00957018EA0132201246
B1102384544334N00957012EA0132201246
B1102394544333N00957006EA0132301247
B1102404544331N00957003EA0132401249
B1102414544329N00957002EA0132601250
B1102424544326N00957001EA0132601251
B1102434544323N00957002EA0132601250
B1102444544320N00957003EA0132501249
B1102454544316N00957005EA0132401248
B1102464544312N00957010EA0132301247
B1102474544308N00957018EA0132201247
B1102484544307N00957027EA0132201246
B1102494544308N00957037EA0132101245
B1102504544311N00957048EA0132201246
B1102514544313N00957058EA0132401248
B1102524544315N00957068EA0132801252
B1102534544315N00957077EA0133101255
B1102544544315N00957084EA0133401259
B1102554544314N00957089EA0133601260
B1102564544311N00957093EA0133601260
B1102574544306N00957097EA0133601260
B1102584544302N00957098EA0133601261
B1102594544298N00957097EA0133601260
B1103004544296N00957094EA0133501259
B1103014544295N00957089EA0133501259
B1103024544296N00957085EA0133401258
B1103034544296N00957080EA0133401258
B1103044544299N00957075EA0133301256
B1103054544303N00957070EA0133101255
B1103064544309N00957068EA0133001254
B1103074544314N00957066EA0133101254
B1103084544319N00957064EA0133101255
B1103094544324N00957061EA0133101255
B1103104544328N00957058EA0133201256
B1103114544332N00957055EA0133201256
B1103124544337N00957052EA0133201256
B1103134544342N00957049EA0133201256
B1103144544346N00957045EA0133301257
B1103154544349N00957041EA0133401258
B1103164544350N00957036EA0133501258
B1103174544349N00957031EA0133501259
B1103184544347N00957028EA0133601259
B1103194544344N00957026EA0133601260
B1103204544341N00957025EA0133601260
B1103214544336N00957027EA0133701261
B1103224544333N00957030EA0133801262
B1103234544331N00957035EA0133801261
B1103244544329N00957042EA0133601260
B1103254544329N00957050EA0133501259
B1103264544330N00957060EA0133401258
B1103274544332N00957069EA0133301257
B1103284544334N00957078EA0133301257
B1103294544336N00957087EA0133401257
B1103304544337N00957095EA0133401257
B1103314544339N00957104EA0133401257
B1103324544340N00957113EA0133401258
B1103334544340N00957122EA0133501258
B1103344544339N00957130EA0133401258
B1103354544337N00957139EA0133401258
B1103364544334N00957146EA0133601259
B1103374544331N00957151EA0133701261
B1103384544328N00957155EA0133901262
B1103394544324N00957158EA0134001263
B1103404544321N00957159EA0134001264
B1103414544318N00957157EA0134101264
B1103424544315N00957154EA0134101264
B1103434544314N00957150EA0134001264
B1103444544315N00957144EA0134001263
B1103454544318N00957140EA0133901262
B1103464544322N00957136EA0133701260
B1103474544328N00957136EA0133401258
B1103484544334N00957138EA0133301256
B1103494544340N00957143EA0133101254
B1103504544345N00957150EA0132901252
B1103514544347N00957159EA0132901252
B1103524544347N00957168EA0132901252
B1103534544346N00957176EA0133001253
B1103544544345N00957183EA0133101254
B1103554544344N00957190EA0133201256
B1103564544342N00957196EA0133201255
B1103574544339N00957201EA0133201255
B1103584544336N00957207EA0133201255
B1103594544332N00957211EA0133401257
B1104004544328N00957215EA0133701260
B1104014544326N00957218EA0134201265
B1104024544324N00957220EA0134401267
B1104034544323N00957222EA0134501268
B1104044544319N00957225EA0134401267
B1104054544316N00957229EA0134401267
B1104064544312N00957234EA0134401267
B1104074544309N00957238EA0134601269
B1104084544307N00957242EA0134701270
B1104094544306N00957247EA0134801271
B1104104544305N00957254EA0134801271
B1104114544306N00957262EA0134801271
B1104124544307N00957270EA0134901272
B1104134544308N00957277EA0135101274
B1104144544309N00957284EA0135401277
B1104154544311N00957290EA0135601279
B1104164544313N00957295EA0135801281
B1104174544312N00957302EA0136001283
B1104184544310N00957308EA0136201284
B1104194544307N00957314EA0136301286
B1104204544303N00957317EA0136901291
B1104214544300N00957318EA0137101294
B1104224544297N00957316EA0137201295
B1104234544294N00957312EA0137501298
B1104244544292N00957308EA0137801301
B1104254544291N00957304EA0137901301
B1104264544292N00957301EA0137901302
B1104274544292N00957297EA0137801301
B1104284544293N00957292EA0137801301
B1104294544293N00957286EA0138001302
B1104304544295N00957282EA0138101304
B1104314544299N00957279EA0138101304
B1104324544304N00957280EA0138101304
B1104334544309N00957284EA0138201305
B1104344544313N00957290EA0138301305
B1104354544315N00957298EA0138301306
B1104364544316N00957306EA0138401307
B1104374544318N00957314EA0138801311
B1104384544320N00957321EA0139201314
B1104394544325N00957327EA0139401317
B1104404544330N00957332EA0139701319
B1104414544334N00957335EA0139901322
B1104424544339N00957337EA0140201324
B1104434544343N00957338EA0140301326
B1104444544348N00957336EA0140401327
B1104454544353N00957332EA0140401327
B1104464544357N00957325EA0140601329
B1104474544358N00957318EA0140701330
B1104484544360N00957311EA0140901332
B1104494544359N00957306EA0141101334
B1104504544358N00957300EA0141301336
B1104514544357N00957295EA0141501338
B1104524544355N00957290EA0141701340
B1104534544352N00957286EA0141801341
B1104544544348N00957284EA0141901341
B1104554544344N00957283EA0142001342
B1104564544339N00957282EA0142101344
B1104574544336N00957281EA0142301345
B1104584544332N00957279EA0142301346
B1104594544328N00957276EA0142401346
B1105004544325N00957272EA0142401347
B1105014544322N00957268EA0142501347
B1105024544319N00957263EA0142501348
B1105034544317N00957260EA0142501348
B1105044544314N00957257EA0142401347
B1105054544310N00957253EA0142401346
B1105064544305N00957250EA0142201345
B1105074544301N00957245EA0142201345
B1105084544297N00957241EA0142401347
B1105094544295N00957236EA0142601349
B1105104544293N00957232EA0142701350
B1105114544292N00957227EA0142701350
B1105124544291N00957222EA0142701350
B1105134544289N00957217EA0142701349
B1105144544286N00957213EA0142601349
B1105154544283N00957209EA0142601348
B1105164544281N00957204EA0142501348
B1105174544279N00957198EA0142601348
B1105184544279N00957193EA0142601348
B1105194544279N00957187EA0142601348
B1105204544282N00957181EA0142501347
B1105214544286N00957177EA0142401347
B1105224544291N00957174EA0142401347
B1105234544297N00957173EA0142401346
B1105244544303N00957175EA0142401347
B1105254544309N00957177EA0142401347
B1105264544315N00957179EA0142401347
B1105274544320N00957180EA0142401347
B1105284544327N00957178EA0142401347
B1105294544332N00957173EA0142501347
B1105304544336N00957168EA0142501348
B1105314544338N00957162EA0142701349
B1105324544339N00957156EA0142801351
B1105334544339N00957150EA0143101354
B1105344544337N00957145EA0143301356
B1105354544336N00957141EA0143501358
B1105364544335N00957137EA0143601359
B1105374544333N00957133EA0143701359
B1105384544331N00957130EA0143701359
B1105394544329N00957127EA0143701359
B1105404544325N00957123EA0143701359
B1105414544321N00957120EA0143801360
B1105424544317N00957118EA0143901362
B1105434544314N00957115EA0144101364
B1105444544310N00957114EA0144301365
B1105454544306N00957112EA0144501367
B1105464544304N00957109EA0144701369
B1105474544301N00957105EA0144801371
B1105484544300N00957101EA0145001372
B1105494544300N00957097EA0145101374
B1105504544299N00957093EA0145201374
B1105514544299N00957089EA0145201374
B1105524544298N00957085EA0145101374
B1105534544298N00957080EA0145101373
B1105544544298N00957074EA0145001372
B1105554544300N00957068EA0145001372
B1105564544302N00957062EA0145001372
B1105574544304N00957057EA0144901372
B1105584544306N00957052EA0144801371
B1105594544309N00957047EA0144701370
B1106004544312N00957043EA0144801370
B1106014544315N00957038EA0144801370
B1106024544317N00957032EA0144801371
B1106034544318N00957027EA0144801370
B1106044544319N00957022EA0144701369
B1106054544320N00957016EA0144501368
B1106064544321N00957011EA0144401367
B1106074544322N00957005EA0144301366
B1106084544322N00956999EA0144301365
B1106094544321N00956993EA0144201364
B1106104544320N00956987EA0144101363
B1106114544320N00956982EA0144001362
B1106124544320N00956976EA0143901361
B1106134544320N00956971EA0143801360
B1106144544320N00956965EA0143701359
B1106154544319N00956959EA0143601358
B1106164544318N00956953EA0143501357
B1106174544317N00956947EA0143501357
B1106184544315N00956941EA0143601359
B1106194544315N00956936EA0143701359
B1106204544315N00956932EA0143501357
B1106214544318N00956927EA0143201354
B1106224544323N00956924EA0143001352
B1106234544329N00956922EA0142801350
B1106244544335N00956924EA0142601348
B1106254544340N00956930EA0142401346
B1106264544344N00956937EA0142301345
B1106274544347N00956944EA0142301345
B1106284544351N00956950EA0142201344
B1106294544354N00956955EA0142101343
B1106304544359N00956961EA0141901341
B1106314544364N00956967EA0141701339
B1106324544368N00956973EA0141601338
B1106334544373N00956979EA0141601338
B1106344544378N00956981EA0141401336
B1106354544383N00956981EA0141101333
B1106364544388N00956978EA0140901331
B1106374544392N00956972EA0140901331
B1106384544394N00956966EA0140801330
B1106394544393N00956960EA0140701329
B1106404544390N00956956EA0140701329
B1106414544387N00956954EA0140601328
B1106424544382N00956954EA0140501327
B1106434544378N00956956EA0140401326
B1106444544374N00956959EA0140301325
B1106454544369N00956962EA0140201324
B1106464544364N00956962EA0140101323
B1106474544360N00956960EA0139901321
B1106484544357N00956956EA0139801320
B1106494544355N00956951EA0139601318
B1106504544355N00956945EA0139501317
B1106514544355N00956940EA0139501317
B1106524544357N00956935EA0139401316
B1106534544360N00956931EA0139201314
B1106544544365N00956929EA0139001312
B1106554544370N00956928EA0138801310
B1106564544376N00956931EA0138701308
B1106574544381N00956936EA0138501307
B1106584544386N00956942EA0138401306
B1106594544389N00956949EA0138301305
B1107004544393N00956955EA0138301304
B1107014544398N00956961EA0138201303
B1107024544401N00956967EA0138101303
B1107034544405N00956973EA0138101302
B1107044544409N00956979EA0138001302
B1107054544413N00956985EA0138001302
B1107064544418N00956989EA0138001302
B1107074544423N00956993EA0138001301
B1107084544428N00956998EA0137901301
B1107094544433N00957002EA0137901301
B1107104544438N00957005EA0137801300
B1107114544443N00957009EA0137801299
B1107124544448N00957011EA0137701299
B1107134544454N00957012EA0137701299
B1107144544460N00957013EA0137701299
B1107154544465N00957015EA0137601298
B1107164544470N00957017EA0137601297
B1107174544475N00957018EA0137501296
B1107184544481N00957018EA0137401295
B1107194544487N00957018EA0137301294
B1107204544493N00957017EA0137201293
B1107214544498N00957016EA0137201293
B1107224544503N00957015EA0137101293
B1107234544508N00957015EA0137101292
B1107244544513N00957015EA0137001291
B1107254544519N00957015EA0136801290
B1107264544524N00957013EA0136701289
B1107274544529N00957011EA0136601287
B1107284544534N00957008EA0136501286
B1107294544539N00957005EA0136401286
B1107304544543N00957001EA0136401285
B1107314544546N00956996EA0136301284
B1107324544549N00956991EA0136301284
B1107334544552N00956986EA0136201284
B1107344544556N00956981EA0136201284
B1107354544559N00956977EA0136201283
B1107364544563N00956972EA0136201283
B1107374544566N00956968EA0136201283
B1107384544570N00956964EA0136101283
B1107394544574N00956960EA0136201283
B1107404544577N00956957EA0136301284
B1107414544579N00956954EA0136201284
B1107424544580N00956950EA0136101282
B1107434544581N00956946EA0135901280
B1107444544581N00956942EA0135701279
B1107454544582N00956939EA0135701279
B1107464544582N00956936EA0135701279
B1107474544582N00956935EA0135801279
B1107484544582N00956934EA0135701279
B1107494544582N00956933EA0135701279
B1107504544581N00956931EA0135701279
B1107514544581N00956930EA0135701279
B1107524544581N00956929EA0135701279
B1107534544580N00956928EA0135701279
B1107544544580N00956927EA0135701278
B1107554544580N00956926EA0135701278
B1107564544581N00956926EA0135701279
B1107574544581N00956925EA0135701279
B1107584544581N00956925EA0135701279
B1107594544581N00956925EA0135701279
B1108004544581N00956925EA0135701279
B1108014544581N00956925EA0135701279
B1108024544582N00956925EA0135801279
B1108034544582N00956925EA0135801279
B1108044544582N00956925EA0135801279
B1108054544582N00956925EA0135801279
B1108064544582N00956925EA0135801279
B1108074544582N00956925EA0135801279
B1108084544582N00956925EA0135701279
B1108094544582N00956925EA0135801279
B1108104544582N00956925EA0135801279
B1108114544582N00956924EA0135801279
B1108124544582N00956925EA0135801279
B1108134544582N00956924EA0135701279
B1108144544582N00956924EA0135701279
B1108154544582N00956924EA0135701279
B1108164544582N00956924EA0135801279
B1108174544583N00956923EA0135801279
B1108184544583N00956923EA0135801279
B1108194544584N00956923EA0135801279
B1108204544584N00956923EA0135701279
B1108214544585N00956924EA0135801279
LXSX;C1;GM:1.2
GD2746E7EBDE8BD4C972A7C0E444B4130
