AXSX005 SKYTRAXX
HFPLTPILOT:Sepp Bucher
HFGTYGLIDERTYPE:Niviuk Artik R
HFDTM100GPSDATUM:WGS-84
HFRFWFIRMWAREVERSION:202303142340
HFRHWHARDWAREVERSION:4.0
HFTZNTIMEZONE:+3.00
HFSITSITE:Daugavpils_Loc
HFDTE190623
LXSX;I1;OAB:20230619;OOB:20230103
LXSX;I1;ID:114075
LXSX;I1;AC:1;CAT:C
B0848115556150N02639473EA0009700124
B0848125556151N02639473EA0009700124
B0848135556151N02639473EA0009700124
B0848145556151N02639473EA0009700124
B0848155556151N02639473EA0009700124
B0848165556151N02639473EA0009700124
B0848175556151N02639473EA0009700124
B0848185556151N02639473EA0009700124
B0848195556151N02639473EA0009700124
B0848205556151N02639473EA0009700124
B0848215556151N02639473EA0009700124
B0848225556150N02639475EA0009700124
B0848235556150N02639475EA0009700124
B0848245556150N02639475EA0009700124
B0848255556150N02639477EA0009700123
B0848265556150N02639480EA0009600122
B0848275556149N02639485EA0009400121
B0848285556148N02639491EA0009400120
B0848295556147N02639497EA0009700123
B0848305556144N02639502EA0010300130
B0848315556142N02639505EA0010700133
B0848325556139N02639510EA0010900135
B0848335556136N02639516EA0011100138
B0848345556134N02639523EA0011500142
B0848355556132N02639528EA0011900145
B0848365556128N02639532EA0012200149
B0848375556126N02639537EA0012400151
B0848385556123N02639544EA0012700154
B0848395556120N02639551EA0013100158
B0848405556117N02639557EA0013400161
B0848415556114N02639562EA0013800165
B0848425556111N02639567EA0014100168
B0848435556107N02639572EA0014400171
B0848445556104N02639577EA0014700174
B0848455556101N02639583EA0015000177
B0848465556098N02639588EA0015300180
B0848475556096N02639594EA0015700183
B0848485556095N02639599EA0016000187
B0848495556092N02639604EA0016300189
B0848505556090N02639610EA0016600192
B0848515556089N02639617EA0016800195
B0848525556088N02639624EA0017100198
B0848535556088N02639630EA0017400201
B0848545556088N02639635EA0017600203
B0848555556089N02639641EA0017800205
B0848565556089N02639647EA0018100207
B0848575556090N02639652EA0018400211
B0848585556092N02639656EA0018700214
B0848595556096N02639659EA0019000217
B0849005556099N02639662EA0019300220
B0849015556102N02639666EA0019500222
B0849025556106N02639668EA0019700224
B0849035556111N02639669EA0020000227
B0849045556115N02639670EA0020300230
B0849055556120N02639671EA0020600233
B0849065556124N02639672EA0020900236
B0849075556128N02639674EA0021200239
B0849085556132N02639677EA0021600243
B0849095556136N02639681EA0022000247
B0849105556140N02639684EA0022400251
B0849115556143N02639687EA0022700254
B0849125556147N02639691EA0022900256
B0849135556150N02639696EA0023200259
B0849145556153N02639702EA0023500262
B0849155556156N02639706EA0023900266
B0849165556159N02639710EA0024100268
B0849175556163N02639713EA0024300270
B0849185556167N02639717EA0024500272
B0849195556171N02639722EA0024700274
B0849205556175N02639727EA0025000277
B0849215556179N02639732EA0025400281
B0849225556182N02639737EA0025600284
B0849235556186N02639741EA0025900286
B0849245556190N02639746EA0026200289
B0849255556193N02639751EA0026600293
B0849265556197N02639755EA0026800295
B0849275556201N02639760EA0027100298
B0849285556204N02639764EA0027400302
B0849295556208N02639769EA0027800306
B0849305556211N02639774EA0028100309
B0849315556215N02639777EA0028300311
B0849325556220N02639780EA0028600313
B0849335556224N02639784EA0029000317
B0849345556229N02639788EA0029300321
B0849355556233N02639792EA0029700325
B0849365556237N02639797EA0030100329
B0849375556240N02639802EA0030400332
B0849385556244N02639807EA0030700335
B0849395556248N02639811EA0031100339
B0849405556253N02639815EA0031500343
B0849415556258N02639819EA0032000347
B0849425556263N02639823EA0032500352
B0849435556267N02639828EA0032900357
B0849445556272N02639831EA0033400362
B0849455556276N02639835EA0033700365
B0849465556280N02639840EA0034000368
B0849475556284N02639846EA0034200371
B0849485556288N02639850EA0034500373
B0849495556294N02639855EA0034700375
B0849505556299N02639860EA0034900377
B0849515556303N02639866EA0035200381
B0849525556307N02639872EA0035400383
B0849535556313N02639878EA0035600384
B0849545556319N02639884EA0035700385
B0849555556324N02639891EA0035900387
B0849565556329N02639898EA0036200391
B0849575556334N02639904EA0036700395
B0849585556337N02639909EA0037000399
B0849595556342N02639912EA0037100400
B0850005556348N02639915EA0037300401
B0850015556355N02639917EA0037500403
B0850025556361N02639922EA0037800406
B0850035556368N02639927EA0038000409
B0850045556374N02639931EA0038400413
B0850055556380N02639936EA0038700416
B0850065556385N02639942EA0039200420
B0850075556390N02639948EA0039500424
B0850085556395N02639954EA0039800427
B0850095556400N02639960EA0040100430
B0850105556405N02639965EA0040400433
B0850115556411N02639970EA0040600435
B0850125556417N02639974EA0041100440
B0850135556423N02639979EA0041600445
B0850145556428N02639983EA0042200451
B0850155556433N02639986EA0042700456
B0850165556438N02639989EA0043000459
B0850175556444N02639992EA0043400462
B0850185556450N02639994EA0043600465
B0850195556456N02639996EA0044000469
B0850205556463N02639999EA0044400473
B0850215556469N02640001EA0044800477
B0850225556476N02640004EA0045100480
B0850235556483N02640007EA0045400483
B0850245556489N02640010EA0045700486
B0850255556496N02640014EA0046100490
B0850265556502N02640018EA0046500494
B0850275556509N02640022EA0046900498
B0850285556515N02640026EA0047200501
B0850295556522N02640030EA0047600505
B0850305556528N02640034EA0048000509
B0850315556535N02640037EA0048300512
B0850325556542N02640040EA0048600515
B0850335556549N02640043EA0048900518
B0850345556556N02640046EA0049300522
B0850355556564N02640049EA0049600526
B0850365556571N02640052EA0050100531
B0850375556577N02640056EA0050500535
B0850385556584N02640060EA0050900538
B0850395556591N02640065EA0051200541
B0850405556597N02640070EA0051500545
B0850415556604N02640075EA0052000549
B0850425556610N02640079EA0052200552
B0850435556617N02640082EA0052600555
B0850445556624N02640085EA0052900559
B0850455556630N02640088EA0053200561
B0850465556637N02640092EA0053400564
B0850475556644N02640095EA0053700566
B0850485556650N02640100EA0053900569
B0850495556656N02640104EA0054300573
B0850505556662N02640107EA0054600576
B0850515556668N02640110EA0054800577
B0850525556674N02640113EA0054900579
B0850535556681N02640117EA0055200581
B0850545556687N02640121EA0055500584
B0850555556693N02640125EA0055700587
B0850565556699N02640129EA0056000590
B0850575556705N02640133EA0056300593
B0850585556711N02640138EA0056400594
B0850595556717N02640142EA0056600596
B0851005556723N02640147EA0056900599
B0851015556729N02640150EA0057100602
B0851025556735N02640152EA0057300603
B0851035556742N02640156EA0057500605
B0851045556748N02640159EA0057800608
B0851055556754N02640162EA0058000611
B0851065556761N02640165EA0058200612
B0851075556767N02640168EA0058400614
B0851085556771N02640171EA0058300613
B0851095556776N02640173EA0058300613
B0851105556781N02640173EA0058200612
B0851115556787N02640174EA0058000610
B0851125556794N02640174EA0057800608
B0851135556801N02640174EA0057700607
B0851145556807N02640173EA0057600606
B0851155556814N02640170EA0057400605
B0851165556821N02640166EA0057300603
B0851175556828N02640160EA0057200602
B0851185556834N02640153EA0057100601
B0851195556840N02640145EA0057000600
B0851205556846N02640136EA0056800599
B0851215556852N02640126EA0056600597
B0851225556857N02640115EA0056500596
B0851235556861N02640103EA0056300594
B0851245556865N02640090EA0056200593
B0851255556868N02640076EA0056000591
B0851265556871N02640063EA0055800589
B0851275556874N02640049EA0055700588
B0851285556876N02640035EA0055600586
B0851295556877N02640022EA0055400585
B0851305556879N02640007EA0055200582
B0851315556880N02639993EA0054900580
B0851325556883N02639978EA0054700578
B0851335556885N02639962EA0054500576
B0851345556887N02639948EA0054400575
B0851355556888N02639934EA0054300574
B0851365556889N02639920EA0054100572
B0851375556890N02639906EA0053800569
B0851385556892N02639892EA0053500566
B0851395556892N02639878EA0053300564
B0851405556893N02639864EA0053100562
B0851415556892N02639850EA0052900561
B0851425556892N02639836EA0052800559
B0851435556892N02639823EA0052600558
B0851445556891N02639810EA0052500556
B0851455556891N02639798EA0052200554
B0851465556890N02639785EA0052000551
B0851475556889N02639772EA0051800549
B0851485556888N02639759EA0051700548
B0851495556887N02639746EA0051500547
B0851505556886N02639734EA0051400546
B0851515556885N02639722EA0051300545
B0851525556884N02639709EA0051100543
B0851535556884N02639697EA0051000541
B0851545556882N02639685EA0050800540
B0851555556881N02639673EA0050700538
B0851565556880N02639661EA0050500536
B0851575556878N02639650EA0050300535
B0851585556876N02639638EA0050100533
B0851595556874N02639627EA0050000531
B0852005556872N02639616EA0049800529
B0852015556871N02639605EA0049600528
B0852025556868N02639594EA0049500526
B0852035556867N02639582EA0049300525
B0852045556865N02639571EA0049200524
B0852055556863N02639560EA0049000522
B0852065556861N02639548EA0048900521
B0852075556859N02639537EA0048800520
B0852085556856N02639527EA0048700519
B0852095556854N02639516EA0048600518
B0852105556853N02639504EA0048500517
B0852115556851N02639493EA0048400516
B0852125556849N02639482EA0048200514
B0852135556847N02639471EA0048100513
B0852145556844N02639460EA0048000512
B0852155556843N02639449EA0047800510
B0852165556841N02639436EA0047600508
B0852175556839N02639423EA0047500507
B0852185556837N02639411EA0047300505
B0852195556834N02639400EA0047200504
B0852205556831N02639389EA0047100504
B0852215556829N02639378EA0047000502
B0852225556827N02639367EA0046800500
B0852235556825N02639355EA0046600498
B0852245556822N02639343EA0046500497
B0852255556819N02639332EA0046300496
B0852265556816N02639321EA0046200495
B0852275556814N02639310EA0046100493
B0852285556811N02639299EA0045900491
B0852295556808N02639288EA0045700489
B0852305556804N02639277EA0045500487
B0852315556801N02639266EA0045300486
B0852325556797N02639255EA0045200485
B0852335556794N02639245EA0045100483
B0852345556790N02639234EA0045000483
B0852355556786N02639225EA0044900482
B0852365556783N02639215EA0044800481
B0852375556780N02639206EA0044600479
B0852385556777N02639196EA0044500477
B0852395556773N02639186EA0044300475
B0852405556770N02639176EA0044000473
B0852415556767N02639166EA0043900471
B0852425556764N02639156EA0043700469
B0852435556761N02639145EA0043500467
B0852445556759N02639134EA0043200465
B0852455556756N02639122EA0043000462
B0852465556754N02639111EA0042800461
B0852475556752N02639100EA0042500458
B0852485556749N02639090EA0042200454
B0852495556746N02639080EA0041900451
B0852505556743N02639069EA0041600448
B0852515556738N02639057EA0041400447
B0852525556735N02639047EA0041400447
B0852535556732N02639038EA0041400446
B0852545556730N02639030EA0041300446
B0852555556727N02639021EA0041200444
B0852565556724N02639012EA0040900442
B0852575556720N02639002EA0040700440
B0852585556717N02638993EA0040600438
B0852595556713N02638984EA0040400437
B0853005556710N02638975EA0040300436
B0853015556706N02638968EA0040200435
B0853025556702N02638960EA0039900432
B0853035556698N02638953EA0039600429
B0853045556694N02638945EA0039300426
B0853055556689N02638936EA0039000423
B0853065556685N02638927EA0038700420
B0853075556680N02638918EA0038600419
B0853085556675N02638910EA0038500418
B0853095556670N02638902EA0038400416
B0853105556667N02638894EA0038300416
B0853115556663N02638885EA0038200414
B0853125556659N02638876EA0038000413
B0853135556656N02638866EA0037800411
B0853145556651N02638857EA0037600408
B0853155556648N02638848EA0037400407
B0853165556644N02638840EA0037200405
B0853175556641N02638832EA0037000402
B0853185556637N02638825EA0036700399
B0853195556634N02638817EA0036300396
B0853205556629N02638810EA0036000393
B0853215556625N02638803EA0035700390
B0853225556621N02638796EA0035400387
B0853235556616N02638789EA0035100384
B0853245556612N02638783EA0034900381
B0853255556608N02638775EA0034600379
B0853265556604N02638767EA0034300376
B0853275556600N02638759EA0034100374
B0853285556596N02638751EA0033900371
B0853295556592N02638743EA0033700370
B0853305556588N02638736EA0033500368
B0853315556584N02638728EA0033300366
B0853325556580N02638720EA0033200364
B0853335556576N02638713EA0033000363
B0853345556572N02638705EA0032800361
B0853355556568N02638697EA0032600359
B0853365556564N02638691EA0032500357
B0853375556560N02638684EA0032400356
B0853385556555N02638677EA0032300356
B0853395556551N02638671EA0032200355
B0853405556547N02638664EA0032100354
B0853415556543N02638658EA0032000352
B0853425556538N02638651EA0031800351
B0853435556532N02638644EA0031800351
B0853445556528N02638637EA0031900352
B0853455556524N02638630EA0032000353
B0853465556521N02638624EA0032100353
B0853475556517N02638619EA0032000353
B0853485556513N02638614EA0032000353
B0853495556510N02638611EA0031900352
B0853505556505N02638608EA0031900351
B0853515556500N02638605EA0031800351
B0853525556495N02638601EA0031700350
B0853535556489N02638596EA0031600349
B0853545556484N02638589EA0031500348
B0853555556479N02638579EA0031400347
B0853565556476N02638567EA0031300346
B0853575556473N02638555EA0031200344
B0853585556470N02638541EA0031100344
B0853595556468N02638528EA0031200344
B0854005556466N02638514EA0031200345
B0854015556466N02638500EA0031100344
B0854025556466N02638485EA0031100343
B0854035556467N02638472EA0031000343
B0854045556469N02638459EA0030900341
B0854055556472N02638447EA0030700340
B0854065556477N02638438EA0030700339
B0854075556481N02638430EA0030600338
B0854085556486N02638424EA0030400337
B0854095556491N02638421EA0030300336
B0854105556496N02638421EA0030200334
B0854115556501N02638424EA0030100334
B0854125556505N02638427EA0030100333
B0854135556508N02638430EA0030000333
B0854145556511N02638433EA0030000333
B0854155556513N02638437EA0030000332
B0854165556516N02638442EA0030000333
B0854175556518N02638446EA0030100334
B0854185556520N02638450EA0030200335
B0854195556522N02638453EA0030200335
B0854205556525N02638455EA0030100334
B0854215556528N02638458EA0030100334
B0854225556532N02638462EA0030100334
B0854235556535N02638466EA0030100334
B0854245556539N02638470EA0030200335
B0854255556542N02638472EA0030200335
B0854265556545N02638473EA0030100334
B0854275556548N02638475EA0029900332
B0854285556552N02638479EA0029600329
B0854295556554N02638484EA0029400327
B0854305556556N02638489EA0029200325
B0854315556556N02638493EA0028900322
B0854325556555N02638496EA0028600319
B0854335556553N02638500EA0028300315
B0854345556551N02638503EA0028000313
B0854355556547N02638505EA0027800310
B0854365556543N02638506EA0027600309
B0854375556538N02638505EA0027600308
B0854385556534N02638503EA0027500308
B0854395556529N02638500EA0027500308
B0854405556525N02638496EA0027500307
B0854415556520N02638493EA0027400307
B0854425556515N02638488EA0027400306
B0854435556510N02638483EA0027300306
B0854445556506N02638475EA0027300306
B0854455556501N02638467EA0027400306
B0854465556496N02638458EA0027300306
B0854475556491N02638449EA0027500307
B0854485556486N02638440EA0027600308
B0854495556481N02638433EA0027600309
B0854505556476N02638426EA0027700310
B0854515556472N02638421EA0027700310
B0854525556467N02638416EA0027700310
B0854535556461N02638411EA0027700310
B0854545556455N02638405EA0027800311
B0854555556450N02638399EA0027800310
B0854565556446N02638394EA0027800310
B0854575556442N02638390EA0027600309
B0854585556437N02638387EA0027500307
B0854595556431N02638386EA0027300306
B0855005556426N02638388EA0027100304
B0855015556421N02638391EA0027100303
B0855025556418N02638394EA0027000303
B0855035556416N02638398EA0026900302
B0855045556415N02638402EA0026800301
B0855055556415N02638407EA0026700299
B0855065556416N02638412EA0026600298
B0855075556418N02638416EA0026500297
B0855085556421N02638420EA0026500297
B0855095556423N02638424EA0026500297
B0855105556427N02638424EA0026400297
B0855115556431N02638423EA0026300295
B0855125556436N02638418EA0026100293
B0855135556441N02638413EA0026000292
B0855145556447N02638406EA0026000292
B0855155556451N02638398EA0026000292
B0855165556455N02638391EA0026000292
B0855175556458N02638385EA0026000292
B0855185556461N02638377EA0025900291
B0855195556465N02638367EA0025800290
B0855205556468N02638355EA0025800290
B0855215556471N02638344EA0025800290
B0855225556474N02638333EA0025900291
B0855235556476N02638323EA0025900291
B0855245556479N02638312EA0025800290
B0855255556482N02638301EA0025700289
B0855265556486N02638288EA0025700289
B0855275556489N02638275EA0025700289
B0855285556492N02638262EA0026000292
B0855295556494N02638249EA0026300295
B0855305556497N02638239EA0026600297
B0855315556500N02638230EA0026600298
B0855325556504N02638224EA0026600298
B0855335556509N02638219EA0026600298
B0855345556513N02638216EA0026600298
B0855355556519N02638215EA0026500297
B0855365556523N02638216EA0026300295
B0855375556526N02638219EA0026200294
B0855385556528N02638223EA0026100293
B0855395556529N02638227EA0026000292
B0855405556528N02638231EA0025800290
B0855415556527N02638235EA0025600288
B0855425556525N02638239EA0025500286
B0855435556523N02638244EA0025300285
B0855445556521N02638249EA0025300284
B0855455556519N02638253EA0025300285
B0855465556516N02638255EA0025400285
B0855475556513N02638257EA0025500287
B0855485556510N02638259EA0025600288
B0855495556507N02638259EA0025600288
B0855505556505N02638257EA0025600288
B0855515556502N02638258EA0025500287
B0855525556499N02638261EA0025500287
B0855535556495N02638264EA0025500286
B0855545556490N02638263EA0025300285
B0855555556485N02638259EA0025300284
B0855565556481N02638255EA0025300285
B0855575556477N02638252EA0025200284
B0855585556473N02638250EA0025100282
B0855595556469N02638249EA0024900280
B0856005556464N02638249EA0024700279
B0856015556460N02638251EA0024500277
B0856025556455N02638253EA0024400276
B0856035556451N02638255EA0024400275
B0856045556447N02638255EA0024300275
B0856055556443N02638254EA0024300275
B0856065556438N02638252EA0024100273
B0856075556434N02638249EA0023800270
B0856085556429N02638244EA0023600267
B0856095556423N02638239EA0023300264
B0856105556418N02638231EA0023100263
B0856115556414N02638222EA0023000261
B0856125556411N02638211EA0022900260
B0856135556408N02638201EA0022700259
B0856145556407N02638190EA0022500257
B0856155556407N02638178EA0022300254
B0856165556407N02638165EA0022000252
B0856175556405N02638151EA0021800249
B0856185556403N02638138EA0021700248
B0856195556402N02638125EA0021500247
B0856205556401N02638112EA0021400245
B0856215556400N02638099EA0021300244
B0856225556400N02638087EA0021200243
B0856235556399N02638074EA0021000241
B0856245556398N02638060EA0020900240
B0856255556398N02638046EA0021000241
B0856265556398N02638032EA0021100242
B0856275556400N02638019EA0021200243
B0856285556402N02638007EA0021300244
B0856295556403N02637994EA0021300244
B0856305556404N02637981EA0021300243
B0856315556405N02637968EA0021200243
B0856325556407N02637954EA0021200243
B0856335556408N02637942EA0021200243
B0856345556411N02637932EA0021200243
B0856355556415N02637925EA0021200243
B0856365556419N02637921EA0021100242
B0856375556423N02637917EA0021100242
B0856385556427N02637915EA0021200243
B0856395556430N02637915EA0021200242
B0856405556432N02637917EA0021000241
B0856415556433N02637921EA0020900239
B0856425556434N02637927EA0020800239
B0856435556433N02637932EA0020900240
B0856445556432N02637935EA0021100242
B0856455556429N02637936EA0021200243
B0856465556426N02637935EA0021300243
B0856475556423N02637935EA0021300244
B0856485556418N02637932EA0021300244
B0856495556414N02637927EA0021200243
B0856505556410N02637919EA0021100242
B0856515556407N02637911EA0021100242
B0856525556402N02637903EA0021000241
B0856535556398N02637894EA0021000241
B0856545556394N02637883EA0021000241
B0856555556391N02637870EA0021000241
B0856565556390N02637856EA0021000241
B0856575556390N02637843EA0021000240
B0856585556392N02637832EA0020900240
B0856595556395N02637824EA0020800239
B0857005556399N02637819EA0020800238
B0857015556403N02637816EA0020800238
B0857025556407N02637814EA0020800239
B0857035556410N02637814EA0020800238
B0857045556413N02637816EA0020800238
B0857055556416N02637817EA0020700238
B0857065556419N02637819EA0020600237
B0857075556421N02637821EA0020500235
B0857085556424N02637825EA0020500235
B0857095556426N02637830EA0020500235
B0857105556428N02637835EA0020600236
B0857115556430N02637838EA0020700237
B0857125556432N02637841EA0020700237
B0857135556433N02637845EA0020800238
B0857145556434N02637849EA0020800238
B0857155556436N02637854EA0020800239
B0857165556437N02637857EA0021000240
B0857175556437N02637860EA0021100241
B0857185556436N02637862EA0021200242
B0857195556434N02637864EA0021200242
B0857205556432N02637867EA0021200243
B0857215556430N02637869EA0021300243
B0857225556426N02637869EA0021300243
B0857235556422N02637867EA0021300243
B0857245556417N02637864EA0021400244
B0857255556412N02637860EA0021500245
B0857265556407N02637852EA0021600246
B0857275556404N02637841EA0021700248
B0857285556403N02637829EA0021800248
B0857295556403N02637817EA0021700247
B0857305556404N02637805EA0021700247
B0857315556408N02637794EA0021800248
B0857325556412N02637785EA0021800248
B0857335556416N02637779EA0021900249
B0857345556421N02637778EA0021800248
B0857355556425N02637780EA0021800248
B0857365556428N02637784EA0021900249
B0857375556430N02637788EA0022000250
B0857385556432N02637792EA0022300253
B0857395556433N02637794EA0022600256
B0857405556435N02637794EA0022700257
B0857415556437N02637795EA0022600256
B0857425556438N02637796EA0022400254
B0857435556439N02637800EA0022200252
B0857445556439N02637803EA0022100251
B0857455556438N02637807EA0022000251
B0857465556437N02637810EA0022000250
B0857475556436N02637812EA0021800248
B0857485556434N02637814EA0021600246
B0857495556432N02637817EA0021300243
B0857505556430N02637821EA0021100241
B0857515556426N02637824EA0021000240
B0857525556423N02637826EA0021000240
B0857535556419N02637826EA0020800238
B0857545556415N02637824EA0020600236
B0857555556410N02637820EA0020400234
B0857565556405N02637814EA0020200232
B0857575556401N02637806EA0020000230
B0857585556397N02637795EA0019900229
B0857595556395N02637782EA0019800228
B0858005556394N02637769EA0019700227
B0858015556395N02637757EA0019600226
B0858025556396N02637745EA0019600226
B0858035556399N02637733EA0019500225
B0858045556403N02637723EA0019500225
B0858055556408N02637715EA0019600226
B0858065556413N02637708EA0019700227
B0858075556417N02637703EA0019700227
B0858085556421N02637698EA0019700227
B0858095556425N02637695EA0019600226
B0858105556429N02637693EA0019400224
B0858115556433N02637693EA0019200222
B0858125556438N02637694EA0019000220
B0858135556442N02637696EA0018800218
B0858145556445N02637698EA0018800217
B0858155556449N02637700EA0018700216
B0858165556451N02637702EA0018500214
B0858175556454N02637706EA0018300213
B0858185556457N02637712EA0018300212
B0858195556459N02637719EA0018400213
B0858205556460N02637724EA0018500215
B0858215556461N02637728EA0018700217
B0858225556463N02637732EA0018900218
B0858235556466N02637735EA0018900218
B0858245556467N02637740EA0018800218
B0858255556469N02637745EA0018800218
B0858265556471N02637750EA0018700217
B0858275556473N02637754EA0018600215
B0858285556476N02637758EA0018500214
B0858295556478N02637763EA0018600216
B0858305556478N02637767EA0018700217
B0858315556479N02637770EA0018800217
B0858325556479N02637772EA0018600216
B0858335556481N02637774EA0018400213
B0858345556483N02637777EA0018000210
B0858355556485N02637782EA0017700207
B0858365556485N02637788EA0017500205
B0858375556485N02637794EA0017400203
B0858385556484N02637799EA0017300202
B0858395556483N02637803EA0017200201
B0858405556482N02637808EA0017100201
B0858415556480N02637814EA0017000200
B0858425556479N02637819EA0016900198
B0858435556478N02637825EA0016700197
B0858445556476N02637831EA0016600195
B0858455556475N02637837EA0016500194
B0858465556473N02637843EA0016500194
B0858475556471N02637848EA0016500194
B0858485556469N02637854EA0016500194
B0858495556468N02637858EA0016400193
B0858505556468N02637863EA0016300193
B0858515556467N02637867EA0016300192
B0858525556467N02637872EA0016300192
B0858535556467N02637876EA0016300192
B0858545556468N02637879EA0016200191
B0858555556468N02637882EA0016000189
B0858565556469N02637886EA0015800187
B0858575556469N02637891EA0015600185
B0858585556468N02637896EA0015400183
B0858595556466N02637899EA0015100180
B0859005556461N02637901EA0014900178
B0859015556457N02637899EA0014700176
B0859025556452N02637895EA0014600175
B0859035556447N02637887EA0014400173
B0859045556444N02637878EA0014100170
B0859055556440N02637868EA0014000168
B0859065556435N02637860EA0013800167
B0859075556429N02637857EA0013700166
B0859085556422N02637859EA0013500164
B0859095556418N02637863EA0013400163
B0859105556416N02637869EA0013400162
B0859115556415N02637873EA0013400162
B0859125556415N02637877EA0013300162
B0859135556416N02637880EA0013200161
B0859145556417N02637884EA0013100159
B0859155556418N02637887EA0012900158
B0859165556420N02637891EA0012800156
B0859175556421N02637895EA0012600154
B0859185556422N02637898EA0012500153
B0859195556425N02637899EA0012200151
B0859205556428N02637900EA0011900148
B0859215556431N02637902EA0011600144
B0859225556434N02637904EA0011400142
B0859235556437N02637906EA0011200141
B0859245556440N02637907EA0011000138
B0859255556443N02637907EA0010700135
B0859265556446N02637908EA0010400132
B0859275556449N02637911EA0010200130
B0859285556451N02637915EA0010000128
B0859295556454N02637920EA0009800126
B0859305556458N02637924EA0009700126
B0859315556461N02637928EA0009700126
B0859325556463N02637933EA0009800126
B0859335556464N02637937EA0009700125
B0859345556465N02637941EA0009700125
B0859355556467N02637944EA0009700125
B0859365556467N02637947EA0009600124
B0859375556468N02637950EA0009300121
B0859385556469N02637953EA0009000118
B0859395556470N02637956EA0008800116
B0859405556471N02637961EA0008500113
B0859415556471N02637965EA0008500113
B0859425556472N02637967EA0008600114
B0859435556472N02637967EA0008600114
B0859445556472N02637967EA0008600114
B0859455556472N02637968EA0008700115
B0859465556473N02637968EA0008600114
B0859475556473N02637968EA0008600114
B0859485556474N02637968EA0008600114
B0859495556475N02637967EA0008600114
B0859505556475N02637966EA0008600114
B0859515556475N02637966EA0008600114
B0859525556475N02637966EA0008600114
B0859535556475N02637966EA0008600114
B0859545556475N02637966EA0008600114
B0859555556475N02637965EA0008600114
B0859565556475N02637965EA0008600114
B0859575556475N02637965EA0008600114
B0859585556475N02637965EA0008600114
B0859595556475N02637965EA0008600114
B0900005556475N02637965EA0008600114
B0900015556475N02637965EA0008600114
B0900025556475N02637965EA0008600114
B0900035556475N02637965EA0008600114
B0900045556475N02637965EA0008600114
B0900055556475N02637965EA0008600114
B0900065556475N02637965EA0008600114
B0900075556475N02637964EA0008600114
B0900085556475N02637964EA0008600114
B0900095556475N02637963EA0008600114
B0900105556475N02637963EA0008600114
B0900115556475N02637962EA0008600114
B0900125556475N02637962EA0008600114
B0900135556475N02637961EA0008600114
B0900145556475N02637961EA0008600114
B0900155556475N02637960EA0008600114
B0900165556475N02637960EA0008600114
B0900175556475N02637960EA0008700114
B0900185556475N02637960EA0008700114
B0900195556475N02637960EA0008700114
B0900205556475N02637960EA0008700114
B0900215556475N02637960EA0008700114
B0900225556475N02637960EA0008700114
B0900235556475N02637960EA0008700114
B0900245556475N02637960EA0008700114
B0900255556475N02637960EA0008600113
B0900265556475N02637960EA0008600113
B0900275556475N02637959EA0008700114
B0900285556475N02637959EA0008700114
B0900295556475N02637960EA0008600113
B0900305556475N02637960EA0008600113
B0900315556475N02637960EA0008600113
B0900325556475N02637960EA0008600113
B0900335556475N02637960EA0008600113
B0900345556475N02637960EA0008600113
B0900355556475N02637960EA0008600113
B0900365556475N02637960EA0008600113
B0900375556475N02637960EA0008600113
B0900385556475N02637960EA0008600113
B0900395556475N02637960EA0008600113
B0900405556475N02637960EA0008600113
B0900415556475N02637960EA0008600113
B0900425556475N02637960EA0008600113
B0900435556475N02637960EA0008600113
B0900445556475N02637960EA0008600113
B0900455556475N02637960EA0008600113
B0900465556475N02637960EA0008600113
B0900475556475N02637960EA0008600112
B0900485556475N02637960EA0008600112
B0900495556475N02637960EA0008600113
B0900505556475N02637961EA0008600112
B0900515556475N02637960EA0008600112
B0900525556475N02637960EA0008600112
B0900535556475N02637960EA0008600112
B0900545556475N02637960EA0008600112
B0900555556475N02637960EA0008600112
B0900565556475N02637960EA0008600112
B0900575556475N02637961EA0008600112
B0900585556475N02637962EA0008500111
B0900595556475N02637963EA0008500111
B0901005556475N02637964EA0008600112
B0901015556475N02637965EA0008600112
B0901025556476N02637966EA0008600112
B0901035556476N02637968EA0008600112
B0901045556476N02637969EA0008600113
B0901055556477N02637970EA0008600112
B0901065556478N02637971EA0008600112
B0901075556478N02637972EA0008600112
B0901085556478N02637973EA0008600112
B0901095556478N02637974EA0008600112
B0901105556478N02637975EA0008500112
B0901115556479N02637976EA0008600112
B0901125556479N02637978EA0008600112
B0901135556479N02637979EA0008600112
B0901145556479N02637980EA0008600112
B0901155556480N02637981EA0008600112
B0901165556481N02637982EA0008600112
B0901175556481N02637983EA0008600112
B0901185556481N02637984EA0008600112
B0901195556482N02637985EA0008600112
B0901205556482N02637986EA0008600112
B0901215556483N02637986EA0008600112
B0901225556483N02637988EA0008600112
B0901235556483N02637989EA0008600112
B0901245556483N02637990EA0008600112
B0901255556484N02637991EA0008600112
B0901265556484N02637992EA0008600112
B0901275556484N02637993EA0008600112
B0901285556484N02637994EA0008600112
B0901295556484N02637995EA0008600112
B0901305556485N02637996EA0008600112
B0901315556485N02637997EA0008600112
B0901325556486N02637998EA0008600112
B0901335556486N02637999EA0008600112
B0901345556486N02638000EA0008600112
B0901355556486N02638001EA0008600112
B0901365556486N02638002EA0008600112
B0901375556487N02638004EA0008600112
B0901385556487N02638004EA0008600112
B0901395556487N02638005EA0008600112
B0901405556488N02638007EA0008600112
B0901415556488N02638008EA0008600112
B0901425556488N02638009EA0008600112
LXSX;C1;GM:1.3
LXSX;S1;TS:1687164491;TL:1687165302;AS:124;AL:112;AT:614;AB:111
LXSX;S1;XS:0;XD:4.70;SP:54.2;MC:4.0;MS:-2.6;NB:813
LXSX;S1;FL:6.6;TG:491;TC:3.1;AG:573;GM:1.3
LXSX;S1;X0:55.93585,26.65788
LXSX;S1;X1:55.93482,26.66078
LXSX;S1;X2:55.94753,26.66877
LXSX;S1;X3:55.94055,26.62821
LXSX;S1;X4:55.94142,26.63328
GEF51F6278802F53BBAE658749BD29E71
