AXSX005 SKYTRAXX
HFPLTPILOT:Sepp Bucher
HFGTYGLIDERTYPE:Niviuk Artik R
HFDTM100GPSDATUM:WGS-84
HFRFWFIRMWAREVERSION:202303142340
HFRHWHARDWAREVERSION:4.0
HFTZNTIMEZONE:+1.00
HFSITSITE:Linhares da Beira_Si
HFDTE050623
LXSX;I1;OAB:20230605;OOB:20230103
LXSX;I1;ID:114075
LXSX;I1;AC:1;CAT:C
B1333464031970N00726762WA0110601162
B1333474031970N00726762WA0110601162
B1333484031970N00726762WA0110601162
B1333494031970N00726762WA0110601162
B1333504031970N00726762WA0110601162
B1333514031970N00726762WA0110601161
B1333524031970N00726762WA0110601161
B1333534031970N00726762WA0110601161
B1333544031970N00726762WA0110601162
B1333554031970N00726762WA0110601162
B1333564031970N00726762WA0110601161
B1333574031970N00726763WA0110601161
B1333584031970N00726762WA0110601161
B1333594031970N00726763WA0110601161
B1334004031969N00726764WA0110501160
B1334014031969N00726766WA0110401159
B1334024031969N00726767WA0110401159
B1334034031970N00726769WA0110301158
B1334044031971N00726772WA0110201157
B1334054031973N00726774WA0110101156
B1334064031974N00726777WA0109901154
B1334074031976N00726780WA0109701153
B1334084031978N00726783WA0109601151
B1334094031981N00726787WA0109601152
B1334104031984N00726789WA0109701152
B1334114031988N00726791WA0109701153
B1334124031991N00726793WA0109801153
B1334134031994N00726796WA0109901154
B1334144031996N00726799WA0109901154
B1334154032000N00726802WA0109801154
B1334164032004N00726805WA0109601152
B1334174032010N00726806WA0109401150
B1334184032015N00726805WA0109301148
B1334194032021N00726803WA0109201147
B1334204032027N00726800WA0109101147
B1334214032033N00726797WA0109201147
B1334224032038N00726794WA0109201147
B1334234032043N00726791WA0109201147
B1334244032049N00726788WA0109101146
B1334254032054N00726784WA0109001145
B1334264032059N00726780WA0108901144
B1334274032065N00726777WA0108801143
B1334284032070N00726773WA0108701142
B1334294032075N00726770WA0108601142
B1334304032081N00726767WA0108501141
B1334314032087N00726765WA0108401140
B1334324032092N00726763WA0108401139
B1334334032099N00726761WA0108501140
B1334344032105N00726758WA0108501140
B1334354032110N00726756WA0108601141
B1334364032116N00726753WA0108601141
B1334374032121N00726750WA0108501141
B1334384032127N00726747WA0108401140
B1334394032132N00726744WA0108301138
B1334404032137N00726739WA0108201137
B1334414032143N00726735WA0108101136
B1334424032148N00726731WA0108001135
B1334434032153N00726728WA0107901134
B1334444032158N00726726WA0107801134
B1334454032163N00726723WA0107701132
B1334464032169N00726720WA0107601131
B1334474032174N00726719WA0107401129
B1334484032180N00726718WA0107201128
B1334494032186N00726719WA0107101126
B1334504032192N00726720WA0107001126
B1334514032198N00726721WA0107101126
B1334524032204N00726723WA0107101127
B1334534032210N00726725WA0107201128
B1334544032216N00726727WA0107301128
B1334554032222N00726727WA0107301129
B1334564032227N00726728WA0107301128
B1334574032233N00726729WA0107301128
B1334584032239N00726731WA0107101126
B1334594032245N00726732WA0107101126
B1335004032251N00726734WA0107101126
B1335014032256N00726736WA0107101126
B1335024032261N00726739WA0107201127
B1335034032266N00726742WA0107301128
B1335044032270N00726745WA0107401129
B1335054032274N00726748WA0107501130
B1335064032277N00726751WA0107401129
B1335074032281N00726754WA0107301128
B1335084032285N00726759WA0107201127
B1335094032288N00726763WA0107201127
B1335104032292N00726767WA0107201127
B1335114032295N00726770WA0107201127
B1335124032299N00726772WA0107201127
B1335134032302N00726775WA0107201127
B1335144032305N00726777WA0107201127
B1335154032308N00726781WA0107201127
B1335164032310N00726785WA0107201127
B1335174032313N00726788WA0107301128
B1335184032317N00726791WA0107401129
B1335194032320N00726794WA0107601131
B1335204032322N00726797WA0107801132
B1335214032325N00726799WA0107901134
B1335224032327N00726802WA0108001134
B1335234032328N00726806WA0108101135
B1335244032330N00726811WA0108201137
B1335254032331N00726815WA0108301138
B1335264032332N00726819WA0108401139
B1335274032333N00726822WA0108501140
B1335284032335N00726825WA0108601140
B1335294032336N00726828WA0108601140
B1335304032337N00726833WA0108601140
B1335314032338N00726837WA0108601140
B1335324032340N00726841WA0108601140
B1335334032341N00726846WA0108601141
B1335344032343N00726851WA0108701142
B1335354032344N00726855WA0108801142
B1335364032346N00726860WA0108901143
B1335374032349N00726863WA0109001144
B1335384032351N00726867WA0109101145
B1335394032353N00726871WA0109201146
B1335404032355N00726876WA0109301147
B1335414032356N00726880WA0109501150
B1335424032357N00726883WA0109801152
B1335434032357N00726886WA0110001154
B1335444032357N00726890WA0110201157
B1335454032357N00726893WA0110301158
B1335464032359N00726897WA0110401159
B1335474032361N00726900WA0110601160
B1335484032363N00726903WA0110801162
B1335494032365N00726906WA0111101165
B1335504032367N00726908WA0111301167
B1335514032368N00726910WA0111401168
B1335524032368N00726914WA0111501169
B1335534032367N00726917WA0111501169
B1335544032364N00726920WA0111601170
B1335554032360N00726922WA0111601170
B1335564032355N00726920WA0111601170
B1335574032349N00726917WA0111801172
B1335584032344N00726912WA0112001174
B1335594032341N00726905WA0112101175
B1336004032339N00726898WA0112301177
B1336014032336N00726889WA0112501179
B1336024032335N00726881WA0112601180
B1336034032335N00726872WA0112701181
B1336044032338N00726864WA0112701181
B1336054032343N00726858WA0112801182
B1336064032348N00726853WA0112901183
B1336074032352N00726851WA0113101185
B1336084032356N00726849WA0113301187
B1336094032359N00726847WA0113401187
B1336104032363N00726847WA0113401188
B1336114032367N00726849WA0113401188
B1336124032369N00726853WA0113401188
B1336134032369N00726858WA0113501189
B1336144032368N00726862WA0113701191
B1336154032366N00726864WA0113901192
B1336164032362N00726864WA0113901193
B1336174032358N00726863WA0113801192
B1336184032353N00726861WA0113801191
B1336194032346N00726856WA0113701191
B1336204032341N00726849WA0113701191
B1336214032337N00726839WA0113801191
B1336224032335N00726829WA0114001194
B1336234032335N00726820WA0114301197
B1336244032335N00726812WA0114501199
B1336254032335N00726804WA0114701200
B1336264032336N00726795WA0114801201
B1336274032338N00726785WA0114801202
B1336284032341N00726776WA0115001204
B1336294032345N00726769WA0115401207
B1336304032350N00726765WA0115501209
B1336314032354N00726762WA0115701211
B1336324032359N00726760WA0115901213
B1336334032363N00726760WA0116101215
B1336344032367N00726761WA0116201216
B1336354032369N00726764WA0116301217
B1336364032369N00726768WA0116301217
B1336374032366N00726771WA0116401218
B1336384032361N00726772WA0116501219
B1336394032355N00726769WA0116501219
B1336404032349N00726764WA0116601220
B1336414032345N00726757WA0116801221
B1336424032341N00726748WA0116901223
B1336434032339N00726738WA0117101225
B1336444032340N00726729WA0117301226
B1336454032342N00726719WA0117401227
B1336464032346N00726711WA0117501229
B1336474032350N00726704WA0117701231
B1336484032355N00726698WA0118001233
B1336494032359N00726693WA0118201235
B1336504032363N00726690WA0118301237
B1336514032367N00726689WA0118401237
B1336524032371N00726690WA0118501238
B1336534032373N00726694WA0118601240
B1336544032373N00726698WA0118801241
B1336554032371N00726700WA0118901242
B1336564032368N00726701WA0119001244
B1336574032363N00726702WA0119101244
B1336584032357N00726700WA0119101245
B1336594032351N00726694WA0119101245
B1337004032346N00726685WA0119101245
B1337014032343N00726673WA0119101245
B1337024032343N00726661WA0119201246
B1337034032346N00726651WA0119501249
B1337044032349N00726644WA0119901253
B1337054032352N00726638WA0120201255
B1337064032355N00726634WA0120401257
B1337074032358N00726630WA0120501259
B1337084032362N00726628WA0120601259
B1337094032366N00726627WA0120501259
B1337104032371N00726628WA0120601260
B1337114032375N00726629WA0120801262
B1337124032379N00726631WA0121101265
B1337134032380N00726634WA0121301267
B1337144032380N00726638WA0121401268
B1337154032378N00726643WA0121501269
B1337164032375N00726646WA0121701271
B1337174032371N00726648WA0122101274
B1337184032366N00726647WA0122301277
B1337194032361N00726642WA0122401278
B1337204032355N00726635WA0122501278
B1337214032350N00726627WA0122501278
B1337224032347N00726616WA0122501279
B1337234032346N00726605WA0122501279
B1337244032347N00726593WA0122601279
B1337254032350N00726583WA0122701281
B1337264032354N00726575WA0122901283
B1337274032358N00726567WA0123201285
B1337284032362N00726561WA0123401288
B1337294032366N00726557WA0123501289
B1337304032371N00726555WA0123501289
B1337314032377N00726555WA0123501289
B1337324032382N00726557WA0123601290
B1337334032386N00726559WA0123801292
B1337344032389N00726561WA0123901292
B1337354032391N00726564WA0123901292
B1337364032392N00726568WA0123801291
B1337374032392N00726574WA0123701291
B1337384032391N00726580WA0123801292
B1337394032388N00726585WA0123901293
B1337404032384N00726589WA0124001294
B1337414032379N00726591WA0124101295
B1337424032372N00726590WA0124201295
B1337434032366N00726586WA0124301297
B1337444032360N00726580WA0124401298
B1337454032356N00726571WA0124501298
B1337464032354N00726560WA0124501299
B1337474032354N00726548WA0124501298
B1337484032355N00726537WA0124501299
B1337494032359N00726526WA0124701301
B1337504032364N00726518WA0125001304
B1337514032368N00726513WA0125401308
B1337524032372N00726509WA0125601310
B1337534032376N00726507WA0125701311
B1337544032380N00726507WA0125601310
B1337554032384N00726508WA0125501309
B1337564032387N00726512WA0125401307
B1337574032390N00726517WA0125301307
B1337584032392N00726522WA0125401308
B1337594032394N00726527WA0125501309
B1338004032395N00726530WA0125601310
B1338014032398N00726534WA0125601309
B1338024032400N00726538WA0125501308
B1338034032402N00726543WA0125301307
B1338044032404N00726548WA0125401308
B1338054032406N00726553WA0125501308
B1338064032409N00726557WA0125501309
B1338074032411N00726560WA0125601309
B1338084032414N00726564WA0125601310
B1338094032416N00726568WA0125501309
B1338104032418N00726572WA0125501309
B1338114032421N00726576WA0125501309
B1338124032424N00726580WA0125501309
B1338134032427N00726583WA0125501309
B1338144032429N00726587WA0125501308
B1338154032431N00726591WA0125401307
B1338164032433N00726596WA0125201306
B1338174032436N00726600WA0125101305
B1338184032438N00726605WA0124901303
B1338194032441N00726609WA0124701301
B1338204032444N00726614WA0124701300
B1338214032447N00726618WA0124701300
B1338224032450N00726622WA0124701301
B1338234032452N00726626WA0124701301
B1338244032455N00726629WA0124601300
B1338254032458N00726633WA0124401298
B1338264032461N00726636WA0124401297
B1338274032465N00726639WA0124401297
B1338284032468N00726641WA0124301297
B1338294032471N00726642WA0124201296
B1338304032475N00726644WA0124101294
B1338314032479N00726645WA0123801292
B1338324032483N00726648WA0123601290
B1338334032486N00726651WA0123401288
B1338344032490N00726653WA0123201286
B1338354032494N00726656WA0123101285
B1338364032496N00726659WA0123001284
B1338374032499N00726662WA0122801282
B1338384032502N00726664WA0122501279
B1338394032505N00726668WA0122301277
B1338404032508N00726672WA0122201275
B1338414032509N00726677WA0122201275
B1338424032511N00726681WA0122301277
B1338434032512N00726684WA0122501278
B1338444032514N00726686WA0122501279
B1338454032516N00726688WA0122401278
B1338464032517N00726690WA0122301276
B1338474032518N00726693WA0121901273
B1338484032521N00726697WA0121601270
B1338494032523N00726702WA0121501268
B1338504032525N00726706WA0121401267
B1338514032528N00726710WA0121401267
B1338524032529N00726713WA0121401267
B1338534032532N00726716WA0121201266
B1338544032533N00726720WA0121101265
B1338554032536N00726723WA0121001263
B1338564032539N00726726WA0120801261
B1338574032542N00726730WA0120601260
B1338584032546N00726735WA0120401258
B1338594032549N00726739WA0120301257
B1339004032552N00726743WA0120201256
B1339014032554N00726747WA0120101255
B1339024032556N00726750WA0119901253
B1339034032558N00726754WA0119601250
B1339044032560N00726759WA0119301247
B1339054032563N00726764WA0119201245
B1339064032566N00726769WA0119001244
B1339074032569N00726773WA0118901243
B1339084032572N00726777WA0118801242
B1339094032574N00726781WA0118701241
B1339104032577N00726785WA0118601239
B1339114032581N00726789WA0118401238
B1339124032585N00726794WA0118201235
B1339134032588N00726798WA0118001233
B1339144032591N00726803WA0117901232
B1339154032593N00726807WA0117801232
B1339164032597N00726811WA0117801232
B1339174032601N00726814WA0117701231
B1339184032605N00726817WA0117601230
B1339194032609N00726821WA0117501228
B1339204032613N00726825WA0117201226
B1339214032617N00726829WA0117001223
B1339224032621N00726833WA0116801221
B1339234032626N00726837WA0116601219
B1339244032630N00726842WA0116501219
B1339254032634N00726847WA0116501218
B1339264032636N00726852WA0116501218
B1339274032639N00726856WA0116401218
B1339284032643N00726860WA0116301216
B1339294032647N00726865WA0116101215
B1339304032650N00726870WA0116001214
B1339314032653N00726875WA0116101214
B1339324032656N00726881WA0116201215
B1339334032660N00726885WA0116201216
B1339344032663N00726888WA0116201216
B1339354032666N00726892WA0116201215
B1339364032668N00726896WA0116001214
B1339374032672N00726900WA0115801212
B1339384032676N00726904WA0115601210
B1339394032679N00726907WA0115501208
B1339404032682N00726911WA0115301206
B1339414032685N00726915WA0115201205
B1339424032688N00726919WA0114901202
B1339434032692N00726923WA0114601200
B1339444032696N00726927WA0114401197
B1339454032699N00726932WA0114201195
B1339464032703N00726936WA0114101194
B1339474032706N00726940WA0114001193
B1339484032710N00726943WA0113801191
B1339494032713N00726947WA0113601189
B1339504032716N00726951WA0113401186
B1339514032720N00726956WA0113201185
B1339524032723N00726960WA0113001183
B1339534032726N00726964WA0112801181
B1339544032729N00726969WA0112601179
B1339554032732N00726973WA0112501177
B1339564032735N00726977WA0112201175
B1339574032738N00726982WA0112001173
B1339584032741N00726986WA0111801171
B1339594032744N00726991WA0111601169
B1340004032747N00726995WA0111501167
B1340014032750N00726999WA0111301165
B1340024032753N00727003WA0111101164
B1340034032756N00727008WA0110901162
B1340044032759N00727012WA0110801160
B1340054032763N00727017WA0110501158
B1340064032766N00727022WA0110301155
B1340074032769N00727028WA0109901151
B1340084032772N00727035WA0109601148
B1340094032775N00727042WA0109401147
B1340104032778N00727048WA0109301145
B1340114032781N00727054WA0109201144
B1340124032784N00727060WA0108901142
B1340134032787N00727066WA0108601138
B1340144032789N00727072WA0108201134
B1340154032792N00727080WA0107801130
B1340164032794N00727087WA0107601128
B1340174032797N00727095WA0107401127
B1340184032800N00727101WA0107201125
B1340194032802N00727107WA0107101123
B1340204032805N00727114WA0106801120
B1340214032807N00727120WA0106601118
B1340224032810N00727127WA0106301115
B1340234032813N00727135WA0106101112
B1340244032816N00727142WA0105901111
B1340254032818N00727148WA0105701109
B1340264032821N00727155WA0105601108
B1340274032823N00727161WA0105501107
B1340284032826N00727166WA0105301105
B1340294032828N00727172WA0105001102
B1340304032830N00727179WA0104801099
B1340314032832N00727186WA0104601097
B1340324032835N00727193WA0104401096
B1340334032837N00727199WA0104301094
B1340344032839N00727206WA0104201094
B1340354032841N00727212WA0104201093
B1340364032842N00727218WA0104201094
B1340374032842N00727223WA0104201094
B1340384032843N00727228WA0104201093
B1340394032845N00727233WA0104001091
B1340404032847N00727238WA0103701089
B1340414032849N00727245WA0103601087
B1340424032850N00727251WA0103501086
B1340434032850N00727256WA0103401085
B1340444032850N00727261WA0103301084
B1340454032850N00727265WA0103101082
B1340464032851N00727270WA0102801080
B1340474032854N00727274WA0102601078
B1340484032860N00727276WA0102401075
B1340494032866N00727274WA0102201073
B1340504032870N00727266WA0101801069
B1340514032869N00727256WA0101301064
B1340524032862N00727250WA0100801060
B1340534032855N00727253WA0100401055
B1340544032853N00727262WA0099901050
B1340554032859N00727269WA0099401045
B1340564032867N00727264WA0098801039
B1340574032869N00727251WA0098301034
B1340584032863N00727242WA0097601027
B1340594032856N00727243WA0096901020
B1341004032855N00727253WA0096101012
B1341014032864N00727257WA0095701008
B1341024032872N00727248WA0095301004
B1341034032870N00727235WA0094700997
B1341044032861N00727231WA0093800989
B1341054032858N00727239WA0092900980
B1341064032864N00727246WA0092400975
B1341074032874N00727239WA0092400975
B1341084032876N00727225WA0092300974
B1341094032869N00727214WA0091800969
B1341104032860N00727214WA0091500965
B1341114032856N00727221WA0091300963
B1341124032856N00727229WA0091300963
B1341134032860N00727234WA0091600966
B1341144032863N00727236WA0091900969
B1341154032865N00727237WA0092100971
B1341164032866N00727239WA0092100971
B1341174032869N00727243WA0091900969
B1341184032872N00727249WA0091700968
B1341194032876N00727254WA0091800968
B1341204032880N00727259WA0092000970
B1341214032884N00727262WA0092200972
B1341224032886N00727266WA0092200973
B1341234032889N00727269WA0092200973
B1341244032891N00727274WA0092300973
B1341254032894N00727279WA0092300973
B1341264032896N00727283WA0092400974
B1341274032898N00727287WA0092500975
B1341284032900N00727292WA0092500975
B1341294032902N00727296WA0092500975
B1341304032903N00727302WA0092400974
B1341314032904N00727308WA0092300973
B1341324032904N00727314WA0092400974
B1341334032903N00727320WA0092500975
B1341344032902N00727326WA0092600976
B1341354032901N00727331WA0092700977
B1341364032901N00727336WA0092700977
B1341374032902N00727341WA0092800978
B1341384032904N00727345WA0092900979
B1341394032907N00727349WA0093000979
B1341404032908N00727353WA0092900979
B1341414032910N00727357WA0092800977
B1341424032910N00727363WA0092600976
B1341434032911N00727369WA0092600975
B1341444032913N00727375WA0092600976
B1341454032914N00727380WA0092800977
B1341464032916N00727384WA0092900978
B1341474032917N00727388WA0092900978
B1341484032918N00727393WA0092800977
B1341494032920N00727398WA0092700976
B1341504032921N00727404WA0092500975
B1341514032922N00727409WA0092500975
B1341524032924N00727414WA0092600976
B1341534032926N00727419WA0092700976
B1341544032927N00727423WA0092600976
B1341554032929N00727427WA0092600975
B1341564032931N00727431WA0092500974
B1341574032932N00727436WA0092400974
B1341584032934N00727440WA0092400973
B1341594032935N00727444WA0092300972
B1342004032936N00727448WA0092300972
B1342014032938N00727452WA0092300972
B1342024032940N00727454WA0092300972
B1342034032945N00727455WA0092200971
B1342044032951N00727452WA0091800968
B1342054032956N00727444WA0091600965
B1342064032959N00727432WA0091400963
B1342074032956N00727420WA0091000959
B1342084032948N00727414WA0090500954
B1342094032941N00727417WA0090200951
B1342104032939N00727425WA0090000949
B1342114032944N00727431WA0089800947
B1342124032952N00727429WA0089500944
B1342134032958N00727419WA0089200940
B1342144032958N00727405WA0088800937
B1342154032952N00727394WA0088500933
B1342164032944N00727391WA0088200930
B1342174032937N00727396WA0087900928
B1342184032937N00727403WA0087800927
B1342194032941N00727407WA0087700926
B1342204032947N00727407WA0087600924
B1342214032954N00727402WA0087500923
B1342224032959N00727397WA0087500923
B1342234032962N00727393WA0087400923
B1342244032966N00727390WA0087200921
B1342254032970N00727389WA0087000918
B1342264032975N00727387WA0086700915
B1342274032981N00727386WA0086600914
B1342284032986N00727385WA0086500913
B1342294032991N00727385WA0086300912
B1342304032994N00727387WA0086200910
B1342314032997N00727389WA0086000908
B1342324033001N00727391WA0085800906
B1342334033005N00727393WA0085600905
B1342344033008N00727396WA0085500903
B1342354033011N00727399WA0085400902
B1342364033012N00727404WA0085300901
B1342374033012N00727408WA0085200900
B1342384033011N00727412WA0085100899
B1342394033010N00727416WA0085000898
B1342404033010N00727420WA0084800896
B1342414033011N00727425WA0084600894
B1342424033011N00727429WA0084400892
B1342434033010N00727434WA0084200890
B1342444033010N00727439WA0084000888
B1342454033010N00727443WA0083800886
B1342464033013N00727448WA0083600884
B1342474033018N00727449WA0083300881
B1342484033025N00727445WA0082900877
B1342494033030N00727436WA0082600874
B1342504033030N00727424WA0082200870
B1342514033025N00727415WA0081800866
B1342524033018N00727414WA0081400862
B1342534033013N00727419WA0081100859
B1342544033013N00727427WA0080900857
B1342554033018N00727432WA0080700854
B1342564033026N00727430WA0080500853
B1342574033032N00727423WA0080300850
B1342584033035N00727414WA0080100849
B1342594033034N00727404WA0080000847
B1343004033032N00727395WA0079900847
B1343014033028N00727389WA0079800845
B1343024033024N00727384WA0079600843
B1343034033020N00727380WA0079400842
B1343044033015N00727378WA0079300841
B1343054033009N00727378WA0079200839
B1343064033004N00727380WA0078900837
B1343074032999N00727383WA0078900836
B1343084032994N00727387WA0078900837
B1343094032990N00727391WA0078900836
B1343104032988N00727395WA0078800835
B1343114032986N00727400WA0078700834
B1343124032984N00727404WA0078700835
B1343134032982N00727406WA0078900836
B1343144032979N00727408WA0078900836
B1343154032978N00727410WA0078800835
B1343164032976N00727412WA0078600834
B1343174032974N00727416WA0078500832
B1343184032973N00727420WA0078400831
B1343194032972N00727424WA0078400831
B1343204032973N00727427WA0078400831
B1343214032973N00727430WA0078300830
B1343224032973N00727432WA0078300830
B1343234032973N00727436WA0078200829
B1343244032973N00727440WA0078100827
B1343254032975N00727443WA0077900826
B1343264032979N00727444WA0077700824
B1343274032984N00727442WA0077500822
B1343284032990N00727437WA0077400821
B1343294032994N00727430WA0077400820
B1343304032996N00727422WA0077400821
B1343314032997N00727414WA0077400820
B1343324032996N00727404WA0077400820
B1343334032992N00727396WA0077400820
B1343344032988N00727388WA0077400821
B1343354032981N00727384WA0077400820
B1343364032974N00727383WA0077300820
B1343374032967N00727384WA0077300820
B1343384032963N00727387WA0077500822
B1343394032959N00727389WA0077600823
B1343404032958N00727391WA0077600822
B1343414032957N00727392WA0077500821
B1343424032955N00727394WA0077300819
B1343434032953N00727398WA0077100818
B1343444032951N00727402WA0077100817
B1343454032949N00727406WA0077100817
B1343464032948N00727409WA0077100817
B1343474032947N00727411WA0077100817
B1343484032945N00727413WA0077000816
B1343494032943N00727416WA0076900815
B1343504032940N00727420WA0076700814
B1343514032938N00727424WA0076700813
B1343524032936N00727429WA0076700814
B1343534032936N00727432WA0076800814
B1343544032936N00727436WA0076800814
B1343554032936N00727438WA0076700813
B1343564032938N00727441WA0076600812
B1343574032941N00727444WA0076500811
B1343584032944N00727446WA0076500811
B1343594032947N00727449WA0076400810
B1344004032948N00727451WA0076300809
B1344014032947N00727454WA0076000806
B1344024032945N00727458WA0075800804
B1344034032941N00727461WA0075700803
B1344044032936N00727462WA0075700803
B1344054032931N00727462WA0075800804
B1344064032926N00727459WA0075800804
B1344074032921N00727455WA0075800804
B1344084032915N00727451WA0075700803
B1344094032910N00727445WA0075700802
B1344104032905N00727438WA0075600801
B1344114032902N00727428WA0075400799
B1344124032899N00727417WA0075200798
B1344134032898N00727405WA0075200798
B1344144032898N00727394WA0075300799
B1344154032898N00727384WA0075500800
B1344164032899N00727374WA0075500800
B1344174032900N00727365WA0075500800
B1344184032902N00727355WA0075500801
B1344194032903N00727345WA0075600801
B1344204032905N00727335WA0075600801
B1344214032908N00727326WA0075500800
B1344224032911N00727319WA0075500800
B1344234032915N00727313WA0075500800
B1344244032920N00727306WA0075500801
B1344254032923N00727298WA0075600801
B1344264032926N00727290WA0075600801
B1344274032930N00727282WA0075600801
B1344284032934N00727275WA0075600801
B1344294032938N00727268WA0075600801
B1344304032941N00727262WA0075600801
B1344314032945N00727255WA0075700802
B1344324032948N00727249WA0075600801
B1344334032952N00727245WA0075500800
B1344344032956N00727243WA0075400799
B1344354032959N00727244WA0075300798
B1344364032962N00727246WA0075300798
B1344374032963N00727250WA0075300798
B1344384032963N00727253WA0075300798
B1344394032962N00727256WA0075200797
B1344404032960N00727259WA0075200796
B1344414032958N00727262WA0075100796
B1344424032956N00727266WA0075100796
B1344434032955N00727270WA0075100796
B1344444032954N00727274WA0075200796
B1344454032952N00727277WA0075200797
B1344464032950N00727279WA0075200797
B1344474032947N00727282WA0075100796
B1344484032945N00727284WA0075100795
B1344494032943N00727288WA0075000795
B1344504032941N00727292WA0075100795
B1344514032940N00727295WA0075100796
B1344524032938N00727298WA0075100796
B1344534032935N00727300WA0075200796
B1344544032933N00727303WA0075300797
B1344554032932N00727306WA0075200797
B1344564032932N00727310WA0075200797
B1344574032932N00727313WA0075200797
B1344584032932N00727316WA0075200796
B1344594032931N00727319WA0075200796
B1345004032930N00727322WA0075100795
B1345014032929N00727326WA0075000794
B1345024032928N00727329WA0075000794
B1345034032926N00727332WA0074800792
B1345044032926N00727336WA0074500789
B1345054032925N00727339WA0074300787
B1345064032926N00727344WA0074100785
B1345074032926N00727348WA0073900783
B1345084032926N00727352WA0073600780
B1345094032926N00727355WA0073400778
B1345104032927N00727358WA0073200776
B1345114032927N00727360WA0072900773
B1345124032927N00727363WA0072600770
B1345134032926N00727366WA0072400768
B1345144032923N00727369WA0072100765
B1345154032921N00727372WA0072000763
B1345164032919N00727374WA0071800762
B1345174032918N00727377WA0071700760
B1345184032918N00727380WA0071500759
B1345194032919N00727382WA0071400757
B1345204032919N00727385WA0071200756
B1345214032919N00727388WA0071000754
B1345224032918N00727391WA0070800752
B1345234032919N00727393WA0070600749
B1345244032922N00727395WA0070300746
B1345254032927N00727394WA0070000743
B1345264032932N00727393WA0069800741
B1345274032936N00727391WA0069600740
B1345284032940N00727390WA0069400738
B1345294032944N00727389WA0069200736
B1345304032947N00727388WA0069000734
B1345314032950N00727388WA0068800732
B1345324032953N00727389WA0068600729
B1345334032956N00727391WA0068400727
B1345344032959N00727392WA0068200725
B1345354032964N00727391WA0068000723
B1345364032968N00727389WA0067900722
B1345374032972N00727388WA0067700720
B1345384032976N00727386WA0067600719
B1345394032981N00727384WA0067400717
B1345404032985N00727382WA0067300716
B1345414032989N00727381WA0067200715
B1345424032993N00727382WA0067100714
B1345434032997N00727383WA0067100714
B1345444033000N00727385WA0067000713
B1345454033003N00727387WA0067100714
B1345464033005N00727389WA0067000713
B1345474033006N00727393WA0066900712
B1345484033007N00727396WA0066800711
B1345494033008N00727400WA0066800711
B1345504033008N00727403WA0066800711
B1345514033008N00727407WA0066700710
B1345524033007N00727410WA0066600709
B1345534033008N00727413WA0066300706
B1345544033009N00727417WA0066100703
B1345554033010N00727421WA0066000703
B1345564033011N00727424WA0066100703
B1345574033011N00727427WA0066100703
B1345584033012N00727429WA0066000702
B1345594033012N00727430WA0066000703
B1346004033012N00727430WA0066000703
B1346014033013N00727430WA0066000702
B1346024033013N00727430WA0066000702
B1346034033013N00727430WA0066000702
B1346044033012N00727431WA0066000702
B1346054033012N00727431WA0066000702
B1346064033012N00727431WA0066000702
B1346074033012N00727431WA0066000702
B1346084033012N00727431WA0066000702
B1346094033012N00727431WA0066000702
B1346104033012N00727431WA0066000702
B1346114033012N00727431WA0066000702
B1346124033012N00727431WA0066000702
B1346134033012N00727431WA0066000702
B1346144033012N00727431WA0066000702
B1346154033012N00727431WA0066000702
B1346164033012N00727431WA0066000702
B1346174033012N00727431WA0066000702
B1346184033012N00727431WA0066000702
B1346194033012N00727431WA0066000702
B1346204033012N00727431WA0066000702
B1346214033012N00727431WA0066000702
B1346224033012N00727431WA0066000702
B1346234033011N00727431WA0066000702
B1346244033011N00727431WA0066000702
B1346254033010N00727431WA0066000702
B1346264033010N00727431WA0066000702
B1346274033010N00727431WA0066000702
B1346284033010N00727431WA0066000702
B1346294033010N00727431WA0066000702
B1346304033010N00727431WA0066000702
B1346314033010N00727431WA0066000702
B1346324033010N00727431WA0066000702
B1346334033010N00727431WA0066000702
B1346344033010N00727431WA0066000702
B1346354033009N00727431WA0066000702
B1346364033009N00727431WA0066000702
B1346374033009N00727431WA0066000702
B1346384033009N00727431WA0066000701
B1346394033009N00727431WA0066000702
B1346404033009N00727431WA0066000702
B1346414033009N00727431WA0066000702
B1346424033009N00727431WA0066000702
B1346434033010N00727431WA0066000702
B1346444033010N00727431WA0066000702
B1346454033010N00727431WA0066000701
B1346464033010N00727431WA0066000701
B1346474033010N00727431WA0066000701
B1346484033010N00727431WA0066000701
B1346494033010N00727431WA0066000701
B1346504033010N00727431WA0066000701
B1346514033010N00727431WA0066000701
B1346524033010N00727431WA0066000701
B1346534033010N00727431WA0066000701
B1346544033010N00727431WA0066000701
B1346554033010N00727431WA0066000701
B1346564033010N00727431WA0066000701
B1346574033010N00727431WA0066000701
LXSX;C1;GM:2.9
G9B80694B27B4CC590E88A1A3C6AC142A
