AXSX005 SKYTRAXX
HFPLTPILOT:Sepp Bucher
HFGTYGLIDERTYPE:Niviuk Artik R
HFDTM100GPSDATUM:WGS-84
HFRFWFIRMWAREVERSION:202307111441
HFRHWHARDWAREVERSION:4.0
HFTZNTIMEZONE:+2.00
HFSITSITE:Ulrichen (Baschi)
HFDTE200723
LXSX;I1;OAB:20230720;OOB:20230103
LXSX;I1;ID:114075
LXSX;I1;AC:1;CAT:C
B0953504629951N00817447EA0137501375
B0953514629951N00817462EA0137401374
B0953524629949N00817471EA0137301373
B0953534629950N00817485EA0137301373
B0953544629958N00817500EA0137301373
B0953554629964N00817508EA0137301373
B0953564629970N00817513EA0137301373
B0953574629976N00817515EA0137201372
B0953584629983N00817515EA0137201372
B0953594629989N00817512EA0137101371
B0954004629995N00817507EA0137101371
B0954014629999N00817502EA0137101371
B0954024630003N00817497EA0137101371
B0954034630007N00817492EA0137101371
B0954044630010N00817487EA0136901369
B0954054630013N00817480EA0136601366
B0954064630015N00817472EA0136401364
B0954074630016N00817463EA0136201362
B0954084630015N00817455EA0136101361
B0954094630013N00817449EA0136001360
B0954104630010N00817444EA0135901359
B0954114630005N00817440EA0135801358
B0954124630000N00817439EA0135701357
B0954134629997N00817439EA0135701357
B0954144629992N00817442EA0135701357
B0954154629988N00817445EA0135701357
B0954164629985N00817451EA0135601356
B0954174629983N00817458EA0135601356
B0954184629982N00817465EA0135501356
B0954194629981N00817473EA0135501355
B0954204629982N00817480EA0135401354
B0954214629984N00817488EA0135301353
B0954224629986N00817497EA0135201352
B0954234629988N00817504EA0135201352
B0954244629991N00817511EA0135101352
B0954254629994N00817517EA0135001351
B0954264629997N00817523EA0134901349
B0954274630002N00817528EA0134801348
B0954284630007N00817533EA0134701348
B0954294630011N00817536EA0134701347
B0954304630016N00817539EA0134601346
B0954314630021N00817540EA0134401345
B0954324630026N00817542EA0134301343
B0954334630031N00817544EA0134101342
B0954344630036N00817545EA0134001341
B0954354630041N00817544EA0133901340
B0954364630046N00817542EA0133801338
B0954374630050N00817539EA0133601336
B0954384630054N00817536EA0133301334
B0954394630059N00817532EA0133101332
B0954404630063N00817528EA0132901330
B0954414630066N00817523EA0132701328
B0954424630068N00817518EA0132501326
B0954434630071N00817513EA0132301324
B0954444630073N00817506EA0132201323
B0954454630074N00817499EA0132001321
B0954464630075N00817491EA0132001321
B0954474630074N00817483EA0131801319
B0954484630071N00817476EA0131601317
B0954494630066N00817469EA0131501316
B0954504630062N00817463EA0131401315
B0954514630059N00817456EA0131301314
B0954524630057N00817448EA0131201313
B0954534630055N00817440EA0131001311
B0954544630053N00817432EA0130901311
B0954554630050N00817426EA0130801310
B0954564630046N00817421EA0130801309
B0954574630041N00817417EA0130601308
B0954584630035N00817416EA0130401306
B0954594630030N00817416EA0130101303
B0955004630025N00817418EA0129801300
B0955014630021N00817422EA0129601298
B0955024630018N00817427EA0129501296
B0955034630018N00817434EA0129401296
B0955044630018N00817441EA0129301295
B0955054630018N00817447EA0129301295
B0955064630018N00817452EA0129301294
B0955074630018N00817456EA0129301295
B0955084630018N00817459EA0129401296
B0955094630018N00817460EA0129401296
B0955104630018N00817461EA0129501296
B0955114630017N00817462EA0129501296
B0955124630017N00817462EA0129401296
B0955134630017N00817461EA0129401296
B0955144630016N00817461EA0129401296
B0955154630016N00817461EA0129401296
B0955164630016N00817461EA0129401296
B0955174630016N00817460EA0129401296
B0955184630016N00817460EA0129401296
B0955194630016N00817460EA0129401296
B0955204630015N00817460EA0129401296
B0955214630015N00817460EA0129401296
B0955224630015N00817460EA0129401296
B0955234630015N00817460EA0129401296
B0955244630015N00817460EA0129401296
B0955254630015N00817460EA0129401296
B0955264630015N00817460EA0129401296
B0955274630015N00817460EA0129401296
B0955284630015N00817460EA0129401297
B0955294630015N00817460EA0129401297
B0955304630015N00817460EA0129401297
B0955314630015N00817460EA0129401297
B0955324630015N00817460EA0129401297
B0955334630015N00817460EA0129401297
B0955344630015N00817460EA0129401297
B0955354630015N00817460EA0129401297
B0955364630015N00817460EA0129401297
B0955374630015N00817460EA0129401297
LXSX;C1;GM:1.2
GFA4381CBFD7F98F9BE832A7DF8FFC52F
