AXSX005 SKYTRAXX
HFPLTPILOT:Sepp Bucher
HFGTYGLIDERTYPE:Niviuk Artik R
HFDTM100GPSDATUM:WGS-84
HFRFWFIRMWAREVERSION:202404261547
HFRHWHARDWAREVERSION:4.0
HFTZNTIMEZONE:+3.00
HFSITSITE:Genetiniai (Genėtini
HFDTE140624
LXSX;I1;OAB:20240613;OOB:20240604
LXSX;I1;ID:114075
LXSX;I1;AC:1;CAT:C
C18101500000300000000000120240614.gpx
C5533314N02430991ETAKEOFF
C5536241N02428298ESTART
C5523632N02447201ETURN
C5513339N02526117EFINISH
C5513339N02526117ELANDING
B1316095533314N02430991EA0004200063
B1316105533314N02430991EA0004200063
B1316115533314N02430991EA0004200063
B1316125533314N02430991EA0004200063
B1316135533314N02430991EA0004200063
B1316145533314N02430991EA0004200063
B1316155533314N02430991EA0004200063
B1316165533314N02430991EA0004200063
B1316175533314N02430991EA0004200063
B1316185533314N02430991EA0004200063
B1316195533314N02430991EA0004200063
B1316205533315N02430991EA0004200063
B1316215533316N02430991EA0004200063
B1316225533317N02430991EA0004200063
B1316235533319N02430990EA0004100062
B1316245533322N02430989EA0004000061
B1316255533325N02430988EA0004000061
B1316265533330N02430987EA0004300064
B1316275533335N02430985EA0004500067
B1316285533338N02430982EA0004800070
B1316295533342N02430979EA0005400075
B1316305533346N02430976EA0005500077
B1316315533349N02430973EA0005700079
B1316325533352N02430969EA0006100082
B1316335533356N02430967EA0006400085
B1316345533360N02430964EA0006800089
B1316355533362N02430961EA0007000092
B1316365533365N02430956EA0007300094
B1316375533368N02430951EA0007500096
B1316385533371N02430945EA0007700098
B1316395533374N02430939EA0008100102
B1316405533377N02430933EA0008500106
B1316415533379N02430927EA0008900110
B1316425533381N02430921EA0009300114
B1316435533382N02430917EA0009700118
B1316445533384N02430914EA0009900120
B1316455533387N02430910EA0009900120
B1316465533391N02430907EA0010100123
B1316475533395N02430904EA0010500126
B1316485533399N02430901EA0011000132
B1316495533401N02430897EA0011400136
B1316505533403N02430891EA0011800139
B1316515533406N02430885EA0012000141
B1316525533409N02430877EA0012200144
B1316535533414N02430869EA0012600147
B1316545533417N02430862EA0013000151
B1316555533421N02430856EA0013500156
B1316565533425N02430850EA0014100162
B1316575533428N02430844EA0014500167
B1316585533432N02430838EA0015000172
B1316595533435N02430833EA0015500176
B1317005533439N02430827EA0015900180
B1317015533443N02430822EA0016300185
B1317025533446N02430815EA0016700188
B1317035533450N02430809EA0017000192
B1317045533453N02430802EA0017500196
B1317055533457N02430795EA0018000202
B1317065533460N02430788EA0018600207
B1317075533464N02430782EA0019100213
B1317085533468N02430775EA0019500217
B1317095533471N02430768EA0020000221
B1317105533475N02430760EA0020500226
B1317115533478N02430752EA0021000232
B1317125533481N02430744EA0021600238
B1317135533484N02430736EA0022100243
B1317145533487N02430729EA0022700248
B1317155533490N02430722EA0023100252
B1317165533494N02430715EA0023500257
B1317175533498N02430707EA0024000262
B1317185533502N02430699EA0024400266
B1317195533506N02430691EA0025000272
B1317205533509N02430684EA0025600278
B1317215533512N02430676EA0026100283
B1317225533516N02430669EA0026500287
B1317235533520N02430660EA0026900291
B1317245533524N02430652EA0027400296
B1317255533528N02430644EA0028000303
B1317265533531N02430636EA0028800310
B1317275533533N02430629EA0029300315
B1317285533536N02430623EA0029700319
B1317295533539N02430616EA0030100323
B1317305533543N02430608EA0030300325
B1317315533547N02430602EA0030600329
B1317325533551N02430595EA0031000333
B1317335533554N02430588EA0031500337
B1317345533558N02430581EA0031900342
B1317355533561N02430575EA0032300345
B1317365533565N02430569EA0032500348
B1317375533569N02430561EA0032900351
B1317385533573N02430553EA0033200355
B1317395533577N02430546EA0033700359
B1317405533580N02430539EA0034100364
B1317415533584N02430533EA0034500368
B1317425533588N02430527EA0034800370
B1317435533592N02430521EA0035100374
B1317445533597N02430515EA0035500378
B1317455533601N02430509EA0035800381
B1317465533606N02430503EA0036100384
B1317475533610N02430496EA0036500387
B1317485533615N02430491EA0037000392
B1317495533619N02430486EA0037400397
B1317505533623N02430480EA0037900402
B1317515533627N02430475EA0038300406
B1317525533631N02430469EA0038500408
B1317535533636N02430463EA0038800411
B1317545533640N02430456EA0039200415
B1317555533645N02430450EA0039700420
B1317565533649N02430444EA0040200425
B1317575533653N02430439EA0040700430
B1317585533658N02430432EA0041000433
B1317595533663N02430426EA0041300436
B1318005533668N02430420EA0041800441
B1318015533673N02430415EA0042300446
B1318025533678N02430408EA0042900452
B1318035533682N02430403EA0043300456
B1318045533687N02430398EA0043700461
B1318055533692N02430393EA0044300466
B1318065533696N02430389EA0044700471
B1318075533701N02430383EA0045000473
B1318085533705N02430378EA0045300476
B1318095533710N02430372EA0045600479
B1318105533715N02430367EA0045900483
B1318115533719N02430361EA0046200486
B1318125533723N02430355EA0046700490
B1318135533728N02430350EA0047100495
B1318145533732N02430344EA0047500499
B1318155533737N02430338EA0048000503
B1318165533741N02430331EA0048400508
B1318175533745N02430324EA0048800512
B1318185533750N02430318EA0049300517
B1318195533754N02430312EA0049800522
B1318205533758N02430305EA0050200526
B1318215533762N02430298EA0050500529
B1318225533767N02430290EA0050700530
B1318235533771N02430283EA0050900533
B1318245533775N02430274EA0051400538
B1318255533777N02430267EA0052100545
B1318265533780N02430261EA0052600550
B1318275533784N02430255EA0052900553
B1318285533787N02430249EA0053300557
B1318295533790N02430243EA0053700561
B1318305533794N02430238EA0054000564
B1318315533797N02430232EA0054300567
B1318325533801N02430226EA0054700571
B1318335533805N02430221EA0055000574
B1318345533808N02430215EA0055300577
B1318355533812N02430208EA0055600580
B1318365533815N02430202EA0056100585
B1318375533819N02430197EA0056500589
B1318385533823N02430194EA0056800592
B1318395533827N02430190EA0057200596
B1318405533831N02430186EA0057700601
B1318415533836N02430183EA0058100606
B1318425533842N02430180EA0058400609
B1318435533847N02430177EA0058800612
B1318445533852N02430174EA0059100615
B1318455533857N02430173EA0059700621
B1318465533861N02430171EA0060200626
B1318475533866N02430167EA0060600630
B1318485533871N02430165EA0060900633
B1318495533876N02430162EA0061200636
B1318505533880N02430159EA0061700641
B1318515533885N02430156EA0062100645
B1318525533890N02430153EA0062400648
B1318535533894N02430152EA0062800653
B1318545533899N02430150EA0063200656
B1318555533903N02430148EA0063500659
B1318565533907N02430146EA0063800662
B1318575533912N02430145EA0064100666
B1318585533917N02430142EA0064400668
B1318595533922N02430140EA0064700671
B1319005533927N02430139EA0065000674
B1319015533932N02430138EA0065400678
B1319025533936N02430137EA0065700681
B1319035533941N02430136EA0066000684
B1319045533946N02430135EA0066300688
B1319055533951N02430134EA0066600691
B1319065533956N02430133EA0067000694
B1319075533960N02430133EA0067300697
B1319085533965N02430133EA0067600700
B1319095533969N02430131EA0067800703
B1319105533973N02430129EA0068000705
B1319115533976N02430128EA0068200706
B1319125533980N02430127EA0068100706
B1319135533983N02430126EA0068000705
B1319145533986N02430125EA0067800702
B1319155533990N02430124EA0067500700
B1319165533994N02430122EA0067300697
B1319175533997N02430120EA0067100696
B1319185534001N02430120EA0067000695
B1319195534005N02430122EA0067000694
B1319205534007N02430126EA0066800692
B1319215534010N02430132EA0066600690
B1319225534013N02430140EA0066400689
B1319235534014N02430148EA0066300687
B1319245534015N02430157EA0066100686
B1319255534014N02430167EA0065900684
B1319265534013N02430178EA0065700682
B1319275534010N02430188EA0065600680
B1319285534008N02430198EA0065300678
B1319295534005N02430207EA0065000675
B1319305534001N02430218EA0064600671
B1319315533998N02430229EA0064300667
B1319325533994N02430241EA0064000664
B1319335533990N02430251EA0063800663
B1319345533986N02430261EA0063700662
B1319355533982N02430271EA0063600660
B1319365533978N02430280EA0063300657
B1319375533975N02430291EA0062900654
B1319385533971N02430302EA0062600651
B1319395533966N02430313EA0062400649
B1319405533961N02430323EA0062300647
B1319415533956N02430333EA0062200647
B1319425533952N02430342EA0062100645
B1319435533948N02430351EA0061900643
B1319445533944N02430359EA0061600641
B1319455533938N02430369EA0061400639
B1319465533933N02430378EA0061200637
B1319475533929N02430388EA0061200636
B1319485533924N02430397EA0061100636
B1319495533920N02430406EA0061000635
B1319505533915N02430415EA0060900634
B1319515533911N02430423EA0060800632
B1319525533906N02430432EA0060700631
B1319535533902N02430441EA0060600630
B1319545533897N02430450EA0060500629
B1319555533893N02430459EA0060400629
B1319565533888N02430467EA0060300628
B1319575533883N02430475EA0060200627
B1319585533878N02430484EA0060200626
B1319595533873N02430492EA0060100626
B1320005533868N02430500EA0060000625
B1320015533863N02430508EA0059900624
B1320025533859N02430517EA0059800623
B1320035533853N02430526EA0059700622
B1320045533849N02430535EA0059700622
B1320055533843N02430543EA0059600621
B1320065533838N02430552EA0059500620
B1320075533832N02430560EA0059400619
B1320085533827N02430568EA0059200617
B1320095533821N02430577EA0059100615
B1320105533816N02430585EA0058900614
B1320115533810N02430593EA0058900613
B1320125533805N02430601EA0058700612
B1320135533800N02430609EA0058600610
B1320145533794N02430617EA0058400609
B1320155533788N02430625EA0058300607
B1320165533782N02430633EA0058200607
B1320175533777N02430641EA0058100606
B1320185533771N02430649EA0058100605
B1320195533766N02430657EA0057900604
B1320205533760N02430665EA0057800602
B1320215533754N02430674EA0057600600
B1320225533748N02430682EA0057400599
B1320235533743N02430691EA0057300597
B1320245533737N02430699EA0057200596
B1320255533732N02430706EA0057100595
B1320265533727N02430714EA0056900593
B1320275533721N02430721EA0056600591
B1320285533715N02430729EA0056400588
B1320295533709N02430738EA0056200586
B1320305533704N02430746EA0056000585
B1320315533698N02430754EA0055900583
B1320325533693N02430761EA0055700581
B1320335533688N02430768EA0055500579
B1320345533682N02430775EA0055200576
B1320355533678N02430782EA0054900573
B1320365533673N02430790EA0054500569
B1320375533668N02430799EA0054200566
B1320385533662N02430808EA0053900564
B1320395533657N02430816EA0053800562
B1320405533651N02430824EA0053600561
B1320415533647N02430832EA0053300558
B1320425533642N02430841EA0052900554
B1320435533636N02430850EA0052500549
B1320445533630N02430861EA0052100545
B1320455533624N02430871EA0051900543
B1320465533617N02430881EA0051700542
B1320475533612N02430890EA0051600540
B1320485533606N02430899EA0051300538
B1320495533600N02430908EA0051000535
B1320505533594N02430917EA0050700532
B1320515533587N02430928EA0050500529
B1320525533580N02430938EA0050300528
B1320535533572N02430948EA0050400529
B1320545533566N02430957EA0050600530
B1320555533561N02430965EA0050600531
B1320565533555N02430973EA0050400529
B1320575533549N02430980EA0050200527
B1320585533542N02430989EA0049900524
B1320595533535N02430998EA0049800522
B1321005533528N02431007EA0049700521
B1321015533522N02431016EA0049600521
B1321025533517N02431025EA0049500520
B1321035533511N02431032EA0049400519
B1321045533504N02431040EA0049200517
B1321055533498N02431048EA0049000515
B1321065533492N02431056EA0048800513
B1321075533485N02431065EA0048700512
B1321085533478N02431073EA0048600511
B1321095533473N02431081EA0048600511
B1321105533468N02431089EA0048600511
B1321115533462N02431096EA0048500510
B1321125533456N02431104EA0048300508
B1321135533450N02431111EA0048100506
B1321145533444N02431119EA0047900504
B1321155533438N02431127EA0047700502
B1321165533432N02431134EA0047600501
B1321175533426N02431142EA0047500500
B1321185533420N02431148EA0047300498
B1321195533414N02431155EA0047200497
B1321205533408N02431162EA0047000495
B1321215533403N02431170EA0046800493
B1321225533397N02431178EA0046600491
B1321235533391N02431186EA0046300488
B1321245533385N02431193EA0046100486
B1321255533379N02431201EA0046000485
B1321265533373N02431208EA0045800483
B1321275533368N02431216EA0045700482
B1321285533362N02431223EA0045500480
B1321295533357N02431230EA0045300478
B1321305533351N02431238EA0045000475
B1321315533344N02431246EA0044800473
B1321325533338N02431254EA0044600471
B1321335533333N02431263EA0044400469
B1321345533327N02431271EA0044200467
B1321355533321N02431279EA0044100466
B1321365533316N02431287EA0043900464
B1321375533311N02431296EA0043700462
B1321385533304N02431304EA0043500461
B1321395533299N02431312EA0043500460
B1321405533294N02431320EA0043400459
B1321415533289N02431326EA0043400459
B1321425533284N02431334EA0043200457
B1321435533279N02431341EA0043100456
B1321445533273N02431350EA0042900454
B1321455533268N02431359EA0042800453
B1321465533262N02431368EA0042700452
B1321475533257N02431376EA0042700452
B1321485533252N02431384EA0042800453
B1321495533247N02431391EA0042800453
B1321505533242N02431397EA0042800453
B1321515533238N02431404EA0042800453
B1321525533233N02431410EA0042700452
B1321535533228N02431417EA0042600452
B1321545533223N02431425EA0042600451
B1321555533218N02431431EA0042500450
B1321565533213N02431438EA0042500450
B1321575533208N02431444EA0042400450
B1321585533204N02431450EA0042300449
B1321595533199N02431458EA0042200447
B1322005533195N02431465EA0042100446
B1322015533189N02431472EA0042000446
B1322025533185N02431479EA0042000445
B1322035533181N02431486EA0041900444
B1322045533178N02431494EA0041800444
B1322055533173N02431501EA0041800443
B1322065533168N02431507EA0041600442
B1322075533163N02431512EA0041600442
B1322085533158N02431518EA0041600441
B1322095533153N02431524EA0041500441
B1322105533150N02431531EA0041400440
B1322115533146N02431537EA0041200438
B1322125533141N02431543EA0041000436
B1322135533137N02431550EA0040800434
B1322145533132N02431558EA0040700432
B1322155533128N02431565EA0040500431
B1322165533123N02431572EA0040400429
B1322175533118N02431578EA0040200428
B1322185533113N02431584EA0040100426
B1322195533108N02431591EA0040000425
B1322205533104N02431599EA0039800424
B1322215533100N02431606EA0039800423
B1322225533095N02431613EA0039700423
B1322235533090N02431619EA0039600422
B1322245533086N02431625EA0039600421
B1322255533082N02431631EA0039500420
B1322265533077N02431639EA0039400419
B1322275533072N02431646EA0039400420
B1322285533067N02431652EA0039600421
B1322295533063N02431658EA0039700423
B1322305533059N02431662EA0039800424
B1322315533056N02431667EA0039700423
B1322325533053N02431674EA0039600422
B1322335533050N02431680EA0039600421
B1322345533046N02431686EA0039600421
B1322355533041N02431691EA0039600422
B1322365533036N02431695EA0039600422
B1322375533031N02431698EA0039600421
B1322385533026N02431699EA0039500420
B1322395533019N02431700EA0039400419
B1322405533013N02431699EA0039300418
B1322415533006N02431697EA0039200417
B1322425533000N02431693EA0039000416
B1322435532995N02431687EA0038900415
B1322445532989N02431679EA0038800413
B1322455532985N02431670EA0038600412
B1322465532982N02431660EA0038600411
B1322475532979N02431649EA0038500411
B1322485532977N02431639EA0038500410
B1322495532976N02431628EA0038400409
B1322505532976N02431619EA0038300409
B1322515532976N02431610EA0038200408
B1322525532977N02431601EA0038100407
B1322535532979N02431593EA0038000406
B1322545532982N02431586EA0038000406
B1322555532984N02431579EA0038100406
B1322565532988N02431574EA0038100407
B1322575532990N02431570EA0038300408
B1322585532993N02431568EA0038400409
B1322595532997N02431566EA0038400410
B1323005533000N02431565EA0038500410
B1323015533002N02431565EA0038500410
B1323025533005N02431567EA0038400410
B1323035533008N02431569EA0038500410
B1323045533009N02431573EA0038400410
B1323055533010N02431577EA0038300409
B1323065533009N02431583EA0038200408
B1323075533008N02431590EA0038200408
B1323085533006N02431596EA0038300408
B1323095533003N02431603EA0038400409
B1323105533000N02431608EA0038500410
B1323115532996N02431612EA0038600411
B1323125532991N02431615EA0038700412
B1323135532986N02431617EA0038700412
B1323145532980N02431618EA0038700413
B1323155532974N02431617EA0038800413
B1323165532968N02431615EA0038800414
B1323175532962N02431611EA0038900414
B1323185532957N02431604EA0039000415
B1323195532952N02431595EA0038900415
B1323205532950N02431585EA0038900414
B1323215532948N02431575EA0038900414
B1323225532947N02431564EA0038900415
B1323235532947N02431554EA0039000416
B1323245532948N02431544EA0039100416
B1323255532949N02431535EA0039200418
B1323265532951N02431528EA0039400419
B1323275532953N02431524EA0039500420
B1323285532956N02431521EA0039500420
B1323295532958N02431520EA0039500421
B1323305532961N02431522EA0039500420
B1323315532963N02431525EA0039400419
B1323325532964N02431531EA0039300419
B1323335532964N02431537EA0039300418
B1323345532962N02431544EA0039300418
B1323355532960N02431551EA0039300419
B1323365532957N02431558EA0039400420
B1323375532953N02431564EA0039500421
B1323385532949N02431570EA0039700422
B1323395532943N02431574EA0039800424
B1323405532937N02431577EA0039900424
B1323415532932N02431577EA0039900425
B1323425532925N02431576EA0039900425
B1323435532919N02431573EA0040000425
B1323445532913N02431567EA0040100427
B1323455532908N02431559EA0040200428
B1323465532904N02431550EA0040400429
B1323475532901N02431540EA0040500430
B1323485532899N02431529EA0040600431
B1323495532899N02431519EA0040700432
B1323505532899N02431510EA0040800433
B1323515532900N02431501EA0040800433
B1323525532902N02431494EA0040800434
B1323535532905N02431489EA0040800434
B1323545532909N02431486EA0040800434
B1323555532912N02431486EA0040900434
B1323565532915N02431489EA0040900434
B1323575532916N02431494EA0040900434
B1323585532916N02431499EA0040800434
B1323595532916N02431505EA0040800433
B1324005532915N02431512EA0040700433
B1324015532913N02431520EA0040700433
B1324025532911N02431529EA0040900435
B1324035532908N02431537EA0041100437
B1324045532905N02431542EA0041400439
B1324055532901N02431546EA0041500441
B1324065532897N02431550EA0041500441
B1324075532892N02431553EA0041500441
B1324085532886N02431555EA0041400440
B1324095532879N02431554EA0041400440
B1324105532872N02431550EA0041500441
B1324115532866N02431543EA0041600442
B1324125532862N02431534EA0041800444
B1324135532859N02431525EA0042000446
B1324145532857N02431516EA0042100447
B1324155532857N02431507EA0042200448
B1324165532858N02431501EA0042400450
B1324175532860N02431496EA0042500450
B1324185532862N02431494EA0042500450
B1324195532865N02431495EA0042600451
B1324205532869N02431498EA0042800453
B1324215532871N02431503EA0042900455
B1324225532871N02431509EA0043100456
B1324235532871N02431515EA0043200458
B1324245532870N02431522EA0043300459
B1324255532867N02431528EA0043400460
B1324265532863N02431534EA0043400460
B1324275532858N02431539EA0043400460
B1324285532853N02431542EA0043400460
B1324295532846N02431543EA0043400460
B1324305532839N02431540EA0043500461
B1324315532833N02431537EA0043600462
B1324325532828N02431531EA0043700463
B1324335532823N02431524EA0043800464
B1324345532819N02431516EA0043900464
B1324355532817N02431506EA0043900464
B1324365532816N02431498EA0044000466
B1324375532816N02431490EA0044100467
B1324385532817N02431485EA0044200468
B1324395532819N02431481EA0044300469
B1324405532821N02431480EA0044400470
B1324415532824N02431479EA0044400470
B1324425532826N02431481EA0044500471
B1324435532828N02431485EA0044500471
B1324445532830N02431491EA0044600472
B1324455532830N02431498EA0044700473
B1324465532829N02431506EA0044800474
B1324475532826N02431513EA0044900475
B1324485532822N02431519EA0045000476
B1324495532818N02431524EA0045000476
B1324505532813N02431528EA0045000476
B1324515532807N02431530EA0045100477
B1324525532802N02431531EA0045200478
B1324535532797N02431530EA0045200478
B1324545532791N02431527EA0045200478
B1324555532786N02431521EA0045200478
B1324565532781N02431514EA0045300479
B1324575532778N02431505EA0045300479
B1324585532776N02431495EA0045400480
B1324595532775N02431486EA0045400480
B1325005532776N02431477EA0045500481
B1325015532777N02431470EA0045600482
B1325025532779N02431464EA0045700483
B1325035532781N02431461EA0045800484
B1325045532784N02431459EA0045900484
B1325055532787N02431459EA0045900485
B1325065532790N02431461EA0046000486
B1325075532791N02431465EA0046000486
B1325085532793N02431471EA0046000486
B1325095532793N02431478EA0046100487
B1325105532792N02431486EA0046200488
B1325115532790N02431493EA0046300489
B1325125532786N02431499EA0046400490
B1325135532783N02431504EA0046400490
B1325145532779N02431508EA0046400490
B1325155532775N02431512EA0046400489
B1325165532770N02431515EA0046300488
B1325175532764N02431516EA0046100487
B1325185532757N02431515EA0046100487
B1325195532751N02431511EA0046200487
B1325205532746N02431505EA0046200488
B1325215532742N02431497EA0046200488
B1325225532739N02431488EA0046200488
B1325235532738N02431479EA0046200488
B1325245532737N02431469EA0046200488
B1325255532737N02431460EA0046200488
B1325265532739N02431452EA0046200488
B1325275532740N02431444EA0046400489
B1325285532743N02431437EA0046400490
B1325295532745N02431432EA0046500491
B1325305532747N02431428EA0046500490
B1325315532750N02431425EA0046500491
B1325325532753N02431422EA0046600492
B1325335532756N02431421EA0046600492
B1325345532759N02431419EA0046600492
B1325355532761N02431419EA0046700493
B1325365532764N02431420EA0046700493
B1325375532767N02431422EA0046700492
B1325385532771N02431424EA0046700493
B1325395532774N02431426EA0046700493
B1325405532777N02431428EA0046700493
B1325415532781N02431430EA0046700493
B1325425532784N02431433EA0046800494
B1325435532787N02431436EA0046800494
B1325445532790N02431439EA0046800494
B1325455532792N02431442EA0046900495
B1325465532796N02431444EA0046900495
B1325475532799N02431447EA0046900495
B1325485532802N02431450EA0046900495
B1325495532806N02431453EA0047100497
B1325505532808N02431457EA0047300499
B1325515532810N02431459EA0047400500
B1325525532813N02431462EA0047400500
B1325535532815N02431464EA0047300499
B1325545532818N02431468EA0047400500
B1325555532820N02431472EA0047400500
B1325565532822N02431477EA0047500501
B1325575532824N02431482EA0047600502
B1325585532824N02431488EA0047600502
B1325595532824N02431494EA0047600502
B1326005532822N02431502EA0047700503
B1326015532820N02431509EA0047700503
B1326025532816N02431516EA0047700503
B1326035532810N02431522EA0047700503
B1326045532804N02431525EA0047800504
B1326055532798N02431527EA0047800504
B1326065532791N02431526EA0047800504
B1326075532785N02431524EA0047800504
B1326085532780N02431519EA0047800504
B1326095532775N02431511EA0047600502
B1326105532772N02431502EA0047500501
B1326115532769N02431493EA0047400500
B1326125532768N02431483EA0047400500
B1326135532768N02431473EA0047300499
B1326145532769N02431465EA0047300499
B1326155532770N02431457EA0047300499
B1326165532773N02431452EA0047400500
B1326175532776N02431448EA0047300499
B1326185532779N02431447EA0047400499
B1326195532783N02431447EA0047400500
B1326205532786N02431448EA0047400500
B1326215532790N02431450EA0047500500
B1326225532793N02431453EA0047500501
B1326235532796N02431456EA0047600502
B1326245532799N02431460EA0047700503
B1326255532802N02431464EA0047700503
B1326265532804N02431468EA0047700503
B1326275532807N02431473EA0047700503
B1326285532810N02431477EA0047700503
B1326295532813N02431482EA0047700502
B1326305532815N02431488EA0047600502
B1326315532817N02431494EA0047500501
B1326325532819N02431502EA0047300499
B1326335532820N02431510EA0047300499
B1326345532821N02431518EA0047300499
B1326355532821N02431525EA0047200498
B1326365532821N02431533EA0047000496
B1326375532820N02431541EA0046800494
B1326385532819N02431550EA0046600492
B1326395532817N02431559EA0046500491
B1326405532814N02431568EA0046400490
B1326415532810N02431577EA0046200488
B1326425532806N02431585EA0046100487
B1326435532803N02431594EA0045900485
B1326445532799N02431602EA0045700483
B1326455532794N02431611EA0045600482
B1326465532790N02431620EA0045500481
B1326475532785N02431628EA0045400480
B1326485532781N02431637EA0045400480
B1326495532777N02431645EA0045300479
B1326505532774N02431652EA0045100477
B1326515532769N02431661EA0045000476
B1326525532765N02431669EA0044800474
B1326535532761N02431678EA0044600472
B1326545532757N02431686EA0044500471
B1326555532752N02431695EA0044400470
B1326565532747N02431702EA0044400470
B1326575532743N02431710EA0044300469
B1326585532738N02431716EA0044100467
B1326595532733N02431723EA0043900465
B1327005532728N02431730EA0043800464
B1327015532723N02431737EA0043700463
B1327025532718N02431744EA0043600462
B1327035532712N02431749EA0043400460
B1327045532707N02431754EA0043200458
B1327055532701N02431760EA0043000456
B1327065532694N02431765EA0042800454
B1327075532688N02431771EA0042700453
B1327085532682N02431777EA0042600452
B1327095532674N02431783EA0042400450
B1327105532668N02431788EA0042400450
B1327115532662N02431793EA0042400450
B1327125532656N02431797EA0042300449
B1327135532650N02431801EA0042100447
B1327145532643N02431806EA0042000446
B1327155532636N02431810EA0041800444
B1327165532629N02431815EA0041700443
B1327175532623N02431819EA0041600442
B1327185532617N02431823EA0041500441
B1327195532610N02431827EA0041400440
B1327205532604N02431831EA0041200438
B1327215532597N02431836EA0041100437
B1327225532591N02431840EA0041000436
B1327235532584N02431844EA0040800434
B1327245532578N02431847EA0040700433
B1327255532571N02431850EA0040600432
B1327265532564N02431853EA0040500431
B1327275532558N02431856EA0040400430
B1327285532551N02431860EA0040300429
B1327295532544N02431863EA0040100427
B1327305532538N02431866EA0040000426
B1327315532531N02431869EA0039900425
B1327325532524N02431872EA0039800424
B1327335532518N02431874EA0039800424
B1327345532511N02431877EA0039700423
B1327355532504N02431880EA0039600422
B1327365532497N02431883EA0039500421
B1327375532490N02431886EA0039400420
B1327385532483N02431890EA0039300419
B1327395532476N02431894EA0039300419
B1327405532468N02431897EA0039300419
B1327415532461N02431900EA0039400420
B1327425532454N02431902EA0039300419
B1327435532447N02431903EA0039300419
B1327445532440N02431905EA0039200418
B1327455532434N02431908EA0039100417
B1327465532427N02431912EA0039100417
B1327475532420N02431915EA0039100417
B1327485532413N02431918EA0039100417
B1327495532407N02431922EA0039100417
B1327505532401N02431925EA0039000416
B1327515532395N02431929EA0038800414
B1327525532388N02431934EA0038600412
B1327535532381N02431939EA0038500411
B1327545532375N02431943EA0038400410
B1327555532369N02431946EA0038300409
B1327565532363N02431950EA0038200408
B1327575532357N02431953EA0038000406
B1327585532351N02431956EA0037800404
B1327595532346N02431961EA0037600402
B1328005532339N02431966EA0037400400
B1328015532332N02431970EA0037200398
B1328025532326N02431974EA0037000396
B1328035532320N02431978EA0036900395
B1328045532314N02431983EA0036800394
B1328055532308N02431988EA0036600392
B1328065532303N02431993EA0036400390
B1328075532296N02431998EA0036100387
B1328085532291N02432003EA0035900385
B1328095532284N02432009EA0035700383
B1328105532278N02432015EA0035500381
B1328115532273N02432021EA0035400380
B1328125532266N02432026EA0035300379
B1328135532261N02432031EA0035200378
B1328145532255N02432036EA0035000376
B1328155532249N02432041EA0034900375
B1328165532244N02432046EA0034700373
B1328175532237N02432051EA0034600372
B1328185532231N02432057EA0034600372
B1328195532226N02432062EA0034500371
B1328205532221N02432068EA0034300369
B1328215532215N02432075EA0034200368
B1328225532209N02432082EA0034100367
B1328235532203N02432089EA0034200368
B1328245532198N02432095EA0034200367
B1328255532193N02432101EA0034000366
B1328265532188N02432106EA0033900365
B1328275532182N02432112EA0033700363
B1328285532176N02432119EA0033500361
B1328295532170N02432126EA0033300359
B1328305532164N02432132EA0033100357
B1328315532158N02432139EA0033000356
B1328325532152N02432145EA0032900355
B1328335532146N02432151EA0032700353
B1328345532141N02432157EA0032500351
B1328355532135N02432163EA0032300348
B1328365532129N02432170EA0032000346
B1328375532124N02432176EA0031800344
B1328385532119N02432183EA0031700343
B1328395532114N02432189EA0031700343
B1328405532110N02432194EA0031800344
B1328415532105N02432199EA0031900345
B1328425532101N02432204EA0031900345
B1328435532097N02432209EA0031900345
B1328445532092N02432213EA0031800344
B1328455532087N02432218EA0031700343
B1328465532081N02432223EA0031600342
B1328475532076N02432228EA0031700342
B1328485532071N02432234EA0031700343
B1328495532066N02432240EA0031700343
B1328505532062N02432245EA0031800344
B1328515532057N02432251EA0031900345
B1328525532053N02432256EA0031800344
B1328535532050N02432262EA0031600342
B1328545532046N02432270EA0031500341
B1328555532043N02432278EA0031500341
B1328565532039N02432285EA0031400340
B1328575532036N02432292EA0031400340
B1328585532032N02432299EA0031300339
B1328595532029N02432306EA0031100337
B1329005532026N02432314EA0030900334
B1329015532022N02432321EA0030700333
B1329025532017N02432329EA0030600332
B1329035532013N02432336EA0030500331
B1329045532010N02432343EA0030500331
B1329055532006N02432349EA0030400330
B1329065532001N02432355EA0030300329
B1329075531997N02432361EA0030200328
B1329085531992N02432368EA0030100327
B1329095531986N02432374EA0030100327
B1329105531981N02432379EA0030100327
B1329115531975N02432385EA0030200328
B1329125531971N02432391EA0030200328
B1329135531967N02432398EA0030200328
B1329145531963N02432405EA0030200328
B1329155531958N02432411EA0030300329
B1329165531954N02432418EA0030300329
B1329175531950N02432425EA0030500331
B1329185531946N02432431EA0030600332
B1329195531943N02432436EA0030700333
B1329205531938N02432440EA0030800334
B1329215531933N02432443EA0031000336
B1329225531928N02432445EA0031100337
B1329235531922N02432443EA0031300339
B1329245531917N02432439EA0031400340
B1329255531912N02432433EA0031400340
B1329265531908N02432426EA0031400340
B1329275531905N02432417EA0031400340
B1329285531903N02432407EA0031400340
B1329295531903N02432397EA0031400340
B1329305531904N02432387EA0031400340
B1329315531906N02432380EA0031500341
B1329325531909N02432375EA0031600342
B1329335531913N02432373EA0031600342
B1329345531917N02432373EA0031600342
B1329355531920N02432376EA0031600342
B1329365531924N02432379EA0031600342
B1329375531926N02432385EA0031600342
B1329385531928N02432391EA0031600342
B1329395531930N02432399EA0031600342
B1329405531930N02432407EA0031500341
B1329415531931N02432416EA0031500341
B1329425531931N02432425EA0031600342
B1329435531930N02432434EA0031700343
B1329445531928N02432443EA0032000346
B1329455531927N02432450EA0032300349
B1329465531925N02432457EA0032600352
B1329475531924N02432463EA0032700353
B1329485531923N02432470EA0032700353
B1329495531922N02432477EA0032700353
B1329505531920N02432485EA0032700353
B1329515531917N02432492EA0032800354
B1329525531912N02432497EA0033000356
B1329535531907N02432500EA0033100357
B1329545531902N02432502EA0033300359
B1329555531896N02432501EA0033300359
B1329565531891N02432500EA0033300359
B1329575531884N02432498EA0033300359
B1329585531877N02432494EA0033300359
B1329595531871N02432487EA0033300359
B1330005531865N02432479EA0033400360
B1330015531862N02432470EA0033500361
B1330025531860N02432459EA0033600362
B1330035531859N02432450EA0033600362
B1330045531859N02432441EA0033600362
B1330055531861N02432433EA0033600362
B1330065531863N02432427EA0033600362
B1330075531866N02432424EA0033600362
B1330085531869N02432425EA0033700363
B1330095531872N02432429EA0033800364
B1330105531873N02432434EA0034000366
B1330115531874N02432439EA0034100367
B1330125531875N02432443EA0034300369
B1330135531874N02432449EA0034400370
B1330145531873N02432455EA0034400370
B1330155531872N02432462EA0034500371
B1330165531869N02432468EA0034400370
B1330175531865N02432473EA0034500371
B1330185531860N02432478EA0034500371
B1330195531853N02432482EA0034600372
B1330205531847N02432483EA0034700373
B1330215531840N02432480EA0034700373
B1330225531834N02432476EA0034700373
B1330235531828N02432470EA0034800374
B1330245531823N02432463EA0034900375
B1330255531820N02432454EA0034900375
B1330265531818N02432443EA0034900375
B1330275531817N02432433EA0035000376
B1330285531818N02432423EA0035000376
B1330295531820N02432416EA0034900375
B1330305531823N02432410EA0034900375
B1330315531827N02432407EA0034900375
B1330325531831N02432406EA0034900375
B1330335531834N02432407EA0035000376
B1330345531837N02432410EA0035100377
B1330355531839N02432415EA0035200378
B1330365531841N02432420EA0035200378
B1330375531842N02432427EA0035300379
B1330385531843N02432433EA0035400380
B1330395531844N02432439EA0035600382
B1330405531845N02432445EA0035900385
B1330415531846N02432451EA0036100387
B1330425531846N02432459EA0036300389
B1330435531846N02432466EA0036500391
B1330445531845N02432473EA0036600392
B1330455531844N02432480EA0036800394
B1330465531842N02432486EA0036800394
B1330475531840N02432492EA0036700393
B1330485531836N02432498EA0036700393
B1330495531831N02432503EA0036700393
B1330505531826N02432505EA0036700393
B1330515531820N02432504EA0036700394
B1330525531814N02432501EA0036700393
B1330535531809N02432496EA0036700393
B1330545531805N02432489EA0036700393
B1330555531801N02432481EA0036700393
B1330565531799N02432471EA0036600392
B1330575531798N02432461EA0036500391
B1330585531799N02432452EA0036500391
B1330595531802N02432444EA0036500391
B1331005531805N02432438EA0036600392
B1331015531809N02432435EA0036700393
B1331025531812N02432432EA0036800394
B1331035531816N02432432EA0036900395
B1331045531820N02432432EA0037000396
B1331055531824N02432434EA0037100397
B1331065531827N02432438EA0037300399
B1331075531830N02432444EA0037400400
B1331085531831N02432452EA0037500401
B1331095531831N02432460EA0037700403
B1331105531828N02432468EA0037800404
B1331115531826N02432476EA0037800404
B1331125531822N02432483EA0037900405
B1331135531818N02432488EA0038000406
B1331145531812N02432490EA0037800404
B1331155531807N02432491EA0037700403
B1331165531800N02432488EA0037600402
B1331175531794N02432483EA0037600402
B1331185531789N02432475EA0037500401
B1331195531786N02432466EA0037500401
B1331205531785N02432456EA0037400400
B1331215531784N02432446EA0037400400
B1331225531785N02432436EA0037400400
B1331235531786N02432428EA0037300399
B1331245531789N02432420EA0037300399
B1331255531793N02432414EA0037400400
B1331265531797N02432410EA0037500401
B1331275531802N02432407EA0037700403
B1331285531807N02432405EA0037900405
B1331295531812N02432402EA0038100407
B1331305531815N02432400EA0038200408
B1331315531820N02432398EA0038200408
B1331325531824N02432398EA0038300409
B1331335531830N02432398EA0038300409
B1331345531834N02432399EA0038400410
B1331355531837N02432402EA0038300409
B1331365531839N02432407EA0038100407
B1331375531840N02432413EA0037900405
B1331385531840N02432419EA0037700403
B1331395531840N02432426EA0037600402
B1331405531840N02432432EA0037500401
B1331415531838N02432439EA0037300400
B1331425531836N02432445EA0037200398
B1331435531832N02432451EA0037100397
B1331445531828N02432456EA0037000396
B1331455531824N02432459EA0036800394
B1331465531819N02432462EA0036600392
B1331475531813N02432463EA0036300389
B1331485531807N02432464EA0036100387
B1331495531801N02432465EA0036000386
B1331505531796N02432467EA0035900385
B1331515531790N02432469EA0035800384
B1331525531784N02432472EA0035700383
B1331535531779N02432477EA0035600382
B1331545531774N02432481EA0035500381
B1331555531769N02432485EA0035300379
B1331565531764N02432490EA0035200378
B1331575531758N02432495EA0035000376
B1331585531753N02432500EA0034800374
B1331595531748N02432506EA0034700373
B1332005531743N02432510EA0034700373
B1332015531739N02432515EA0034600372
B1332025531735N02432519EA0034500371
B1332035531731N02432523EA0034200368
B1332045531726N02432529EA0033900365
B1332055531721N02432535EA0033800364
B1332065531716N02432542EA0033700363
B1332075531711N02432548EA0033800364
B1332085531707N02432553EA0033800364
B1332095531702N02432558EA0033800364
B1332105531698N02432564EA0033700363
B1332115531694N02432569EA0033600362
B1332125531689N02432575EA0033500361
B1332135531684N02432582EA0033500361
B1332145531679N02432589EA0033800363
B1332155531675N02432595EA0034000366
B1332165531672N02432601EA0034200368
B1332175531669N02432607EA0034300369
B1332185531666N02432612EA0034400370
B1332195531663N02432619EA0034500371
B1332205531661N02432626EA0034600372
B1332215531660N02432633EA0034800374
B1332225531660N02432639EA0035000376
B1332235531662N02432644EA0035100377
B1332245531664N02432648EA0035200378
B1332255531666N02432651EA0035300379
B1332265531669N02432652EA0035300379
B1332275531673N02432651EA0035300379
B1332285531677N02432646EA0035400379
B1332295531679N02432639EA0035400380
B1332305531680N02432629EA0035300379
B1332315531678N02432618EA0035300379
B1332325531677N02432608EA0035300379
B1332335531675N02432598EA0035400380
B1332345531672N02432589EA0035400380
B1332355531668N02432581EA0035400379
B1332365531662N02432574EA0035300379
B1332375531655N02432570EA0035300379
B1332385531648N02432567EA0035300379
B1332395531642N02432566EA0035400380
B1332405531636N02432566EA0035600382
B1332415531631N02432568EA0035800384
B1332425531626N02432570EA0036000386
B1332435531621N02432573EA0036100387
B1332445531616N02432576EA0036300388
B1332455531612N02432580EA0036400389
B1332465531607N02432585EA0036400390
B1332475531603N02432592EA0036600392
B1332485531599N02432598EA0036700393
B1332495531596N02432605EA0036900395
B1332505531593N02432612EA0037100397
B1332515531592N02432619EA0037200397
B1332525531592N02432627EA0037200397
B1332535531594N02432635EA0037200398
B1332545531597N02432641EA0037300398
B1332555531600N02432645EA0037400400
B1332565531604N02432647EA0037500401
B1332575531608N02432646EA0037600402
B1332585531612N02432643EA0037700403
B1332595531615N02432638EA0037800403
B1333005531619N02432631EA0037900404
B1333015531621N02432623EA0037900405
B1333025531622N02432615EA0038100407
B1333035531621N02432605EA0038100407
B1333045531620N02432595EA0038100407
B1333055531616N02432586EA0038100406
B1333065531612N02432577EA0038100406
B1333075531607N02432569EA0038200407
B1333085531602N02432563EA0038300408
B1333095531596N02432559EA0038300409
B1333105531591N02432557EA0038400410
B1333115531584N02432556EA0038400410
B1333125531578N02432558EA0038600412
B1333135531573N02432561EA0038700413
B1333145531567N02432565EA0038800414
B1333155531563N02432569EA0038900415
B1333165531559N02432574EA0038900415
B1333175531556N02432578EA0038700413
B1333185531553N02432585EA0038500411
B1333195531551N02432594EA0038300409
B1333205531550N02432604EA0038200408
B1333215531550N02432614EA0038300409
B1333225531550N02432623EA0038500411
B1333235531551N02432630EA0038700413
B1333245531552N02432636EA0038800413
B1333255531553N02432644EA0038800413
B1333265531554N02432651EA0038800414
B1333275531556N02432659EA0038800414
B1333285531558N02432665EA0038900415
B1333295531561N02432669EA0038900415
B1333305531565N02432673EA0038900415
B1333315531569N02432676EA0038900415
B1333325531573N02432676EA0038900415
B1333335531577N02432675EA0038900415
B1333345531582N02432673EA0038900415
B1333355531587N02432668EA0039100417
B1333365531589N02432662EA0039300419
B1333375531592N02432657EA0039500420
B1333385531594N02432652EA0039500421
B1333395531596N02432644EA0039500421
B1333405531596N02432634EA0039500421
B1333415531595N02432623EA0039500420
B1333425531592N02432612EA0039500421
B1333435531587N02432604EA0039600422
B1333445531582N02432599EA0039800423
B1333455531577N02432596EA0039900425
B1333465531573N02432595EA0039900425
B1333475531568N02432594EA0039900425
B1333485531563N02432595EA0039900424
B1333495531558N02432598EA0039900425
B1333505531554N02432603EA0039900425
B1333515531550N02432609EA0039900425
B1333525531547N02432616EA0040000426
B1333535531545N02432623EA0040000426
B1333545531544N02432630EA0039900425
B1333555531544N02432638EA0039800424
B1333565531544N02432646EA0039800423
B1333575531545N02432654EA0039700423
B1333585531546N02432662EA0039700423
B1333595531548N02432669EA0039800424
B1334005531550N02432676EA0039900425
B1334015531552N02432682EA0039900425
B1334025531554N02432689EA0040000426
B1334035531556N02432696EA0040100427
B1334045531558N02432702EA0040200428
B1334055531562N02432707EA0040400429
B1334065531566N02432710EA0040400430
B1334075531570N02432714EA0040500431
B1334085531573N02432716EA0040600431
B1334095531576N02432719EA0040600431
B1334105531579N02432720EA0040500431
B1334115531583N02432719EA0040400430
B1334125531587N02432716EA0040300429
B1334135531591N02432711EA0040300429
B1334145531593N02432704EA0040400430
B1334155531594N02432694EA0040400430
B1334165531594N02432684EA0040400430
B1334175531593N02432674EA0040400430
B1334185531591N02432665EA0040500430
B1334195531589N02432655EA0040500431
B1334205531585N02432647EA0040400430
B1334215531582N02432638EA0040300429
B1334225531576N02432631EA0040200428
B1334235531570N02432625EA0040100427
B1334245531563N02432623EA0040100427
B1334255531557N02432623EA0040200427
B1334265531551N02432624EA0040300428
B1334275531546N02432627EA0040300429
B1334285531541N02432632EA0040300429
B1334295531536N02432638EA0040300429
B1334305531531N02432645EA0040300429
B1334315531528N02432653EA0040400429
B1334325531525N02432662EA0040500431
B1334335531523N02432671EA0040700432
B1334345531522N02432679EA0040800434
B1334355531522N02432687EA0040900435
B1334365531522N02432694EA0040900435
B1334375531523N02432703EA0041000436
B1334385531524N02432711EA0041100437
B1334395531527N02432717EA0041100437
B1334405531531N02432721EA0041100437
B1334415531535N02432723EA0041200437
B1334425531539N02432723EA0041200438
B1334435531542N02432722EA0041300439
B1334445531546N02432719EA0041400439
B1334455531550N02432715EA0041300439
B1334465531553N02432709EA0041200438
B1334475531556N02432701EA0041100437
B1334485531558N02432692EA0041200438
B1334495531558N02432682EA0041300438
B1334505531558N02432673EA0041300439
B1334515531555N02432663EA0041200438
B1334525531551N02432654EA0041100437
B1334535531546N02432647EA0041100437
B1334545531540N02432641EA0041100437
B1334555531534N02432639EA0041200438
B1334565531528N02432639EA0041300439
B1334575531523N02432642EA0041300439
B1334585531517N02432646EA0041400440
B1334595531512N02432650EA0041400440
B1335005531508N02432656EA0041400440
B1335015531503N02432662EA0041400440
B1335025531500N02432671EA0041400440
B1335035531497N02432680EA0041400440
B1335045531496N02432689EA0041500441
B1335055531495N02432697EA0041500441
B1335065531495N02432706EA0041600441
B1335075531495N02432715EA0041600442
B1335085531496N02432724EA0041600442
B1335095531498N02432732EA0041600442
B1335105531500N02432740EA0041700443
B1335115531503N02432747EA0041900444
B1335125531506N02432753EA0042000446
B1335135531508N02432758EA0042100447
B1335145531510N02432763EA0042200448
B1335155531513N02432766EA0042200448
B1335165531516N02432769EA0042100447
B1335175531520N02432770EA0042000446
B1335185531525N02432768EA0041900445
B1335195531529N02432764EA0041900445
B1335205531533N02432758EA0041900445
B1335215531536N02432751EA0042000445
B1335225531538N02432743EA0042000446
B1335235531539N02432734EA0042100447
B1335245531538N02432723EA0042200448
B1335255531535N02432714EA0042300449
B1335265531531N02432706EA0042400450
B1335275531526N02432701EA0042400450
B1335285531520N02432699EA0042400450
B1335295531514N02432699EA0042400450
B1335305531509N02432701EA0042500451
B1335315531504N02432706EA0042500451
B1335325531500N02432712EA0042600452
B1335335531496N02432720EA0042600452
B1335345531492N02432729EA0042700453
B1335355531491N02432738EA0042800454
B1335365531492N02432746EA0042900455
B1335375531492N02432753EA0043000455
B1335385531495N02432759EA0042900455
B1335395531497N02432765EA0042900455
B1335405531500N02432771EA0042900455
B1335415531503N02432774EA0042900455
B1335425531508N02432776EA0042900455
B1335435531512N02432776EA0042900454
B1335445531517N02432774EA0042900455
B1335455531521N02432771EA0042900455
B1335465531525N02432766EA0042900455
B1335475531528N02432759EA0042900455
B1335485531530N02432750EA0042800454
B1335495531531N02432741EA0042800454
B1335505531530N02432731EA0042900455
B1335515531529N02432722EA0043000455
B1335525531526N02432714EA0043000456
B1335535531524N02432707EA0043000456
B1335545531520N02432701EA0043000456
B1335555531515N02432696EA0042900455
B1335565531509N02432694EA0042900454
B1335575531503N02432693EA0042900454
B1335585531497N02432695EA0042900455
B1335595531492N02432697EA0043100457
B1336005531487N02432701EA0043200458
B1336015531483N02432707EA0043300458
B1336025531479N02432713EA0043200458
B1336035531477N02432720EA0043200458
B1336045531474N02432729EA0043300459
B1336055531473N02432739EA0043300459
B1336065531473N02432748EA0043400459
B1336075531474N02432755EA0043400460
B1336085531477N02432761EA0043400460
B1336095531480N02432766EA0043300459
B1336105531483N02432771EA0043300458
B1336115531487N02432776EA0043200458
B1336125531492N02432778EA0043100457
B1336135531496N02432777EA0043000456
B1336145531501N02432774EA0042900455
B1336155531506N02432770EA0042800454
B1336165531510N02432765EA0042800454
B1336175531513N02432761EA0042800454
B1336185531516N02432756EA0042800454
B1336195531519N02432750EA0042700453
B1336205531522N02432743EA0042600452
B1336215531525N02432736EA0042500451
B1336225531527N02432729EA0042500451
B1336235531528N02432720EA0042400450
B1336245531528N02432711EA0042300449
B1336255531528N02432701EA0042100447
B1336265531526N02432690EA0042000446
B1336275531524N02432680EA0041900445
B1336285531520N02432671EA0041900445
B1336295531516N02432663EA0041800444
B1336305531511N02432656EA0041700443
B1336315531504N02432650EA0041600441
B1336325531498N02432646EA0041500441
B1336335531492N02432645EA0041500441
B1336345531485N02432645EA0041500441
B1336355531479N02432648EA0041500441
B1336365531474N02432652EA0041500441
B1336375531469N02432658EA0041500441
B1336385531465N02432665EA0041500441
B1336395531461N02432672EA0041600442
B1336405531457N02432679EA0041700442
B1336415531453N02432685EA0041700443
B1336425531449N02432691EA0041800443
B1336435531445N02432697EA0041700443
B1336445531441N02432704EA0041700443
B1336455531437N02432711EA0041700443
B1336465531433N02432717EA0041800443
B1336475531429N02432724EA0041800444
B1336485531425N02432731EA0041900445
B1336495531421N02432737EA0042000445
B1336505531418N02432744EA0041900445
B1336515531414N02432752EA0041900445
B1336525531412N02432760EA0042000446
B1336535531411N02432768EA0042000446
B1336545531411N02432776EA0042000446
B1336555531413N02432782EA0042000446
B1336565531415N02432787EA0042000446
B1336575531419N02432788EA0042100447
B1336585531422N02432788EA0042000446
B1336595531424N02432785EA0041900445
B1337005531427N02432781EA0041800443
B1337015531430N02432776EA0041600442
B1337025531433N02432768EA0041500441
B1337035531434N02432758EA0041400440
B1337045531434N02432747EA0041300439
B1337055531433N02432737EA0041200438
B1337065531431N02432726EA0041100436
B1337075531428N02432716EA0041000436
B1337085531423N02432707EA0040900435
B1337095531417N02432700EA0040900434
B1337105531410N02432696EA0040900434
B1337115531403N02432696EA0040900435
B1337125531396N02432698EA0041000436
B1337135531390N02432700EA0041100436
B1337145531385N02432704EA0041100437
B1337155531380N02432708EA0041000436
B1337165531375N02432715EA0040900435
B1337175531371N02432723EA0040900434
B1337185531368N02432732EA0040800434
B1337195531365N02432742EA0040800434
B1337205531362N02432751EA0040800434
B1337215531359N02432759EA0040800434
B1337225531355N02432767EA0040800434
B1337235531352N02432776EA0040800434
B1337245531349N02432785EA0040800434
B1337255531346N02432795EA0040800434
B1337265531343N02432804EA0041000435
B1337275531339N02432813EA0041100437
B1337285531337N02432821EA0041200438
B1337295531335N02432829EA0041200438
B1337305531333N02432837EA0041200437
B1337315531332N02432845EA0041000436
B1337325531330N02432854EA0040800434
B1337335531328N02432864EA0040800433
B1337345531325N02432872EA0040700433
B1337355531322N02432880EA0040700433
B1337365531319N02432888EA0040600431
B1337375531316N02432896EA0040400430
B1337385531313N02432904EA0040300428
B1337395531310N02432913EA0040100427
B1337405531306N02432921EA0040100427
B1337415531303N02432928EA0040000426
B1337425531300N02432936EA0039900425
B1337435531297N02432943EA0039700423
B1337445531294N02432951EA0039600422
B1337455531291N02432959EA0039400420
B1337465531287N02432968EA0039300419
B1337475531284N02432975EA0039300418
B1337485531281N02432983EA0039200417
B1337495531277N02432991EA0039100416
B1337505531274N02432999EA0039000416
B1337515531271N02433006EA0039000416
B1337525531267N02433013EA0039000416
B1337535531265N02433020EA0039000416
B1337545531262N02433027EA0039000416
B1337555531260N02433036EA0039100417
B1337565531258N02433044EA0039200418
B1337575531257N02433053EA0039400419
B1337585531255N02433061EA0039600421
B1337595531255N02433069EA0039700423
B1338005531255N02433075EA0039900425
B1338015531255N02433082EA0040000426
B1338025531255N02433090EA0040000426
B1338035531257N02433097EA0040100426
B1338045531259N02433103EA0040100427
B1338055531262N02433106EA0040200428
B1338065531266N02433107EA0040300429
B1338075531269N02433105EA0040300429
B1338085531272N02433102EA0040300428
B1338095531276N02433099EA0040200428
B1338105531280N02433093EA0040200428
B1338115531283N02433085EA0040300429
B1338125531285N02433074EA0040500431
B1338135531284N02433064EA0040700433
B1338145531282N02433055EA0040900435
B1338155531279N02433046EA0041100437
B1338165531276N02433039EA0041200438
B1338175531272N02433031EA0041200438
B1338185531267N02433025EA0041200438
B1338195531260N02433020EA0041200437
B1338205531253N02433018EA0041200438
B1338215531246N02433019EA0041300439
B1338225531240N02433022EA0041600442
B1338235531235N02433026EA0041800444
B1338245531231N02433030EA0042000446
B1338255531227N02433035EA0042100447
B1338265531225N02433041EA0042200448
B1338275531223N02433048EA0042300449
B1338285531222N02433056EA0042400450
B1338295531222N02433063EA0042600452
B1338305531222N02433069EA0042700453
B1338315531223N02433073EA0042800453
B1338325531225N02433077EA0042800454
B1338335531228N02433079EA0042800454
B1338345531231N02433080EA0042800454
B1338355531235N02433078EA0042800454
B1338365531238N02433073EA0042800454
B1338375531241N02433066EA0043000456
B1338385531243N02433058EA0043200458
B1338395531244N02433049EA0043400460
B1338405531243N02433040EA0043500461
B1338415531242N02433031EA0043500461
B1338425531240N02433021EA0043600462
B1338435531237N02433012EA0043700463
B1338445531231N02433005EA0043800463
B1338455531224N02433001EA0043900464
B1338465531217N02433000EA0044100466
B1338475531211N02433001EA0044400469
B1338485531206N02433003EA0044600471
B1338495531202N02433006EA0044700472
B1338505531197N02433011EA0044700473
B1338515531192N02433017EA0044700473
B1338525531189N02433026EA0044800474
B1338535531188N02433034EA0044800474
B1338545531188N02433041EA0044900474
B1338555531190N02433046EA0044900475
B1338565531192N02433050EA0045000476
B1338575531194N02433054EA0045000476
B1338585531197N02433059EA0045100477
B1338595531200N02433062EA0045100477
B1339005531204N02433062EA0045100477
B1339015531209N02433058EA0045200478
B1339025531211N02433052EA0045400479
B1339035531214N02433045EA0045500481
B1339045531215N02433038EA0045600482
B1339055531215N02433029EA0045700482
B1339065531215N02433020EA0045700483
B1339075531214N02433008EA0045700483
B1339085531211N02432997EA0045700483
B1339095531206N02432987EA0045800483
B1339105531199N02432982EA0045900485
B1339115531192N02432979EA0046200487
B1339125531186N02432979EA0046400490
B1339135531181N02432979EA0046700493
B1339145531176N02432980EA0046900495
B1339155531170N02432983EA0047100497
B1339165531166N02432987EA0047100497
B1339175531162N02432993EA0047200498
B1339185531159N02433000EA0047300498
B1339195531157N02433008EA0047300498
B1339205531157N02433015EA0047200498
B1339215531157N02433023EA0047200498
B1339225531158N02433031EA0047300498
B1339235531160N02433037EA0047400500
B1339245531164N02433041EA0047600502
B1339255531167N02433042EA0047700503
B1339265531170N02433042EA0047800504
B1339275531173N02433040EA0047900505
B1339285531176N02433036EA0048000506
B1339295531179N02433032EA0048100507
B1339305531181N02433024EA0048200508
B1339315531182N02433014EA0048300509
B1339325531180N02433003EA0048400510
B1339335531176N02432994EA0048400510
B1339345531170N02432986EA0048500511
B1339355531164N02432979EA0048600512
B1339365531159N02432975EA0048900515
B1339375531152N02432973EA0049100517
B1339385531147N02432973EA0049300518
B1339395531141N02432975EA0049400519
B1339405531135N02432980EA0049500521
B1339415531132N02432986EA0049600522
B1339425531129N02432993EA0049600522
B1339435531127N02433001EA0049700522
B1339445531126N02433009EA0049700523
B1339455531126N02433016EA0049800524
B1339465531128N02433023EA0049900525
B1339475531130N02433028EA0050100526
B1339485531133N02433032EA0050100527
B1339495531136N02433033EA0050200527
B1339505531139N02433033EA0050200528
B1339515531142N02433030EA0050200528
B1339525531146N02433025EA0050200528
B1339535531148N02433017EA0050300529
B1339545531149N02433008EA0050400530
B1339555531148N02432998EA0050600532
B1339565531146N02432987EA0050700533
B1339575531142N02432978EA0050800533
B1339585531138N02432970EA0050800534
B1339595531133N02432962EA0051000535
B1340005531128N02432956EA0051100537
B1340015531122N02432953EA0051200538
B1340025531116N02432952EA0051200538
B1340035531109N02432953EA0051400539
B1340045531104N02432956EA0051600542
B1340055531099N02432961EA0051700543
B1340065531096N02432967EA0051800544
B1340075531092N02432974EA0051900545
B1340085531089N02432981EA0052000546
B1340095531087N02432989EA0052100547
B1340105531087N02432996EA0052100547
B1340115531088N02433003EA0052100547
B1340125531089N02433010EA0052100547
B1340135531092N02433015EA0052200547
B1340145531095N02433017EA0052200547
B1340155531098N02433017EA0052200547
B1340165531101N02433016EA0052200548
B1340175531104N02433013EA0052300549
B1340185531107N02433009EA0052300549
B1340195531109N02433001EA0052400549
B1340205531109N02432992EA0052400550
B1340215531109N02432982EA0052600551
B1340225531107N02432973EA0052700553
B1340235531102N02432966EA0052700553
B1340245531097N02432960EA0052700553
B1340255531091N02432956EA0052700552
B1340265531084N02432952EA0052700553
B1340275531078N02432951EA0052800554
B1340285531073N02432952EA0052900555
B1340295531067N02432956EA0053000556
B1340305531063N02432961EA0053200557
B1340315531059N02432968EA0053200558
B1340325531056N02432975EA0053300559
B1340335531053N02432982EA0053300559
B1340345531050N02432989EA0053400559
B1340355531049N02432997EA0053400560
B1340365531049N02433004EA0053400560
B1340375531050N02433010EA0053300559
B1340385531052N02433016EA0053300558
B1340395531054N02433020EA0053300558
B1340405531057N02433022EA0053300558
B1340415531061N02433023EA0053300558
B1340425531064N02433023EA0053300559
B1340435531067N02433023EA0053400559
B1340445531070N02433022EA0053400560
B1340455531073N02433019EA0053500561
B1340465531076N02433016EA0053500560
B1340475531078N02433011EA0053500560
B1340485531081N02433005EA0053500561
B1340495531082N02432997EA0053500561
B1340505531084N02432989EA0053500561
B1340515531084N02432981EA0053600561
B1340525531084N02432972EA0053600562
B1340535531083N02432963EA0053600562
B1340545531082N02432953EA0053500561
B1340555531078N02432944EA0053500561
B1340565531075N02432934EA0053500561
B1340575531070N02432927EA0053500561
B1340585531065N02432921EA0053500561
B1340595531059N02432917EA0053500561
B1341005531052N02432916EA0053500560
B1341015531046N02432916EA0053500561
B1341025531039N02432917EA0053500561
B1341035531033N02432920EA0053500561
B1341045531028N02432924EA0053500561
B1341055531023N02432929EA0053500561
B1341065531018N02432935EA0053600562
B1341075531013N02432942EA0053700563
B1341085531010N02432949EA0053800564
B1341095531006N02432956EA0053900565
B1341105531003N02432963EA0054000566
B1341115531000N02432970EA0054100567
B1341125530998N02432977EA0054100566
B1341135530997N02432985EA0054000566
B1341145530998N02432992EA0053900565
B1341155530999N02432999EA0053900565
B1341165531001N02433003EA0053900565
B1341175531004N02433006EA0053900565
B1341185531007N02433007EA0053900565
B1341195531010N02433006EA0053900565
B1341205531013N02433003EA0053900565
B1341215531015N02432998EA0053900565
B1341225531017N02432991EA0053900565
B1341235531018N02432984EA0053900565
B1341245531018N02432975EA0053900565
B1341255531018N02432966EA0053900565
B1341265531016N02432956EA0053900565
B1341275531012N02432947EA0053900565
B1341285531008N02432938EA0053900565
B1341295531003N02432930EA0054000566
B1341305530997N02432925EA0054100567
B1341315530991N02432921EA0054100567
B1341325530984N02432920EA0054000566
B1341335530977N02432919EA0054000566
B1341345530970N02432921EA0054100567
B1341355530964N02432924EA0054200568
B1341365530959N02432930EA0054200568
B1341375530954N02432936EA0054300568
B1341385530950N02432943EA0054300568
B1341395530948N02432950EA0054200568
B1341405530946N02432957EA0054200568
B1341415530946N02432965EA0054100567
B1341425530947N02432972EA0054100567
B1341435530949N02432977EA0054100566
B1341445530951N02432980EA0054100566
B1341455530954N02432982EA0054000566
B1341465530956N02432982EA0053900565
B1341475530959N02432980EA0053800564
B1341485530962N02432977EA0053800563
B1341495530965N02432972EA0053700563
B1341505530967N02432965EA0053600562
B1341515530967N02432957EA0053600562
B1341525530967N02432948EA0053600562
B1341535530966N02432939EA0053600562
B1341545530964N02432929EA0053600562
B1341555530962N02432920EA0053700562
B1341565530960N02432910EA0053700563
B1341575530956N02432901EA0053800564
B1341585530953N02432892EA0053900564
B1341595530948N02432884EA0053900565
B1342005530943N02432876EA0053900565
B1342015530937N02432869EA0054000566
B1342025530931N02432863EA0054000566
B1342035530926N02432858EA0054100567
B1342045530919N02432853EA0054100567
B1342055530913N02432850EA0054100567
B1342065530906N02432849EA0054100567
B1342075530899N02432850EA0054200568
B1342085530893N02432852EA0054200568
B1342095530887N02432857EA0054200568
B1342105530882N02432863EA0054200568
B1342115530879N02432870EA0054200568
B1342125530877N02432878EA0054200568
B1342135530876N02432886EA0054200568
B1342145530878N02432893EA0054100567
B1342155530879N02432898EA0054100567
B1342165530881N02432901EA0054000566
B1342175530883N02432903EA0054000566
B1342185530886N02432904EA0053900565
B1342195530889N02432902EA0053800564
B1342205530892N02432898EA0053800563
B1342215530895N02432892EA0053800563
B1342225530897N02432884EA0053800564
B1342235530897N02432875EA0053800564
B1342245530897N02432865EA0053900565
B1342255530895N02432856EA0053900565
B1342265530893N02432847EA0054000565
B1342275530890N02432837EA0053900565
B1342285530888N02432827EA0053800564
B1342295530885N02432817EA0053800564
B1342305530882N02432807EA0053900565
B1342315530878N02432798EA0053900565
B1342325530873N02432788EA0053900565
B1342335530869N02432779EA0053900565
B1342345530864N02432771EA0054000566
B1342355530860N02432762EA0054100566
B1342365530854N02432754EA0054100567
B1342375530849N02432747EA0054200567
B1342385530844N02432740EA0054200568
B1342395530839N02432732EA0054300569
B1342405530835N02432724EA0054400570
B1342415530832N02432715EA0054400570
B1342425530830N02432705EA0054400570
B1342435530830N02432695EA0054400570
B1342445530830N02432685EA0054500571
B1342455530832N02432676EA0054600571
B1342465530835N02432669EA0054600572
B1342475530839N02432664EA0054600572
B1342485530843N02432662EA0054700572
B1342495530846N02432661EA0054700573
B1342505530850N02432663EA0054700573
B1342515530853N02432668EA0054800574
B1342525530854N02432674EA0054900574
B1342535530854N02432682EA0054900575
B1342545530853N02432689EA0055000576
B1342555530850N02432696EA0055100577
B1342565530846N02432702EA0055100577
B1342575530841N02432706EA0055100577
B1342585530835N02432709EA0055100577
B1342595530829N02432709EA0055200578
B1343005530823N02432707EA0055200578
B1343015530817N02432701EA0055100577
B1343025530812N02432693EA0055100577
B1343035530808N02432684EA0055100577
B1343045530806N02432674EA0055100577
B1343055530805N02432664EA0055200578
B1343065530806N02432654EA0055300578
B1343075530808N02432646EA0055300579
B1343085530811N02432640EA0055400580
B1343095530814N02432637EA0055500581
B1343105530818N02432637EA0055500581
B1343115530821N02432641EA0055500580
B1343125530824N02432646EA0055500581
B1343135530825N02432653EA0055600582
B1343145530825N02432660EA0055700582
B1343155530823N02432667EA0055700583
B1343165530820N02432673EA0055700583
B1343175530816N02432679EA0055700583
B1343185530811N02432682EA0055700583
B1343195530805N02432684EA0055600582
B1343205530799N02432683EA0055600581
B1343215530793N02432679EA0055500581
B1343225530787N02432673EA0055500581
B1343235530782N02432665EA0055500581
B1343245530778N02432656EA0055500581
B1343255530775N02432647EA0055500580
B1343265530773N02432637EA0055400580
B1343275530772N02432626EA0055400580
B1343285530771N02432615EA0055500580
B1343295530772N02432605EA0055500581
B1343305530775N02432596EA0055600581
B1343315530778N02432588EA0055600582
B1343325530781N02432581EA0055700583
B1343335530785N02432576EA0055900585
B1343345530788N02432570EA0056100587
B1343355530792N02432566EA0056300589
B1343365530795N02432562EA0056500591
B1343375530799N02432560EA0056500591
B1343385530803N02432560EA0056500591
B1343395530806N02432562EA0056500591
B1343405530809N02432566EA0056500591
B1343415530811N02432571EA0056400590
B1343425530811N02432579EA0056400590
B1343435530811N02432586EA0056500591
B1343445530810N02432594EA0056700593
B1343455530806N02432600EA0056900595
B1343465530802N02432604EA0057000596
B1343475530798N02432606EA0057100597
B1343485530792N02432607EA0057200598
B1343495530787N02432606EA0057200598
B1343505530781N02432603EA0057300599
B1343515530776N02432596EA0057300599
B1343525530772N02432587EA0057300599
B1343535530769N02432577EA0057400600
B1343545530769N02432566EA0057500601
B1343555530769N02432556EA0057700603
B1343565530771N02432549EA0057900605
B1343575530775N02432543EA0058100607
B1343585530778N02432540EA0058200608
B1343595530781N02432539EA0058300609
B1344005530785N02432540EA0058400610
B1344015530787N02432545EA0058400610
B1344025530789N02432551EA0058300609
B1344035530790N02432559EA0058300609
B1344045530789N02432568EA0058400610
B1344055530787N02432576EA0058500611
B1344065530784N02432582EA0058700614
B1344075530780N02432586EA0058900615
B1344085530776N02432588EA0059000617
B1344095530771N02432589EA0059100617
B1344105530765N02432589EA0059100617
B1344115530759N02432586EA0059100618
B1344125530753N02432581EA0059200618
B1344135530749N02432572EA0059200618
B1344145530746N02432562EA0059200618
B1344155530744N02432552EA0059300619
B1344165530744N02432542EA0059400620
B1344175530745N02432532EA0059500622
B1344185530747N02432525EA0059700623
B1344195530750N02432519EA0059800624
B1344205530754N02432516EA0059900625
B1344215530758N02432517EA0060100627
B1344225530761N02432520EA0060200629
B1344235530763N02432526EA0060300630
B1344245530764N02432533EA0060400631
B1344255530763N02432541EA0060500632
B1344265530761N02432549EA0060600632
B1344275530758N02432555EA0060700634
B1344285530753N02432559EA0060800635
B1344295530747N02432560EA0060800635
B1344305530740N02432559EA0060900636
B1344315530735N02432555EA0061000636
B1344325530730N02432549EA0061000636
B1344335530725N02432540EA0061000637
B1344345530722N02432530EA0061000637
B1344355530721N02432520EA0061000637
B1344365530721N02432509EA0061000637
B1344375530724N02432499EA0061100637
B1344385530726N02432492EA0061200639
B1344395530730N02432486EA0061300640
B1344405530733N02432482EA0061500642
B1344415530737N02432480EA0061700643
B1344425530740N02432480EA0061800644
B1344435530744N02432481EA0061800644
B1344445530747N02432485EA0061700644
B1344455530749N02432492EA0061700643
B1344465530750N02432501EA0061700643
B1344475530749N02432510EA0061900645
B1344485530747N02432518EA0062100647
B1344495530744N02432525EA0062200649
B1344505530739N02432530EA0062400651
B1344515530734N02432532EA0062500652
B1344525530729N02432533EA0062600653
B1344535530723N02432530EA0062600652
B1344545530718N02432525EA0062500652
B1344555530712N02432518EA0062400651
B1344565530708N02432509EA0062500651
B1344575530706N02432498EA0062500651
B1344585530705N02432488EA0062500652
B1344595530706N02432478EA0062500652
B1345005530708N02432469EA0062500652
B1345015530710N02432461EA0062500652
B1345025530714N02432456EA0062700654
B1345035530718N02432453EA0062800655
B1345045530721N02432452EA0062900656
B1345055530725N02432453EA0062900656
B1345065530729N02432455EA0062900656
B1345075530732N02432458EA0063000656
B1345085530734N02432462EA0063000657
B1345095530737N02432468EA0063100658
B1345105530738N02432475EA0063200659
B1345115530739N02432483EA0063400660
B1345125530738N02432490EA0063500662
B1345135530736N02432497EA0063700663
B1345145530733N02432503EA0063800665
B1345155530729N02432508EA0063900666
B1345165530724N02432511EA0064000667
B1345175530717N02432513EA0064100668
B1345185530711N02432511EA0064300670
B1345195530705N02432507EA0064400671
B1345205530700N02432500EA0064400671
B1345215530696N02432491EA0064400671
B1345225530694N02432482EA0064400671
B1345235530693N02432472EA0064400671
B1345245530693N02432463EA0064300670
B1345255530695N02432453EA0064300670
B1345265530698N02432445EA0064200669
B1345275530702N02432439EA0064300670
B1345285530706N02432436EA0064400671
B1345295530711N02432436EA0064500672
B1345305530715N02432437EA0064600673
B1345315530718N02432439EA0064700674
B1345325530721N02432443EA0064800675
B1345335530724N02432447EA0064900676
B1345345530726N02432453EA0065000677
B1345355530726N02432459EA0065000677
B1345365530726N02432467EA0065100678
B1345375530724N02432473EA0065200679
B1345385530721N02432479EA0065200679
B1345395530717N02432485EA0065200679
B1345405530712N02432489EA0065300680
B1345415530706N02432491EA0065300680
B1345425530700N02432490EA0065300680
B1345435530693N02432486EA0065400681
B1345445530687N02432481EA0065400681
B1345455530682N02432473EA0065500682
B1345465530679N02432464EA0065600683
B1345475530677N02432454EA0065700684
B1345485530677N02432445EA0065800685
B1345495530679N02432436EA0065800685
B1345505530681N02432428EA0065800685
B1345515530684N02432422EA0065800685
B1345525530688N02432418EA0065800685
B1345535530693N02432416EA0065900686
B1345545530696N02432416EA0065800685
B1345555530700N02432419EA0065700684
B1345565530704N02432423EA0065700684
B1345575530706N02432429EA0065800685
B1345585530706N02432436EA0065800685
B1345595530706N02432444EA0065800685
B1346005530705N02432452EA0065900686
B1346015530703N02432460EA0066000687
B1346025530700N02432467EA0066100688
B1346035530696N02432473EA0066100688
B1346045530691N02432479EA0066100688
B1346055530686N02432483EA0066100688
B1346065530679N02432486EA0066200689
B1346075530672N02432485EA0066200689
B1346085530665N02432482EA0066200688
B1346095530659N02432477EA0066200689
B1346105530655N02432469EA0066200689
B1346115530651N02432461EA0066200689
B1346125530648N02432452EA0066100688
B1346135530647N02432442EA0066100687
B1346145530646N02432432EA0066000687
B1346155530646N02432421EA0066000687
B1346165530648N02432412EA0066000687
B1346175530651N02432404EA0066000687
B1346185530654N02432397EA0066100688
B1346195530658N02432392EA0066200689
B1346205530661N02432387EA0066200689
B1346215530664N02432384EA0066200689
B1346225530669N02432382EA0066100688
B1346235530673N02432381EA0066000687
B1346245530677N02432381EA0066000687
B1346255530681N02432381EA0066100688
B1346265530685N02432383EA0066100687
B1346275530688N02432385EA0066000687
B1346285530692N02432387EA0066000687
B1346295530695N02432389EA0066000687
B1346305530699N02432392EA0066000687
B1346315530702N02432396EA0066000687
B1346325530704N02432400EA0066000686
B1346335530707N02432405EA0065900686
B1346345530709N02432411EA0065800685
B1346355530711N02432417EA0065800685
B1346365530713N02432425EA0065700684
B1346375530714N02432432EA0065700684
B1346385530716N02432440EA0065800685
B1346395530718N02432447EA0065800685
B1346405530719N02432455EA0065800685
B1346415530720N02432462EA0065800685
B1346425530720N02432470EA0065800685
B1346435530720N02432477EA0065700684
B1346445530719N02432484EA0065500682
B1346455530718N02432492EA0065200679
B1346465530717N02432501EA0065000677
B1346475530715N02432510EA0064800675
B1346485530712N02432519EA0064600673
B1346495530709N02432528EA0064500672
B1346505530706N02432536EA0064500672
B1346515530704N02432544EA0064400671
B1346525530701N02432552EA0064300670
B1346535530698N02432561EA0064100668
B1346545530695N02432570EA0063900665
B1346555530692N02432579EA0063600663
B1346565530688N02432588EA0063400661
B1346575530686N02432597EA0063300659
B1346585530682N02432605EA0063000657
B1346595530678N02432614EA0062900656
B1347005530675N02432623EA0062700654
B1347015530671N02432632EA0062600653
B1347025530667N02432641EA0062500652
B1347035530664N02432650EA0062500652
B1347045530660N02432660EA0062300650
B1347055530656N02432671EA0062200649
B1347065530652N02432681EA0062100648
B1347075530648N02432692EA0062100648
B1347085530643N02432703EA0062100648
B1347095530640N02432713EA0062100648
B1347105530636N02432722EA0062200649
B1347115530632N02432732EA0062200649
B1347125530627N02432741EA0062200649
B1347135530623N02432750EA0062300650
B1347145530620N02432758EA0062500652
B1347155530617N02432766EA0062800655
B1347165530615N02432773EA0063000657
B1347175530612N02432780EA0063100658
B1347185530607N02432785EA0063100658
B1347195530602N02432790EA0063100658
B1347205530596N02432793EA0063100658
B1347215530590N02432795EA0063200659
B1347225530584N02432793EA0063200659
B1347235530578N02432788EA0063100658
B1347245530572N02432783EA0063000657
B1347255530568N02432775EA0063000657
B1347265530564N02432766EA0063000657
B1347275530561N02432757EA0063100658
B1347285530560N02432747EA0063100658
B1347295530561N02432738EA0063200659
B1347305530561N02432730EA0063200659
B1347315530563N02432724EA0063200659
B1347325530566N02432719EA0063200659
B1347335530569N02432716EA0063200659
B1347345530572N02432714EA0063100658
B1347355530576N02432714EA0063100658
B1347365530580N02432716EA0063100658
B1347375530583N02432719EA0063100658
B1347385530586N02432723EA0063200659
B1347395530589N02432727EA0063300660
B1347405530592N02432732EA0063400661
B1347415530594N02432737EA0063500662
B1347425530596N02432741EA0063500662
B1347435530599N02432744EA0063500662
B1347445530601N02432749EA0063500662
B1347455530604N02432754EA0063400661
B1347465530606N02432759EA0063300660
B1347475530608N02432765EA0063200659
B1347485530610N02432771EA0063100658
B1347495530612N02432777EA0063000657
B1347505530614N02432784EA0062900656
B1347515530615N02432791EA0062800655
B1347525530617N02432799EA0062700654
B1347535530618N02432807EA0062700653
B1347545530618N02432815EA0062500652
B1347555530618N02432824EA0062400651
B1347565530617N02432833EA0062200649
B1347575530615N02432843EA0062100648
B1347585530613N02432852EA0062000647
B1347595530610N02432861EA0061900646
B1348005530607N02432870EA0061700644
B1348015530603N02432879EA0061600643
B1348025530599N02432888EA0061500642
B1348035530595N02432898EA0061400641
B1348045530590N02432907EA0061500641
B1348055530585N02432916EA0061500642
B1348065530580N02432923EA0061500642
B1348075530577N02432931EA0061400641
B1348085530572N02432939EA0061300640
B1348095530567N02432948EA0061200639
B1348105530563N02432957EA0061100638
B1348115530558N02432966EA0061100638
B1348125530554N02432975EA0061000637
B1348135530550N02432983EA0061000637
B1348145530546N02432992EA0060900635
B1348155530541N02433000EA0060700634
B1348165530537N02433009EA0060600633
B1348175530532N02433017EA0060500632
B1348185530527N02433026EA0060500632
B1348195530522N02433035EA0060500632
B1348205530518N02433043EA0060500632
B1348215530514N02433052EA0060500632
B1348225530509N02433060EA0060500632
B1348235530505N02433068EA0060500632
B1348245530501N02433076EA0060500632
B1348255530497N02433085EA0060400631
B1348265530493N02433093EA0060300630
B1348275530489N02433101EA0060200629
B1348285530485N02433110EA0060100628
B1348295530480N02433119EA0060000627
B1348305530476N02433127EA0059900626
B1348315530472N02433137EA0059800625
B1348325530467N02433146EA0059700624
B1348335530464N02433155EA0059700624
B1348345530460N02433164EA0059700624
B1348355530456N02433173EA0059700624
B1348365530452N02433181EA0059700623
B1348375530447N02433189EA0059500622
B1348385530443N02433198EA0059300620
B1348395530439N02433208EA0059200619
B1348405530435N02433217EA0059100617
B1348415530430N02433225EA0059000617
B1348425530426N02433234EA0058900616
B1348435530422N02433242EA0058800615
B1348445530419N02433250EA0058600613
B1348455530415N02433258EA0058400611
B1348465530410N02433267EA0058300609
B1348475530406N02433275EA0058200609
B1348485530401N02433284EA0058200609
B1348495530397N02433291EA0058200608
B1348505530393N02433299EA0058100608
B1348515530389N02433306EA0058000607
B1348525530385N02433314EA0058000606
B1348535530380N02433322EA0057800605
B1348545530375N02433330EA0057700604
B1348555530370N02433338EA0057600603
B1348565530365N02433346EA0057600603
B1348575530360N02433354EA0057500602
B1348585530355N02433362EA0057400601
B1348595530351N02433369EA0057300599
B1349005530345N02433377EA0057200599
B1349015530340N02433384EA0057100598
B1349025530336N02433391EA0057000597
B1349035530331N02433399EA0057000597
B1349045530327N02433407EA0056900596
B1349055530323N02433415EA0056800595
B1349065530320N02433424EA0056800594
B1349075530316N02433432EA0056700594
B1349085530312N02433440EA0056600593
B1349095530309N02433448EA0056600593
B1349105530305N02433456EA0056500592
B1349115530302N02433465EA0056300590
B1349125530298N02433473EA0056200589
B1349135530295N02433482EA0056100588
B1349145530291N02433490EA0056100588
B1349155530288N02433498EA0056000587
B1349165530285N02433506EA0055900586
B1349175530281N02433514EA0055800585
B1349185530278N02433523EA0055700584
B1349195530274N02433531EA0055600582
B1349205530270N02433541EA0055500582
B1349215530266N02433550EA0055600582
B1349225530263N02433558EA0055600583
B1349235530259N02433566EA0055500582
B1349245530255N02433574EA0055400581
B1349255530251N02433582EA0055300580
B1349265530248N02433592EA0055300580
B1349275530244N02433601EA0055300580
B1349285530241N02433609EA0055400580
B1349295530237N02433616EA0055400581
B1349305530234N02433624EA0055300580
B1349315530230N02433632EA0055200579
B1349325530227N02433641EA0055100578
B1349335530223N02433650EA0055000577
B1349345530220N02433660EA0055000577
B1349355530216N02433669EA0055000577
B1349365530211N02433677EA0055000577
B1349375530208N02433686EA0055100578
B1349385530205N02433696EA0055200579
B1349395530202N02433705EA0055200579
B1349405530198N02433713EA0055200579
B1349415530195N02433722EA0055300579
B1349425530192N02433730EA0055300580
B1349435530189N02433738EA0055300580
B1349445530187N02433746EA0055300580
B1349455530186N02433754EA0055200579
B1349465530185N02433763EA0055200579
B1349475530185N02433771EA0055200579
B1349485530185N02433779EA0055200579
B1349495530186N02433786EA0055200579
B1349505530188N02433792EA0055200579
B1349515530191N02433797EA0055200579
B1349525530194N02433800EA0055200579
B1349535530197N02433802EA0055300580
B1349545530200N02433801EA0055300580
B1349555530202N02433799EA0055300580
B1349565530205N02433795EA0055200579
B1349575530207N02433789EA0055100578
B1349585530208N02433782EA0055000577
B1349595530208N02433773EA0055000576
B1350005530207N02433762EA0055000577
B1350015530206N02433753EA0055000577
B1350025530203N02433744EA0054900576
B1350035530201N02433735EA0054900576
B1350045530197N02433726EA0054800575
B1350055530192N02433717EA0054700574
B1350065530187N02433709EA0054700574
B1350075530182N02433702EA0054800575
B1350085530176N02433697EA0054800575
B1350095530171N02433693EA0054700574
B1350105530165N02433690EA0054600573
B1350115530159N02433689EA0054400571
B1350125530151N02433688EA0054300570
B1350135530145N02433689EA0054300570
B1350145530138N02433691EA0054200569
B1350155530131N02433693EA0054200569
B1350165530125N02433697EA0054100568
B1350175530119N02433701EA0054100568
B1350185530113N02433707EA0054100567
B1350195530107N02433713EA0054100568
B1350205530101N02433718EA0054100568
B1350215530096N02433724EA0054100568
B1350225530090N02433730EA0054000567
B1350235530084N02433737EA0054000567
B1350245530079N02433744EA0053900566
B1350255530074N02433752EA0053900566
B1350265530069N02433760EA0054000567
B1350275530064N02433767EA0054000567
B1350285530060N02433774EA0053900566
B1350295530055N02433781EA0053800565
B1350305530050N02433788EA0053600563
B1350315530046N02433797EA0053500562
B1350325530041N02433806EA0053500562
B1350335530038N02433815EA0053500562
B1350345530034N02433823EA0053500562
B1350355530030N02433832EA0053500562
B1350365530027N02433840EA0053400561
B1350375530023N02433849EA0053300560
B1350385530019N02433858EA0053200559
B1350395530016N02433866EA0053200559
B1350405530013N02433874EA0053200558
B1350415530010N02433882EA0053100558
B1350425530007N02433891EA0052900556
B1350435530004N02433900EA0052800555
B1350445530001N02433910EA0052700554
B1350455529998N02433919EA0052700554
B1350465529996N02433929EA0052800555
B1350475529993N02433938EA0052800555
B1350485529991N02433946EA0052800555
B1350495529989N02433955EA0052700554
B1350505529986N02433964EA0052600553
B1350515529984N02433974EA0052500552
B1350525529981N02433983EA0052400551
B1350535529979N02433993EA0052400551
B1350545529976N02434003EA0052300550
B1350555529973N02434011EA0052200549
B1350565529971N02434020EA0052100548
B1350575529967N02434028EA0052000547
B1350585529964N02434037EA0051800545
B1350595529962N02434046EA0051700544
B1351005529959N02434056EA0051500542
B1351015529955N02434065EA0051400540
B1351025529951N02434074EA0051200539
B1351035529948N02434084EA0051100538
B1351045529945N02434094EA0051000537
B1351055529943N02434105EA0050800535
B1351065529940N02434115EA0050700534
B1351075529937N02434125EA0050500532
B1351085529934N02434135EA0050400531
B1351095529930N02434144EA0050300530
B1351105529927N02434155EA0050200528
B1351115529925N02434165EA0050000527
B1351125529922N02434175EA0049900525
B1351135529919N02434185EA0049700524
B1351145529916N02434195EA0049600523
B1351155529913N02434206EA0049500522
B1351165529911N02434216EA0049400521
B1351175529908N02434226EA0049300519
B1351185529906N02434236EA0049100518
B1351195529905N02434246EA0048900516
B1351205529903N02434257EA0048900515
B1351215529900N02434268EA0048900516
B1351225529898N02434277EA0048900516
B1351235529895N02434287EA0048900516
B1351245529892N02434296EA0048800515
B1351255529890N02434305EA0048800515
B1351265529887N02434314EA0048600513
B1351275529884N02434322EA0048500511
B1351285529881N02434331EA0048300510
B1351295529878N02434341EA0048100508
B1351305529876N02434350EA0048000507
B1351315529874N02434360EA0047900506
B1351325529871N02434369EA0047800505
B1351335529868N02434378EA0047700504
B1351345529865N02434387EA0047600503
B1351355529862N02434396EA0047500502
B1351365529859N02434405EA0047400501
B1351375529857N02434414EA0047300500
B1351385529854N02434423EA0047100498
B1351395529851N02434432EA0047000497
B1351405529848N02434442EA0046900496
B1351415529845N02434451EA0046700494
B1351425529842N02434461EA0046600493
B1351435529839N02434471EA0046400491
B1351445529836N02434481EA0046300490
B1351455529833N02434491EA0046200489
B1351465529831N02434500EA0046100488
B1351475529829N02434510EA0046000487
B1351485529826N02434519EA0045800485
B1351495529824N02434529EA0045500482
B1351505529820N02434538EA0045200478
B1351515529818N02434549EA0044900476
B1351525529815N02434559EA0044800475
B1351535529812N02434568EA0044800475
B1351545529809N02434577EA0044700474
B1351555529807N02434585EA0044500472
B1351565529804N02434593EA0044200469
B1351575529801N02434603EA0044000467
B1351585529798N02434612EA0043900466
B1351595529794N02434622EA0043800465
B1352005529791N02434631EA0043600463
B1352015529788N02434640EA0043500462
B1352025529785N02434649EA0043400461
B1352035529782N02434659EA0043200459
B1352045529779N02434668EA0043200459
B1352055529775N02434678EA0043200459
B1352065529773N02434687EA0043200459
B1352075529770N02434695EA0043200459
B1352085529767N02434704EA0043100458
B1352095529765N02434713EA0042900456
B1352105529762N02434721EA0042700454
B1352115529759N02434731EA0042500452
B1352125529756N02434740EA0042300450
B1352135529753N02434750EA0042200449
B1352145529750N02434759EA0042100448
B1352155529746N02434768EA0041900446
B1352165529743N02434777EA0041800445
B1352175529739N02434786EA0041700444
B1352185529735N02434794EA0041600443
B1352195529732N02434803EA0041500442
B1352205529728N02434812EA0041400441
B1352215529723N02434821EA0041400441
B1352225529719N02434829EA0041300440
B1352235529715N02434837EA0041200439
B1352245529711N02434846EA0041200439
B1352255529707N02434854EA0041100438
B1352265529702N02434862EA0041100438
B1352275529698N02434870EA0041000437
B1352285529694N02434878EA0040900436
B1352295529689N02434887EA0040800435
B1352305529685N02434895EA0040700434
B1352315529680N02434903EA0040600432
B1352325529675N02434912EA0040400431
B1352335529671N02434921EA0040200429
B1352345529667N02434930EA0040100427
B1352355529663N02434940EA0039900426
B1352365529659N02434949EA0039700424
B1352375529654N02434958EA0039500422
B1352385529650N02434967EA0039300420
B1352395529645N02434977EA0039200419
B1352405529641N02434986EA0039000417
B1352415529637N02434996EA0038900416
B1352425529633N02435006EA0038800415
B1352435529629N02435015EA0038700414
B1352445529625N02435023EA0038600413
B1352455529621N02435032EA0038500412
B1352465529617N02435042EA0038400411
B1352475529613N02435051EA0038300410
B1352485529608N02435059EA0038300410
B1352495529604N02435067EA0038200409
B1352505529599N02435074EA0038100408
B1352515529594N02435081EA0037900406
B1352525529589N02435088EA0037600403
B1352535529583N02435096EA0037500402
B1352545529578N02435103EA0037300400
B1352555529573N02435109EA0037100398
B1352565529568N02435116EA0037000397
B1352575529563N02435122EA0036800395
B1352585529558N02435130EA0036600393
B1352595529553N02435137EA0036400391
B1353005529548N02435144EA0036200389
B1353015529543N02435152EA0036100388
B1353025529538N02435158EA0035900386
B1353035529534N02435164EA0035800385
B1353045529529N02435170EA0035500382
B1353055529523N02435176EA0035200379
B1353065529518N02435183EA0034900376
B1353075529512N02435190EA0034700374
B1353085529506N02435198EA0034600373
B1353095529501N02435205EA0034600373
B1353105529496N02435210EA0034500372
B1353115529492N02435215EA0034300370
B1353125529487N02435220EA0034000367
B1353135529482N02435226EA0033600363
B1353145529477N02435233EA0033200359
B1353155529473N02435241EA0033000357
B1353165529468N02435249EA0033000356
B1353175529464N02435256EA0032900356
B1353185529460N02435262EA0032800355
B1353195529455N02435268EA0032700353
B1353205529452N02435275EA0032400351
B1353215529448N02435284EA0032200349
B1353225529444N02435292EA0032000347
B1353235529440N02435300EA0031900346
B1353245529436N02435308EA0031800345
B1353255529432N02435315EA0031700343
B1353265529428N02435323EA0031500342
B1353275529424N02435331EA0031300340
B1353285529419N02435339EA0031200339
B1353295529414N02435348EA0031200339
B1353305529410N02435355EA0031200339
B1353315529406N02435362EA0031100337
B1353325529401N02435369EA0030900335
B1353335529396N02435376EA0030700334
B1353345529392N02435384EA0030500332
B1353355529387N02435393EA0030400331
B1353365529382N02435401EA0030400331
B1353375529378N02435409EA0030300330
B1353385529374N02435416EA0030200329
B1353395529370N02435424EA0030100327
B1353405529366N02435432EA0030000327
B1353415529362N02435439EA0029900326
B1353425529358N02435447EA0029900326
B1353435529353N02435453EA0029900326
B1353445529350N02435460EA0029800325
B1353455529346N02435467EA0029600322
B1353465529343N02435474EA0029400320
B1353475529338N02435482EA0029100318
B1353485529334N02435490EA0028900316
B1353495529329N02435497EA0028800315
B1353505529325N02435504EA0028700314
B1353515529321N02435511EA0028600313
B1353525529317N02435517EA0028400311
B1353535529313N02435523EA0028300309
B1353545529309N02435530EA0028000307
B1353555529305N02435537EA0027800305
B1353565529301N02435546EA0027700303
B1353575529297N02435554EA0027600303
B1353585529293N02435561EA0027500302
B1353595529289N02435568EA0027400301
B1354005529286N02435575EA0027300299
B1354015529282N02435583EA0027000297
B1354025529279N02435591EA0026800295
B1354035529275N02435600EA0026600293
B1354045529271N02435608EA0026400291
B1354055529268N02435616EA0026300290
B1354065529264N02435624EA0026200288
B1354075529260N02435632EA0025900286
B1354085529257N02435640EA0025800284
B1354095529252N02435647EA0025600283
B1354105529248N02435655EA0025500281
B1354115529244N02435662EA0025300279
B1354125529240N02435669EA0025000277
B1354135529236N02435676EA0024800275
B1354145529232N02435683EA0024600273
B1354155529228N02435691EA0024400271
B1354165529224N02435698EA0024300269
B1354175529219N02435705EA0024100268
B1354185529215N02435712EA0023900266
B1354195529211N02435718EA0023700264
B1354205529207N02435726EA0023500262
B1354215529202N02435733EA0023300259
B1354225529198N02435741EA0023100258
B1354235529193N02435748EA0023000257
B1354245529189N02435755EA0022900256
B1354255529185N02435762EA0022800255
B1354265529180N02435768EA0022700254
B1354275529175N02435774EA0022600253
B1354285529171N02435780EA0022500251
B1354295529167N02435786EA0022300250
B1354305529162N02435793EA0022100247
B1354315529157N02435800EA0021800245
B1354325529153N02435806EA0021700244
B1354335529147N02435813EA0021600242
B1354345529143N02435819EA0021500241
B1354355529138N02435825EA0021300240
B1354365529133N02435831EA0021200239
B1354375529129N02435838EA0021100237
B1354385529124N02435844EA0021000236
B1354395529119N02435851EA0020900236
B1354405529114N02435857EA0020900236
B1354415529110N02435862EA0020900235
B1354425529106N02435868EA0020700234
B1354435529101N02435875EA0020600233
B1354445529097N02435881EA0020500232
B1354455529092N02435889EA0020400231
B1354465529088N02435896EA0020300230
B1354475529083N02435903EA0020300229
B1354485529079N02435909EA0020200229
B1354495529074N02435915EA0020100228
B1354505529070N02435922EA0020000227
B1354515529066N02435930EA0019900226
B1354525529062N02435938EA0019800224
B1354535529057N02435945EA0019600223
B1354545529054N02435953EA0019500222
B1354555529050N02435960EA0019300220
B1354565529045N02435968EA0019100218
B1354575529041N02435976EA0019000217
B1354585529037N02435984EA0018900216
B1354595529033N02435991EA0019000217
B1355005529029N02435998EA0019000217
B1355015529025N02436004EA0019000217
B1355025529022N02436010EA0018900216
B1355035529018N02436015EA0018800214
B1355045529015N02436022EA0018600213
B1355055529012N02436029EA0018500212
B1355065529009N02436037EA0018400210
B1355075529007N02436044EA0018200209
B1355085529005N02436051EA0018000207
B1355095529002N02436058EA0017800205
B1355105529000N02436066EA0017500202
B1355115528998N02436075EA0017300200
B1355125528997N02436084EA0017200199
B1355135528995N02436093EA0017100198
B1355145528994N02436101EA0017100198
B1355155528992N02436109EA0017100197
B1355165528990N02436116EA0017100197
B1355175528988N02436124EA0017000197
B1355185528987N02436132EA0017000197
B1355195528986N02436140EA0016900196
B1355205528985N02436149EA0016800195
B1355215528983N02436157EA0016700194
B1355225528982N02436165EA0016600193
B1355235528981N02436174EA0016500192
B1355245528980N02436182EA0016400191
B1355255528979N02436191EA0016400191
B1355265528979N02436199EA0016400190
B1355275528978N02436207EA0016300190
B1355285528977N02436215EA0016300190
B1355295528976N02436222EA0016200189
B1355305528976N02436230EA0016200188
B1355315528975N02436238EA0016100187
B1355325528975N02436245EA0016000186
B1355335528973N02436254EA0015800185
B1355345528973N02436262EA0015700184
B1355355528972N02436270EA0015700183
B1355365528971N02436278EA0015600182
B1355375528969N02436287EA0015500182
B1355385528968N02436296EA0015400181
B1355395528966N02436304EA0015300180
B1355405528964N02436313EA0015300179
B1355415528962N02436321EA0015200178
B1355425528960N02436329EA0015000177
B1355435528959N02436338EA0014900176
B1355445528957N02436347EA0014800174
B1355455528956N02436356EA0014600173
B1355465528954N02436364EA0014500172
B1355475528953N02436372EA0014400170
B1355485528953N02436380EA0014200168
B1355495528952N02436389EA0014000167
B1355505528952N02436397EA0013800165
B1355515528952N02436406EA0013700164
B1355525528951N02436414EA0013600162
B1355535528951N02436422EA0013400161
B1355545528950N02436430EA0013200159
B1355555528949N02436439EA0013100158
B1355565528948N02436448EA0013000156
B1355575528947N02436457EA0012900156
B1355585528945N02436466EA0012800155
B1355595528944N02436474EA0012700154
B1356005528942N02436482EA0012600153
B1356015528941N02436490EA0012500151
B1356025528939N02436498EA0012300150
B1356035528936N02436507EA0012200149
B1356045528934N02436515EA0012100148
B1356055528931N02436523EA0012100148
B1356065528928N02436531EA0012100147
B1356075528926N02436538EA0011900146
B1356085528924N02436546EA0011800145
B1356095528921N02436554EA0011600143
B1356105528919N02436562EA0011500142
B1356115528918N02436569EA0011400141
B1356125528918N02436576EA0011300140
B1356135528918N02436582EA0011200138
B1356145528920N02436587EA0011000137
B1356155528922N02436591EA0010900136
B1356165528925N02436593EA0010800135
B1356175528928N02436593EA0010800134
B1356185528931N02436591EA0010700133
B1356195528933N02436587EA0010600132
B1356205528935N02436583EA0010500132
B1356215528937N02436579EA0010400131
B1356225528939N02436576EA0010200129
B1356235528942N02436575EA0010100127
B1356245528944N02436575EA0009800125
B1356255528947N02436577EA0009600123
B1356265528951N02436580EA0009500122
B1356275528954N02436583EA0009500122
B1356285528957N02436587EA0009500122
B1356295528959N02436593EA0009500122
B1356305528960N02436598EA0009400121
B1356315528962N02436603EA0009400120
B1356325528964N02436609EA0009300120
B1356335528965N02436614EA0009300119
B1356345528966N02436621EA0009200119
B1356355528966N02436628EA0009200119
B1356365528966N02436634EA0009100117
B1356375528967N02436640EA0008800115
B1356385528968N02436646EA0008600113
B1356395528971N02436651EA0008500112
B1356405528973N02436653EA0008500112
B1356415528976N02436655EA0008500112
B1356425528979N02436656EA0008500112
B1356435528980N02436657EA0008400110
B1356445528982N02436658EA0008100108
B1356455528985N02436660EA0007900105
B1356465528989N02436662EA0007700104
B1356475528991N02436664EA0007600102
B1356485528994N02436665EA0007400101
B1356495528997N02436665EA0007300100
B1356505529000N02436665EA0007000097
B1356515529003N02436665EA0006800094
B1356525529006N02436666EA0006500091
B1356535529009N02436668EA0006300090
B1356545529012N02436670EA0006200089
B1356555529015N02436671EA0006100087
B1356565529019N02436671EA0005900086
B1356575529022N02436670EA0005700084
B1356585529025N02436669EA0005600082
B1356595529028N02436668EA0005500082
B1357005529030N02436668EA0005400080
B1357015529033N02436667EA0005200079
B1357025529037N02436667EA0005200079
B1357035529039N02436666EA0005200079
B1357045529040N02436666EA0005200079
B1357055529041N02436666EA0005300080
B1357065529041N02436666EA0005300080
B1357075529042N02436667EA0005300080
B1357085529041N02436667EA0005300080
B1357095529041N02436667EA0005300080
B1357105529041N02436666EA0005300080
B1357115529041N02436666EA0005300080
B1357125529041N02436666EA0005300080
B1357135529040N02436665EA0005300080
B1357145529039N02436665EA0005300080
B1357155529039N02436666EA0005300080
B1357165529039N02436666EA0005300080
B1357175529039N02436666EA0005300080
B1357185529039N02436666EA0005300080
B1357195529039N02436666EA0005300080
B1357205529039N02436666EA0005300080
B1357215529039N02436666EA0005300080
B1357225529039N02436666EA0005300080
B1357235529039N02436666EA0005300080
B1357245529039N02436666EA0005300080
B1357255529039N02436666EA0005300080
B1357265529039N02436666EA0005300080
B1357275529039N02436666EA0005300080
B1357285529039N02436666EA0005300080
B1357295529039N02436666EA0005300080
B1357305529039N02436666EA0005300080
B1357315529039N02436666EA0005300080
B1357325529038N02436666EA0005300080
B1357335529038N02436666EA0005300080
B1357345529038N02436665EA0005300080
B1357355529038N02436664EA0005300080
B1357365529038N02436664EA0005300080
B1357375529038N02436663EA0005300080
B1357385529038N02436663EA0005300080
B1357395529038N02436662EA0005300080
B1357405529038N02436662EA0005300080
B1357415529038N02436662EA0005300080
B1357425529038N02436662EA0005300080
B1357435529038N02436662EA0005300080
B1357445529038N02436662EA0005300080
B1357455529038N02436662EA0005300080
B1357465529038N02436662EA0005300080
B1357475529038N02436662EA0005300080
B1357485529038N02436662EA0005300080
B1357495529038N02436662EA0005300080
B1357505529038N02436662EA0005300080
B1357515529038N02436662EA0005300080
B1357525529038N02436662EA0005300080
B1357535529038N02436662EA0005300080
B1357545529038N02436663EA0005300079
B1357555529038N02436663EA0005200079
B1357565529039N02436664EA0005200079
B1357575529040N02436664EA0005300079
B1357585529040N02436665EA0005200079
B1357595529041N02436666EA0005200079
B1358005529041N02436666EA0005200079
B1358015529041N02436668EA0005300079
B1358025529041N02436669EA0005200079
B1358035529042N02436670EA0005200079
B1358045529042N02436671EA0005200079
B1358055529042N02436672EA0005200079
B1358065529043N02436674EA0005200079
B1358075529043N02436674EA0005200079
B1358085529043N02436675EA0005200079
B1358095529044N02436676EA0005200079
B1358105529044N02436677EA0005200079
B1358115529044N02436679EA0005300079
B1358125529044N02436680EA0005200079
B1358135529044N02436681EA0005200079
B1358145529044N02436682EA0005300079
B1358155529044N02436683EA0005300079
B1358165529044N02436684EA0005200079
B1358175529044N02436685EA0005200079
B1358185529044N02436686EA0005200079
B1358195529044N02436687EA0005200079
B1358205529045N02436687EA0005200079
B1358215529045N02436687EA0005300080
B1358225529045N02436687EA0005300079
B1358235529044N02436687EA0005200079
B1358245529044N02436687EA0005200079
LXSX;C1;GM:1.2
LXSX;S1;TS:1718370969;TL:1718373504;AS:63;AL:79;AT:706;AB:61
LXSX;S1;XS:0;XD:14.32;SP:55.4;MC:5.3;MS:-2.9;NB:2537
LXSX;S1;FL:24.5;TG:642;TC:3.9;AG:1369;GM:1.2
LXSX;S1;X0:55.55537,24.51648
LXSX;S1;X1:55.56692,24.50262
LXSX;S1;X2:55.52127,24.55165
LXSX;S1;X3:55.51128,24.53968
LXSX;S1;X4:55.48285,24.61085
GE6C5159234C0698528B2DB5F3CD566DD
