AXSX005 SKYTRAXX
HFPLTPILOT:SeBu
HFGTYGLIDERTYPE:Advance Sigma 11
HFDTM100GPSDATUM:WGS-84
HFRFWFIRMWAREVERSION:202409121359
HFRHWHARDWAREVERSION:4.0
HFTZNTIMEZONE:+2.00
HFSITSITE:Fiesch_Kühboden 2
HFDTE111124
LXSX;I1;OAB:20241108;OOB:20241106
LXSX;I1;ID:114075
LXSX;I1;AC:1;CAT:C
B1140424624974N00806433EA0212602238
B1140434624973N00806433EA0212602238
B1140444624973N00806433EA0212502238
B1140454624973N00806433EA0212502238
B1140464624973N00806433EA0212602238
B1140474624973N00806433EA0212602238
B1140484624973N00806433EA0212502238
B1140494624973N00806433EA0212502238
B1140504624973N00806433EA0212502238
B1140514624973N00806433EA0212502238
B1140524624973N00806434EA0212502238
B1140534624973N00806434EA0212502237
B1140544624972N00806435EA0212402237
B1140554624972N00806435EA0212402237
B1140564624972N00806435EA0212402237
B1140574624971N00806437EA0212302235
B1140584624969N00806439EA0212002232
B1140594624968N00806442EA0211902231
B1141004624965N00806446EA0211602228
B1141014624962N00806450EA0211502227
B1141024624959N00806454EA0211502228
B1141034624956N00806458EA0211702230
B1141044624955N00806463EA0211702229
B1141054624955N00806469EA0211402227
B1141064624957N00806477EA0211102223
B1141074624959N00806484EA0210902221
B1141084624963N00806491EA0210802221
B1141094624966N00806498EA0210902222
B1141104624968N00806504EA0210902221
B1141114624971N00806510EA0210902221
B1141124624974N00806516EA0210702220
B1141134624977N00806522EA0210602219
B1141144624981N00806528EA0210502218
B1141154624985N00806533EA0210402217
B1141164624990N00806538EA0210302215
B1141174624994N00806543EA0210202214
B1141184624997N00806547EA0210102214
B1141194625002N00806552EA0209902212
B1141204625006N00806556EA0209802210
B1141214625012N00806560EA0209702209
B1141224625017N00806564EA0209702209
B1141234625021N00806568EA0209702209
B1141244625026N00806571EA0209602209
B1141254625031N00806575EA0209502207
B1141264625035N00806579EA0209302205
B1141274625041N00806584EA0209202204
B1141284625046N00806588EA0209102203
B1141294625052N00806593EA0209002203
B1141304625057N00806596EA0209102203
B1141314625062N00806600EA0209002203
B1141324625066N00806604EA0208902201
B1141334625070N00806608EA0208602199
B1141344625075N00806613EA0208402197
B1141354625079N00806618EA0208302196
B1141364625085N00806622EA0208302195
B1141374625090N00806625EA0208302195
B1141384625094N00806629EA0208202195
B1141394625099N00806632EA0208102193
B1141404625103N00806636EA0207902191
B1141414625107N00806640EA0207702189
B1141424625112N00806644EA0207502187
B1141434625117N00806647EA0207402186
B1141444625121N00806651EA0207202185
B1141454625126N00806655EA0207102184
B1141464625131N00806659EA0207002182
B1141474625136N00806663EA0206802180
B1141484625141N00806667EA0206702179
B1141494625146N00806672EA0206602178
B1141504625152N00806676EA0206502178
B1141514625157N00806680EA0206502177
B1141524625162N00806685EA0206402177
B1141534625167N00806690EA0206402176
B1141544625172N00806695EA0206402176
B1141554625176N00806699EA0206302175
B1141564625181N00806704EA0206202174
B1141574625187N00806709EA0206102173
B1141584625191N00806714EA0206002173
B1141594625196N00806718EA0206002173
B1142004625201N00806723EA0205902172
B1142014625206N00806727EA0205802170
B1142024625211N00806732EA0205602168
B1142034625217N00806736EA0205502167
B1142044625222N00806741EA0205402167
B1142054625227N00806745EA0205402167
B1142064625232N00806750EA0205402167
B1142074625236N00806754EA0205302166
B1142084625241N00806759EA0205202165
B1142094625246N00806765EA0205102163
B1142104625251N00806771EA0204902161
B1142114625256N00806776EA0204902161
B1142124625261N00806782EA0204902162
B1142134625265N00806788EA0205102163
B1142144625270N00806793EA0205102163
B1142154625274N00806798EA0205102163
B1142164625280N00806803EA0205102163
B1142174625285N00806808EA0205102163
B1142184625288N00806813EA0205102163
B1142194625292N00806817EA0205002162
B1142204625296N00806822EA0204802160
B1142214625299N00806828EA0204502158
B1142224625304N00806833EA0204202155
B1142234625309N00806839EA0204002153
B1142244625314N00806844EA0203902152
B1142254625318N00806850EA0203902151
B1142264625322N00806855EA0203802150
B1142274625326N00806860EA0203702149
B1142284625330N00806866EA0203502147
B1142294625334N00806871EA0203402146
B1142304625338N00806876EA0203202145
B1142314625343N00806882EA0203202144
B1142324625348N00806887EA0203102144
B1142334625351N00806892EA0203002143
B1142344625355N00806897EA0202902141
B1142354625360N00806903EA0202802140
B1142364625364N00806908EA0202602139
B1142374625369N00806913EA0202502137
B1142384625374N00806918EA0202402136
B1142394625378N00806924EA0202202135
B1142404625383N00806930EA0202102134
B1142414625387N00806936EA0202002132
B1142424625392N00806942EA0201902131
B1142434625396N00806948EA0201802130
B1142444625400N00806954EA0201702129
B1142454625405N00806960EA0201602128
B1142464625409N00806966EA0201502127
B1142474625414N00806973EA0201502127
B1142484625419N00806979EA0201502128
B1142494625424N00806985EA0201602129
B1142504625428N00806990EA0201802130
B1142514625432N00806996EA0201902131
B1142524625436N00807001EA0202002132
B1142534625440N00807006EA0202102133
B1142544625443N00807011EA0202202134
B1142554625445N00807016EA0202202135
B1142564625446N00807022EA0202102134
B1142574625446N00807029EA0202002132
B1142584625444N00807035EA0201802130
B1142594625440N00807041EA0201802130
B1143004625436N00807043EA0201802130
B1143014625431N00807042EA0201702129
B1143024625427N00807038EA0201702129
B1143034625424N00807034EA0201702130
B1143044625423N00807028EA0201802131
B1143054625422N00807021EA0201902131
B1143064625423N00807015EA0201802131
B1143074625425N00807009EA0201802131
B1143084625428N00807004EA0201902131
B1143094625432N00807001EA0201902131
B1143104625436N00806999EA0201902131
B1143114625441N00807000EA0201802130
B1143124625446N00807003EA0201702130
B1143134625450N00807007EA0201702129
B1143144625453N00807012EA0201502128
B1143154625457N00807018EA0201402127
B1143164625460N00807024EA0201302125
B1143174625463N00807030EA0201202124
B1143184625467N00807035EA0201202125
B1143194625469N00807041EA0201302125
B1143204625473N00807046EA0201402126
B1143214625477N00807050EA0201302126
B1143224625481N00807054EA0201302125
B1143234625485N00807059EA0201102124
B1143244625489N00807064EA0201102123
B1143254625493N00807069EA0201102123
B1143264625498N00807074EA0201202124
B1143274625503N00807079EA0201302125
B1143284625507N00807084EA0201402127
B1143294625511N00807088EA0201602128
B1143304625513N00807092EA0201702130
B1143314625516N00807097EA0201802131
B1143324625517N00807102EA0201802131
B1143334625518N00807108EA0201702129
B1143344625516N00807114EA0201502127
B1143354625513N00807120EA0201402126
B1143364625508N00807124EA0201302125
B1143374625503N00807126EA0201202124
B1143384625498N00807125EA0201102124
B1143394625493N00807123EA0201102123
B1143404625489N00807118EA0201202124
B1143414625486N00807111EA0201202125
B1143424625485N00807103EA0201202124
B1143434625486N00807095EA0201102123
B1143444625489N00807086EA0201102123
B1143454625491N00807078EA0201202124
B1143464625493N00807070EA0201402126
B1143474625494N00807062EA0201602128
B1143484625494N00807055EA0201702129
B1143494625493N00807049EA0201702130
B1143504625491N00807042EA0201702129
B1143514625487N00807037EA0201702130
B1143524625483N00807035EA0201702130
B1143534625478N00807036EA0201702129
B1143544625474N00807039EA0201702129
B1143554625471N00807043EA0201702129
B1143564625469N00807048EA0201702129
B1143574625468N00807053EA0201502127
B1143584625469N00807058EA0201302125
B1143594625472N00807064EA0201002123
B1144004625477N00807068EA0200902121
B1144014625483N00807072EA0200902122
B1144024625489N00807073EA0201102124
B1144034625493N00807075EA0201302125
B1144044625496N00807077EA0201502127
B1144054625499N00807080EA0201502127
B1144064625504N00807083EA0201502127
B1144074625508N00807087EA0201502128
B1144084625512N00807090EA0201702129
B1144094625514N00807095EA0201702129
B1144104625515N00807101EA0201502128
B1144114625514N00807108EA0201402126
B1144124625511N00807114EA0201302126
B1144134625508N00807118EA0201302125
B1144144625502N00807119EA0201302125
B1144154625497N00807117EA0201302125
B1144164625493N00807112EA0201202124
B1144174625490N00807105EA0201102124
B1144184625488N00807099EA0201102123
B1144194625487N00807091EA0201102123
B1144204625487N00807083EA0201102123
B1144214625488N00807074EA0201102124
B1144224625489N00807066EA0201202124
B1144234625491N00807058EA0201302125
B1144244625491N00807050EA0201302125
B1144254625491N00807042EA0201202125
B1144264625488N00807035EA0201202124
B1144274625483N00807030EA0201102123
B1144284625479N00807028EA0201102123
B1144294625474N00807030EA0200902122
B1144304625471N00807034EA0200802120
B1144314625469N00807040EA0200502118
B1144324625469N00807048EA0200402116
B1144334625470N00807055EA0200202115
B1144344625472N00807061EA0200302115
B1144354625475N00807067EA0200302116
B1144364625477N00807073EA0200402117
B1144374625480N00807078EA0200502117
B1144384625484N00807083EA0200502118
B1144394625488N00807088EA0200602119
B1144404625493N00807093EA0200702120
B1144414625496N00807098EA0201002122
B1144424625498N00807103EA0201102124
B1144434625498N00807108EA0201202124
B1144444625497N00807114EA0201202124
B1144454625494N00807120EA0201102123
B1144464625490N00807124EA0201002122
B1144474625485N00807125EA0200902122
B1144484625480N00807123EA0200802121
B1144494625476N00807117EA0200802120
B1144504625473N00807110EA0200902121
B1144514625473N00807103EA0201002122
B1144524625475N00807095EA0201102123
B1144534625480N00807089EA0201102123
B1144544625486N00807085EA0201202124
B1144554625493N00807084EA0201402126
B1144564625499N00807086EA0201602128
B1144574625504N00807090EA0201802130
B1144584625507N00807095EA0202002132
B1144594625509N00807100EA0202102133
B1145004625510N00807105EA0202102134
B1145014625509N00807111EA0202002133
B1145024625507N00807117EA0201902131
B1145034625503N00807122EA0201702129
B1145044625498N00807124EA0201502128
B1145054625493N00807124EA0201502127
B1145064625489N00807120EA0201402127
B1145074625486N00807113EA0201402126
B1145084625485N00807105EA0201402127
B1145094625487N00807098EA0201502127
B1145104625490N00807092EA0201602128
B1145114625495N00807088EA0201702129
B1145124625502N00807088EA0201802131
B1145134625508N00807091EA0202002132
B1145144625510N00807097EA0202102133
B1145154625511N00807104EA0202102134
B1145164625510N00807110EA0202202134
B1145174625508N00807114EA0202102133
B1145184625505N00807119EA0202002132
B1145194625501N00807122EA0201802130
B1145204625496N00807123EA0201602129
B1145214625491N00807121EA0201502127
B1145224625486N00807117EA0201602128
B1145234625483N00807110EA0201602129
B1145244625482N00807102EA0201702129
B1145254625484N00807093EA0201802130
B1145264625489N00807086EA0201902131
B1145274625495N00807083EA0202002133
B1145284625501N00807084EA0202202134
B1145294625506N00807088EA0202402136
B1145304625508N00807095EA0202402137
B1145314625508N00807102EA0202502137
B1145324625508N00807108EA0202402136
B1145334625505N00807114EA0202302136
B1145344625501N00807118EA0202202134
B1145354625497N00807121EA0202102133
B1145364625492N00807121EA0202002132
B1145374625487N00807118EA0202102134
B1145384625482N00807114EA0202302135
B1145394625479N00807108EA0202502137
B1145404625477N00807101EA0202602139
B1145414625479N00807093EA0202702139
B1145424625481N00807086EA0202702139
B1145434625486N00807080EA0202602139
B1145444625491N00807077EA0202702139
B1145454625497N00807077EA0202702139
B1145464625503N00807081EA0202802141
B1145474625506N00807088EA0203002142
B1145484625506N00807096EA0203102143
B1145494625505N00807102EA0203302145
B1145504625501N00807108EA0203402146
B1145514625497N00807110EA0203302145
B1145524625491N00807109EA0203302146
B1145534625487N00807106EA0203502147
B1145544625483N00807100EA0203602148
B1145554625481N00807093EA0203602149
B1145564625482N00807085EA0203602149
B1145574625484N00807078EA0203702149
B1145584625487N00807073EA0203702150
B1145594625491N00807069EA0203602148
B1146004625497N00807068EA0203402147
B1146014625503N00807069EA0203302145
B1146024625509N00807073EA0203202144
B1146034625514N00807079EA0203302145
B1146044625517N00807086EA0203502147
B1146054625519N00807092EA0203702149
B1146064625520N00807099EA0203802150
B1146074625519N00807105EA0203902151
B1146084625517N00807110EA0203802151
B1146094625514N00807114EA0203702149
B1146104625510N00807117EA0203502148
B1146114625505N00807117EA0203402147
B1146124625500N00807115EA0203402147
B1146134625495N00807111EA0203502148
B1146144625492N00807106EA0203602149
B1146154625490N00807099EA0203702149
B1146164625490N00807092EA0203702149
B1146174625491N00807085EA0203502148
B1146184625494N00807078EA0203502147
B1146194625499N00807072EA0203502147
B1146204625505N00807069EA0203602148
B1146214625511N00807068EA0203702149
B1146224625516N00807070EA0203902151
B1146234625520N00807074EA0204002152
B1146244625523N00807079EA0204102153
B1146254625524N00807085EA0204002153
B1146264625522N00807092EA0203902151
B1146274625519N00807097EA0203902151
B1146284625514N00807099EA0203902152
B1146294625510N00807098EA0204102153
B1146304625506N00807094EA0204202154
B1146314625503N00807088EA0204302155
B1146324625502N00807082EA0204202155
B1146334625503N00807075EA0204002153
B1146344625506N00807067EA0204002152
B1146354625511N00807061EA0204002152
B1146364625518N00807060EA0203902151
B1146374625524N00807063EA0204002152
B1146384625528N00807069EA0204102153
B1146394625530N00807074EA0204202154
B1146404625531N00807080EA0204202154
B1146414625532N00807084EA0204102154
B1146424625532N00807090EA0204002152
B1146434625531N00807096EA0203702149
B1146444625529N00807103EA0203502147
B1146454625526N00807108EA0203402146
B1146464625522N00807112EA0203302146
B1146474625517N00807114EA0203302146
B1146484625512N00807113EA0203302145
B1146494625508N00807111EA0203402146
B1146504625504N00807108EA0203502147
B1146514625500N00807104EA0203602148
B1146524625497N00807100EA0203702149
B1146534625494N00807094EA0203702149
B1146544625493N00807086EA0203802150
B1146554625493N00807078EA0203802150
B1146564625495N00807070EA0203802151
B1146574625499N00807064EA0203902152
B1146584625505N00807061EA0203802151
B1146594625511N00807062EA0203702150
B1147004625516N00807065EA0203702149
B1147014625521N00807071EA0203602149
B1147024625524N00807077EA0203602148
B1147034625524N00807085EA0203602148
B1147044625523N00807093EA0203602149
B1147054625521N00807099EA0203802150
B1147064625517N00807103EA0203902152
B1147074625513N00807104EA0204102153
B1147084625510N00807105EA0204202154
B1147094625506N00807106EA0204302155
B1147104625503N00807106EA0204302155
B1147114625499N00807106EA0204102153
B1147124625495N00807105EA0203902151
B1147134625490N00807103EA0203602149
B1147144625486N00807098EA0203402147
B1147154625483N00807090EA0203302145
B1147164625482N00807081EA0203102144
B1147174625483N00807072EA0203102143
B1147184625488N00807064EA0203002142
B1147194625494N00807060EA0202902141
B1147204625500N00807060EA0202902141
B1147214625506N00807061EA0202902141
B1147224625510N00807063EA0203002142
B1147234625515N00807065EA0203102143
B1147244625519N00807067EA0203102143
B1147254625524N00807071EA0203102143
B1147264625527N00807076EA0203002142
B1147274625529N00807083EA0202902141
B1147284625529N00807091EA0202802141
B1147294625526N00807097EA0202802140
B1147304625523N00807102EA0202702139
B1147314625518N00807104EA0202802140
B1147324625515N00807105EA0202902141
B1147334625511N00807104EA0202902141
B1147344625508N00807104EA0202902141
B1147354625504N00807103EA0202802140
B1147364625500N00807101EA0202702139
B1147374625496N00807098EA0202502137
B1147384625493N00807092EA0202302136
B1147394625491N00807085EA0202202135
B1147404625489N00807077EA0202102134
B1147414625488N00807068EA0202102133
B1147424625488N00807059EA0202002132
B1147434625489N00807051EA0202002132
B1147444625489N00807043EA0202002133
B1147454625488N00807035EA0202102134
B1147464625488N00807029EA0202202134
B1147474625486N00807024EA0202102133
B1147484625484N00807019EA0201802131
B1147494625481N00807015EA0201502127
B1147504625476N00807013EA0201302125
B1147514625471N00807014EA0201102124
B1147524625466N00807017EA0201002122
B1147534625463N00807023EA0200902121
B1147544625463N00807031EA0200702120
B1147554625464N00807039EA0200602118
B1147564625467N00807046EA0200602118
B1147574625470N00807052EA0200602118
B1147584625475N00807056EA0200702119
B1147594625479N00807061EA0200802120
B1148004625483N00807064EA0200902121
B1148014625488N00807067EA0200902122
B1148024625493N00807070EA0200902122
B1148034625498N00807073EA0201002122
B1148044625503N00807076EA0201002122
B1148054625508N00807080EA0201102123
B1148064625510N00807086EA0201202124
B1148074625512N00807092EA0201302125
B1148084625512N00807099EA0201402126
B1148094625511N00807104EA0201502127
B1148104625507N00807108EA0201602128
B1148114625502N00807109EA0201602128
B1148124625498N00807107EA0201702129
B1148134625495N00807102EA0201702130
B1148144625494N00807095EA0201802130
B1148154625495N00807087EA0201702129
B1148164625499N00807081EA0201602128
B1148174625506N00807077EA0201502127
B1148184625512N00807078EA0201402126
B1148194625518N00807083EA0201402126
B1148204625521N00807090EA0201502128
B1148214625522N00807097EA0201602129
B1148224625523N00807102EA0201702130
B1148234625522N00807108EA0201702130
B1148244625521N00807114EA0201702129
B1148254625520N00807119EA0201702129
B1148264625517N00807124EA0201602129
B1148274625512N00807126EA0201602129
B1148284625508N00807127EA0201702129
B1148294625503N00807125EA0201702130
B1148304625498N00807122EA0201802130
B1148314625495N00807117EA0201902131
B1148324625493N00807111EA0201902131
B1148334625492N00807104EA0201902132
B1148344625493N00807096EA0202002133
B1148354625496N00807089EA0202102133
B1148364625501N00807084EA0202102133
B1148374625508N00807082EA0202202134
B1148384625513N00807084EA0202202135
B1148394625518N00807090EA0202102133
B1148404625519N00807098EA0202002132
B1148414625519N00807106EA0202102133
B1148424625516N00807112EA0202202135
B1148434625514N00807117EA0202502137
B1148444625512N00807121EA0202702139
B1148454625510N00807124EA0202802140
B1148464625506N00807127EA0202802140
B1148474625501N00807127EA0202702140
B1148484625497N00807124EA0202702139
B1148494625492N00807119EA0202702139
B1148504625489N00807112EA0202802140
B1148514625488N00807105EA0202902141
B1148524625488N00807098EA0202902141
B1148534625489N00807091EA0202902141
B1148544625491N00807083EA0202902141
B1148554625496N00807077EA0203002142
B1148564625502N00807074EA0203002143
B1148574625508N00807075EA0203102143
B1148584625514N00807078EA0203302145
B1148594625518N00807083EA0203402147
B1149004625521N00807089EA0203602149
B1149014625523N00807095EA0203802150
B1149024625524N00807100EA0203902151
B1149034625525N00807105EA0203902151
B1149044625524N00807111EA0203902152
B1149054625522N00807117EA0203902152
B1149064625518N00807121EA0204002152
B1149074625514N00807123EA0204002153
B1149084625510N00807123EA0204202154
B1149094625506N00807121EA0204202155
B1149104625502N00807119EA0204202155
B1149114625499N00807115EA0204202155
B1149124625497N00807109EA0204302155
B1149134625495N00807102EA0204302155
B1149144625495N00807094EA0204302155
B1149154625498N00807087EA0204402156
B1149164625501N00807081EA0204502157
B1149174625505N00807076EA0204602158
B1149184625510N00807072EA0204702160
B1149194625515N00807069EA0204902161
B1149204625521N00807069EA0205002162
B1149214625526N00807071EA0205002162
B1149224625530N00807076EA0205002162
B1149234625533N00807081EA0205002162
B1149244625535N00807088EA0205002163
B1149254625535N00807095EA0205102163
B1149264625534N00807101EA0205102163
B1149274625530N00807106EA0205102163
B1149284625526N00807109EA0205102164
B1149294625523N00807111EA0205202165
B1149304625519N00807112EA0205402166
B1149314625516N00807111EA0205402166
B1149324625512N00807109EA0205202165
B1149334625508N00807105EA0205102163
B1149344625505N00807100EA0205102163
B1149354625502N00807092EA0205202165
B1149364625501N00807085EA0205302166
B1149374625502N00807077EA0205402167
B1149384625505N00807070EA0205502167
B1149394625509N00807064EA0205502167
B1149404625514N00807060EA0205702169
B1149414625519N00807059EA0205802170
B1149424625525N00807062EA0205902171
B1149434625529N00807067EA0205802170
B1149444625531N00807075EA0205902171
B1149454625531N00807083EA0206002172
B1149464625529N00807088EA0206202174
B1149474625527N00807092EA0206302175
B1149484625523N00807094EA0206302175
B1149494625519N00807094EA0206202174
B1149504625515N00807092EA0206102174
B1149514625511N00807088EA0206302175
B1149524625508N00807083EA0206502177
B1149534625506N00807077EA0206502178
B1149544625506N00807071EA0206502177
B1149554625508N00807065EA0206502177
B1149564625508N00807058EA0206402176
B1149574625510N00807052EA0206302176
B1149584625514N00807047EA0206202174
B1149594625519N00807043EA0206002172
B1150004625526N00807042EA0205802170
B1150014625533N00807045EA0205802170
B1150024625538N00807051EA0205902171
B1150034625542N00807059EA0206002173
B1150044625542N00807066EA0206102173
B1150054625541N00807072EA0206302176
B1150064625540N00807078EA0206502177
B1150074625540N00807082EA0206502178
B1150084625539N00807087EA0206502177
B1150094625537N00807091EA0206402177
B1150104625533N00807094EA0206302176
B1150114625528N00807097EA0206302176
B1150124625524N00807097EA0206502177
B1150134625520N00807096EA0206602179
B1150144625516N00807094EA0206802180
B1150154625513N00807090EA0206802181
B1150164625510N00807085EA0206802180
B1150174625508N00807078EA0206802180
B1150184625508N00807071EA0206802180
B1150194625509N00807063EA0206702179
B1150204625513N00807056EA0206702179
B1150214625518N00807051EA0206702179
B1150224625524N00807048EA0206802180
B1150234625529N00807049EA0206902181
B1150244625534N00807052EA0206802181
B1150254625537N00807057EA0206802180
B1150264625538N00807064EA0206702179
B1150274625537N00807071EA0206602178
B1150284625535N00807077EA0206602179
B1150294625531N00807082EA0206802180
B1150304625527N00807085EA0207002182
B1150314625523N00807086EA0207202185
B1150324625519N00807086EA0207302185
B1150334625516N00807085EA0207202184
B1150344625512N00807083EA0207202184
B1150354625508N00807078EA0207202184
B1150364625506N00807071EA0207302185
B1150374625506N00807064EA0207402187
B1150384625508N00807057EA0207502187
B1150394625512N00807051EA0207502187
B1150404625516N00807046EA0207502187
B1150414625522N00807042EA0207602189
B1150424625527N00807042EA0207802191
B1150434625533N00807045EA0207902191
B1150444625537N00807051EA0208002192
B1150454625539N00807059EA0208002192
B1150464625538N00807065EA0208002193
B1150474625535N00807069EA0208102193
B1150484625531N00807071EA0208102194
B1150494625527N00807070EA0208202194
B1150504625523N00807068EA0208302196
B1150514625519N00807064EA0208602198
B1150524625517N00807058EA0208802200
B1150534625516N00807051EA0208902201
B1150544625517N00807043EA0209002202
B1150554625520N00807036EA0209102203
B1150564625524N00807031EA0209202205
B1150574625530N00807028EA0209402206
B1150584625536N00807027EA0209502208
B1150594625542N00807029EA0209702209
B1151004625546N00807035EA0209802210
B1151014625549N00807042EA0209902211
B1151024625550N00807049EA0210002212
B1151034625549N00807055EA0210202214
B1151044625547N00807059EA0210302215
B1151054625544N00807062EA0210202215
B1151064625541N00807064EA0210202215
B1151074625536N00807065EA0210202215
B1151084625531N00807062EA0210202214
B1151094625527N00807056EA0210302215
B1151104625526N00807049EA0210602218
B1151114625524N00807041EA0210902221
B1151124625526N00807034EA0211202225
B1151134625528N00807028EA0211502227
B1151144625532N00807023EA0211602228
B1151154625537N00807019EA0211602228
B1151164625543N00807017EA0211702229
B1151174625550N00807018EA0211702230
B1151184625555N00807023EA0211802230
B1151194625558N00807030EA0211802231
B1151204625558N00807039EA0211902231
B1151214625555N00807045EA0212002232
B1151224625551N00807047EA0212102234
B1151234625547N00807046EA0212402236
B1151244625543N00807043EA0212702239
B1151254625541N00807038EA0212902242
B1151264625540N00807031EA0213102243
B1151274625540N00807024EA0213302246
B1151284625542N00807016EA0213602249
B1151294625546N00807011EA0213802250
B1151304625551N00807008EA0213702250
B1151314625558N00807008EA0213802250
B1151324625563N00807011EA0213902252
B1151334625568N00807017EA0214102253
B1151344625570N00807024EA0214102254
B1151354625569N00807031EA0214202255
B1151364625566N00807036EA0214302255
B1151374625562N00807039EA0214302256
B1151384625558N00807039EA0214602258
B1151394625554N00807037EA0214902261
B1151404625551N00807034EA0215102264
B1151414625550N00807029EA0215302266
B1151424625549N00807022EA0215402267
B1151434625550N00807013EA0215602268
B1151444625553N00807006EA0215802270
B1151454625557N00807000EA0216002272
B1151464625562N00806999EA0216002273
B1151474625568N00807001EA0216002272
B1151484625573N00807007EA0216102274
B1151494625576N00807014EA0216302276
B1151504625577N00807021EA0216502277
B1151514625576N00807027EA0216502278
B1151524625573N00807031EA0216802280
B1151534625570N00807033EA0217002282
B1151544625566N00807032EA0217102284
B1151554625563N00807029EA0217302285
B1151564625561N00807024EA0217302286
B1151574625559N00807018EA0217302286
B1151584625559N00807010EA0217602288
B1151594625560N00807002EA0217702289
B1152004625564N00806995EA0217802290
B1152014625569N00806992EA0217902291
B1152024625575N00806992EA0217802290
B1152034625581N00806996EA0217902291
B1152044625586N00807002EA0218102294
B1152054625587N00807008EA0218102294
B1152064625587N00807014EA0218102294
B1152074625584N00807019EA0218202294
B1152084625580N00807020EA0218302295
B1152094625575N00807019EA0218302295
B1152104625571N00807016EA0218302295
B1152114625568N00807012EA0218402296
B1152124625566N00807007EA0218502297
B1152134625564N00807001EA0218502298
B1152144625564N00806993EA0218602298
B1152154625567N00806985EA0218702299
B1152164625570N00806979EA0218802300
B1152174625575N00806973EA0218902301
B1152184625580N00806971EA0219002302
B1152194625586N00806970EA0219002302
B1152204625592N00806972EA0219002302
B1152214625598N00806976EA0219002302
B1152224625603N00806982EA0219002303
B1152234625605N00806987EA0219102304
B1152244625606N00806993EA0219102303
B1152254625605N00806999EA0219002302
B1152264625604N00807004EA0219002302
B1152274625601N00807008EA0219102303
B1152284625598N00807011EA0219202304
B1152294625594N00807012EA0219302305
B1152304625590N00807012EA0219302305
B1152314625587N00807010EA0219302305
B1152324625584N00807006EA0219202305
B1152334625581N00807001EA0219402306
B1152344625579N00806994EA0219602309
B1152354625578N00806988EA0219802311
B1152364625578N00806982EA0220002313
B1152374625579N00806976EA0220202314
B1152384625581N00806971EA0220202314
B1152394625586N00806967EA0220102313
B1152404625593N00806966EA0220002312
B1152414625600N00806969EA0219902311
B1152424625605N00806976EA0219902311
B1152434625607N00806984EA0220002312
B1152444625606N00806991EA0220102313
B1152454625605N00806996EA0220202315
B1152464625602N00807000EA0220302315
B1152474625600N00807004EA0220302316
B1152484625598N00807008EA0220302316
B1152494625595N00807012EA0220302315
B1152504625592N00807018EA0220302315
B1152514625589N00807024EA0220402317
B1152524625587N00807029EA0220602318
B1152534625585N00807034EA0220802321
B1152544625583N00807037EA0220902322
B1152554625581N00807039EA0220902321
B1152564625578N00807040EA0220902321
B1152574625573N00807039EA0220702319
B1152584625568N00807035EA0220502318
B1152594625564N00807028EA0220602319
B1153004625563N00807020EA0220902321
B1153014625563N00807012EA0221202324
B1153024625565N00807006EA0221402326
B1153034625568N00807001EA0221502327
B1153044625573N00806997EA0221502328
B1153054625577N00806996EA0221602328
B1153064625582N00806996EA0221602328
B1153074625587N00806998EA0221502328
B1153084625592N00807002EA0221502328
B1153094625596N00807008EA0221502327
B1153104625598N00807015EA0221502327
B1153114625597N00807022EA0221502328
B1153124625595N00807028EA0221602328
B1153134625593N00807033EA0221702329
B1153144625590N00807036EA0221802330
B1153154625586N00807038EA0221802331
B1153164625582N00807039EA0221802330
B1153174625578N00807038EA0221702329
B1153184625573N00807036EA0221702329
B1153194625568N00807032EA0221802330
B1153204625564N00807027EA0221902331
B1153214625561N00807021EA0222002332
B1153224625559N00807014EA0222102334
B1153234625559N00807007EA0222202335
B1153244625560N00806999EA0222402336
B1153254625561N00806992EA0222502338
B1153264625564N00806985EA0222702339
B1153274625568N00806980EA0222902341
B1153284625573N00806978EA0222902341
B1153294625579N00806979EA0222902341
B1153304625585N00806983EA0222902341
B1153314625589N00806990EA0222902341
B1153324625590N00806998EA0223002342
B1153334625589N00807004EA0223102344
B1153344625587N00807009EA0223302346
B1153354625585N00807012EA0223502347
B1153364625581N00807013EA0223502348
B1153374625577N00807013EA0223602348
B1153384625573N00807010EA0223602349
B1153394625569N00807004EA0223702349
B1153404625567N00806997EA0223802350
B1153414625567N00806990EA0224002352
B1153424625569N00806983EA0224202354
B1153434625572N00806977EA0224302355
B1153444625576N00806973EA0224302355
B1153454625582N00806970EA0224202355
B1153464625589N00806970EA0224102354
B1153474625594N00806973EA0224102354
B1153484625599N00806978EA0224202354
B1153494625603N00806985EA0224302356
B1153504625604N00806992EA0224402357
B1153514625603N00806998EA0224502358
B1153524625601N00807004EA0224602358
B1153534625598N00807008EA0224502358
B1153544625594N00807010EA0224402357
B1153554625590N00807010EA0224402356
B1153564625585N00807008EA0224402356
B1153574625581N00807005EA0224502357
B1153584625578N00807001EA0224702359
B1153594625575N00806996EA0224902361
B1154004625573N00806990EA0225202364
B1154014625572N00806984EA0225302366
B1154024625572N00806977EA0225402367
B1154034625573N00806970EA0225602369
B1154044625576N00806962EA0225902371
B1154054625581N00806956EA0226202374
B1154064625587N00806955EA0226402376
B1154074625593N00806957EA0226502377
B1154084625598N00806962EA0226502377
B1154094625601N00806970EA0226502377
B1154104625600N00806978EA0226502377
B1154114625597N00806984EA0226402376
B1154124625592N00806988EA0226502377
B1154134625587N00806988EA0226702379
B1154144625582N00806986EA0227002382
B1154154625578N00806982EA0227402386
B1154164625575N00806976EA0227802390
B1154174625574N00806969EA0227902392
B1154184625575N00806961EA0228002393
B1154194625578N00806953EA0228202395
B1154204625582N00806947EA0228502398
B1154214625589N00806945EA0228702399
B1154224625594N00806947EA0228802400
B1154234625598N00806952EA0228902401
B1154244625600N00806959EA0229102403
B1154254625600N00806967EA0229102403
B1154264625596N00806973EA0229202404
B1154274625592N00806977EA0229402406
B1154284625586N00806978EA0229802410
B1154294625582N00806976EA0230102413
B1154304625578N00806972EA0230302416
B1154314625576N00806966EA0230502417
B1154324625574N00806959EA0230702419
B1154334625575N00806951EA0230802420
B1154344625577N00806944EA0231002422
B1154354625582N00806940EA0231202425
B1154364625587N00806939EA0231502427
B1154374625592N00806941EA0231602428
B1154384625596N00806947EA0231802430
B1154394625599N00806954EA0232002433
B1154404625599N00806962EA0232202434
B1154414625597N00806968EA0232302436
B1154424625593N00806973EA0232402437
B1154434625588N00806975EA0232602438
B1154444625583N00806974EA0232802440
B1154454625578N00806972EA0233002442
B1154464625574N00806969EA0233102444
B1154474625570N00806966EA0233202444
B1154484625567N00806960EA0233302445
B1154494625564N00806953EA0233402446
B1154504625563N00806945EA0233502447
B1154514625565N00806937EA0233602448
B1154524625569N00806932EA0233602449
B1154534625575N00806930EA0233702450
B1154544625581N00806933EA0233902452
B1154554625585N00806938EA0234202454
B1154564625586N00806945EA0234402456
B1154574625585N00806952EA0234602459
B1154584625581N00806958EA0234702460
B1154594625576N00806960EA0234802460
B1155004625570N00806959EA0234902462
B1155014625566N00806953EA0235002462
B1155024625563N00806947EA0235102464
B1155034625562N00806939EA0235302465
B1155044625563N00806931EA0235502467
B1155054625566N00806925EA0235502467
B1155064625570N00806922EA0235602468
B1155074625574N00806920EA0235602469
B1155084625579N00806923EA0235702469
B1155094625583N00806929EA0235702470
B1155104625585N00806936EA0235902471
B1155114625583N00806944EA0236002473
B1155124625580N00806949EA0236202474
B1155134625575N00806950EA0236302475
B1155144625570N00806950EA0236402476
B1155154625565N00806947EA0236602478
B1155164625561N00806942EA0236702479
B1155174625559N00806935EA0236702480
B1155184625558N00806927EA0236702479
B1155194625561N00806920EA0236602478
B1155204625565N00806915EA0236602478
B1155214625570N00806912EA0236702479
B1155224625575N00806911EA0236702480
B1155234625580N00806912EA0236802481
B1155244625584N00806914EA0236902482
B1155254625588N00806917EA0237002482
B1155264625590N00806923EA0237002483
B1155274625590N00806929EA0237002482
B1155284625587N00806936EA0237002482
B1155294625583N00806940EA0237002482
B1155304625578N00806942EA0237202484
B1155314625574N00806941EA0237302485
B1155324625570N00806936EA0237402486
B1155334625568N00806928EA0237402486
B1155344625569N00806919EA0237502487
B1155354625572N00806912EA0237502488
B1155364625576N00806906EA0237602488
B1155374625582N00806904EA0237602489
B1155384625587N00806906EA0237702489
B1155394625591N00806909EA0237702489
B1155404625593N00806914EA0237602489
B1155414625594N00806919EA0237602488
B1155424625594N00806926EA0237602488
B1155434625592N00806932EA0237702489
B1155444625589N00806937EA0237702489
B1155454625584N00806939EA0237602489
B1155464625579N00806938EA0237702489
B1155474625573N00806935EA0237702489
B1155484625569N00806930EA0237702489
B1155494625566N00806924EA0237802490
B1155504625564N00806915EA0237802490
B1155514625564N00806907EA0237802491
B1155524625566N00806899EA0237902491
B1155534625568N00806892EA0237902492
B1155544625571N00806885EA0238002492
B1155554625574N00806879EA0238102493
B1155564625576N00806873EA0238102494
B1155574625580N00806869EA0238102493
B1155584625584N00806865EA0238002493
B1155594625589N00806862EA0238002493
B1156004625593N00806861EA0237902492
B1156014625597N00806863EA0237702490
B1156024625601N00806866EA0237502487
B1156034625605N00806871EA0237302486
B1156044625608N00806877EA0237102484
B1156054625611N00806884EA0237102483
B1156064625615N00806890EA0237102483
B1156074625618N00806895EA0237102483
B1156084625620N00806901EA0237102483
B1156094625621N00806908EA0237102483
B1156104625623N00806915EA0237002483
B1156114625626N00806922EA0237002483
B1156124625628N00806928EA0237002483
B1156134625630N00806935EA0236902481
B1156144625631N00806942EA0236802481
B1156154625632N00806950EA0236702479
B1156164625635N00806958EA0236602478
B1156174625636N00806966EA0236502477
B1156184625637N00806974EA0236402476
B1156194625638N00806982EA0236202475
B1156204625639N00806990EA0236102473
B1156214625640N00806998EA0235802471
B1156224625642N00807007EA0235602468
B1156234625643N00807015EA0235502467
B1156244625645N00807023EA0235502467
B1156254625646N00807030EA0235502467
B1156264625647N00807037EA0235402467
B1156274625648N00807043EA0235302465
B1156284625649N00807050EA0235002463
B1156294625650N00807059EA0234802461
B1156304625651N00807067EA0234702460
B1156314625653N00807075EA0234802460
B1156324625654N00807082EA0234702460
B1156334625655N00807090EA0234602459
B1156344625657N00807097EA0234502458
B1156354625658N00807105EA0234402456
B1156364625660N00807113EA0234202455
B1156374625662N00807121EA0234102454
B1156384625664N00807129EA0234002453
B1156394625666N00807137EA0234002452
B1156404625667N00807144EA0234002452
B1156414625668N00807151EA0233902451
B1156424625669N00807159EA0233802450
B1156434625671N00807166EA0233702449
B1156444625672N00807174EA0233502448
B1156454625673N00807182EA0233502447
B1156464625674N00807190EA0233402447
B1156474625675N00807197EA0233302446
B1156484625676N00807205EA0233202445
B1156494625678N00807212EA0233102443
B1156504625679N00807220EA0233002442
B1156514625681N00807228EA0232902441
B1156524625682N00807236EA0232802441
B1156534625683N00807244EA0232802440
B1156544625684N00807252EA0232702439
B1156554625686N00807259EA0232602438
B1156564625687N00807267EA0232502437
B1156574625688N00807275EA0232402436
B1156584625689N00807283EA0232302435
B1156594625691N00807291EA0232202435
B1157004625692N00807299EA0232202434
B1157014625693N00807307EA0232102433
B1157024625694N00807314EA0232002432
B1157034625695N00807322EA0231902431
B1157044625697N00807330EA0231802430
B1157054625698N00807338EA0231702429
B1157064625699N00807346EA0231602428
B1157074625701N00807354EA0231402427
B1157084625702N00807362EA0231302426
B1157094625704N00807370EA0231202424
B1157104625705N00807378EA0231102423
B1157114625707N00807386EA0231002423
B1157124625708N00807394EA0231002422
B1157134625710N00807402EA0230902421
B1157144625711N00807410EA0230802420
B1157154625712N00807418EA0230602419
B1157164625714N00807426EA0230502417
B1157174625715N00807434EA0230402416
B1157184625716N00807442EA0230302416
B1157194625717N00807450EA0230202415
B1157204625718N00807458EA0230202414
B1157214625719N00807466EA0230102413
B1157224625720N00807474EA0229902412
B1157234625721N00807482EA0229802411
B1157244625722N00807490EA0229702410
B1157254625723N00807498EA0229602409
B1157264625724N00807505EA0229502408
B1157274625725N00807513EA0229402406
B1157284625726N00807521EA0229302405
B1157294625727N00807529EA0229102404
B1157304625727N00807537EA0229002402
B1157314625728N00807544EA0228902401
B1157324625729N00807552EA0228802400
B1157334625730N00807560EA0228702399
B1157344625731N00807567EA0228602398
B1157354625732N00807575EA0228502397
B1157364625733N00807583EA0228402396
B1157374625734N00807591EA0228302395
B1157384625735N00807598EA0228202394
B1157394625736N00807606EA0228102393
B1157404625736N00807614EA0228002392
B1157414625737N00807621EA0227802391
B1157424625738N00807629EA0227702390
B1157434625739N00807636EA0227602388
B1157444625740N00807643EA0227502387
B1157454625741N00807651EA0227302386
B1157464625741N00807658EA0227202384
B1157474625743N00807666EA0227002382
B1157484625744N00807673EA0226802380
B1157494625745N00807681EA0226702379
B1157504625746N00807689EA0226602378
B1157514625747N00807697EA0226502377
B1157524625749N00807704EA0226402376
B1157534625750N00807711EA0226302375
B1157544625751N00807719EA0226102373
B1157554625752N00807727EA0226002372
B1157564625754N00807735EA0225902371
B1157574625755N00807743EA0225802371
B1157584625756N00807751EA0225802370
B1157594625757N00807758EA0225702369
B1158004625759N00807766EA0225602368
B1158014625760N00807773EA0225402366
B1158024625760N00807782EA0225302365
B1158034625762N00807790EA0225202364
B1158044625763N00807798EA0225102363
B1158054625764N00807806EA0225002363
B1158064625765N00807814EA0224902362
B1158074625766N00807822EA0224802360
B1158084625767N00807830EA0224702359
B1158094625768N00807838EA0224602358
B1158104625769N00807846EA0224502357
B1158114625771N00807854EA0224402356
B1158124625772N00807861EA0224302355
B1158134625773N00807869EA0224202354
B1158144625774N00807876EA0224102353
B1158154625775N00807884EA0224002352
B1158164625776N00807891EA0223902351
B1158174625778N00807898EA0223802350
B1158184625779N00807905EA0223702349
B1158194625780N00807912EA0223502348
B1158204625781N00807920EA0223402346
B1158214625781N00807928EA0223302345
B1158224625783N00807935EA0223202344
B1158234625784N00807943EA0223102343
B1158244625784N00807951EA0222902342
B1158254625786N00807958EA0222802341
B1158264625787N00807966EA0222702340
B1158274625787N00807974EA0222602339
B1158284625789N00807982EA0222502338
B1158294625790N00807989EA0222502337
B1158304625791N00807997EA0222402336
B1158314625792N00808004EA0222202335
B1158324625793N00808012EA0222202334
B1158334625794N00808019EA0222102333
B1158344625795N00808027EA0222002332
B1158354625797N00808034EA0221902332
B1158364625798N00808041EA0221902331
B1158374625799N00808048EA0221802330
B1158384625800N00808055EA0221602329
B1158394625802N00808063EA0221502327
B1158404625803N00808070EA0221402326
B1158414625804N00808077EA0221302325
B1158424625806N00808084EA0221202324
B1158434625807N00808091EA0221102324
B1158444625809N00808097EA0221102323
B1158454625810N00808104EA0220902322
B1158464625811N00808111EA0220802320
B1158474625812N00808118EA0220702319
B1158484625813N00808126EA0220602318
B1158494625815N00808134EA0220602318
B1158504625815N00808141EA0220502318
B1158514625816N00808149EA0220502317
B1158524625816N00808156EA0220502317
B1158534625817N00808163EA0220402316
B1158544625818N00808170EA0220302315
B1158554625819N00808177EA0220102314
B1158564625821N00808184EA0220002312
B1158574625822N00808192EA0219902311
B1158584625822N00808199EA0219902312
B1158594625823N00808206EA0220002312
B1159004625824N00808212EA0220002312
B1159014625825N00808218EA0220002312
B1159024625825N00808225EA0219802310
B1159034625827N00808231EA0219702309
B1159044625828N00808238EA0219502308
B1159054625829N00808244EA0219402306
B1159064625831N00808250EA0219302305
B1159074625832N00808256EA0219202304
B1159084625833N00808262EA0219002302
B1159094625834N00808268EA0218802300
B1159104625834N00808275EA0218602298
B1159114625835N00808282EA0218402297
B1159124625837N00808289EA0218402296
B1159134625838N00808295EA0218302295
B1159144625839N00808302EA0218202294
B1159154625840N00808309EA0218002292
B1159164625841N00808316EA0217902291
B1159174625842N00808323EA0217802291
B1159184625844N00808330EA0217702290
B1159194625845N00808337EA0217702289
B1159204625846N00808344EA0217502288
B1159214625847N00808351EA0217402287
B1159224625849N00808359EA0217302285
B1159234625850N00808367EA0217202284
B1159244625852N00808374EA0217202284
B1159254625853N00808381EA0217202284
B1159264625854N00808387EA0217202284
B1159274625855N00808394EA0217102283
B1159284625856N00808401EA0216902281
B1159294625857N00808408EA0216702279
B1159304625858N00808416EA0216602278
B1159314625859N00808424EA0216502278
B1159324625860N00808431EA0216502278
B1159334625862N00808438EA0216502277
B1159344625863N00808445EA0216402276
B1159354625864N00808452EA0216302275
B1159364625865N00808459EA0216102273
B1159374625867N00808466EA0215902272
B1159384625869N00808474EA0215802271
B1159394625871N00808481EA0215802270
B1159404625873N00808489EA0215702269
B1159414625875N00808496EA0215602269
B1159424625876N00808503EA0215602268
B1159434625878N00808510EA0215502267
B1159444625880N00808516EA0215402266
B1159454625882N00808523EA0215302265
B1159464625883N00808530EA0215102263
B1159474625885N00808538EA0215002262
B1159484625887N00808545EA0214902262
B1159494625888N00808551EA0214902261
B1159504625890N00808558EA0214802260
B1159514625892N00808564EA0214702259
B1159524625894N00808571EA0214602258
B1159534625895N00808578EA0214502257
B1159544625896N00808584EA0214402256
B1159554625898N00808591EA0214302255
B1159564625900N00808597EA0214302255
B1159574625902N00808603EA0214102254
B1159584625904N00808609EA0214002252
B1159594625906N00808615EA0213802251
B1200004625908N00808622EA0213702249
B1200014625910N00808629EA0213602248
B1200024625912N00808636EA0213402247
B1200034625913N00808642EA0213302245
B1200044625915N00808649EA0213202244
B1200054625916N00808656EA0213002243
B1200064625918N00808663EA0212902241
B1200074625919N00808670EA0212702240
B1200084625921N00808677EA0212602238
B1200094625922N00808685EA0212502237
B1200104625924N00808692EA0212402236
B1200114625925N00808699EA0212302236
B1200124625927N00808706EA0212202235
B1200134625928N00808713EA0212202234
B1200144625930N00808720EA0212102233
B1200154625932N00808727EA0211902232
B1200164625933N00808734EA0211802230
B1200174625935N00808741EA0211602228
B1200184625937N00808748EA0211402227
B1200194625939N00808754EA0211202225
B1200204625941N00808761EA0211102223
B1200214625944N00808768EA0210902222
B1200224625946N00808776EA0210702220
B1200234625949N00808783EA0210602218
B1200244625952N00808790EA0210402217
B1200254625955N00808797EA0210302215
B1200264625958N00808805EA0210202215
B1200274625960N00808812EA0210102214
B1200284625963N00808819EA0210002212
B1200294625965N00808826EA0209902211
B1200304625967N00808833EA0209702210
B1200314625969N00808840EA0209502207
B1200324625972N00808848EA0209302205
B1200334625974N00808856EA0209202205
B1200344625975N00808864EA0209102203
B1200354625978N00808871EA0209002203
B1200364625980N00808878EA0209002202
B1200374625982N00808885EA0208902202
B1200384625984N00808892EA0208902201
B1200394625986N00808900EA0208802200
B1200404625989N00808907EA0208702199
B1200414625992N00808914EA0208602198
B1200424625995N00808922EA0208502197
B1200434625998N00808929EA0208402196
B1200444626001N00808937EA0208302195
B1200454626003N00808945EA0208202195
B1200464626005N00808953EA0208202194
B1200474626007N00808961EA0208102194
B1200484626009N00808969EA0208102193
B1200494626012N00808977EA0208002192
B1200504626014N00808985EA0207802191
B1200514626015N00808993EA0207802190
B1200524626017N00809001EA0207602189
B1200534626019N00809009EA0207502187
B1200544626020N00809017EA0207302186
B1200554626022N00809025EA0207202184
B1200564626023N00809033EA0207002182
B1200574626025N00809041EA0206902181
B1200584626026N00809049EA0206702180
B1200594626028N00809057EA0206602178
B1201004626029N00809064EA0206502177
B1201014626031N00809071EA0206402176
B1201024626033N00809079EA0206402176
B1201034626034N00809085EA0206302176
B1201044626036N00809092EA0206302176
B1201054626036N00809098EA0206302175
B1201064626037N00809103EA0206202174
B1201074626039N00809110EA0206002173
B1201084626040N00809117EA0205802171
B1201094626042N00809123EA0205702170
B1201104626044N00809130EA0205602169
B1201114626045N00809136EA0205502168
B1201124626046N00809141EA0205402167
B1201134626048N00809147EA0205302165
B1201144626050N00809154EA0205102163
B1201154626051N00809161EA0204902162
B1201164626052N00809168EA0204902161
B1201174626054N00809175EA0204802161
B1201184626055N00809181EA0204802160
B1201194626056N00809187EA0204702159
B1201204626058N00809193EA0204502158
B1201214626060N00809200EA0204402156
B1201224626061N00809208EA0204202155
B1201234626063N00809215EA0204102154
B1201244626065N00809222EA0204102153
B1201254626066N00809228EA0204002152
B1201264626068N00809234EA0203802151
B1201274626070N00809241EA0203702149
B1201284626072N00809249EA0203502147
B1201294626074N00809257EA0203302146
B1201304626076N00809265EA0203302145
B1201314626078N00809272EA0203302146
B1201324626079N00809279EA0203402146
B1201334626079N00809285EA0203402147
B1201344626080N00809291EA0203302145
B1201354626082N00809298EA0203102143
B1201364626083N00809305EA0202902141
B1201374626085N00809314EA0202702140
B1201384626086N00809322EA0202702139
B1201394626088N00809329EA0202802140
B1201404626088N00809335EA0202702140
B1201414626089N00809341EA0202602138
B1201424626090N00809347EA0202502137
B1201434626091N00809355EA0202302135
B1201444626092N00809362EA0202102133
B1201454626093N00809371EA0202002133
B1201464626094N00809378EA0202002133
B1201474626095N00809385EA0202002132
B1201484626096N00809392EA0202002132
B1201494626098N00809399EA0201902131
B1201504626099N00809406EA0201802130
B1201514626101N00809413EA0201702129
B1201524626103N00809420EA0201602129
B1201534626105N00809427EA0201602128
B1201544626107N00809434EA0201502127
B1201554626109N00809441EA0201402126
B1201564626112N00809449EA0201302125
B1201574626114N00809456EA0201102124
B1201584626116N00809464EA0201002123
B1201594626119N00809472EA0201002122
B1202004626121N00809480EA0200902121
B1202014626123N00809487EA0200802120
B1202024626125N00809495EA0200702119
B1202034626127N00809503EA0200502117
B1202044626128N00809511EA0200402116
B1202054626130N00809519EA0200202114
B1202064626132N00809527EA0200102113
B1202074626133N00809535EA0200002113
B1202084626135N00809542EA0200002112
B1202094626135N00809550EA0199802111
B1202104626137N00809557EA0199702109
B1202114626139N00809565EA0199502107
B1202124626140N00809573EA0199302105
B1202134626142N00809582EA0199202104
B1202144626144N00809590EA0199102104
B1202154626145N00809598EA0199102103
B1202164626147N00809605EA0199002102
B1202174626148N00809613EA0198802100
B1202184626150N00809621EA0198602099
B1202194626151N00809630EA0198502097
B1202204626153N00809639EA0198402096
B1202214626155N00809648EA0198402096
B1202224626155N00809656EA0198302096
B1202234626157N00809664EA0198302095
B1202244626157N00809672EA0198202094
B1202254626158N00809681EA0198102093
B1202264626159N00809689EA0197902092
B1202274626160N00809697EA0197802090
B1202284626161N00809705EA0197702089
B1202294626162N00809713EA0197602088
B1202304626163N00809721EA0197502087
B1202314626163N00809729EA0197302086
B1202324626164N00809737EA0197202084
B1202334626165N00809746EA0197002083
B1202344626165N00809754EA0196902081
B1202354626165N00809762EA0196802080
B1202364626165N00809771EA0196702079
B1202374626166N00809779EA0196602078
B1202384626166N00809787EA0196502077
B1202394626166N00809795EA0196302076
B1202404626166N00809802EA0196202074
B1202414626166N00809811EA0196002073
B1202424626166N00809819EA0195902071
B1202434626166N00809827EA0195702070
B1202444626166N00809836EA0195602068
B1202454626166N00809844EA0195502067
B1202464626167N00809853EA0195302065
B1202474626167N00809861EA0195202064
B1202484626169N00809870EA0195002062
B1202494626170N00809878EA0194902061
B1202504626171N00809887EA0194802060
B1202514626172N00809895EA0194702059
B1202524626173N00809903EA0194502058
B1202534626174N00809912EA0194402057
B1202544626175N00809921EA0194302055
B1202554626176N00809929EA0194202054
B1202564626177N00809938EA0194102053
B1202574626178N00809947EA0194002052
B1202584626179N00809956EA0193902051
B1202594626180N00809964EA0193802051
B1203004626180N00809972EA0193802050
B1203014626182N00809980EA0193802050
B1203024626183N00809987EA0193702049
B1203034626185N00809995EA0193702049
B1203044626186N00810002EA0193702049
B1203054626188N00810009EA0193602049
B1203064626189N00810017EA0193602049
B1203074626190N00810025EA0193702049
B1203084626193N00810032EA0193702049
B1203094626194N00810039EA0193702049
B1203104626196N00810047EA0193702049
B1203114626197N00810055EA0193702049
B1203124626198N00810063EA0193802050
B1203134626198N00810070EA0194002052
B1203144626198N00810075EA0194102053
B1203154626198N00810079EA0194102053
B1203164626198N00810085EA0193902052
B1203174626198N00810090EA0193802050
B1203184626198N00810097EA0193602049
B1203194626198N00810105EA0193602048
B1203204626198N00810111EA0193602048
B1203214626198N00810118EA0193502047
B1203224626198N00810124EA0193502047
B1203234626196N00810129EA0193502047
B1203244626195N00810134EA0193502047
B1203254626195N00810138EA0193502047
B1203264626194N00810143EA0193402046
B1203274626194N00810149EA0193102043
B1203284626193N00810155EA0192802040
B1203294626193N00810162EA0192502037
B1203304626193N00810169EA0192302035
B1203314626193N00810176EA0192302035
B1203324626195N00810181EA0192202035
B1203334626196N00810186EA0192202034
B1203344626197N00810191EA0192102033
B1203354626198N00810197EA0192002033
B1203364626200N00810204EA0191902032
B1203374626201N00810211EA0191802030
B1203384626202N00810217EA0191802030
B1203394626204N00810223EA0191702029
B1203404626206N00810229EA0191502027
B1203414626208N00810236EA0191302025
B1203424626210N00810243EA0191302025
B1203434626213N00810250EA0191202024
B1203444626216N00810257EA0191102024
B1203454626220N00810263EA0191002022
B1203464626222N00810270EA0190902022
B1203474626225N00810276EA0190902021
B1203484626227N00810283EA0190902021
B1203494626228N00810289EA0190802020
B1203504626231N00810294EA0190702019
B1203514626233N00810299EA0190602019
B1203524626235N00810304EA0190502017
B1203534626237N00810310EA0190302015
B1203544626239N00810315EA0190102014
B1203554626242N00810320EA0189902012
B1203564626247N00810324EA0189802010
B1203574626251N00810328EA0189702010
B1203584626255N00810333EA0189702010
B1203594626258N00810338EA0189702009
B1204004626261N00810345EA0189702009
B1204014626264N00810350EA0189702009
B1204024626266N00810355EA0189602008
B1204034626269N00810359EA0189502007
B1204044626271N00810364EA0189402006
B1204054626274N00810368EA0189202004
B1204064626277N00810373EA0189002002
B1204074626279N00810379EA0188902001
B1204084626280N00810385EA0188902001
B1204094626279N00810391EA0188701999
B1204104626277N00810396EA0188501997
B1204114626272N00810399EA0188301996
B1204124626266N00810399EA0188201994
B1204134626261N00810396EA0188101993
B1204144626256N00810391EA0188001993
B1204154626252N00810384EA0188001992
B1204164626248N00810377EA0187901992
B1204174626244N00810370EA0187901991
B1204184626241N00810363EA0187801990
B1204194626237N00810357EA0187801990
B1204204626234N00810351EA0187701989
B1204214626232N00810344EA0187701989
B1204224626228N00810337EA0187701990
B1204234626225N00810330EA0187801990
B1204244626223N00810323EA0187801990
B1204254626220N00810317EA0187901992
B1204264626217N00810312EA0188001992
B1204274626214N00810307EA0188001992
B1204284626211N00810302EA0187801991
B1204294626208N00810296EA0187701989
B1204304626206N00810290EA0187701989
B1204314626204N00810284EA0187701989
B1204324626203N00810278EA0187701989
B1204334626201N00810273EA0187601989
B1204344626200N00810266EA0187501988
B1204354626198N00810260EA0187501987
B1204364626195N00810252EA0187401986
B1204374626193N00810244EA0187401986
B1204384626192N00810237EA0187401987
B1204394626190N00810229EA0187401987
B1204404626188N00810222EA0187301986
B1204414626185N00810216EA0187201985
B1204424626183N00810209EA0187101983
B1204434626180N00810203EA0186901982
B1204444626177N00810197EA0186801980
B1204454626174N00810191EA0186601979
B1204464626171N00810186EA0186401976
B1204474626169N00810181EA0186301975
B1204484626166N00810176EA0186201975
B1204494626162N00810172EA0186301975
B1204504626159N00810169EA0186401976
B1204514626155N00810166EA0186401976
B1204524626151N00810163EA0186301976
B1204534626147N00810159EA0186301976
B1204544626144N00810156EA0186201974
B1204554626140N00810152EA0186101973
B1204564626137N00810147EA0186101973
B1204574626134N00810142EA0185901971
B1204584626131N00810136EA0185901971
B1204594626128N00810131EA0185901971
B1205004626125N00810127EA0185901972
B1205014626121N00810124EA0185901971
B1205024626118N00810120EA0185901971
B1205034626115N00810116EA0185801970
B1205044626112N00810110EA0185801970
B1205054626108N00810105EA0185801971
B1205064626105N00810100EA0186001972
B1205074626102N00810098EA0186201974
B1205084626098N00810096EA0186201975
B1205094626095N00810095EA0186101974
B1205104626091N00810093EA0186001972
B1205114626087N00810092EA0185801970
B1205124626082N00810089EA0185701969
B1205134626077N00810087EA0185701969
B1205144626073N00810083EA0185701969
B1205154626070N00810079EA0185701969
B1205164626067N00810074EA0185601969
B1205174626065N00810068EA0185501968
B1205184626064N00810062EA0185501967
B1205194626063N00810055EA0185501967
B1205204626062N00810049EA0185401966
B1205214626061N00810043EA0185201965
B1205224626060N00810037EA0185101964
B1205234626059N00810030EA0185201964
B1205244626058N00810023EA0185301965
B1205254626057N00810017EA0185301965
B1205264626057N00810012EA0185401966
B1205274626058N00810006EA0185401967
B1205284626058N00810001EA0185401967
B1205294626058N00809995EA0185301966
B1205304626059N00809989EA0185201964
B1205314626060N00809982EA0185001962
B1205324626061N00809976EA0184801961
B1205334626061N00809968EA0184701959
B1205344626061N00809961EA0184601958
B1205354626062N00809954EA0184501957
B1205364626063N00809948EA0184401956
B1205374626064N00809942EA0184201955
B1205384626065N00809935EA0184101954
B1205394626065N00809929EA0184001953
B1205404626066N00809922EA0184001952
B1205414626066N00809916EA0184001952
B1205424626066N00809909EA0183801951
B1205434626066N00809903EA0183701949
B1205444626065N00809897EA0183601948
B1205454626065N00809891EA0183501947
B1205464626065N00809885EA0183401947
B1205474626065N00809879EA0183301946
B1205484626066N00809874EA0183201945
B1205494626066N00809869EA0183001943
B1205504626066N00809863EA0182801941
B1205514626066N00809858EA0182601939
B1205524626066N00809851EA0182501937
B1205534626065N00809844EA0182401936
B1205544626063N00809837EA0182401936
B1205554626060N00809831EA0182501937
B1205564626058N00809825EA0182601938
B1205574626056N00809820EA0182601938
B1205584626054N00809815EA0182501937
B1205594626052N00809810EA0182301935
B1206004626050N00809805EA0182101934
B1206014626046N00809800EA0182001932
B1206024626041N00809797EA0181901931
B1206034626036N00809796EA0181801930
B1206044626031N00809796EA0181701929
B1206054626026N00809798EA0181601928
B1206064626021N00809801EA0181401927
B1206074626016N00809804EA0181301926
B1206084626011N00809807EA0181201924
B1206094626006N00809811EA0181101923
B1206104626000N00809814EA0181001922
B1206114625995N00809817EA0180801920
B1206124625990N00809820EA0180701919
B1206134625984N00809823EA0180601918
B1206144625979N00809826EA0180501917
B1206154625974N00809829EA0180301915
B1206164625969N00809832EA0180201914
B1206174625964N00809835EA0180001912
B1206184625959N00809838EA0179801910
B1206194625954N00809841EA0179701909
B1206204625949N00809844EA0179501907
B1206214625943N00809846EA0179301906
B1206224625937N00809848EA0179201905
B1206234625931N00809851EA0179201904
B1206244625926N00809854EA0179101903
B1206254625920N00809857EA0179001902
B1206264625915N00809860EA0178901901
B1206274625910N00809863EA0178601899
B1206284625904N00809866EA0178401897
B1206294625898N00809868EA0178201894
B1206304625892N00809871EA0178101893
B1206314625887N00809873EA0178001892
B1206324625881N00809875EA0177801891
B1206334625875N00809876EA0177701889
B1206344625870N00809878EA0177501887
B1206354625864N00809879EA0177301885
B1206364625858N00809880EA0177101884
B1206374625852N00809881EA0176901882
B1206384625846N00809882EA0176801880
B1206394625840N00809883EA0176701879
B1206404625834N00809884EA0176601878
B1206414625828N00809885EA0176401877
B1206424625823N00809886EA0176301875
B1206434625817N00809886EA0176201874
B1206444625811N00809886EA0176001873
B1206454625806N00809886EA0175901872
B1206464625800N00809885EA0175801871
B1206474625795N00809884EA0175701870
B1206484625790N00809883EA0175601868
B1206494625784N00809881EA0175501867
B1206504625780N00809880EA0175401866
B1206514625775N00809879EA0175201864
B1206524625770N00809878EA0175101863
B1206534625765N00809876EA0175001862
B1206544625760N00809874EA0174901861
B1206554625756N00809871EA0174701859
B1206564625751N00809869EA0174501858
B1206574625747N00809866EA0174401857
B1206584625742N00809863EA0174301855
B1206594625738N00809859EA0174101854
B1207004625734N00809856EA0174001852
B1207014625729N00809853EA0173901851
B1207024625724N00809850EA0173801850
B1207034625719N00809847EA0173701849
B1207044625715N00809844EA0173601848
B1207054625710N00809841EA0173501847
B1207064625706N00809838EA0173401846
B1207074625702N00809836EA0173301845
B1207084625697N00809832EA0173201844
B1207094625693N00809829EA0173001843
B1207104625689N00809826EA0172901842
B1207114625684N00809823EA0172801841
B1207124625680N00809821EA0172701840
B1207134625675N00809820EA0172601838
B1207144625670N00809820EA0172401836
B1207154625664N00809819EA0172201834
B1207164625659N00809817EA0172101833
B1207174625653N00809816EA0172001832
B1207184625648N00809816EA0171901831
B1207194625643N00809815EA0171801830
B1207204625637N00809814EA0171701829
B1207214625632N00809813EA0171601828
B1207224625627N00809813EA0171401827
B1207234625621N00809811EA0171301826
B1207244625615N00809810EA0171301825
B1207254625610N00809809EA0171201824
B1207264625605N00809807EA0171101824
B1207274625600N00809806EA0171101823
B1207284625594N00809805EA0171001822
B1207294625589N00809804EA0170901821
B1207304625584N00809802EA0170801820
B1207314625579N00809800EA0170701819
B1207324625574N00809799EA0170601818
B1207334625569N00809797EA0170501817
B1207344625564N00809795EA0170401817
B1207354625559N00809792EA0170301816
B1207364625554N00809790EA0170201815
B1207374625550N00809787EA0170101813
B1207384625545N00809785EA0170001812
B1207394625540N00809782EA0169901811
B1207404625535N00809779EA0169701810
B1207414625531N00809776EA0169601808
B1207424625527N00809773EA0169501807
B1207434625522N00809770EA0169401806
B1207444625518N00809766EA0169301805
B1207454625514N00809763EA0169101804
B1207464625510N00809759EA0169001802
B1207474625505N00809755EA0168901801
B1207484625501N00809752EA0168701800
B1207494625497N00809749EA0168601798
B1207504625493N00809745EA0168401797
B1207514625489N00809741EA0168301795
B1207524625485N00809737EA0168201794
B1207534625481N00809733EA0168101793
B1207544625477N00809729EA0168001792
B1207554625472N00809726EA0167801791
B1207564625469N00809721EA0167701789
B1207574625464N00809717EA0167601788
B1207584625461N00809713EA0167501787
B1207594625457N00809709EA0167401787
B1208004625453N00809705EA0167301786
B1208014625449N00809701EA0167201784
B1208024625445N00809697EA0167101783
B1208034625441N00809694EA0167001782
B1208044625437N00809690EA0166901781
B1208054625434N00809687EA0166801780
B1208064625430N00809683EA0166701779
B1208074625426N00809680EA0166501777
B1208084625423N00809676EA0166301775
B1208094625418N00809673EA0166201774
B1208104625414N00809670EA0166001773
B1208114625410N00809667EA0165901772
B1208124625407N00809664EA0165801770
B1208134625402N00809661EA0165601768
B1208144625398N00809658EA0165401766
B1208154625394N00809656EA0165201764
B1208164625389N00809652EA0165001762
B1208174625384N00809649EA0164901761
B1208184625380N00809646EA0164801760
B1208194625376N00809643EA0164701759
B1208204625373N00809639EA0164501757
B1208214625369N00809635EA0164301755
B1208224625366N00809631EA0164101753
B1208234625362N00809627EA0164001752
B1208244625358N00809622EA0163901751
B1208254625354N00809618EA0163801750
B1208264625351N00809614EA0163701749
B1208274625347N00809611EA0163501748
B1208284625343N00809607EA0163401746
B1208294625340N00809603EA0163201744
B1208304625335N00809599EA0163101743
B1208314625332N00809595EA0162901742
B1208324625328N00809592EA0162801741
B1208334625325N00809588EA0162701739
B1208344625321N00809584EA0162601738
B1208354625317N00809580EA0162401736
B1208364625313N00809576EA0162301735
B1208374625310N00809572EA0162201734
B1208384625306N00809568EA0162001733
B1208394625302N00809564EA0161901731
B1208404625298N00809560EA0161701730
B1208414625294N00809556EA0161601728
B1208424625290N00809552EA0161501727
B1208434625286N00809547EA0161401726
B1208444625282N00809543EA0161301725
B1208454625279N00809539EA0161201724
B1208464625275N00809535EA0161001723
B1208474625271N00809531EA0160901721
B1208484625268N00809527EA0160701719
B1208494625264N00809522EA0160601718
B1208504625260N00809518EA0160401717
B1208514625256N00809513EA0160301716
B1208524625253N00809509EA0160201714
B1208534625249N00809505EA0160001713
B1208544625246N00809500EA0159901711
B1208554625242N00809496EA0159701710
B1208564625239N00809492EA0159601708
B1208574625235N00809487EA0159501707
B1208584625231N00809483EA0159301706
B1208594625228N00809479EA0159201704
B1209004625224N00809475EA0159001703
B1209014625221N00809471EA0158901701
B1209024625217N00809466EA0158801700
B1209034625214N00809462EA0158601699
B1209044625210N00809458EA0158501697
B1209054625207N00809454EA0158401696
B1209064625203N00809449EA0158201695
B1209074625199N00809445EA0158101694
B1209084625196N00809441EA0158001692
B1209094625191N00809437EA0157801691
B1209104625188N00809433EA0157701689
B1209114625184N00809429EA0157601688
B1209124625180N00809425EA0157501687
B1209134625176N00809421EA0157301686
B1209144625172N00809417EA0157201684
B1209154625168N00809413EA0157101683
B1209164625164N00809409EA0157001682
B1209174625160N00809405EA0156901681
B1209184625156N00809401EA0156801680
B1209194625152N00809397EA0156701679
B1209204625148N00809394EA0156501678
B1209214625144N00809390EA0156401677
B1209224625140N00809386EA0156301676
B1209234625136N00809383EA0156201675
B1209244625132N00809380EA0156201674
B1209254625128N00809376EA0156101673
B1209264625124N00809372EA0156001672
B1209274625120N00809369EA0155901671
B1209284625116N00809365EA0155801670
B1209294625112N00809362EA0155701669
B1209304625109N00809359EA0155501668
B1209314625105N00809355EA0155401667
B1209324625101N00809351EA0155301665
B1209334625097N00809347EA0155201664
B1209344625093N00809343EA0155101663
B1209354625089N00809339EA0155101663
B1209364625086N00809335EA0155001662
B1209374625082N00809332EA0154901661
B1209384625079N00809328EA0154701660
B1209394625075N00809324EA0154601658
B1209404625071N00809320EA0154401656
B1209414625067N00809316EA0154301655
B1209424625063N00809312EA0154201654
B1209434625059N00809308EA0154101653
B1209444625055N00809304EA0153901652
B1209454625052N00809300EA0153801650
B1209464625047N00809296EA0153701649
B1209474625044N00809292EA0153501648
B1209484625039N00809288EA0153401647
B1209494625036N00809284EA0153301646
B1209504625031N00809279EA0153201644
B1209514625028N00809275EA0153101643
B1209524625024N00809271EA0153001642
B1209534625020N00809267EA0152901641
B1209544625015N00809263EA0152701640
B1209554625012N00809258EA0152501638
B1209564625007N00809254EA0152401636
B1209574625004N00809250EA0152301635
B1209584625000N00809246EA0152001632
B1209594624997N00809241EA0151801631
B1210004624994N00809235EA0151701629
B1210014624992N00809229EA0151501627
B1210024624990N00809223EA0151401626
B1210034624989N00809217EA0151301625
B1210044624988N00809210EA0151201624
B1210054624988N00809204EA0151101624
B1210064624988N00809197EA0151201624
B1210074624988N00809191EA0151201624
B1210084624988N00809184EA0151101623
B1210094624987N00809178EA0150901622
B1210104624987N00809172EA0150901621
B1210114624985N00809166EA0150801620
B1210124624982N00809160EA0150601619
B1210134624980N00809154EA0150501617
B1210144624978N00809147EA0150401616
B1210154624976N00809140EA0150301616
B1210164624974N00809133EA0150301616
B1210174624972N00809127EA0150301615
B1210184624970N00809121EA0150301615
B1210194624968N00809115EA0150201614
B1210204624966N00809109EA0150101613
B1210214624964N00809103EA0150001612
B1210224624963N00809096EA0149901612
B1210234624962N00809089EA0149901611
B1210244624961N00809082EA0149801611
B1210254624961N00809075EA0149801610
B1210264624961N00809067EA0149601609
B1210274624960N00809060EA0149501607
B1210284624960N00809052EA0149401606
B1210294624959N00809045EA0149301605
B1210304624959N00809038EA0149201605
B1210314624959N00809031EA0149101604
B1210324624960N00809023EA0149001603
B1210334624960N00809016EA0148901602
B1210344624961N00809008EA0148801601
B1210354624962N00809001EA0148801600
B1210364624963N00808994EA0148701599
B1210374624963N00808986EA0148601598
B1210384624964N00808979EA0148501597
B1210394624965N00808972EA0148401596
B1210404624966N00808964EA0148301596
B1210414624966N00808956EA0148301595
B1210424624967N00808949EA0148201594
B1210434624968N00808941EA0148101593
B1210444624968N00808934EA0148001593
B1210454624968N00808927EA0147901592
B1210464624969N00808920EA0147801590
B1210474624970N00808912EA0147701589
B1210484624970N00808904EA0147601588
B1210494624971N00808897EA0147501587
B1210504624971N00808889EA0147401586
B1210514624971N00808881EA0147301586
B1210524624971N00808874EA0147201585
B1210534624972N00808866EA0147101584
B1210544624973N00808858EA0147001583
B1210554624974N00808850EA0147001582
B1210564624974N00808842EA0146901581
B1210574624975N00808835EA0146801580
B1210584624976N00808827EA0146701579
B1210594624977N00808820EA0146601578
B1211004624978N00808812EA0146401576
B1211014624979N00808804EA0146301575
B1211024624979N00808796EA0146201574
B1211034624980N00808789EA0146001573
B1211044624981N00808781EA0146001572
B1211054624981N00808773EA0145901571
B1211064624982N00808766EA0145701570
B1211074624983N00808758EA0145601568
B1211084624984N00808750EA0145401567
B1211094624985N00808742EA0145301566
B1211104624986N00808734EA0145201565
B1211114624987N00808727EA0145101564
B1211124624988N00808719EA0145001562
B1211134624990N00808712EA0144901561
B1211144624991N00808704EA0144701560
B1211154624992N00808696EA0144601558
B1211164624993N00808688EA0144501557
B1211174624994N00808680EA0144401556
B1211184624995N00808672EA0144201555
B1211194624996N00808664EA0144101554
B1211204624997N00808657EA0144001553
B1211214624998N00808649EA0143901551
B1211224624999N00808641EA0143801550
B1211234625000N00808633EA0143601549
B1211244625001N00808625EA0143501548
B1211254625003N00808617EA0143401547
B1211264625004N00808609EA0143301545
B1211274625005N00808601EA0143201544
B1211284625007N00808593EA0143101543
B1211294625008N00808586EA0143001542
B1211304625009N00808578EA0142901541
B1211314625011N00808570EA0142701540
B1211324625012N00808562EA0142601538
B1211334625013N00808554EA0142501537
B1211344625014N00808547EA0142401536
B1211354625016N00808539EA0142201535
B1211364625017N00808531EA0142101533
B1211374625019N00808523EA0142001532
B1211384625020N00808515EA0141901531
B1211394625022N00808508EA0141701530
B1211404625024N00808500EA0141601529
B1211414625025N00808493EA0141501527
B1211424625028N00808485EA0141401526
B1211434625029N00808478EA0141201524
B1211444625031N00808470EA0141101523
B1211454625033N00808463EA0141001522
B1211464625035N00808455EA0140801521
B1211474625036N00808448EA0140701519
B1211484625038N00808440EA0140601518
B1211494625039N00808433EA0140501517
B1211504625040N00808425EA0140301516
B1211514625042N00808417EA0140201514
B1211524625044N00808409EA0140101513
B1211534625045N00808401EA0140001512
B1211544625047N00808394EA0139901511
B1211554625049N00808386EA0139801510
B1211564625051N00808379EA0139601509
B1211574625053N00808372EA0139501507
B1211584625055N00808364EA0139401506
B1211594625058N00808357EA0139301505
B1212004625060N00808350EA0139201504
B1212014625062N00808343EA0139101503
B1212024625064N00808335EA0139001502
B1212034625066N00808328EA0138801501
B1212044625068N00808320EA0138801500
B1212054625070N00808313EA0138601499
B1212064625072N00808306EA0138501498
B1212074625074N00808299EA0138501497
B1212084625076N00808291EA0138401496
B1212094625078N00808284EA0138201495
B1212104625079N00808277EA0138101494
B1212114625082N00808270EA0138001493
B1212124625084N00808263EA0137901492
B1212134625086N00808256EA0137801491
B1212144625088N00808248EA0137701490
B1212154625090N00808241EA0137701489
B1212164625092N00808234EA0137501488
B1212174625095N00808227EA0137401487
B1212184625098N00808220EA0137301485
B1212194625100N00808213EA0137201484
B1212204625102N00808206EA0137101483
B1212214625105N00808199EA0137001482
B1212224625107N00808192EA0136901481
B1212234625110N00808186EA0136801480
B1212244625112N00808179EA0136601479
B1212254625114N00808172EA0136501478
B1212264625116N00808165EA0136401477
B1212274625118N00808159EA0136301475
B1212284625120N00808152EA0136201474
B1212294625122N00808146EA0136001472
B1212304625124N00808139EA0135801471
B1212314625126N00808132EA0135701470
B1212324625128N00808125EA0135601469
B1212334625129N00808119EA0135501467
B1212344625131N00808112EA0135401467
B1212354625132N00808106EA0135401466
B1212364625132N00808099EA0135301465
B1212374625132N00808091EA0135201465
B1212384625132N00808084EA0135201464
B1212394625132N00808076EA0135001463
B1212404625132N00808069EA0135001462
B1212414625131N00808062EA0135001463
B1212424625131N00808056EA0135001463
B1212434625130N00808050EA0135001462
B1212444625130N00808044EA0134901461
B1212454625128N00808038EA0134801460
B1212464625127N00808032EA0134701459
B1212474625124N00808026EA0134501458
B1212484625120N00808021EA0134301455
B1212494625116N00808017EA0134101454
B1212504625111N00808015EA0134001453
B1212514625106N00808013EA0134001452
B1212524625101N00808013EA0133901451
B1212534625096N00808013EA0133801450
B1212544625091N00808013EA0133701450
B1212554625086N00808013EA0133701449
B1212564625081N00808013EA0133601448
B1212574625076N00808014EA0133601448
B1212584625072N00808014EA0133601448
B1212594625069N00808014EA0133501447
B1213004625065N00808014EA0133301445
B1213014625061N00808014EA0133101444
B1213024625056N00808014EA0132901441
B1213034625052N00808014EA0132801440
B1213044625047N00808014EA0132601438
B1213054625043N00808014EA0132401437
B1213064625038N00808014EA0132301436
B1213074625034N00808013EA0132201435
B1213084625029N00808013EA0132201434
B1213094625025N00808013EA0132201435
B1213104625021N00808013EA0132301435
B1213114625016N00808014EA0132301436
B1213124625012N00808013EA0132401436
B1213134625007N00808012EA0132501437
B1213144625004N00808010EA0132601438
B1213154625000N00808008EA0132701439
B1213164624997N00808006EA0132701440
B1213174624994N00808003EA0132801440
B1213184624991N00808001EA0132801440
B1213194624988N00807999EA0132801440
B1213204624985N00807998EA0132801440
B1213214624981N00807998EA0132701439
B1213224624978N00808001EA0132701439
B1213234624975N00808005EA0132601438
B1213244624972N00808010EA0132401437
B1213254624971N00808016EA0132401436
B1213264624971N00808023EA0132301435
B1213274624973N00808030EA0132101434
B1213284624976N00808037EA0132101433
B1213294624981N00808042EA0132101433
B1213304624985N00808044EA0132001432
B1213314624990N00808045EA0131901431
B1213324624995N00808044EA0131701430
B1213334625001N00808044EA0131501428
B1213344625006N00808043EA0131401426
B1213354625013N00808042EA0131301425
B1213364625018N00808044EA0131201425
B1213374625024N00808047EA0131101423
B1213384625029N00808051EA0130801421
B1213394625033N00808057EA0130601419
B1213404625036N00808064EA0130501417
B1213414625037N00808071EA0130401416
B1213424625037N00808078EA0130201414
B1213434625035N00808084EA0130101413
B1213444625032N00808088EA0129901411
B1213454625028N00808091EA0129701409
B1213464625025N00808092EA0129501407
B1213474625020N00808091EA0129301405
B1213484625016N00808089EA0129101403
B1213494625012N00808086EA0128901402
B1213504625008N00808083EA0128701400
B1213514625005N00808080EA0128601398
B1213524625000N00808078EA0128301396
B1213534624996N00808075EA0128201394
B1213544624991N00808073EA0128101393
B1213554624987N00808071EA0128101393
B1213564624983N00808068EA0128101393
B1213574624979N00808065EA0128001393
B1213584624976N00808062EA0128001392
B1213594624972N00808059EA0127801391
B1214004624968N00808057EA0127701389
B1214014624965N00808054EA0127501388
B1214024624961N00808052EA0127401386
B1214034624958N00808050EA0127301386
B1214044624954N00808049EA0127201385
B1214054624950N00808048EA0127101383
B1214064624947N00808048EA0126901381
B1214074624942N00808048EA0126701379
B1214084624937N00808047EA0126601378
B1214094624932N00808047EA0126501378
B1214104624928N00808047EA0126501378
B1214114624924N00808047EA0126601378
B1214124624920N00808046EA0126601378
B1214134624916N00808046EA0126501378
B1214144624912N00808046EA0126401376
B1214154624908N00808046EA0126301375
B1214164624903N00808046EA0126201375
B1214174624899N00808047EA0126201375
B1214184624894N00808047EA0126101374
B1214194624890N00808046EA0126101374
B1214204624886N00808045EA0126101374
B1214214624882N00808045EA0126101373
B1214224624878N00808046EA0126001372
B1214234624874N00808046EA0125901372
B1214244624870N00808045EA0125901372
B1214254624866N00808044EA0125901371
B1214264624862N00808043EA0125901371
B1214274624858N00808042EA0125901371
B1214284624855N00808041EA0125901371
B1214294624851N00808040EA0125901372
B1214304624847N00808039EA0126101373
B1214314624844N00808038EA0126201374
B1214324624840N00808036EA0126301375
B1214334624837N00808032EA0126301376
B1214344624835N00808029EA0126301376
B1214354624832N00808025EA0126301375
B1214364624829N00808022EA0126301376
B1214374624826N00808021EA0126201374
B1214384624822N00808020EA0126001373
B1214394624819N00808022EA0125901371
B1214404624816N00808025EA0125701369
B1214414624813N00808030EA0125701369
B1214424624811N00808036EA0125601369
B1214434624812N00808043EA0125501368
B1214444624814N00808050EA0125401366
B1214454624817N00808056EA0125301365
B1214464624822N00808061EA0125201364
B1214474624827N00808064EA0125101363
B1214484624833N00808064EA0125001362
B1214494624839N00808063EA0124901361
B1214504624845N00808061EA0124801360
B1214514624851N00808058EA0124701360
B1214524624856N00808055EA0124601359
B1214534624863N00808053EA0124501358
B1214544624869N00808053EA0124501358
B1214554624875N00808055EA0124501357
B1214564624880N00808059EA0124401356
B1214574624884N00808064EA0124301355
B1214584624886N00808070EA0124201354
B1214594624886N00808077EA0124001352
B1215004624885N00808083EA0123801350
B1215014624883N00808089EA0123601348
B1215024624879N00808092EA0123401346
B1215034624876N00808093EA0123201344
B1215044624871N00808093EA0123001342
B1215054624868N00808091EA0122901341
B1215064624863N00808089EA0122801341
B1215074624860N00808087EA0122701339
B1215084624856N00808085EA0122601338
B1215094624853N00808083EA0122501338
B1215104624849N00808081EA0122401336
B1215114624845N00808079EA0122301335
B1215124624842N00808077EA0122201334
B1215134624838N00808075EA0122101333
B1215144624835N00808073EA0122001332
B1215154624831N00808071EA0122001332
B1215164624827N00808071EA0121901332
B1215174624824N00808070EA0121901331
B1215184624821N00808069EA0121801330
B1215194624817N00808068EA0121701329
B1215204624814N00808066EA0121701330
B1215214624810N00808064EA0121701329
B1215224624806N00808063EA0121701329
B1215234624803N00808062EA0121701329
B1215244624800N00808060EA0121701329
B1215254624795N00808057EA0121601329
B1215264624791N00808055EA0121701330
B1215274624787N00808053EA0121801330
B1215284624783N00808051EA0121901332
B1215294624779N00808049EA0122101333
B1215304624776N00808047EA0122101333
B1215314624773N00808045EA0122101333
B1215324624770N00808042EA0122001333
B1215334624766N00808041EA0121901331
B1215344624762N00808041EA0121701330
B1215354624757N00808040EA0121601329
B1215364624753N00808038EA0121601329
B1215374624748N00808036EA0121701329
B1215384624745N00808034EA0121801330
B1215394624742N00808032EA0121901331
B1215404624740N00808029EA0122001332
B1215414624737N00808026EA0121901332
B1215424624735N00808022EA0121801331
B1215434624732N00808019EA0121801330
B1215444624729N00808017EA0121801330
B1215454624725N00808016EA0121801330
B1215464624722N00808015EA0121801330
B1215474624719N00808013EA0121701329
B1215484624716N00808011EA0121501327
B1215494624713N00808008EA0121401326
B1215504624709N00808006EA0121301326
B1215514624706N00808005EA0121301325
B1215524624702N00808004EA0121201324
B1215534624698N00808003EA0121101323
B1215544624695N00808001EA0121101323
B1215554624692N00807998EA0121101323
B1215564624688N00807995EA0121001323
B1215574624685N00807991EA0121001322
B1215584624682N00807988EA0120901322
B1215594624679N00807986EA0120901321
B1216004624675N00807985EA0120801320
B1216014624671N00807987EA0120701319
B1216024624668N00807990EA0120601318
B1216034624666N00807996EA0120501317
B1216044624665N00808003EA0120401316
B1216054624666N00808011EA0120301315
B1216064624668N00808018EA0120201314
B1216074624672N00808024EA0120101313
B1216084624677N00808030EA0120001312
B1216094624682N00808032EA0119901311
B1216104624688N00808034EA0119801310
B1216114624695N00808035EA0119701309
B1216124624701N00808035EA0119601308
B1216134624707N00808035EA0119501307
B1216144624713N00808035EA0119401307
B1216154624720N00808036EA0119401306
B1216164624726N00808037EA0119301306
B1216174624733N00808038EA0119301305
B1216184624739N00808040EA0119201305
B1216194624745N00808042EA0119201304
B1216204624751N00808044EA0119201304
B1216214624757N00808047EA0119201304
B1216224624763N00808050EA0119101304
B1216234624769N00808054EA0119101304
B1216244624774N00808058EA0119201304
B1216254624778N00808063EA0119101304
B1216264624780N00808070EA0119101303
B1216274624781N00808078EA0118901302
B1216284624781N00808087EA0118701300
B1216294624778N00808094EA0118701300
B1216304624775N00808099EA0118901301
B1216314624772N00808101EA0119001303
B1216324624770N00808101EA0119001303
B1216334624767N00808103EA0119001302
B1216344624764N00808105EA0118801300
B1216354624761N00808108EA0118501298
B1216364624757N00808110EA0118401296
B1216374624753N00808110EA0118201294
B1216384624749N00808110EA0117901292
B1216394624746N00808109EA0117801290
B1216404624742N00808109EA0117601289
B1216414624738N00808108EA0117401287
B1216424624734N00808108EA0117201285
B1216434624730N00808108EA0117001283
B1216444624725N00808107EA0117001282
B1216454624721N00808106EA0117001282
B1216464624718N00808104EA0117001282
B1216474624714N00808104EA0117001282
B1216484624711N00808104EA0116901282
B1216494624707N00808104EA0116801281
B1216504624703N00808104EA0116701279
B1216514624700N00808104EA0116401277
B1216524624695N00808105EA0116301275
B1216534624691N00808105EA0116201274
B1216544624686N00808105EA0116201274
B1216554624682N00808105EA0116101274
B1216564624678N00808104EA0116001272
B1216574624674N00808104EA0115801271
B1216584624670N00808104EA0115701269
B1216594624665N00808104EA0115601268
B1217004624661N00808104EA0115601268
B1217014624657N00808103EA0115601268
B1217024624653N00808101EA0115501268
B1217034624649N00808100EA0115501267
B1217044624645N00808099EA0115501267
B1217054624641N00808097EA0115501268
B1217064624638N00808096EA0115401267
B1217074624633N00808096EA0115401266
B1217084624629N00808095EA0115201265
B1217094624625N00808094EA0115201264
B1217104624621N00808094EA0115101263
B1217114624617N00808093EA0115001263
B1217124624613N00808093EA0115001262
B1217134624609N00808092EA0114901261
B1217144624605N00808091EA0114801260
B1217154624600N00808090EA0114701259
B1217164624596N00808089EA0114601258
B1217174624592N00808088EA0114501258
B1217184624588N00808086EA0114501257
B1217194624584N00808085EA0114301256
B1217204624580N00808084EA0114201255
B1217214624575N00808084EA0114101253
B1217224624571N00808084EA0114001253
B1217234624567N00808083EA0114001252
B1217244624562N00808083EA0113901252
B1217254624559N00808082EA0113901251
B1217264624555N00808082EA0113901251
B1217274624551N00808082EA0113701250
B1217284624548N00808081EA0113601248
B1217294624544N00808080EA0113501247
B1217304624540N00808079EA0113301246
B1217314624535N00808078EA0113301245
B1217324624532N00808078EA0113301245
B1217334624528N00808077EA0113301245
B1217344624525N00808076EA0113301245
B1217354624521N00808075EA0113201244
B1217364624517N00808074EA0113201244
B1217374624514N00808073EA0113101243
B1217384624510N00808072EA0113101243
B1217394624507N00808071EA0113101243
B1217404624503N00808070EA0113001243
B1217414624499N00808068EA0113001242
B1217424624496N00808067EA0112901241
B1217434624492N00808065EA0112801241
B1217444624489N00808064EA0112801240
B1217454624486N00808062EA0112701240
B1217464624482N00808060EA0112601238
B1217474624479N00808058EA0112501237
B1217484624475N00808057EA0112301235
B1217494624470N00808055EA0112201234
B1217504624466N00808054EA0112101233
B1217514624462N00808053EA0112101233
B1217524624459N00808052EA0112001232
B1217534624456N00808051EA0111901231
B1217544624452N00808050EA0111801230
B1217554624448N00808048EA0111701230
B1217564624445N00808047EA0111701230
B1217574624441N00808047EA0111701230
B1217584624437N00808047EA0111701230
B1217594624434N00808049EA0111701229
B1218004624430N00808051EA0111601229
B1218014624427N00808055EA0111501228
B1218024624424N00808058EA0111501227
B1218034624421N00808062EA0111401226
B1218044624418N00808066EA0111301225
B1218054624415N00808071EA0111201224
B1218064624412N00808076EA0111101223
B1218074624410N00808081EA0111001222
B1218084624408N00808086EA0110901221
B1218094624405N00808091EA0110701220
B1218104624403N00808096EA0110601219
B1218114624400N00808101EA0110501217
B1218124624398N00808108EA0110301215
B1218134624397N00808116EA0110201215
B1218144624396N00808122EA0110201214
B1218154624395N00808128EA0110101214
B1218164624396N00808135EA0110001213
B1218174624397N00808142EA0109801211
B1218184624398N00808150EA0109701209
B1218194624399N00808158EA0109601208
B1218204624401N00808165EA0109501207
B1218214624402N00808173EA0109401206
B1218224624404N00808180EA0109301205
B1218234624405N00808187EA0109101203
B1218244624407N00808194EA0108901202
B1218254624409N00808202EA0108801200
B1218264624412N00808210EA0108601198
B1218274624415N00808217EA0108401197
B1218284624417N00808224EA0108301195
B1218294624420N00808231EA0108101193
B1218304624423N00808238EA0107901191
B1218314624426N00808245EA0107701189
B1218324624429N00808252EA0107501188
B1218334624433N00808259EA0107301186
B1218344624436N00808266EA0107201184
B1218354624439N00808274EA0107001182
B1218364624443N00808282EA0106801181
B1218374624446N00808290EA0106701180
B1218384624449N00808297EA0106601178
B1218394624452N00808305EA0106501177
B1218404624457N00808311EA0106301175
B1218414624461N00808318EA0106101173
B1218424624466N00808325EA0105901171
B1218434624470N00808332EA0105701169
B1218444624476N00808338EA0105501168
B1218454624481N00808344EA0105401166
B1218464624486N00808350EA0105201164
B1218474624492N00808356EA0105001162
B1218484624499N00808362EA0104801160
B1218494624504N00808368EA0104501158
B1218504624510N00808374EA0104401157
B1218514624515N00808380EA0104301155
B1218524624521N00808385EA0104101153
B1218534624526N00808391EA0103901151
B1218544624532N00808395EA0103701149
B1218554624538N00808400EA0103601148
B1218564624543N00808403EA0103501147
B1218574624549N00808406EA0103401146
B1218584624554N00808408EA0103201145
B1218594624560N00808410EA0103101143
B1219004624566N00808411EA0102801141
B1219014624572N00808413EA0102601139
B1219024624578N00808414EA0102501137
B1219034624584N00808414EA0102301135
B1219044624589N00808413EA0102101134
B1219054624594N00808411EA0101901131
B1219064624600N00808409EA0101601129
B1219074624605N00808406EA0101401126
B1219084624610N00808403EA0101301125
B1219094624615N00808399EA0101101124
B1219104624619N00808394EA0101001123
B1219114624623N00808389EA0100901122
B1219124624625N00808384EA0100801120
B1219134624627N00808379EA0100701119
B1219144624629N00808373EA0100501118
B1219154624630N00808368EA0100401116
B1219164624632N00808362EA0100301115
B1219174624633N00808357EA0100101113
B1219184624633N00808351EA0100001112
B1219194624634N00808346EA0099901111
B1219204624634N00808341EA0099801110
B1219214624634N00808337EA0099701109
B1219224624634N00808332EA0099501108
B1219234624633N00808328EA0099401107
B1219244624633N00808323EA0099301105
B1219254624632N00808318EA0099101104
B1219264624632N00808312EA0099101103
B1219274624632N00808307EA0099001103
B1219284624632N00808303EA0099001103
B1219294624632N00808298EA0098901102
B1219304624631N00808294EA0098801101
B1219314624630N00808291EA0098601099
B1219324624627N00808290EA0098401097
B1219334624623N00808289EA0098301096
B1219344624621N00808288EA0098301095
B1219354624619N00808286EA0098301096
B1219364624617N00808285EA0098301095
B1219374624615N00808284EA0098201094
B1219384624613N00808282EA0098001092
B1219394624611N00808281EA0097801091
B1219404624608N00808279EA0097701089
B1219414624606N00808278EA0097501088
B1219424624604N00808276EA0097401086
B1219434624602N00808274EA0097301085
B1219444624599N00808272EA0097101083
B1219454624597N00808270EA0096901081
B1219464624594N00808267EA0096701079
B1219474624591N00808265EA0096501077
B1219484624587N00808262EA0096301075
B1219494624584N00808260EA0096201074
B1219504624580N00808259EA0096201074
B1219514624578N00808258EA0096201074
B1219524624575N00808257EA0096101073
B1219534624572N00808255EA0095901072
B1219544624570N00808251EA0095701070
B1219554624567N00808248EA0095601068
B1219564624565N00808245EA0095501067
B1219574624563N00808242EA0095401067
B1219584624561N00808239EA0095401066
B1219594624560N00808236EA0095401066
B1220004624560N00808234EA0095401067
B1220014624560N00808233EA0095501067
B1220024624560N00808233EA0095501067
B1220034624560N00808233EA0095401067
B1220044624561N00808232EA0095401067
B1220054624561N00808232EA0095501067
B1220064624561N00808232EA0095501067
B1220074624561N00808232EA0095501067
B1220084624561N00808233EA0095501067
B1220094624561N00808233EA0095501067
B1220104624561N00808232EA0095501067
B1220114624561N00808232EA0095501067
B1220124624561N00808232EA0095501067
B1220134624561N00808232EA0095501067
B1220144624561N00808231EA0095501067
B1220154624561N00808231EA0095501067
B1220164624561N00808230EA0095501067
B1220174624561N00808230EA0095501067
B1220184624561N00808229EA0095501067
B1220194624561N00808229EA0095501067
B1220204624561N00808229EA0095501067
B1220214624562N00808229EA0095501067
B1220224624562N00808229EA0095501067
B1220234624562N00808229EA0095501067
B1220244624562N00808229EA0095501067
B1220254624562N00808229EA0095501067
B1220264624562N00808229EA0095501067
B1220274624562N00808229EA0095501067
B1220284624562N00808229EA0095501067
B1220294624562N00808229EA0095501067
B1220304624562N00808229EA0095501067
B1220314624562N00808228EA0095501067
B1220324624562N00808228EA0095501067
B1220334624561N00808228EA0095501067
B1220344624561N00808227EA0095501067
B1220354624561N00808227EA0095501067
B1220364624561N00808227EA0095501067
B1220374624561N00808227EA0095501067
B1220384624561N00808228EA0095501067
B1220394624561N00808228EA0095501067
B1220404624561N00808228EA0095501067
B1220414624561N00808229EA0095501067
B1220424624561N00808230EA0095501067
B1220434624561N00808230EA0095501067
B1220444624561N00808230EA0095501067
B1220454624560N00808229EA0095501067
B1220464624560N00808229EA0095501067
B1220474624560N00808228EA0095501067
B1220484624560N00808228EA0095501067
B1220494624560N00808228EA0095501067
B1220504624560N00808228EA0095501067
B1220514624560N00808227EA0095501067
B1220524624560N00808227EA0095501067
B1220534624560N00808227EA0095501067
B1220544624560N00808227EA0095501067
B1220554624560N00808227EA0095401067
B1220564624560N00808227EA0095501067
B1220574624560N00808227EA0095501067
B1220584624560N00808227EA0095501067
B1220594624560N00808227EA0095501067
B1221004624560N00808227EA0095501067
B1221014624560N00808227EA0095501067
B1221024624559N00808227EA0095501067
B1221034624559N00808226EA0095401067
B1221044624559N00808226EA0095501067
B1221054624559N00808226EA0095501067
B1221064624559N00808226EA0095401067
B1221074624559N00808226EA0095401067
B1221084624559N00808226EA0095401067
B1221094624559N00808226EA0095401067
B1221104624559N00808226EA0095401067
B1221114624559N00808226EA0095401067
B1221124624559N00808226EA0095501067
B1221134624559N00808226EA0095501067
B1221144624559N00808226EA0095401067
B1221154624559N00808226EA0095401067
B1221164624558N00808225EA0095401067
B1221174624558N00808225EA0095401067
B1221184624559N00808224EA0095501067
B1221194624558N00808224EA0095401067
B1221204624558N00808223EA0095401066
B1221214624558N00808223EA0095401066
B1221224624558N00808222EA0095401066
B1221234624558N00808222EA0095401067
B1221244624558N00808221EA0095401067
B1221254624558N00808220EA0095401067
B1221264624559N00808220EA0095401067
B1221274624559N00808220EA0095401067
B1221284624559N00808220EA0095401067
B1221294624559N00808220EA0095401067
B1221304624559N00808221EA0095401067
B1221314624559N00808222EA0095401067
B1221324624559N00808222EA0095401067
B1221334624559N00808223EA0095401067
B1221344624559N00808223EA0095401067
B1221354624559N00808223EA0095401067
B1221364624559N00808223EA0095401067
B1221374624559N00808223EA0095401067
B1221384624559N00808223EA0095401067
B1221394624559N00808223EA0095401067
B1221404624559N00808223EA0095401067
B1221414624559N00808223EA0095401067
B1221424624559N00808223EA0095401067
B1221434624559N00808223EA0095401067
B1221444624559N00808223EA0095401067
B1221454624559N00808223EA0095401067
B1221464624559N00808223EA0095401067
B1221474624559N00808223EA0095401067
B1221484624559N00808223EA0095401067
B1221494624559N00808223EA0095401067
B1221504624559N00808223EA0095401067
B1221514624560N00808223EA0095401067
B1221524624560N00808223EA0095401067
B1221534624560N00808223EA0095401067
B1221544624560N00808223EA0095401067
B1221554624560N00808223EA0095401067
B1221564624560N00808223EA0095401067
LXSX;C1;GM:1.2
LXSX;S1;TS:1731325242;TL:1731327716;AS:2238;AL:1067;AT:2494;AB:1066
LXSX;S1;XS:2;XD:9.16;SP:44.4;MC:2.1;MS:-2.0;NB:2476
LXSX;S1;FL:21.8;TG:379;TC:0.6;AG:630;GM:1.2
LXSX;S1;X0:46.42487,8.11868
LXSX;S1;X1:46.42691,8.11483
LXSX;S1;X2:46.43747,8.17295
LXSX;S1;X3:46.41602,8.15013
LXSX;S1;X4:46.41818,8.13355
G04E01FB2D39A5477BF0CAF7D8C574DE0
