AXSX005 SKYTRAXX
HFPLTPILOT:Sepp Bucher
HFGTYGLIDERTYPE:Niviuk Artik R
HFDTM100GPSDATUM:WGS-84
HFRFWFIRMWAREVERSION:202409121359
HFRHWHARDWAREVERSION:4.0
HFTZNTIMEZONE:+2.00
HFSITSITE:St Andre-les-Alpes_(Sa
HFDTE091024
LXSX;I1;OAB:20240906;OOB:20241001
LXSX;I1;ID:114075
LXSX;I1;AC:1;CAT:C
B0846204358634N00629493EA0155001549
B0846214358634N00629493EA0155001549
B0846224358634N00629493EA0155001549
B0846234358634N00629493EA0155001549
B0846244358634N00629493EA0155001549
B0846254358634N00629493EA0155001549
B0846264358634N00629493EA0155001549
B0846274358634N00629493EA0155001549
B0846284358634N00629493EA0155001549
B0846294358634N00629493EA0155001549
B0846304358634N00629493EA0155001549
B0846314358634N00629494EA0154901548
B0846324358634N00629495EA0154901548
B0846334358634N00629496EA0154901548
B0846344358633N00629497EA0154901548
B0846354358633N00629499EA0154801547
B0846364358633N00629502EA0154701546
B0846374358632N00629505EA0154601546
B0846384358632N00629509EA0154501544
B0846394358631N00629513EA0154401543
B0846404358630N00629517EA0154201542
B0846414358629N00629523EA0154001539
B0846424358628N00629528EA0153801537
B0846434358628N00629535EA0153901538
B0846444358627N00629541EA0153901538
B0846454358625N00629548EA0153701536
B0846464358623N00629555EA0153701536
B0846474358620N00629561EA0153501534
B0846484358616N00629567EA0153501534
B0846494358612N00629572EA0153501534
B0846504358609N00629576EA0153501534
B0846514358605N00629580EA0153401533
B0846524358599N00629583EA0153201531
B0846534358594N00629585EA0152901528
B0846544358587N00629587EA0152701526
B0846554358580N00629589EA0152601525
B0846564358575N00629591EA0152701526
B0846574358569N00629592EA0152701526
B0846584358563N00629593EA0152601525
B0846594358558N00629594EA0152501524
B0847004358552N00629595EA0152401523
B0847014358547N00629596EA0152301522
B0847024358541N00629597EA0152101520
B0847034358535N00629598EA0151901518
B0847044358529N00629600EA0151701516
B0847054358522N00629601EA0151501514
B0847064358516N00629603EA0151301512
B0847074358510N00629604EA0151201511
B0847084358504N00629606EA0151001509
B0847094358498N00629607EA0150901507
B0847104358492N00629608EA0150601505
B0847114358485N00629609EA0150401503
B0847124358478N00629610EA0150201500
B0847134358472N00629612EA0150101500
B0847144358465N00629612EA0150001499
B0847154358459N00629613EA0150001499
B0847164358453N00629613EA0149901497
B0847174358447N00629614EA0149701495
B0847184358440N00629615EA0149501494
B0847194358434N00629616EA0149301492
B0847204358427N00629616EA0149301491
B0847214358421N00629615EA0149201491
B0847224358415N00629615EA0149101489
B0847234358409N00629616EA0148901488
B0847244358402N00629616EA0148801486
B0847254358396N00629616EA0148701485
B0847264358390N00629615EA0148601485
B0847274358384N00629613EA0148601484
B0847284358378N00629613EA0148501483
B0847294358372N00629612EA0148301482
B0847304358366N00629611EA0148201481
B0847314358360N00629610EA0148101480
B0847324358353N00629609EA0148001479
B0847334358347N00629607EA0148001478
B0847344358342N00629605EA0147901478
B0847354358335N00629603EA0147801477
B0847364358329N00629600EA0147701476
B0847374358323N00629596EA0147601475
B0847384358317N00629593EA0147501474
B0847394358311N00629589EA0147501474
B0847404358305N00629586EA0147501474
B0847414358299N00629581EA0147501473
B0847424358294N00629577EA0147301472
B0847434358288N00629573EA0147201470
B0847444358282N00629570EA0147001469
B0847454358276N00629567EA0146901468
B0847464358270N00629564EA0146801467
B0847474358264N00629561EA0146701466
B0847484358258N00629559EA0146501464
B0847494358251N00629556EA0146401462
B0847504358244N00629553EA0146201460
B0847514358238N00629550EA0146001458
B0847524358231N00629546EA0145901457
B0847534358225N00629543EA0145701456
B0847544358219N00629539EA0145501453
B0847554358213N00629534EA0145301451
B0847564358207N00629530EA0145001449
B0847574358201N00629525EA0144801446
B0847584358195N00629521EA0144601444
B0847594358189N00629516EA0144301441
B0848004358183N00629511EA0144101439
B0848014358177N00629507EA0143801436
B0848024358170N00629502EA0143501433
B0848034358163N00629497EA0143201430
B0848044358155N00629492EA0142901427
B0848054358148N00629488EA0142701424
B0848064358141N00629485EA0142501423
B0848074358133N00629482EA0142301421
B0848084358126N00629480EA0142001418
B0848094358118N00629478EA0141801416
B0848104358111N00629476EA0141501413
B0848114358103N00629474EA0141201410
B0848124358095N00629475EA0141001408
B0848134358087N00629476EA0140901407
B0848144358080N00629477EA0140801405
B0848154358074N00629478EA0140601404
B0848164358067N00629479EA0140501402
B0848174358061N00629481EA0140201400
B0848184358055N00629484EA0140001397
B0848194358049N00629488EA0139801395
B0848204358044N00629492EA0139501393
B0848214358038N00629496EA0139301391
B0848224358034N00629500EA0139101389
B0848234358030N00629505EA0138901386
B0848244358026N00629510EA0138601383
B0848254358022N00629515EA0138301381
B0848264358018N00629520EA0138001378
B0848274358014N00629526EA0137801375
B0848284358010N00629531EA0137501373
B0848294358007N00629536EA0137301370
B0848304358004N00629542EA0137001367
B0848314358002N00629548EA0136701364
B0848324358000N00629554EA0136401361
B0848334357998N00629560EA0136101358
B0848344357996N00629566EA0135901356
B0848354357994N00629572EA0135601354
B0848364357993N00629578EA0135401351
B0848374357991N00629585EA0135201349
B0848384357989N00629591EA0134901346
B0848394357987N00629597EA0134701344
B0848404357985N00629603EA0134401341
B0848414357983N00629609EA0134201339
B0848424357981N00629615EA0134001336
B0848434357979N00629621EA0133701334
B0848444357976N00629627EA0133501332
B0848454357974N00629634EA0133301330
B0848464357973N00629640EA0133101328
B0848474357970N00629647EA0132901326
B0848484357969N00629653EA0132701324
B0848494357967N00629659EA0132601322
B0848504357964N00629665EA0132401320
B0848514357963N00629671EA0132201318
B0848524357961N00629678EA0131901316
B0848534357959N00629684EA0131701314
B0848544357957N00629690EA0131501312
B0848554357954N00629697EA0131301309
B0848564357952N00629703EA0131001307
B0848574357950N00629710EA0130801305
B0848584357947N00629716EA0130601303
B0848594357944N00629722EA0130501301
B0849004357941N00629728EA0130301300
B0849014357938N00629734EA0130201298
B0849024357936N00629740EA0130001296
B0849034357933N00629746EA0129801294
B0849044357930N00629752EA0129501292
B0849054357928N00629759EA0129301290
B0849064357925N00629765EA0129201288
B0849074357923N00629771EA0129001286
B0849084357920N00629777EA0129001286
B0849094357917N00629783EA0128801284
B0849104357913N00629788EA0128301279
B0849114357909N00629793EA0128101277
B0849124357905N00629799EA0127901275
B0849134357901N00629804EA0127701273
B0849144357896N00629809EA0127601272
B0849154357891N00629813EA0127701273
B0849164357886N00629817EA0127701273
B0849174357881N00629821EA0127601272
B0849184357876N00629826EA0127401271
B0849194357872N00629831EA0127301269
B0849204357867N00629836EA0127201268
B0849214357860N00629840EA0127001266
B0849224357855N00629844EA0126901265
B0849234357850N00629849EA0126801264
B0849244357845N00629854EA0126701263
B0849254357840N00629858EA0126601262
B0849264357835N00629862EA0126401260
B0849274357829N00629866EA0126201258
B0849284357824N00629871EA0126001256
B0849294357818N00629876EA0125901255
B0849304357812N00629881EA0125801253
B0849314357806N00629885EA0125601252
B0849324357801N00629888EA0125501251
B0849334357796N00629893EA0125401249
B0849344357791N00629897EA0125201248
B0849354357786N00629902EA0124901245
B0849364357780N00629906EA0124701242
B0849374357774N00629912EA0124501241
B0849384357770N00629917EA0124401239
B0849394357765N00629923EA0124301239
B0849404357761N00629928EA0124201237
B0849414357756N00629934EA0124001235
B0849424357751N00629939EA0123801233
B0849434357747N00629945EA0123601231
B0849444357743N00629952EA0123401230
B0849454357738N00629958EA0123301228
B0849464357734N00629964EA0123201227
B0849474357730N00629970EA0123001226
B0849484357726N00629976EA0122901224
B0849494357722N00629983EA0122701222
B0849504357717N00629989EA0122601221
B0849514357713N00629995EA0122501220
B0849524357708N00630001EA0122401219
B0849534357704N00630007EA0122201217
B0849544357700N00630013EA0122001215
B0849554357696N00630019EA0121801213
B0849564357691N00630025EA0121701212
B0849574357687N00630031EA0121501210
B0849584357683N00630037EA0121401209
B0849594357679N00630043EA0121301208
B0850004357675N00630048EA0121101206
B0850014357670N00630054EA0121001204
B0850024357666N00630060EA0120801203
B0850034357662N00630066EA0120701202
B0850044357658N00630072EA0120601201
B0850054357654N00630078EA0120501199
B0850064357650N00630084EA0120301198
B0850074357646N00630090EA0120201196
B0850084357643N00630096EA0120001195
B0850094357639N00630102EA0119901193
B0850104357635N00630108EA0119701192
B0850114357632N00630114EA0119601190
B0850124357628N00630121EA0119401189
B0850134357624N00630127EA0119301187
B0850144357620N00630133EA0119101186
B0850154357616N00630140EA0119001184
B0850164357613N00630146EA0118801183
B0850174357608N00630152EA0118701181
B0850184357605N00630159EA0118501180
B0850194357601N00630166EA0118401178
B0850204357597N00630172EA0118301177
B0850214357594N00630179EA0118201176
B0850224357591N00630185EA0118101175
B0850234357587N00630192EA0118001175
B0850244357584N00630198EA0117901173
B0850254357581N00630205EA0117801172
B0850264357578N00630212EA0117701171
B0850274357575N00630218EA0117601170
B0850284357572N00630225EA0117501169
B0850294357571N00630231EA0117301168
B0850304357571N00630238EA0117201166
B0850314357571N00630244EA0117101165
B0850324357571N00630250EA0116901164
B0850334357571N00630256EA0116801162
B0850344357572N00630261EA0116701161
B0850354357573N00630266EA0116601160
B0850364357575N00630270EA0116501159
B0850374357577N00630274EA0116401158
B0850384357579N00630278EA0116201156
B0850394357581N00630281EA0116101155
B0850404357584N00630284EA0115901153
B0850414357587N00630286EA0115701151
B0850424357591N00630289EA0115601150
B0850434357594N00630292EA0115401149
B0850444357597N00630293EA0115401148
B0850454357599N00630295EA0115301147
B0850464357602N00630296EA0115201146
B0850474357605N00630298EA0115101145
B0850484357608N00630299EA0115001144
B0850494357611N00630301EA0114901143
B0850504357614N00630302EA0114901143
B0850514357617N00630304EA0114801142
B0850524357619N00630305EA0114701141
B0850534357622N00630305EA0114501139
B0850544357626N00630304EA0114301137
B0850554357629N00630304EA0114101135
B0850564357632N00630303EA0114001134
B0850574357635N00630304EA0113901133
B0850584357638N00630304EA0113801132
B0850594357641N00630303EA0113701131
B0851004357644N00630303EA0113501129
B0851014357648N00630301EA0113301127
B0851024357651N00630299EA0113101125
B0851034357655N00630297EA0112901123
B0851044357659N00630294EA0112801122
B0851054357663N00630291EA0112701121
B0851064357666N00630288EA0112601120
B0851074357671N00630285EA0112601119
B0851084357674N00630279EA0112601120
B0851094357678N00630273EA0112601120
B0851104357681N00630266EA0112701120
B0851114357683N00630260EA0112701120
B0851124357686N00630253EA0112601120
B0851134357688N00630246EA0112601120
B0851144357690N00630237EA0112601119
B0851154357690N00630228EA0112501119
B0851164357690N00630220EA0112501119
B0851174357689N00630211EA0112401118
B0851184357688N00630202EA0112401117
B0851194357687N00630194EA0112301117
B0851204357686N00630185EA0112201116
B0851214357683N00630176EA0112001114
B0851224357680N00630167EA0112001113
B0851234357677N00630159EA0111801112
B0851244357674N00630151EA0111801112
B0851254357669N00630143EA0111701111
B0851264357664N00630137EA0111501109
B0851274357659N00630131EA0111401108
B0851284357652N00630127EA0111401108
B0851294357646N00630124EA0111301107
B0851304357640N00630124EA0111301106
B0851314357634N00630126EA0111301107
B0851324357629N00630130EA0111301107
B0851334357626N00630134EA0111101105
B0851344357622N00630138EA0111001104
B0851354357619N00630144EA0110801102
B0851364357618N00630151EA0110601100
B0851374357616N00630158EA0110401098
B0851384357616N00630165EA0110301096
B0851394357615N00630172EA0110201096
B0851404357615N00630178EA0110201096
B0851414357615N00630184EA0110101095
B0851424357615N00630189EA0109901093
B0851434357616N00630195EA0109801092
B0851444357618N00630200EA0109601090
B0851454357621N00630204EA0109401088
B0851464357625N00630208EA0109301087
B0851474357629N00630209EA0109301086
B0851484357633N00630210EA0109201086
B0851494357637N00630208EA0109001084
B0851504357641N00630205EA0108901083
B0851514357646N00630199EA0108701081
B0851524357649N00630192EA0108701080
B0851534357651N00630184EA0108701081
B0851544357650N00630177EA0108701081
B0851554357649N00630169EA0108601080
B0851564357646N00630162EA0108501078
B0851574357643N00630155EA0108301077
B0851584357637N00630149EA0108201075
B0851594357632N00630145EA0108101074
B0852004357626N00630143EA0108001074
B0852014357621N00630143EA0108101074
B0852024357616N00630143EA0108001074
B0852034357610N00630143EA0107901073
B0852044357606N00630144EA0107801072
B0852054357601N00630146EA0107601070
B0852064357597N00630151EA0107401068
B0852074357594N00630157EA0107301067
B0852084357592N00630163EA0107201065
B0852094357591N00630169EA0107101064
B0852104357591N00630176EA0106901063
B0852114357592N00630182EA0106801062
B0852124357593N00630187EA0106601059
B0852134357596N00630192EA0106401058
B0852144357599N00630197EA0106201056
B0852154357604N00630200EA0106101055
B0852164357608N00630203EA0106001054
B0852174357613N00630207EA0105801052
B0852184357617N00630210EA0105701051
B0852194357621N00630214EA0105601050
B0852204357626N00630218EA0105601050
B0852214357631N00630221EA0105501049
B0852224357636N00630225EA0105401048
B0852234357641N00630227EA0105501048
B0852244357647N00630230EA0105401048
B0852254357652N00630232EA0105401048
B0852264357657N00630235EA0105401048
B0852274357662N00630238EA0105401048
B0852284357666N00630241EA0105301047
B0852294357671N00630242EA0105201046
B0852304357676N00630243EA0105101044
B0852314357681N00630244EA0104801042
B0852324357687N00630245EA0104601040
B0852334357693N00630248EA0104401038
B0852344357698N00630252EA0104301037
B0852354357703N00630256EA0104301036
B0852364357708N00630260EA0104301037
B0852374357712N00630264EA0104301037
B0852384357716N00630268EA0104201036
B0852394357720N00630271EA0104101035
B0852404357725N00630273EA0104001034
B0852414357729N00630276EA0103901033
B0852424357732N00630278EA0103801032
B0852434357736N00630281EA0103701031
B0852444357740N00630284EA0103601029
B0852454357744N00630287EA0103401028
B0852464357747N00630289EA0103401028
B0852474357751N00630292EA0103301027
B0852484357753N00630297EA0103201025
B0852494357755N00630302EA0103001024
B0852504357757N00630308EA0102801022
B0852514357757N00630314EA0102701021
B0852524357757N00630320EA0102601020
B0852534357754N00630325EA0102401018
B0852544357751N00630329EA0102201016
B0852554357746N00630331EA0102001013
B0852564357740N00630331EA0101701011
B0852574357735N00630329EA0101501009
B0852584357729N00630326EA0101401008
B0852594357725N00630324EA0101401008
B0853004357721N00630322EA0101401008
B0853014357716N00630320EA0101201006
B0853024357712N00630317EA0101001004
B0853034357707N00630314EA0100701001
B0853044357702N00630310EA0100600999
B0853054357697N00630307EA0100500999
B0853064357692N00630304EA0100500998
B0853074357688N00630300EA0100400998
B0853084357684N00630297EA0100300997
B0853094357679N00630293EA0100100995
B0853104357675N00630289EA0100000993
B0853114357670N00630285EA0099800992
B0853124357666N00630280EA0099700990
B0853134357662N00630276EA0099600990
B0853144357657N00630273EA0099500989
B0853154357653N00630270EA0099400988
B0853164357648N00630266EA0099300986
B0853174357644N00630262EA0099100985
B0853184357639N00630259EA0099100985
B0853194357634N00630256EA0099100985
B0853204357630N00630254EA0099100985
B0853214357625N00630252EA0099000984
B0853224357621N00630249EA0098900983
B0853234357616N00630247EA0098800982
B0853244357611N00630246EA0098700981
B0853254357606N00630247EA0098700981
B0853264357602N00630250EA0098700980
B0853274357598N00630253EA0098600980
B0853284357594N00630258EA0098500979
B0853294357592N00630264EA0098500978
B0853304357591N00630270EA0098400978
B0853314357591N00630277EA0098300977
B0853324357592N00630285EA0098200976
B0853334357595N00630292EA0098100975
B0853344357599N00630297EA0098100975
B0853354357603N00630302EA0098100975
B0853364357609N00630305EA0098100975
B0853374357614N00630307EA0098000974
B0853384357620N00630308EA0097900973
B0853394357626N00630310EA0097800972
B0853404357632N00630312EA0097700971
B0853414357637N00630315EA0097700971
B0853424357642N00630317EA0097800972
B0853434357647N00630319EA0097800971
B0853444357652N00630321EA0097700970
B0853454357656N00630324EA0097500969
B0853464357659N00630329EA0097300967
B0853474357662N00630335EA0097100964
B0853484357662N00630343EA0096900963
B0853494357660N00630350EA0096700961
B0853504357657N00630355EA0096700960
B0853514357654N00630358EA0096600960
B0853524357650N00630361EA0096500959
B0853534357646N00630362EA0096300957
B0853544357641N00630364EA0096100955
B0853554357637N00630366EA0096000953
B0853564357632N00630368EA0095800952
B0853574357627N00630369EA0095800952
B0853584357623N00630371EA0095700951
B0853594357618N00630371EA0095600950
B0854004357614N00630372EA0095600950
B0854014357610N00630372EA0095500949
B0854024357606N00630372EA0095400948
B0854034357602N00630372EA0095300947
B0854044357598N00630373EA0095200946
B0854054357594N00630376EA0095100945
B0854064357591N00630380EA0095000944
B0854074357589N00630386EA0094900943
B0854084357589N00630392EA0094700941
B0854094357590N00630398EA0094700941
B0854104357592N00630404EA0094700940
B0854114357594N00630409EA0094600940
B0854124357598N00630413EA0094500938
B0854134357602N00630416EA0094300937
B0854144357606N00630420EA0094100935
B0854154357610N00630424EA0093900933
B0854164357613N00630429EA0093800931
B0854174357614N00630436EA0093500929
B0854184357613N00630443EA0093300927
B0854194357610N00630449EA0093100925
B0854204357606N00630453EA0093100924
B0854214357602N00630456EA0093100925
B0854224357600N00630460EA0093000924
B0854234357598N00630464EA0092900923
B0854244357595N00630469EA0092700920
B0854254357593N00630474EA0092400918
B0854264357589N00630479EA0092200915
B0854274357586N00630485EA0091900913
B0854284357583N00630491EA0091800912
B0854294357581N00630497EA0091800912
B0854304357578N00630503EA0091700911
B0854314357576N00630509EA0091700911
B0854324357573N00630515EA0091600910
B0854334357571N00630521EA0091500909
B0854344357569N00630527EA0091400908
B0854354357567N00630534EA0091300907
B0854364357565N00630540EA0091200906
B0854374357563N00630545EA0091200906
B0854384357561N00630549EA0091200906
B0854394357559N00630554EA0091100904
B0854404357557N00630560EA0090800902
B0854414357555N00630566EA0090600900
B0854424357553N00630573EA0090500898
B0854434357551N00630578EA0090400898
B0854444357549N00630583EA0090500899
B0854454357547N00630587EA0090400898
B0854464357545N00630591EA0090200896
B0854474357543N00630595EA0089800892
B0854484357540N00630600EA0089600890
B0854494357537N00630606EA0089500889
B0854504357534N00630611EA0089500889
B0854514357532N00630615EA0089600890
B0854524357531N00630618EA0089600890
B0854534357530N00630621EA0089600890
B0854544357529N00630623EA0089700891
B0854554357529N00630624EA0089700891
B0854564357529N00630624EA0089700891
B0854574357529N00630625EA0089700891
B0854584357529N00630625EA0089700891
B0854594357529N00630626EA0089700891
B0855004357529N00630626EA0089700891
B0855014357529N00630626EA0089700891
B0855024357529N00630626EA0089700891
B0855034357529N00630626EA0089700891
B0855044357529N00630626EA0089700891
B0855054357529N00630626EA0089700891
B0855064357529N00630626EA0089700891
B0855074357529N00630626EA0089700891
B0855084357529N00630626EA0089700891
B0855094357529N00630626EA0089700891
B0855104357529N00630626EA0089700891
B0855114357529N00630626EA0089700891
B0855124357529N00630626EA0089700891
B0855134357529N00630626EA0089700891
B0855144357529N00630626EA0089700891
B0855154357529N00630626EA0089700891
B0855164357529N00630626EA0089700891
B0855174357529N00630626EA0089700891
B0855184357529N00630626EA0089700891
B0855194357529N00630626EA0089700891
B0855204357529N00630626EA0089700891
B0855214357529N00630626EA0089700891
B0855224357529N00630626EA0089700891
B0855234357529N00630626EA0089700891
B0855244357529N00630626EA0089700890
B0855254357529N00630626EA0089700891
B0855264357529N00630626EA0089700890
B0855274357529N00630626EA0089700890
B0855284357529N00630626EA0089700890
B0855294357529N00630626EA0089700890
B0855304357529N00630626EA0089700890
B0855314357529N00630626EA0089700890
B0855324357529N00630626EA0089700890
B0855334357529N00630626EA0089700890
B0855344357529N00630626EA0089700890
B0855354357529N00630626EA0089700891
B0855364357529N00630627EA0089700890
B0855374357529N00630627EA0089700890
B0855384357529N00630627EA0089700890
B0855394357529N00630627EA0089700890
B0855404357529N00630627EA0089700890
B0855414357529N00630627EA0089700890
B0855424357529N00630626EA0089700890
B0855434357529N00630626EA0089700890
B0855444357529N00630626EA0089700890
B0855454357529N00630626EA0089700890
B0855464357529N00630626EA0089700890
B0855474357529N00630626EA0089700890
B0855484357529N00630626EA0089700890
B0855494357529N00630626EA0089700890
B0855504357529N00630626EA0089700890
B0855514357528N00630627EA0089700890
B0855524357528N00630627EA0089700890
B0855534357528N00630627EA0089700890
B0855544357528N00630627EA0089700890
B0855554357528N00630627EA0089700890
B0855564357528N00630627EA0089700890
B0855574357529N00630627EA0089700890
B0855584357529N00630627EA0089700890
B0855594357529N00630627EA0089700890
B0856004357529N00630627EA0089700890
B0856014357529N00630627EA0089700890
B0856024357528N00630627EA0089700890
B0856034357528N00630627EA0089700890
B0856044357528N00630627EA0089700890
B0856054357528N00630627EA0089700890
B0856064357528N00630627EA0089700890
B0856074357528N00630627EA0089700890
B0856084357528N00630627EA0089700890
B0856094357529N00630627EA0089700890
B0856104357528N00630627EA0089700890
B0856114357529N00630627EA0089700890
B0856124357529N00630627EA0089700890
B0856134357529N00630627EA0089700890
B0856144357529N00630627EA0089700890
B0856154357529N00630627EA0089700890
B0856164357529N00630627EA0089700890
B0856174357529N00630626EA0089700890
B0856184357529N00630626EA0089700890
B0856194357529N00630626EA0089700890
B0856204357530N00630626EA0089700890
B0856214357530N00630626EA0089700890
B0856224357530N00630626EA0089700890
B0856234357531N00630626EA0089700890
B0856244357531N00630625EA0089700890
B0856254357531N00630625EA0089700890
B0856264357531N00630625EA0089700890
B0856274357531N00630625EA0089700890
B0856284357531N00630625EA0089700890
B0856294357531N00630625EA0089700890
B0856304357532N00630625EA0089700890
B0856314357532N00630625EA0089700890
B0856324357532N00630625EA0089700890
B0856334357532N00630625EA0089700890
B0856344357532N00630625EA0089700890
B0856354357532N00630625EA0089700890
B0856364357532N00630625EA0089700890
B0856374357532N00630625EA0089700890
B0856384357532N00630625EA0089700890
B0856394357532N00630625EA0089700890
B0856404357532N00630626EA0089700890
B0856414357532N00630626EA0089700890
B0856424357532N00630625EA0089700890
B0856434357532N00630625EA0089700890
B0856444357533N00630625EA0089700890
B0856454357533N00630625EA0089700890
B0856464357534N00630625EA0089700890
B0856474357534N00630624EA0089700890
B0856484357535N00630625EA0089700890
B0856494357536N00630625EA0089800890
B0856504357537N00630625EA0089800890
B0856514357537N00630625EA0089800890
B0856524357537N00630626EA0089800891
B0856534357538N00630625EA0089800891
B0856544357539N00630625EA0089800891
B0856554357539N00630625EA0089800891
LXSX;C1;GM:1.4
LXSX;S1;TS:1728463580;TL:1728464215;AS:1549;AL:891;AT:1549;AB:889
LXSX;S1;XS:0;XD:3.40;SP:45.6;MC:0.1;MS:-2.7;NB:637
LXSX;S1;FL:5.0;TG:0;TC:0.0;AG:15;GM:1.4
LXSX;S1;X0:43.97723,6.49158
LXSX;S1;X1:43.96778,6.49132
LXSX;S1;X2:43.95952,6.50417
LXSX;S1;X3:43.96262,6.50533
LXSX;S1;X4:43.95880,6.51045
G10156D7883D0C9E77E9B1D09731982A6
