AXSX005 SKYTRAXX
HFPLTPILOT:Sepp Bucher
HFGTYGLIDERTYPE:Niviuk Artik R
HFDTM100GPSDATUM:WGS-84
HFRFWFIRMWAREVERSION:202409121359
HFRHWHARDWAREVERSION:4.0
HFTZNTIMEZONE:+2.00
HFSITSITE:Fiesch Kühboden 1 (
HFDTE250924
LXSX;I1;OAB:20240906;OOB:20240919
LXSX;I1;ID:114075
LXSX;I1;AC:1;CAT:C
B0823414624855N00806468EA0211102148
B0823424624855N00806469EA0211002148
B0823434624855N00806469EA0211002148
B0823444624855N00806469EA0211002148
B0823454624855N00806468EA0211002148
B0823464624855N00806468EA0211002148
B0823474624855N00806468EA0211002148
B0823484624855N00806468EA0211002148
B0823494624855N00806469EA0211002148
B0823504624855N00806469EA0211002148
B0823514624855N00806469EA0211002148
B0823524624854N00806469EA0210902147
B0823534624853N00806470EA0210902146
B0823544624853N00806470EA0210902146
B0823554624853N00806471EA0210802146
B0823564624852N00806472EA0210702144
B0823574624850N00806473EA0210602143
B0823584624848N00806475EA0210402141
B0823594624846N00806477EA0210202139
B0824004624843N00806480EA0210002137
B0824014624840N00806482EA0210002138
B0824024624837N00806486EA0210002137
B0824034624833N00806490EA0209902136
B0824044624831N00806496EA0209802136
B0824054624830N00806503EA0209702135
B0824064624830N00806510EA0209702134
B0824074624831N00806517EA0209602134
B0824084624833N00806524EA0209602133
B0824094624835N00806531EA0209502133
B0824104624837N00806538EA0209502132
B0824114624840N00806545EA0209502132
B0824124624842N00806552EA0209402131
B0824134624845N00806559EA0209202130
B0824144624848N00806566EA0209202129
B0824154624851N00806573EA0209102129
B0824164624855N00806579EA0209202129
B0824174624858N00806585EA0209202129
B0824184624862N00806591EA0209202130
B0824194624865N00806597EA0209202129
B0824204624869N00806603EA0209102128
B0824214624874N00806609EA0208902126
B0824224624878N00806615EA0208802125
B0824234624882N00806622EA0208602123
B0824244624886N00806628EA0208502123
B0824254624890N00806635EA0208502123
B0824264624894N00806641EA0208502123
B0824274624898N00806648EA0208602123
B0824284624902N00806654EA0208602123
B0824294624907N00806660EA0208702125
B0824304624910N00806665EA0208802126
B0824314624914N00806670EA0208902126
B0824324624918N00806674EA0208802125
B0824334624920N00806678EA0208702124
B0824344624924N00806684EA0208502122
B0824354624928N00806691EA0208302121
B0824364624932N00806697EA0208302120
B0824374624936N00806702EA0208302120
B0824384624940N00806707EA0208202119
B0824394624944N00806713EA0208202119
B0824404624947N00806718EA0208102119
B0824414624952N00806724EA0208002118
B0824424624955N00806729EA0207902117
B0824434624959N00806735EA0207802116
B0824444624963N00806741EA0207702114
B0824454624966N00806748EA0207502113
B0824464624969N00806755EA0207402111
B0824474624972N00806762EA0207302111
B0824484624975N00806770EA0207402111
B0824494624978N00806777EA0207402111
B0824504624981N00806784EA0207502112
B0824514624985N00806790EA0207602114
B0824524624988N00806797EA0207602114
B0824534624992N00806803EA0207602114
B0824544624995N00806810EA0207602114
B0824554624999N00806816EA0207502113
B0824564625001N00806822EA0207502112
B0824574625004N00806829EA0207402111
B0824584625005N00806836EA0207202109
B0824594625005N00806843EA0207102108
B0825004625004N00806850EA0206802106
B0825014625003N00806856EA0206602104
B0825024625001N00806862EA0206402102
B0825034624998N00806866EA0206202100
B0825044624994N00806869EA0206102098
B0825054624990N00806870EA0206002097
B0825064624986N00806870EA0205802095
B0825074624981N00806868EA0205702094
B0825084624977N00806867EA0205502093
B0825094624973N00806865EA0205402091
B0825104624968N00806865EA0205302090
B0825114624963N00806864EA0205102089
B0825124624958N00806861EA0205002088
B0825134624953N00806858EA0205102088
B0825144624949N00806854EA0205202089
B0825154624944N00806852EA0205302091
B0825164624940N00806851EA0205402092
B0825174624936N00806850EA0205502092
B0825184624931N00806849EA0205602093
B0825194624928N00806846EA0205602094
B0825204624925N00806842EA0205602094
B0825214624922N00806836EA0205702094
B0825224624922N00806828EA0205702095
B0825234624922N00806821EA0205702095
B0825244624925N00806813EA0205602094
B0825254624930N00806806EA0205602093
B0825264624934N00806798EA0205602093
B0825274624941N00806794EA0205702095
B0825284624947N00806792EA0205802095
B0825294624953N00806794EA0205702094
B0825304624959N00806798EA0205602093
B0825314624964N00806804EA0205602093
B0825324624968N00806811EA0205602093
B0825334624970N00806818EA0205702094
B0825344624971N00806826EA0205702095
B0825354624971N00806833EA0205702095
B0825364624970N00806839EA0205902096
B0825374624968N00806844EA0206002097
B0825384624966N00806848EA0206002098
B0825394624963N00806851EA0206102098
B0825404624960N00806854EA0206102098
B0825414624956N00806856EA0206002098
B0825424624952N00806855EA0205902097
B0825434624947N00806852EA0205802095
B0825444624944N00806847EA0205702095
B0825454624940N00806840EA0205802095
B0825464624939N00806833EA0205802095
B0825474624939N00806824EA0205702094
B0825484624941N00806815EA0205602094
B0825494624945N00806807EA0205702095
B0825504624949N00806801EA0205902096
B0825514624954N00806797EA0206002098
B0825524624960N00806795EA0206102098
B0825534624965N00806796EA0206202099
B0825544624971N00806799EA0206202099
B0825554624975N00806803EA0206302100
B0825564624977N00806809EA0206202100
B0825574624978N00806815EA0206202099
B0825584624978N00806823EA0206202099
B0825594624977N00806830EA0206202099
B0826004624975N00806835EA0206402101
B0826014624972N00806839EA0206502102
B0826024624969N00806841EA0206402102
B0826034624965N00806842EA0206302100
B0826044624960N00806840EA0206102098
B0826054624956N00806835EA0206102098
B0826064624953N00806828EA0206102098
B0826074624952N00806820EA0206102098
B0826084624953N00806811EA0206102098
B0826094624956N00806803EA0206102098
B0826104624960N00806796EA0206102098
B0826114624965N00806791EA0206102098
B0826124624971N00806788EA0206002098
B0826134624978N00806788EA0206002097
B0826144624983N00806792EA0206002097
B0826154624987N00806798EA0206002097
B0826164624989N00806805EA0206002097
B0826174624989N00806812EA0206002098
B0826184624988N00806819EA0206202099
B0826194624987N00806825EA0206302100
B0826204624986N00806830EA0206402101
B0826214624984N00806835EA0206302100
B0826224624982N00806840EA0206102098
B0826234624979N00806845EA0205802095
B0826244624976N00806851EA0205502093
B0826254624973N00806856EA0205302091
B0826264624969N00806860EA0205102088
B0826274624965N00806863EA0205002087
B0826284624961N00806865EA0204702085
B0826294624956N00806867EA0204502082
B0826304624951N00806868EA0204302080
B0826314624945N00806869EA0204102079
B0826324624940N00806870EA0204102079
B0826334624935N00806872EA0204202079
B0826344624931N00806875EA0204202079
B0826354624928N00806879EA0204002078
B0826364624924N00806885EA0203902076
B0826374624921N00806891EA0203802075
B0826384624916N00806897EA0203702075
B0826394624913N00806903EA0203702074
B0826404624909N00806909EA0203602073
B0826414624907N00806916EA0203502072
B0826424624903N00806923EA0203302070
B0826434624900N00806930EA0203102068
B0826444624896N00806936EA0202902067
B0826454624892N00806941EA0202802066
B0826464624888N00806947EA0202802065
B0826474624885N00806952EA0202802065
B0826484624881N00806958EA0202702064
B0826494624878N00806963EA0202702064
B0826504624875N00806968EA0202602063
B0826514624872N00806973EA0202502062
B0826524624869N00806978EA0202202060
B0826534624865N00806982EA0202102058
B0826544624860N00806985EA0202002057
B0826554624856N00806986EA0201902056
B0826564624852N00806986EA0201802056
B0826574624848N00806985EA0201802055
B0826584624844N00806983EA0201702055
B0826594624841N00806979EA0201702054
B0827004624837N00806975EA0201702054
B0827014624834N00806970EA0201702054
B0827024624831N00806966EA0201702054
B0827034624828N00806961EA0201702054
B0827044624824N00806956EA0201702054
B0827054624821N00806950EA0201802055
B0827064624818N00806945EA0201802055
B0827074624815N00806939EA0201702055
B0827084624811N00806934EA0201802055
B0827094624808N00806928EA0201702055
B0827104624805N00806921EA0201702054
B0827114624802N00806914EA0201702054
B0827124624799N00806908EA0201602054
B0827134624796N00806901EA0201602054
B0827144624793N00806895EA0201602053
B0827154624790N00806889EA0201502052
B0827164624788N00806882EA0201302050
B0827174624784N00806876EA0201102048
B0827184624781N00806869EA0201002047
B0827194624778N00806862EA0200802045
B0827204624775N00806855EA0200702044
B0827214624772N00806849EA0200502043
B0827224624769N00806842EA0200402041
B0827234624765N00806836EA0200202040
B0827244624762N00806829EA0200102038
B0827254624759N00806822EA0199902036
B0827264624756N00806815EA0199602034
B0827274624752N00806809EA0199402032
B0827284624749N00806802EA0199302030
B0827294624745N00806794EA0199202029
B0827304624742N00806787EA0199102028
B0827314624738N00806781EA0199102028
B0827324624734N00806774EA0199102028
B0827334624730N00806768EA0199202029
B0827344624726N00806763EA0199202030
B0827354624722N00806758EA0199302031
B0827364624719N00806754EA0199402031
B0827374624715N00806750EA0199402032
B0827384624711N00806745EA0199402031
B0827394624708N00806741EA0199302030
B0827404624704N00806738EA0199202029
B0827414624700N00806736EA0199102028
B0827424624696N00806735EA0198902027
B0827434624691N00806735EA0198702025
B0827444624687N00806737EA0198602023
B0827454624683N00806741EA0198402021
B0827464624680N00806747EA0198202019
B0827474624679N00806755EA0197902017
B0827484624680N00806763EA0197802015
B0827494624683N00806771EA0197502013
B0827504624686N00806778EA0197502012
B0827514624688N00806784EA0197402011
B0827524624692N00806791EA0197302010
B0827534624695N00806797EA0197102008
B0827544624699N00806804EA0197002007
B0827554624703N00806810EA0196902006
B0827564624708N00806817EA0196802005
B0827574624712N00806823EA0196802005
B0827584624716N00806828EA0196802005
B0827594624721N00806832EA0196702005
B0828004624725N00806837EA0196702004
B0828014624730N00806842EA0196602003
B0828024624734N00806848EA0196402002
B0828034624738N00806854EA0196302000
B0828044624742N00806861EA0196101999
B0828054624747N00806867EA0196001997
B0828064624752N00806873EA0195901997
B0828074624756N00806878EA0195901996
B0828084624760N00806884EA0195801995
B0828094624765N00806889EA0195701994
B0828104624769N00806894EA0195601993
B0828114624774N00806899EA0195501992
B0828124624779N00806904EA0195401991
B0828134624783N00806909EA0195301990
B0828144624788N00806914EA0195101988
B0828154624792N00806920EA0194901986
B0828164624797N00806927EA0194701984
B0828174624801N00806934EA0194601984
B0828184624806N00806941EA0194601984
B0828194624810N00806947EA0194601983
B0828204624815N00806953EA0194601983
B0828214624821N00806958EA0194601983
B0828224624825N00806963EA0194601983
B0828234624830N00806968EA0194701984
B0828244624836N00806973EA0194701984
B0828254624840N00806977EA0194701984
B0828264624844N00806981EA0194701984
B0828274624849N00806985EA0194701984
B0828284624855N00806990EA0194701984
B0828294624860N00806993EA0194601984
B0828304624865N00806995EA0194601984
B0828314624869N00806996EA0194501983
B0828324624874N00806999EA0194301981
B0828334624879N00807003EA0194201979
B0828344624884N00807007EA0194001977
B0828354624889N00807012EA0193801976
B0828364624894N00807016EA0193701974
B0828374624899N00807021EA0193501972
B0828384624904N00807026EA0193201970
B0828394624909N00807031EA0193101968
B0828404624914N00807037EA0193001967
B0828414624918N00807043EA0192901967
B0828424624922N00807049EA0192901966
B0828434624927N00807054EA0192801965
B0828444624932N00807059EA0192701964
B0828454624936N00807064EA0192701964
B0828464624941N00807069EA0192601964
B0828474624945N00807075EA0192701964
B0828484624950N00807080EA0192601963
B0828494624954N00807085EA0192501963
B0828504624958N00807091EA0192401961
B0828514624963N00807097EA0192201959
B0828524624967N00807104EA0192101959
B0828534624971N00807111EA0192101958
B0828544624976N00807117EA0191901957
B0828554624980N00807123EA0191801956
B0828564624984N00807130EA0191701954
B0828574624988N00807137EA0191601953
B0828584624992N00807144EA0191701954
B0828594624997N00807150EA0191801955
B0829004625001N00807155EA0191801956
B0829014625004N00807160EA0191901956
B0829024625008N00807164EA0191801955
B0829034625012N00807169EA0191801955
B0829044625016N00807174EA0191701954
B0829054625020N00807180EA0191501953
B0829064625026N00807185EA0191401951
B0829074625031N00807190EA0191201950
B0829084625037N00807195EA0191201949
B0829094625042N00807200EA0191001947
B0829104625047N00807205EA0190801945
B0829114625053N00807211EA0190701944
B0829124625059N00807216EA0190501942
B0829134625065N00807221EA0190301940
B0829144625071N00807224EA0190201939
B0829154625078N00807228EA0190001937
B0829164625084N00807231EA0189701935
B0829174625090N00807234EA0189401931
B0829184625097N00807238EA0189401931
B0829194625103N00807241EA0189201929
B0829204625110N00807245EA0189001928
B0829214625116N00807248EA0188901926
B0829224625122N00807252EA0188601924
B0829234625128N00807256EA0188501922
B0829244625134N00807260EA0188301920
B0829254625141N00807264EA0188101918
B0829264625147N00807268EA0188001917
B0829274625153N00807273EA0187901916
B0829284625159N00807277EA0187801915
B0829294625165N00807282EA0187601913
B0829304625171N00807286EA0187501912
B0829314625176N00807291EA0187401911
B0829324625182N00807295EA0187201909
B0829334625188N00807300EA0187001907
B0829344625194N00807304EA0186801906
B0829354625200N00807309EA0186701904
B0829364625206N00807314EA0186601903
B0829374625212N00807318EA0186501902
B0829384625218N00807323EA0186301900
B0829394625224N00807328EA0186201899
B0829404625230N00807332EA0186001898
B0829414625236N00807337EA0185901896
B0829424625242N00807342EA0185801895
B0829434625248N00807347EA0185701894
B0829444625254N00807352EA0185601893
B0829454625259N00807357EA0185501892
B0829464625265N00807362EA0185401891
B0829474625271N00807366EA0185301890
B0829484625277N00807370EA0185201889
B0829494625283N00807374EA0185101888
B0829504625289N00807379EA0185001888
B0829514625295N00807383EA0184901887
B0829524625301N00807387EA0184901886
B0829534625307N00807390EA0184701884
B0829544625313N00807394EA0184601883
B0829554625319N00807398EA0184401882
B0829564625325N00807402EA0184301880
B0829574625331N00807407EA0184301880
B0829584625337N00807413EA0184301880
B0829594625342N00807418EA0184301880
B0830004625347N00807424EA0184201879
B0830014625351N00807429EA0184201879
B0830024625357N00807434EA0184301880
B0830034625363N00807439EA0184301880
B0830044625368N00807442EA0184301880
B0830054625373N00807446EA0184301880
B0830064625377N00807450EA0184201879
B0830074625382N00807455EA0184101878
B0830084625386N00807460EA0183901876
B0830094625391N00807466EA0183701875
B0830104625395N00807471EA0183601873
B0830114625399N00807477EA0183501872
B0830124625404N00807483EA0183301870
B0830134625409N00807489EA0183101869
B0830144625414N00807495EA0183101868
B0830154625419N00807502EA0183001868
B0830164625424N00807508EA0183101869
B0830174625428N00807514EA0183301870
B0830184625431N00807520EA0183401871
B0830194625434N00807526EA0183401871
B0830204625435N00807532EA0183301870
B0830214625437N00807539EA0183101868
B0830224625439N00807547EA0182901866
B0830234625442N00807555EA0182701864
B0830244625446N00807561EA0182601863
B0830254625451N00807568EA0182401862
B0830264625455N00807574EA0182401861
B0830274625460N00807580EA0182201859
B0830284625464N00807586EA0182201859
B0830294625469N00807591EA0182201859
B0830304625474N00807595EA0182301860
B0830314625480N00807598EA0182401861
B0830324625485N00807599EA0182401861
B0830334625490N00807601EA0182501862
B0830344625495N00807603EA0182401861
B0830354625499N00807607EA0182301860
B0830364625502N00807612EA0182101858
B0830374625504N00807619EA0181801855
B0830384625505N00807627EA0181501853
B0830394625504N00807636EA0181401851
B0830404625502N00807643EA0181301850
B0830414625499N00807649EA0181101848
B0830424625497N00807655EA0180901846
B0830434625494N00807661EA0180701844
B0830444625492N00807667EA0180401841
B0830454625488N00807674EA0180001837
B0830464625484N00807681EA0179901836
B0830474625479N00807686EA0179901836
B0830484625473N00807690EA0179801836
B0830494625469N00807693EA0179801835
B0830504625464N00807694EA0179801835
B0830514625460N00807695EA0179601833
B0830524625455N00807696EA0179401831
B0830534625450N00807696EA0179201829
B0830544625445N00807697EA0179001828
B0830554625439N00807699EA0179001827
B0830564625434N00807701EA0179001827
B0830574625429N00807704EA0179001827
B0830584625424N00807706EA0178901826
B0830594625418N00807709EA0178801826
B0831004625414N00807711EA0178801825
B0831014625408N00807715EA0178701824
B0831024625404N00807719EA0178501822
B0831034625399N00807722EA0178501822
B0831044625394N00807726EA0178401821
B0831054625390N00807730EA0178301820
B0831064625385N00807735EA0178301820
B0831074625380N00807739EA0178201819
B0831084625375N00807744EA0178101818
B0831094625370N00807750EA0178101818
B0831104625366N00807756EA0178101818
B0831114625363N00807762EA0178001818
B0831124625360N00807767EA0178001817
B0831134625356N00807773EA0177801815
B0831144625352N00807778EA0177601813
B0831154625348N00807784EA0177401811
B0831164625344N00807791EA0177201809
B0831174625340N00807799EA0177001807
B0831184625337N00807806EA0177001807
B0831194625333N00807813EA0176901806
B0831204625330N00807820EA0176801805
B0831214625326N00807827EA0176601803
B0831224625323N00807834EA0176501802
B0831234625319N00807840EA0176401801
B0831244625315N00807847EA0176201800
B0831254625312N00807854EA0176201799
B0831264625308N00807861EA0176001797
B0831274625304N00807869EA0175901796
B0831284625301N00807876EA0175901796
B0831294625297N00807883EA0175701794
B0831304625294N00807889EA0175601793
B0831314625290N00807896EA0175501792
B0831324625287N00807904EA0175301790
B0831334625284N00807912EA0175101788
B0831344625281N00807921EA0175001787
B0831354625278N00807929EA0174901786
B0831364625276N00807938EA0174801785
B0831374625274N00807947EA0174601783
B0831384625271N00807956EA0174501782
B0831394625269N00807964EA0174301780
B0831404625266N00807974EA0174101778
B0831414625264N00807983EA0174001777
B0831424625261N00807992EA0173901776
B0831434625259N00808001EA0173801775
B0831444625257N00808011EA0173701774
B0831454625256N00808020EA0173601773
B0831464625254N00808029EA0173401771
B0831474625252N00808038EA0173201770
B0831484625250N00808048EA0173101768
B0831494625248N00808057EA0173001767
B0831504625247N00808067EA0172801765
B0831514625245N00808077EA0172701765
B0831524625244N00808086EA0172601764
B0831534625243N00808095EA0172501762
B0831544625242N00808105EA0172301760
B0831554625241N00808114EA0172201759
B0831564625239N00808124EA0172001757
B0831574625238N00808134EA0171901756
B0831584625237N00808143EA0171801755
B0831594625235N00808152EA0171601753
B0832004625234N00808161EA0171501752
B0832014625233N00808171EA0171301750
B0832024625231N00808180EA0171101749
B0832034625230N00808189EA0171001747
B0832044625229N00808198EA0170901746
B0832054625227N00808207EA0170701744
B0832064625226N00808216EA0170601743
B0832074625225N00808225EA0170401741
B0832084625223N00808234EA0170301740
B0832094625222N00808243EA0170101738
B0832104625221N00808252EA0170001737
B0832114625220N00808262EA0169801736
B0832124625218N00808271EA0169701734
B0832134625217N00808280EA0169601733
B0832144625215N00808288EA0169501732
B0832154625214N00808297EA0169401731
B0832164625213N00808306EA0169301730
B0832174625212N00808315EA0169101728
B0832184625211N00808325EA0169001727
B0832194625210N00808334EA0168901726
B0832204625209N00808343EA0168801725
B0832214625208N00808351EA0168701724
B0832224625207N00808360EA0168601723
B0832234625206N00808369EA0168401721
B0832244625206N00808379EA0168301720
B0832254625205N00808388EA0168201719
B0832264625204N00808397EA0168101718
B0832274625203N00808406EA0168001717
B0832284625202N00808415EA0167701714
B0832294625201N00808424EA0167501712
B0832304625200N00808433EA0167301710
B0832314625198N00808442EA0167201709
B0832324625196N00808450EA0167101708
B0832334625193N00808458EA0166901707
B0832344625190N00808465EA0166801705
B0832354625186N00808474EA0166701704
B0832364625183N00808482EA0166801705
B0832374625179N00808489EA0166801706
B0832384625175N00808497EA0166901706
B0832394625173N00808505EA0166801705
B0832404625170N00808512EA0166601703
B0832414625167N00808521EA0166501702
B0832424625164N00808529EA0166301700
B0832434625162N00808538EA0166201699
B0832444625159N00808547EA0166101699
B0832454625157N00808555EA0166001698
B0832464625156N00808564EA0165901696
B0832474625155N00808572EA0165801695
B0832484625153N00808581EA0165601693
B0832494625152N00808590EA0165501692
B0832504625151N00808600EA0165401691
B0832514625150N00808609EA0165301690
B0832524625149N00808617EA0165201689
B0832534625148N00808626EA0165101688
B0832544625148N00808635EA0164901686
B0832554625147N00808645EA0164801685
B0832564625146N00808654EA0164601684
B0832574625146N00808663EA0164501683
B0832584625145N00808672EA0164501682
B0832594625145N00808681EA0164301681
B0833004625144N00808690EA0164201679
B0833014625144N00808700EA0164101678
B0833024625143N00808709EA0163901677
B0833034625143N00808719EA0163801675
B0833044625142N00808728EA0163701674
B0833054625142N00808738EA0163601673
B0833064625142N00808747EA0163601673
B0833074625142N00808756EA0163501672
B0833084625141N00808766EA0163301671
B0833094625141N00808775EA0163201669
B0833104625141N00808785EA0163101668
B0833114625141N00808794EA0163001667
B0833124625141N00808804EA0162901666
B0833134625141N00808813EA0162801665
B0833144625141N00808822EA0162701664
B0833154625140N00808832EA0162601663
B0833164625140N00808841EA0162501662
B0833174625140N00808851EA0162401661
B0833184625139N00808860EA0162301660
B0833194625139N00808870EA0162201659
B0833204625139N00808879EA0162101658
B0833214625139N00808888EA0162001657
B0833224625139N00808897EA0161901656
B0833234625139N00808907EA0161801655
B0833244625139N00808916EA0161601653
B0833254625139N00808925EA0161501653
B0833264625139N00808934EA0161401651
B0833274625139N00808943EA0161301650
B0833284625139N00808952EA0161201649
B0833294625139N00808961EA0161001647
B0833304625139N00808971EA0160901646
B0833314625140N00808980EA0160801645
B0833324625141N00808989EA0160701644
B0833334625141N00808998EA0160601643
B0833344625142N00809006EA0160501642
B0833354625142N00809015EA0160401641
B0833364625142N00809023EA0160201639
B0833374625144N00809032EA0160001637
B0833384625144N00809041EA0159901636
B0833394625145N00809050EA0159801635
B0833404625146N00809059EA0159701634
B0833414625147N00809067EA0159601633
B0833424625148N00809076EA0159501632
B0833434625149N00809084EA0159401631
B0833444625150N00809093EA0159301630
B0833454625151N00809102EA0159101628
B0833464625152N00809110EA0159001627
B0833474625153N00809119EA0158901626
B0833484625154N00809127EA0158901626
B0833494625155N00809136EA0158801625
B0833504625155N00809144EA0158601624
B0833514625157N00809152EA0158501622
B0833524625157N00809160EA0158301620
B0833534625159N00809169EA0158101619
B0833544625160N00809177EA0158001617
B0833554625161N00809186EA0157801616
B0833564625162N00809194EA0157701614
B0833574625164N00809203EA0157601613
B0833584625166N00809211EA0157501612
B0833594625167N00809220EA0157401611
B0834004625169N00809228EA0157301610
B0834014625170N00809236EA0157201609
B0834024625172N00809245EA0157101608
B0834034625174N00809253EA0156901607
B0834044625176N00809261EA0156801605
B0834054625178N00809269EA0156701604
B0834064625180N00809277EA0156501603
B0834074625182N00809285EA0156401601
B0834084625184N00809293EA0156301600
B0834094625186N00809302EA0156201599
B0834104625188N00809310EA0156101598
B0834114625190N00809317EA0155901596
B0834124625193N00809325EA0155801595
B0834134625195N00809333EA0155701594
B0834144625198N00809340EA0155601593
B0834154625200N00809349EA0155401592
B0834164625202N00809357EA0155301591
B0834174625204N00809366EA0155201590
B0834184625205N00809374EA0155201589
B0834194625205N00809382EA0155201589
B0834204625204N00809390EA0155001587
B0834214625201N00809398EA0154901586
B0834224625198N00809404EA0154801585
B0834234625194N00809410EA0154601583
B0834244625189N00809415EA0154601583
B0834254625185N00809418EA0154501582
B0834264625180N00809421EA0154401581
B0834274625175N00809422EA0154301580
B0834284625169N00809423EA0154201579
B0834294625164N00809422EA0154101578
B0834304625158N00809421EA0154101579
B0834314625152N00809419EA0154201579
B0834324625147N00809417EA0154201579
B0834334625142N00809416EA0154201579
B0834344625137N00809414EA0154101578
B0834354625132N00809412EA0154001577
B0834364625126N00809409EA0153901576
B0834374625121N00809407EA0153701574
B0834384625116N00809404EA0153601573
B0834394625110N00809402EA0153501572
B0834404625105N00809400EA0153401571
B0834414625100N00809397EA0153301570
B0834424625095N00809395EA0153201569
B0834434625090N00809391EA0153001567
B0834444625084N00809387EA0152901566
B0834454625079N00809383EA0152801565
B0834464625075N00809379EA0152701564
B0834474625070N00809375EA0152501563
B0834484625065N00809371EA0152401561
B0834494625060N00809367EA0152301560
B0834504625056N00809362EA0152101558
B0834514625052N00809356EA0151901556
B0834524625047N00809351EA0151701554
B0834534625044N00809345EA0151601553
B0834544625040N00809339EA0151501552
B0834554625036N00809333EA0151401551
B0834564625032N00809328EA0151301550
B0834574625029N00809322EA0151101548
B0834584625026N00809316EA0151001547
B0834594625022N00809310EA0150801545
B0835004625019N00809304EA0150701544
B0835014625015N00809298EA0150601543
B0835024625012N00809292EA0150501542
B0835034625008N00809286EA0150401541
B0835044625004N00809281EA0150301540
B0835054625000N00809275EA0150201539
B0835064624997N00809269EA0150001538
B0835074624993N00809262EA0149901536
B0835084624989N00809256EA0149801535
B0835094624985N00809248EA0149701535
B0835104624981N00809242EA0149701535
B0835114624977N00809235EA0149701535
B0835124624973N00809230EA0149701534
B0835134624969N00809224EA0149601533
B0835144624965N00809218EA0149501532
B0835154624961N00809212EA0149401531
B0835164624957N00809206EA0149301530
B0835174624953N00809200EA0149201529
B0835184624950N00809194EA0149101528
B0835194624947N00809188EA0149001527
B0835204624943N00809181EA0148901526
B0835214624940N00809175EA0148801525
B0835224624936N00809169EA0148701524
B0835234624932N00809162EA0148601523
B0835244624929N00809156EA0148501522
B0835254624925N00809150EA0148401521
B0835264624921N00809144EA0148201519
B0835274624918N00809137EA0148001517
B0835284624914N00809131EA0147901516
B0835294624910N00809124EA0147801515
B0835304624906N00809118EA0147701514
B0835314624903N00809112EA0147601513
B0835324624899N00809105EA0147501512
B0835334624895N00809099EA0147401511
B0835344624891N00809092EA0147201509
B0835354624887N00809086EA0147101508
B0835364624884N00809079EA0147001507
B0835374624879N00809073EA0146901506
B0835384624876N00809067EA0146801505
B0835394624871N00809061EA0146701504
B0835404624868N00809055EA0146501502
B0835414624864N00809048EA0146401501
B0835424624860N00809042EA0146301500
B0835434624855N00809035EA0146201499
B0835444624852N00809029EA0146101498
B0835454624847N00809023EA0146001497
B0835464624843N00809016EA0145901496
B0835474624839N00809010EA0145801495
B0835484624836N00809003EA0145701494
B0835494624831N00808996EA0145601493
B0835504624827N00808990EA0145501492
B0835514624823N00808984EA0145401491
B0835524624819N00808978EA0145201489
B0835534624815N00808972EA0145101488
B0835544624811N00808965EA0144901486
B0835554624806N00808959EA0144701484
B0835564624803N00808953EA0144601483
B0835574624798N00808948EA0144401482
B0835584624794N00808942EA0144301480
B0835594624789N00808937EA0144101478
B0836004624784N00808933EA0143901476
B0836014624780N00808928EA0143701474
B0836024624775N00808923EA0143501472
B0836034624770N00808919EA0143401471
B0836044624765N00808915EA0143201469
B0836054624760N00808910EA0143101468
B0836064624756N00808906EA0142901466
B0836074624750N00808902EA0142701464
B0836084624745N00808898EA0142501462
B0836094624740N00808894EA0142401461
B0836104624735N00808889EA0142201459
B0836114624730N00808885EA0142001458
B0836124624725N00808881EA0141901456
B0836134624720N00808877EA0141701455
B0836144624715N00808873EA0141601453
B0836154624709N00808869EA0141401452
B0836164624704N00808865EA0141301450
B0836174624699N00808861EA0141201449
B0836184624694N00808856EA0141001447
B0836194624689N00808852EA0140901446
B0836204624684N00808848EA0140701445
B0836214624678N00808844EA0140601443
B0836224624674N00808839EA0140501442
B0836234624669N00808835EA0140301440
B0836244624663N00808831EA0140201439
B0836254624658N00808826EA0140001438
B0836264624653N00808822EA0139901436
B0836274624648N00808818EA0139801435
B0836284624643N00808814EA0139701434
B0836294624637N00808810EA0139601433
B0836304624632N00808806EA0139401432
B0836314624627N00808802EA0139301431
B0836324624621N00808798EA0139201429
B0836334624616N00808794EA0139101428
B0836344624611N00808790EA0139001427
B0836354624605N00808785EA0138901426
B0836364624600N00808781EA0138801425
B0836374624595N00808777EA0138701424
B0836384624589N00808772EA0138601423
B0836394624584N00808768EA0138501422
B0836404624579N00808763EA0138401421
B0836414624574N00808758EA0138301420
B0836424624569N00808753EA0138201419
B0836434624564N00808748EA0138101418
B0836444624559N00808743EA0137901417
B0836454624554N00808737EA0137901416
B0836464624549N00808732EA0137801415
B0836474624545N00808727EA0137701414
B0836484624540N00808722EA0137601413
B0836494624536N00808717EA0137401411
B0836504624531N00808712EA0137201409
B0836514624525N00808708EA0137001407
B0836524624520N00808703EA0136901406
B0836534624514N00808698EA0136801405
B0836544624509N00808693EA0136701404
B0836554624504N00808688EA0136601403
B0836564624499N00808683EA0136601403
B0836574624495N00808678EA0136401402
B0836584624490N00808674EA0136301400
B0836594624485N00808669EA0136101398
B0837004624479N00808664EA0136001397
B0837014624474N00808659EA0135901396
B0837024624468N00808654EA0135801395
B0837034624464N00808650EA0135701394
B0837044624458N00808645EA0135501392
B0837054624452N00808640EA0135401391
B0837064624447N00808636EA0135301390
B0837074624441N00808632EA0135201389
B0837084624436N00808627EA0135101388
B0837094624431N00808623EA0135001387
B0837104624426N00808619EA0134901386
B0837114624420N00808614EA0134701384
B0837124624415N00808609EA0134601383
B0837134624410N00808604EA0134501382
B0837144624405N00808599EA0134401381
B0837154624400N00808594EA0134301380
B0837164624395N00808589EA0134101379
B0837174624389N00808585EA0134001377
B0837184624385N00808580EA0133801375
B0837194624379N00808575EA0133701374
B0837204624374N00808570EA0133501373
B0837214624369N00808565EA0133401371
B0837224624364N00808560EA0133301370
B0837234624359N00808554EA0133201369
B0837244624353N00808549EA0133101368
B0837254624348N00808545EA0132901366
B0837264624343N00808539EA0132801365
B0837274624338N00808534EA0132701364
B0837284624333N00808530EA0132501362
B0837294624328N00808524EA0132401361
B0837304624323N00808519EA0132201359
B0837314624318N00808514EA0132101358
B0837324624313N00808508EA0131901356
B0837334624308N00808502EA0131701354
B0837344624303N00808496EA0131601354
B0837354624298N00808490EA0131501353
B0837364624294N00808483EA0131401352
B0837374624290N00808476EA0131301350
B0837384624287N00808468EA0131201349
B0837394624284N00808460EA0131001348
B0837404624281N00808451EA0130901346
B0837414624279N00808442EA0130801345
B0837424624278N00808433EA0130601344
B0837434624278N00808423EA0130501342
B0837444624278N00808414EA0130401341
B0837454624278N00808404EA0130301340
B0837464624279N00808395EA0130101338
B0837474624281N00808386EA0130001337
B0837484624284N00808378EA0129901336
B0837494624287N00808371EA0129801335
B0837504624291N00808364EA0129701334
B0837514624294N00808358EA0129601333
B0837524624299N00808352EA0129401331
B0837534624305N00808348EA0129201329
B0837544624310N00808345EA0129101328
B0837554624316N00808342EA0128901327
B0837564624322N00808340EA0128801325
B0837574624328N00808339EA0128701324
B0837584624333N00808338EA0128501322
B0837594624339N00808337EA0128401321
B0838004624345N00808336EA0128201319
B0838014624351N00808336EA0128001317
B0838024624357N00808337EA0127901316
B0838034624364N00808337EA0127801315
B0838044624370N00808338EA0127601313
B0838054624376N00808338EA0127401311
B0838064624382N00808340EA0127201309
B0838074624388N00808343EA0127201310
B0838084624394N00808346EA0127201309
B0838094624399N00808349EA0127201309
B0838104624405N00808351EA0127101308
B0838114624410N00808353EA0126901306
B0838124624416N00808355EA0126801305
B0838134624422N00808358EA0126701304
B0838144624427N00808361EA0126701304
B0838154624433N00808364EA0126701304
B0838164624438N00808366EA0126601303
B0838174624444N00808368EA0126601303
B0838184624449N00808370EA0126501302
B0838194624454N00808373EA0126401301
B0838204624460N00808376EA0126401301
B0838214624465N00808378EA0126401301
B0838224624470N00808381EA0126301300
B0838234624476N00808383EA0126201299
B0838244624481N00808386EA0126201300
B0838254624486N00808388EA0126201300
B0838264624491N00808391EA0126301300
B0838274624496N00808393EA0126401301
B0838284624501N00808394EA0126401301
B0838294624506N00808396EA0126301300
B0838304624511N00808398EA0126201299
B0838314624516N00808400EA0126001298
B0838324624522N00808401EA0125901296
B0838334624527N00808401EA0125801295
B0838344624533N00808400EA0125801295
B0838354624539N00808399EA0125801295
B0838364624545N00808396EA0125801295
B0838374624550N00808393EA0125801295
B0838384624555N00808388EA0125801295
B0838394624560N00808383EA0125901296
B0838404624564N00808377EA0125801295
B0838414624567N00808370EA0125801295
B0838424624571N00808364EA0125701294
B0838434624575N00808356EA0125601293
B0838444624578N00808349EA0125501292
B0838454624581N00808342EA0125401291
B0838464624584N00808334EA0125301290
B0838474624586N00808326EA0125201289
B0838484624588N00808319EA0125101288
B0838494624590N00808312EA0125001287
B0838504624591N00808304EA0124801285
B0838514624593N00808296EA0124501282
B0838524624594N00808287EA0124301280
B0838534624595N00808278EA0124201279
B0838544624596N00808270EA0124101278
B0838554624598N00808262EA0124001277
B0838564624599N00808254EA0123901276
B0838574624599N00808246EA0123801275
B0838584624600N00808239EA0123601274
B0838594624600N00808231EA0123501272
B0839004624600N00808223EA0123301270
B0839014624599N00808215EA0123201269
B0839024624597N00808208EA0123101268
B0839034624594N00808201EA0123001267
B0839044624591N00808195EA0122901266
B0839054624589N00808189EA0122701264
B0839064624586N00808183EA0122501262
B0839074624582N00808177EA0122301260
B0839084624578N00808171EA0122001258
B0839094624575N00808165EA0121901256
B0839104624572N00808158EA0121801255
B0839114624568N00808152EA0121701254
B0839124624565N00808146EA0121601253
B0839134624562N00808140EA0121501252
B0839144624559N00808136EA0121401251
B0839154624555N00808131EA0121301250
B0839164624551N00808127EA0121101249
B0839174624547N00808123EA0120901247
B0839184624543N00808119EA0120701245
B0839194624539N00808115EA0120601243
B0839204624535N00808110EA0120401242
B0839214624530N00808107EA0120301240
B0839224624525N00808104EA0120201239
B0839234624521N00808102EA0120101238
B0839244624516N00808099EA0120001237
B0839254624511N00808097EA0119801235
B0839264624507N00808094EA0119701234
B0839274624501N00808092EA0119601233
B0839284624497N00808089EA0119501232
B0839294624492N00808087EA0119401231
B0839304624486N00808085EA0119201229
B0839314624481N00808084EA0119101228
B0839324624477N00808084EA0119001228
B0839334624472N00808084EA0118901226
B0839344624467N00808084EA0118701224
B0839354624462N00808085EA0118601223
B0839364624458N00808087EA0118401221
B0839374624454N00808092EA0118301220
B0839384624451N00808097EA0118201219
B0839394624448N00808102EA0118101218
B0839404624445N00808106EA0118001217
B0839414624443N00808111EA0117901216
B0839424624442N00808117EA0117801215
B0839434624440N00808123EA0117601213
B0839444624440N00808130EA0117501212
B0839454624439N00808137EA0117401211
B0839464624439N00808143EA0117301210
B0839474624439N00808149EA0117201209
B0839484624439N00808155EA0117101208
B0839494624440N00808161EA0117001207
B0839504624440N00808167EA0116801205
B0839514624441N00808174EA0116601203
B0839524624442N00808181EA0116501202
B0839534624443N00808188EA0116401201
B0839544624445N00808194EA0116301201
B0839554624446N00808201EA0116301200
B0839564624448N00808207EA0116201199
B0839574624450N00808213EA0116001197
B0839584624452N00808218EA0115901196
B0839594624454N00808224EA0115801195
B0840004624457N00808230EA0115701194
B0840014624459N00808236EA0115601194
B0840024624462N00808242EA0115501192
B0840034624464N00808247EA0115501192
B0840044624467N00808252EA0115501192
B0840054624470N00808257EA0115301191
B0840064624473N00808262EA0115301190
B0840074624476N00808267EA0115201189
B0840084624479N00808272EA0115101188
B0840094624482N00808277EA0115001187
B0840104624485N00808282EA0114901186
B0840114624487N00808287EA0114901186
B0840124624489N00808292EA0114801185
B0840134624492N00808297EA0114701184
B0840144624495N00808301EA0114601183
B0840154624499N00808306EA0114501182
B0840164624502N00808310EA0114401182
B0840174624505N00808315EA0114401181
B0840184624507N00808319EA0114301180
B0840194624509N00808323EA0114301180
B0840204624512N00808328EA0114101178
B0840214624514N00808332EA0113901176
B0840224624517N00808337EA0113801175
B0840234624519N00808342EA0113701174
B0840244624521N00808347EA0113601173
B0840254624524N00808353EA0113501172
B0840264624527N00808359EA0113301171
B0840274624530N00808364EA0113301170
B0840284624533N00808368EA0113301170
B0840294624536N00808371EA0113301170
B0840304624540N00808373EA0113101168
B0840314624544N00808374EA0112901166
B0840324624549N00808375EA0112701164
B0840334624553N00808378EA0112601163
B0840344624556N00808381EA0112401161
B0840354624560N00808385EA0112301160
B0840364624563N00808389EA0112101159
B0840374624567N00808393EA0112001157
B0840384624571N00808396EA0111801156
B0840394624575N00808400EA0111701154
B0840404624579N00808404EA0111501152
B0840414624583N00808408EA0111301150
B0840424624587N00808412EA0111201149
B0840434624591N00808415EA0111201149
B0840444624595N00808418EA0111101148
B0840454624599N00808421EA0111001147
B0840464624603N00808423EA0110901146
B0840474624607N00808424EA0110701144
B0840484624612N00808423EA0110501143
B0840494624617N00808421EA0110401141
B0840504624622N00808417EA0110301140
B0840514624625N00808412EA0110201139
B0840524624627N00808406EA0110101138
B0840534624628N00808399EA0109901136
B0840544624627N00808391EA0109701134
B0840554624625N00808385EA0109501132
B0840564624621N00808379EA0109301130
B0840574624616N00808376EA0109101128
B0840584624611N00808374EA0109001127
B0840594624606N00808373EA0108901126
B0841004624601N00808371EA0108701124
B0841014624596N00808369EA0108501122
B0841024624590N00808367EA0108301120
B0841034624584N00808365EA0108201119
B0841044624578N00808364EA0108101118
B0841054624573N00808362EA0108101118
B0841064624568N00808361EA0108001117
B0841074624563N00808359EA0107801115
B0841084624558N00808358EA0107701114
B0841094624552N00808357EA0107501112
B0841104624547N00808356EA0107501112
B0841114624541N00808354EA0107401111
B0841124624537N00808352EA0107301110
B0841134624532N00808349EA0107201109
B0841144624528N00808344EA0107101108
B0841154624524N00808339EA0106901106
B0841164624522N00808332EA0106701104
B0841174624520N00808325EA0106601103
B0841184624517N00808318EA0106601103
B0841194624515N00808312EA0106601103
B0841204624513N00808305EA0106501103
B0841214624511N00808299EA0106501102
B0841224624509N00808292EA0106401101
B0841234624508N00808285EA0106301101
B0841244624506N00808279EA0106301100
B0841254624505N00808272EA0106201100
B0841264624503N00808266EA0106201099
B0841274624501N00808260EA0106001097
B0841284624500N00808253EA0105901096
B0841294624499N00808246EA0105801095
B0841304624498N00808240EA0105701094
B0841314624498N00808233EA0105701094
B0841324624498N00808226EA0105601093
B0841334624497N00808220EA0105501092
B0841344624498N00808214EA0105401091
B0841354624498N00808208EA0105301090
B0841364624500N00808202EA0105101088
B0841374624502N00808196EA0104901086
B0841384624506N00808191EA0104701084
B0841394624511N00808189EA0104501082
B0841404624517N00808190EA0104301080
B0841414624522N00808195EA0104101078
B0841424624525N00808201EA0103901076
B0841434624528N00808207EA0103901076
B0841444624531N00808212EA0104001077
B0841454624534N00808216EA0104001077
B0841464624537N00808220EA0103801075
B0841474624540N00808225EA0103401071
B0841484624543N00808231EA0103201069
B0841494624546N00808236EA0103201069
B0841504624548N00808241EA0103201069
B0841514624550N00808245EA0103201069
B0841524624551N00808248EA0103301070
B0841534624553N00808250EA0103301070
B0841544624553N00808251EA0103301070
B0841554624554N00808252EA0103301070
B0841564624554N00808252EA0103301070
B0841574624554N00808252EA0103301070
B0841584624554N00808252EA0103301070
B0841594624554N00808252EA0103301070
B0842004624554N00808252EA0103301070
B0842014624554N00808252EA0103301070
B0842024624554N00808252EA0103301070
B0842034624554N00808252EA0103301070
B0842044624554N00808252EA0103301070
B0842054624554N00808252EA0103301070
B0842064624554N00808252EA0103301070
B0842074624554N00808252EA0103301070
B0842084624554N00808252EA0103301070
B0842094624554N00808252EA0103301070
B0842104624554N00808252EA0103301070
B0842114624554N00808252EA0103301070
B0842124624554N00808252EA0103301070
B0842134624554N00808252EA0103301070
B0842144624554N00808252EA0103301070
B0842154624554N00808252EA0103301070
B0842164624554N00808252EA0103301070
B0842174624554N00808252EA0103301070
B0842184624554N00808252EA0103301070
B0842194624554N00808252EA0103301070
B0842204624554N00808252EA0103301070
B0842214624554N00808252EA0103301070
B0842224624554N00808252EA0103301070
B0842234624554N00808252EA0103301070
B0842244624553N00808252EA0103301070
B0842254624553N00808253EA0103301070
B0842264624552N00808253EA0103301070
B0842274624551N00808253EA0103301070
B0842284624551N00808253EA0103301070
B0842294624551N00808254EA0103301070
B0842304624551N00808253EA0103301070
B0842314624551N00808253EA0103301070
B0842324624552N00808252EA0103301070
B0842334624552N00808251EA0103301070
B0842344624551N00808251EA0103301070
B0842354624551N00808250EA0103301070
B0842364624551N00808250EA0103301070
B0842374624551N00808249EA0103301070
B0842384624551N00808248EA0103301070
B0842394624551N00808247EA0103301070
B0842404624551N00808247EA0103301070
B0842414624551N00808246EA0103301070
B0842424624551N00808246EA0103301070
B0842434624551N00808246EA0103301070
B0842444624551N00808246EA0103301070
B0842454624551N00808246EA0103301070
B0842464624551N00808246EA0103301070
B0842474624551N00808246EA0103301070
B0842484624551N00808246EA0103301070
B0842494624551N00808246EA0103301070
B0842504624551N00808246EA0103301070
B0842514624551N00808246EA0103301070
B0842524624551N00808246EA0103301070
B0842534624551N00808246EA0103301070
B0842544624551N00808246EA0103301070
B0842554624552N00808246EA0103301070
B0842564624553N00808247EA0103301070
B0842574624553N00808248EA0103301070
B0842584624553N00808248EA0103301070
B0842594624554N00808249EA0103301070
B0843004624554N00808249EA0103301070
B0843014624554N00808249EA0103301070
B0843024624554N00808249EA0103301070
B0843034624553N00808249EA0103301070
B0843044624553N00808249EA0103301070
B0843054624552N00808249EA0103301070
B0843064624552N00808249EA0103301070
B0843074624552N00808249EA0103301070
B0843084624551N00808249EA0103301070
B0843094624551N00808249EA0103301070
B0843104624551N00808249EA0103301070
B0843114624551N00808249EA0103301070
B0843124624551N00808249EA0103301070
B0843134624551N00808249EA0103301070
B0843144624551N00808249EA0103301070
B0843154624551N00808249EA0103301070
B0843164624552N00808249EA0103301070
B0843174624552N00808249EA0103301070
B0843184624553N00808248EA0103301070
B0843194624553N00808247EA0103301070
B0843204624554N00808246EA0103301070
B0843214624554N00808246EA0103301070
B0843224624554N00808245EA0103301070
B0843234624554N00808244EA0103301070
B0843244624554N00808243EA0103301070
B0843254624555N00808242EA0103301070
B0843264624555N00808241EA0103301070
B0843274624555N00808240EA0103301070
B0843284624555N00808239EA0103301070
B0843294624555N00808238EA0103301070
B0843304624555N00808237EA0103301070
B0843314624555N00808236EA0103301070
B0843324624555N00808235EA0103301070
B0843334624556N00808234EA0103301070
B0843344624556N00808233EA0103301070
B0843354624556N00808232EA0103301070
B0843364624556N00808231EA0103301070
B0843374624556N00808230EA0103301070
B0843384624556N00808229EA0103301070
B0843394624556N00808228EA0103301070
B0843404624556N00808228EA0103301070
B0843414624557N00808227EA0103301070
B0843424624557N00808226EA0103301070
B0843434624557N00808225EA0103301070
B0843444624557N00808224EA0103301070
B0843454624557N00808223EA0103301070
B0843464624557N00808222EA0103301070
B0843474624558N00808221EA0103301070
B0843484624558N00808221EA0103301070
B0843494624559N00808220EA0103201070
B0843504624559N00808219EA0103201070
B0843514624559N00808218EA0103301070
B0843524624559N00808218EA0103301070
B0843534624560N00808217EA0103301070
B0843544624560N00808216EA0103301070
B0843554624561N00808216EA0103301070
LXSX;C1;GM:1.4
LXSX;S1;TS:1727252621;TL:1727253835;AS:2148;AL:1070;AT:2148;AB:1069
LXSX;S1;XS:1;XD:6.40;SP:46.1;MC:0.5;MS:-1.9;NB:1216
LXSX;S1;FL:11.4;TG:0;TC:0.0;AG:60;GM:1.4
LXSX;S1;X0:46.41414,8.11642
LXSX;S1;X1:46.41180,8.11235
LXSX;S1;X2:46.41975,8.15697
LXSX;S1;X3:46.40465,8.14070
LXSX;S1;X4:46.40787,8.13473
G3FC647CC6E8C5DAFD111D37AE443A08F
