AXBM001 BURNAIR V1.0.0 ID:00000001
HFPLTPILOT:Sepp Bucher
HFDTM100GPSDATUM:WGS-84
HFDTEDATE:151124
B1114114626791N00808702EA0000001884
B1114124626785N00808700EA0000001883
B1114134626779N00808699EA0000001882
B1114144626772N00808699EA0000001881
B1114154626767N00808699EA0000001879
B1114164626762N00808698EA0000001878
B1114174626757N00808698EA0000001876
B1114184626752N00808696EA0000001874
B1114194626746N00808696EA0000001872
B1114204626739N00808695EA0000001871
B1114214626732N00808695EA0000001868
B1114224626726N00808695EA0000001866
B1114234626720N00808696EA0000001864
B1114244626714N00808697EA0000001862
B1114254626708N00808698EA0000001860
B1114264626702N00808699EA0000001858
B1114274626696N00808699EA0000001856
B1114284626691N00808701EA0000001855
B1114294626684N00808703EA0000001853
B1114304626679N00808705EA0000001852
B1114314626674N00808707EA0000001851
B1114324626668N00808708EA0000001850
B1114334626662N00808708EA0000001848
B1114344626656N00808710EA0000001846
B1114354626651N00808710EA0000001845
B1114364626645N00808710EA0000001844
B1114374626640N00808710EA0000001842
B1114384626634N00808709EA0000001841
B1114394626628N00808709EA0000001840
B1114404626622N00808709EA0000001838
B1114414626616N00808709EA0000001836
B1114424626611N00808709EA0000001835
B1114434626605N00808709EA0000001833
B1114444626599N00808709EA0000001832
B1114454626593N00808709EA0000001830
B1114464626587N00808709EA0000001829
B1114474626581N00808709EA0000001827
B1114484626575N00808709EA0000001825
B1114494626569N00808709EA0000001823
B1114504626563N00808710EA0000001822
B1114514626558N00808710EA0000001821
B1114524626552N00808710EA0000001820
B1114534626547N00808710EA0000001819
B1114544626540N00808710EA0000001817
B1114554626535N00808710EA0000001816
B1114564626528N00808710EA0000001814
B1114574626523N00808710EA0000001812
B1114584626516N00808710EA0000001810
B1114594626511N00808709EA0000001810
B1115004626505N00808708EA0000001808
B1115014626499N00808708EA0000001807
B1115024626493N00808708EA0000001806
B1115034626488N00808707EA0000001805
B1115044626482N00808707EA0000001804
B1115054626476N00808705EA0000001803
B1115064626470N00808705EA0000001802
B1115074626464N00808704EA0000001800
B1115084626458N00808704EA0000001798
B1115094626453N00808702EA0000001796
B1115104626448N00808702EA0000001795
B1115114626441N00808701EA0000001794
B1115124626436N00808701EA0000001793
B1115134626430N00808699EA0000001792
B1115144626424N00808699EA0000001790
B1115154626419N00808698EA0000001789
B1115164626413N00808697EA0000001788
B1115174626407N00808696EA0000001787
B1115184626401N00808695EA0000001785
B1115194626395N00808694EA0000001785
B1115204626389N00808693EA0000001783
B1115214626384N00808693EA0000001782
B1115224626378N00808692EA0000001780
B1115234626372N00808691EA0000001779
B1115244626367N00808689EA0000001777
B1115254626360N00808688EA0000001776
B1115264626355N00808687EA0000001774
B1115274626348N00808686EA0000001773
B1115284626343N00808685EA0000001772
B1115294626336N00808683EA0000001770
B1115304626331N00808683EA0000001769
B1115314626324N00808682EA0000001768
B1115324626319N00808681EA0000001765
B1115334626313N00808680EA0000001764
B1115344626307N00808679EA0000001763
B1115354626301N00808678EA0000001762
B1115364626295N00808677EA0000001761
B1115374626289N00808676EA0000001759
B1115384626283N00808675EA0000001758
B1115394626278N00808674EA0000001756
B1115404626272N00808674EA0000001754
B1115414626266N00808673EA0000001753
B1115424626260N00808673EA0000001752
B1115434626254N00808672EA0000001751
B1115444626248N00808671EA0000001749
B1115454626242N00808671EA0000001747
B1115464626236N00808670EA0000001744
B1115474626230N00808670EA0000001744
B1115484626224N00808669EA0000001743
B1115494626218N00808668EA0000001742
B1115504626212N00808668EA0000001739
B1115514626206N00808667EA0000001738
B1115524626200N00808667EA0000001737
B1115534626194N00808666EA0000001735
B1115544626188N00808665EA0000001734
B1115554626182N00808665EA0000001732
B1115564626176N00808664EA0000001731
B1115574626169N00808663EA0000001729
B1115584626163N00808662EA0000001728
B1115594626158N00808662EA0000001726
B1116004626152N00808661EA0000001724
B1116014626146N00808660EA0000001722
B1116024626140N00808659EA0000001720
B1116034626134N00808659EA0000001718
B1116044626128N00808657EA0000001716
B1116054626122N00808656EA0000001715
B1116064626116N00808655EA0000001713
B1116074626110N00808654EA0000001713
B1116084626104N00808653EA0000001712
B1116094626098N00808652EA0000001711
B1116104626093N00808651EA0000001710
B1116114626087N00808650EA0000001709
B1116124626081N00808649EA0000001707
B1116134626076N00808648EA0000001705
B1116144626069N00808647EA0000001704
B1116154626064N00808645EA0000001702
B1116164626058N00808644EA0000001701
B1116174626052N00808643EA0000001700
B1116184626047N00808641EA0000001698
B1116194626041N00808640EA0000001697
B1116204626035N00808639EA0000001696
B1116214626029N00808638EA0000001694
B1116224626023N00808637EA0000001692
B1116234626018N00808635EA0000001691
B1116244626012N00808634EA0000001690
B1116254626007N00808633EA0000001688
B1116264626000N00808632EA0000001686
B1116274625995N00808631EA0000001684
B1116284625988N00808629EA0000001683
B1116294625983N00808628EA0000001682
B1116304625977N00808627EA0000001681
B1116314625972N00808626EA0000001680
B1116324625966N00808625EA0000001678
B1116334625960N00808623EA0000001676
B1116344625954N00808622EA0000001676
B1116354625948N00808622EA0000001674
B1116364625942N00808620EA0000001672
B1116374625936N00808620EA0000001670
B1116384625930N00808618EA0000001669
B1116394625925N00808617EA0000001668
B1116404625919N00808617EA0000001667
B1116414625913N00808615EA0000001667
B1116424625907N00808614EA0000001665
B1116434625901N00808614EA0000001663
B1116444625895N00808612EA0000001662
B1116454625889N00808611EA0000001660
B1116464625883N00808611EA0000001658
B1116474625877N00808609EA0000001657
B1116484625871N00808609EA0000001656
B1116494625865N00808608EA0000001654
B1116504625859N00808607EA0000001653
B1116514625854N00808606EA0000001651
B1116524625847N00808605EA0000001649
B1116534625842N00808605EA0000001649
B1116544625835N00808603EA0000001648
B1116554625830N00808602EA0000001646
B1116564625823N00808602EA0000001645
B1116574625818N00808600EA0000001643
B1116584625811N00808599EA0000001642
B1116594625806N00808598EA0000001641
B1117004625799N00808596EA0000001640
B1117014625794N00808595EA0000001639
B1117024625788N00808593EA0000001637
B1117034625782N00808592EA0000001636
B1117044625776N00808590EA0000001634
B1117054625770N00808589EA0000001633
B1117064625764N00808587EA0000001631
B1117074625759N00808585EA0000001630
B1117084625753N00808583EA0000001627
B1117094625747N00808581EA0000001626
B1117104625741N00808580EA0000001625
B1117114625735N00808578EA0000001623
B1117124625729N00808577EA0000001622
B1117134625722N00808575EA0000001621
B1117144625716N00808573EA0000001619
B1117154625711N00808571EA0000001617
B1117164625705N00808569EA0000001616
B1117174625699N00808567EA0000001614
B1117184625693N00808566EA0000001612
B1117194625687N00808564EA0000001611
B1117204625681N00808563EA0000001610
B1117214625675N00808562EA0000001608
B1117224625669N00808561EA0000001607
B1117234625663N00808559EA0000001605
B1117244625657N00808558EA0000001604
B1117254625651N00808557EA0000001602
B1117264625645N00808555EA0000001600
B1117274625639N00808555EA0000001599
B1117284625633N00808554EA0000001598
B1117294625627N00808553EA0000001596
B1117304625622N00808552EA0000001595
B1117314625616N00808551EA0000001593
B1117324625610N00808550EA0000001591
B1117334625604N00808548EA0000001590
B1117344625598N00808548EA0000001589
B1117354625592N00808547EA0000001587
B1117364625587N00808545EA0000001586
B1117374625580N00808544EA0000001585
B1117384625575N00808543EA0000001582
B1117394625568N00808542EA0000001580
B1117404625562N00808541EA0000001578
B1117414625557N00808539EA0000001576
B1117424625551N00808537EA0000001575
B1117434625545N00808536EA0000001573
B1117444625539N00808534EA0000001571
B1117454625534N00808532EA0000001570
B1117464625528N00808530EA0000001568
B1117474625522N00808528EA0000001566
B1117484625516N00808525EA0000001565
B1117494625510N00808524EA0000001563
B1117504625505N00808522EA0000001562
B1117514625499N00808520EA0000001560
B1117524625493N00808518EA0000001559
B1117534625487N00808516EA0000001557
B1117544625482N00808515EA0000001555
B1117554625475N00808513EA0000001554
B1117564625470N00808511EA0000001552
B1117574625464N00808509EA0000001550
B1117584625458N00808507EA0000001549
B1117594625453N00808505EA0000001548
B1118004625447N00808504EA0000001547
B1118014625441N00808502EA0000001545
B1118024625435N00808500EA0000001544
B1118034625429N00808499EA0000001543
B1118044625423N00808497EA0000001541
B1118054625418N00808496EA0000001541
B1118064625412N00808494EA0000001540
B1118074625407N00808493EA0000001539
B1118084625401N00808491EA0000001537
B1118094625395N00808490EA0000001536
B1118104625389N00808488EA0000001534
B1118114625383N00808487EA0000001532
B1118124625377N00808485EA0000001531
B1118134625372N00808484EA0000001529
B1118144625366N00808483EA0000001527
B1118154625360N00808482EA0000001525
B1118164625354N00808480EA0000001524
B1118174625349N00808479EA0000001522
B1118184625343N00808477EA0000001521
B1118194625337N00808476EA0000001520
B1118204625331N00808475EA0000001519
B1118214625326N00808474EA0000001517
B1118224625320N00808473EA0000001515
B1118234625314N00808471EA0000001514
B1118244625309N00808470EA0000001512
B1118254625303N00808468EA0000001511
B1118264625297N00808467EA0000001510
B1118274625292N00808465EA0000001510
B1118284625286N00808464EA0000001508
B1118294625280N00808462EA0000001507
B1118304625275N00808460EA0000001505
B1118314625268N00808458EA0000001504
B1118324625263N00808457EA0000001503
B1118334625258N00808455EA0000001501
B1118344625252N00808453EA0000001499
B1118354625246N00808451EA0000001498
B1118364625240N00808448EA0000001496
B1118374625235N00808446EA0000001494
B1118384625229N00808443EA0000001493
B1118394625224N00808440EA0000001491
B1118404625219N00808438EA0000001490
B1118414625213N00808435EA0000001489
B1118424625208N00808432EA0000001487
B1118434625203N00808429EA0000001487
B1118444625197N00808426EA0000001485
B1118454625192N00808423EA0000001483
B1118464625186N00808420EA0000001483
B1118474625181N00808417EA0000001481
B1118484625176N00808415EA0000001480
B1118494625171N00808412EA0000001479
B1118504625165N00808409EA0000001478
B1118514625160N00808406EA0000001477
B1118524625154N00808403EA0000001475
B1118534625149N00808400EA0000001473
B1118544625144N00808397EA0000001471
B1118554625138N00808394EA0000001469
B1118564625133N00808390EA0000001468
B1118574625127N00808387EA0000001466
B1118584625122N00808384EA0000001465
B1118594625117N00808381EA0000001464
B1119004625112N00808377EA0000001463
B1119014625107N00808374EA0000001461
B1119024625101N00808372EA0000001460
B1119034625096N00808368EA0000001459
B1119044625090N00808365EA0000001457
B1119054625085N00808362EA0000001456
B1119064625079N00808359EA0000001455
B1119074625075N00808356EA0000001452
B1119084625069N00808352EA0000001451
B1119094625064N00808349EA0000001450
B1119104625059N00808346EA0000001449
B1119114625054N00808343EA0000001447
B1119124625048N00808340EA0000001446
B1119134625043N00808338EA0000001444
B1119144625037N00808335EA0000001443
B1119154625032N00808333EA0000001441
B1119164625027N00808330EA0000001440
B1119174625021N00808327EA0000001439
B1119184625015N00808325EA0000001437
B1119194625010N00808323EA0000001436
B1119204625005N00808320EA0000001434
B1119214625000N00808317EA0000001433
B1119224624994N00808315EA0000001432
B1119234624989N00808313EA0000001431
B1119244624984N00808310EA0000001429
B1119254624979N00808307EA0000001428
B1119264624974N00808304EA0000001427
B1119274624969N00808301EA0000001425
B1119284624964N00808299EA0000001424
B1119294624959N00808296EA0000001423
B1119304624954N00808293EA0000001422
B1119314624948N00808291EA0000001421
B1119324624943N00808288EA0000001420
B1119334624938N00808287EA0000001418
B1119344624934N00808284EA0000001417
B1119354624929N00808281EA0000001416
B1119364624923N00808278EA0000001413
B1119374624918N00808275EA0000001412
B1119384624914N00808272EA0000001409
B1119394624910N00808270EA0000001408
B1119404624906N00808268EA0000001407
B1119414624901N00808265EA0000001406
B1119424624896N00808262EA0000001404
B1119434624892N00808259EA0000001403
B1119444624886N00808257EA0000001401
B1119454624882N00808254EA0000001399
B1119464624877N00808252EA0000001398
B1119474624872N00808249EA0000001396
B1119484624867N00808248EA0000001394
B1119494624862N00808245EA0000001393
B1119504624856N00808243EA0000001391
B1119514624850N00808241EA0000001390
B1119524624845N00808239EA0000001388
B1119534624840N00808237EA0000001387
B1119544624833N00808236EA0000001385
B1119554624828N00808234EA0000001383
B1119564624823N00808232EA0000001381
B1119574624817N00808230EA0000001380
B1119584624812N00808229EA0000001379
B1119594624806N00808226EA0000001378
B1120004624801N00808224EA0000001376
B1120014624795N00808223EA0000001375
B1120024624790N00808221EA0000001374
B1120034624785N00808218EA0000001373
B1120044624779N00808217EA0000001371
B1120054624774N00808214EA0000001370
B1120064624769N00808212EA0000001368
B1120074624764N00808209EA0000001367
B1120084624759N00808207EA0000001366
B1120094624754N00808204EA0000001364
B1120104624750N00808202EA0000001362
B1120114624745N00808200EA0000001361
B1120124624739N00808198EA0000001360
B1120134624735N00808196EA0000001358
B1120144624730N00808194EA0000001356
B1120154624725N00808192EA0000001354
B1120164624719N00808191EA0000001352
B1120174624715N00808189EA0000001352
B1120184624709N00808187EA0000001350
B1120194624704N00808186EA0000001348
B1120204624699N00808185EA0000001347
B1120214624694N00808184EA0000001345
B1120224624689N00808182EA0000001344
B1120234624684N00808181EA0000001341
B1120244624679N00808178EA0000001339
B1120254624674N00808176EA0000001337
B1120264624669N00808173EA0000001335
B1120274624664N00808171EA0000001333
B1120284624659N00808169EA0000001332
B1120294624654N00808166EA0000001330
B1120304624650N00808163EA0000001328
B1120314624645N00808161EA0000001326
B1120324624640N00808158EA0000001324
B1120334624635N00808155EA0000001322
B1120344624630N00808151EA0000001321
B1120354624626N00808148EA0000001319
B1120364624621N00808144EA0000001317
B1120374624617N00808140EA0000001317
B1120384624613N00808137EA0000001316
B1120394624608N00808133EA0000001314
B1120404624603N00808129EA0000001312
B1120414624598N00808125EA0000001311
B1120424624594N00808121EA0000001310
B1120434624590N00808116EA0000001308
B1120444624586N00808112EA0000001307
B1120454624582N00808108EA0000001306
B1120464624577N00808104EA0000001305
B1120474624573N00808100EA0000001303
B1120484624568N00808096EA0000001302
B1120494624563N00808092EA0000001299
B1120504624559N00808088EA0000001297
B1120514624555N00808083EA0000001296
B1120524624550N00808079EA0000001295
B1120534624546N00808076EA0000001293
B1120544624541N00808071EA0000001292
B1120554624536N00808068EA0000001289
B1120564624532N00808063EA0000001288
B1120574624527N00808060EA0000001286
B1120584624523N00808056EA0000001285
B1120594624518N00808052EA0000001284
B1121004624514N00808048EA0000001283
B1121014624509N00808046EA0000001281
B1121024624505N00808045EA0000001279
B1121034624500N00808044EA0000001278
B1121044624496N00808043EA0000001277
B1121054624492N00808044EA0000001276
B1121064624487N00808045EA0000001274
B1121074624482N00808047EA0000001272
B1121084624478N00808050EA0000001271
B1121094624473N00808053EA0000001269
B1121104624469N00808057EA0000001267
B1121114624465N00808062EA0000001266
B1121124624461N00808068EA0000001265
B1121134624458N00808074EA0000001265
B1121144624455N00808079EA0000001263
B1121154624453N00808085EA0000001260
B1121164624450N00808091EA0000001259
B1121174624448N00808099EA0000001257
B1121184624445N00808107EA0000001255
B1121194624443N00808114EA0000001254
B1121204624441N00808123EA0000001253
B1121214624439N00808131EA0000001251
B1121224624437N00808139EA0000001250
B1121234624434N00808146EA0000001249
B1121244624433N00808152EA0000001248
B1121254624430N00808158EA0000001246
B1121264624428N00808165EA0000001245
B1121274624425N00808172EA0000001244
B1121284624424N00808179EA0000001243
B1121294624423N00808187EA0000001242
B1121304624423N00808193EA0000001241
B1121314624423N00808200EA0000001240
B1121324624424N00808207EA0000001239
B1121334624425N00808215EA0000001237
B1121344624427N00808223EA0000001236
B1121354624429N00808230EA0000001234
B1121364624430N00808237EA0000001233
B1121374624432N00808244EA0000001232
B1121384624434N00808250EA0000001232
B1121394624435N00808256EA0000001231
B1121404624437N00808261EA0000001230
B1121414624439N00808266EA0000001229
B1121424624442N00808272EA0000001229
B1121434624444N00808278EA0000001228
B1121444624448N00808284EA0000001226
B1121454624451N00808288EA0000001225
B1121464624454N00808293EA0000001223
B1121474624457N00808297EA0000001222
B1121484624460N00808302EA0000001221
B1121494624463N00808307EA0000001220
B1121504624467N00808313EA0000001218
B1121514624471N00808317EA0000001216
B1121524624474N00808322EA0000001215
B1121534624478N00808327EA0000001214
B1121544624481N00808332EA0000001213
B1121554624485N00808337EA0000001212
B1121564624489N00808342EA0000001209
B1121574624493N00808347EA0000001207
B1121584624497N00808353EA0000001206
B1121594624501N00808358EA0000001205
B1122004624505N00808364EA0000001203
B1122014624509N00808370EA0000001202
B1122024624514N00808374EA0000001200
B1122034624518N00808379EA0000001200
B1122044624522N00808383EA0000001199
B1122054624526N00808387EA0000001197
B1122064624531N00808392EA0000001195
B1122074624535N00808397EA0000001194
B1122084624539N00808401EA0000001193
B1122094624544N00808404EA0000001190
B1122104624548N00808409EA0000001188
B1122114624553N00808413EA0000001187
B1122124624558N00808419EA0000001186
B1122134624562N00808423EA0000001184
B1122144624566N00808429EA0000001183
B1122154624570N00808432EA0000001182
B1122164624574N00808436EA0000001180
B1122174624577N00808440EA0000001179
B1122184624581N00808443EA0000001178
B1122194624585N00808446EA0000001177
B1122204624589N00808449EA0000001176
B1122214624595N00808451EA0000001175
B1122224624600N00808452EA0000001174
B1122234624605N00808452EA0000001172
B1122244624610N00808453EA0000001171
B1122254624616N00808452EA0000001169
B1122264624622N00808449EA0000001168
B1122274624628N00808446EA0000001165
B1122284624633N00808442EA0000001164
B1122294624638N00808439EA0000001162
B1122304624642N00808435EA0000001161
B1122314624646N00808431EA0000001160
B1122324624650N00808429EA0000001159
B1122334624654N00808425EA0000001158
B1122344624658N00808422EA0000001157
B1122354624663N00808417EA0000001156
B1122364624667N00808414EA0000001155
B1122374624671N00808410EA0000001153
B1122384624675N00808407EA0000001153
B1122394624679N00808403EA0000001152
B1122404624683N00808399EA0000001150
B1122414624687N00808395EA0000001150
B1122424624691N00808391EA0000001149
B1122434624693N00808387EA0000001148
B1122444624694N00808382EA0000001146
B1122454624693N00808376EA0000001145
B1122464624691N00808371EA0000001142
B1122474624687N00808367EA0000001139
B1122484624683N00808362EA0000001139
B1122494624679N00808359EA0000001139
B1122504624674N00808360EA0000001138
B1122514624669N00808362EA0000001136
B1122524624664N00808364EA0000001134
B1122534624660N00808365EA0000001133
B1122544624656N00808365EA0000001132
B1122554624652N00808365EA0000001131
B1122564624649N00808362EA0000001128
B1122574624648N00808356EA0000001126
B1122584624646N00808352EA0000001126
B1122594624646N00808345EA0000001126
B1123004624649N00808339EA0000001125
B1123014624653N00808335EA0000001124
B1123024624656N00808330EA0000001123
B1123034624658N00808325EA0000001121
B1123044624660N00808319EA0000001120
B1123054624661N00808313EA0000001118
B1123064624661N00808307EA0000001117
B1123074624661N00808302EA0000001116
B1123084624661N00808296EA0000001114
B1123094624660N00808291EA0000001113
B1123104624657N00808285EA0000001110
B1123114624654N00808282EA0000001107
B1123124624651N00808282EA0000001107
B1123134624648N00808286EA0000001108
B1123144624646N00808291EA0000001106
B1123154624642N00808295EA0000001105
B1123164624638N00808300EA0000001104
B1123174624634N00808304EA0000001102
B1123184624631N00808307EA0000001101
B1123194624628N00808308EA0000001099
B1123204624625N00808309EA0000001098
B1123214624624N00808308EA0000001097
B1123224624621N00808307EA0000001096
B1123234624622N00808302EA0000001094
B1123244624624N00808295EA0000001094
B1123254624625N00808289EA0000001094
B1123264624625N00808283EA0000001093
B1123274624624N00808277EA0000001091
B1123284624622N00808272EA0000001090
B1123294624618N00808268EA0000001088
B1123304624614N00808268EA0000001086
B1123314624611N00808268EA0000001085
B1123324624608N00808269EA0000001083
B1123334624606N00808269EA0000001080
B1123344624603N00808268EA0000001081
B1123354624600N00808266EA0000001079
B1123364624597N00808265EA0000001078
B1123374624595N00808266EA0000001076
B1123384624592N00808266EA0000001075
B1123394624589N00808266EA0000001074
B1123404624587N00808266EA0000001072
B1123414624586N00808264EA0000001071
B1123424624585N00808262EA0000001069
B1123434624582N00808259EA0000001067
B1123444624580N00808256EA0000001067
B1123454624575N00808254EA0000001066
B1123464624571N00808249EA0000001067
B1123474624568N00808245EA0000001066
B1123484624565N00808242EA0000001064
B1123494624563N00808238EA0000001061
B1123504624561N00808236EA0000001060
B1123514624560N00808234EA0000001060
B1123524624559N00808233EA0000001059
B1123534624559N00808233EA0000001059
B1123544624558N00808232EA0000001059
B1123554624558N00808232EA0000001059
B1123564624559N00808231EA0000001059
B1123574624559N00808230EA0000001059
B1123584624559N00808230EA0000001058
B1123594624559N00808228EA0000001058
B1124004624559N00808227EA0000001058
B1124014624559N00808227EA0000001058
B1124024624559N00808227EA0000001058
B1124034624559N00808227EA0000001058
B1124044624559N00808227EA0000001058
B1124054624559N00808227EA0000001057
B1124064624559N00808227EA0000001057
B1124074624559N00808227EA0000001057
B1124084624559N00808227EA0000001057
B1124094624559N00808227EA0000001057
B1124104624559N00808227EA0000001057
B1124114624559N00808227EA0000001057
B1124124624559N00808227EA0000001057
B1124134624559N00808227EA0000001057
B1124144624559N00808227EA0000001057
B1124154624559N00808227EA0000001057
B1124164624559N00808227EA0000001057
LXBM;BA:1.0
G88F8E2B9EBE65FBDE2940FDCE0CA6584