AXSX005 SKYTRAXX
HFPLTPILOT:SeBu
HFGTYGLIDERTYPE:Advance Sigma 11
HFDTM100GPSDATUM:WGS-84
HFRFWFIRMWAREVERSION:202406271636
HFRHWHARDWAREVERSION:4.0
HFTZNTIMEZONE:+2.00
HFSITSITE:Fiesch Kühboden 1 (
HFDTE140824
LXSX;I1;OAB:20240812;OOB:20240806
LXSX;I1;ID:114075
LXSX;I1;AC:1;CAT:C
B0746594624856N00806470EA0205402152
B0747004624856N00806470EA0205302152
B0747014624856N00806470EA0205302152
B0747024624856N00806470EA0205302152
B0747034624857N00806469EA0205402152
B0747044624856N00806470EA0205302152
B0747054624856N00806471EA0205302152
B0747064624856N00806471EA0205302152
B0747074624856N00806471EA0205302152
B0747084624856N00806471EA0205302152
B0747094624856N00806471EA0205302152
B0747104624856N00806471EA0205302151
B0747114624855N00806472EA0205202150
B0747124624854N00806472EA0205102150
B0747134624853N00806474EA0205002149
B0747144624852N00806475EA0204902147
B0747154624851N00806478EA0204702145
B0747164624849N00806480EA0204502143
B0747174624846N00806484EA0204202140
B0747184624844N00806488EA0203902138
B0747194624841N00806492EA0203702136
B0747204624837N00806497EA0203602134
B0747214624834N00806502EA0203602134
B0747224624832N00806507EA0203602135
B0747234624829N00806512EA0203802136
B0747244624828N00806518EA0203702135
B0747254624826N00806524EA0203502133
B0747264624825N00806531EA0203402132
B0747274624823N00806539EA0203102129
B0747284624823N00806547EA0203002128
B0747294624822N00806554EA0203002128
B0747304624822N00806562EA0203002128
B0747314624823N00806570EA0203002128
B0747324624823N00806577EA0202902127
B0747334624824N00806585EA0202902127
B0747344624825N00806592EA0202902127
B0747354624825N00806600EA0202802126
B0747364624825N00806608EA0202702126
B0747374624825N00806615EA0202702125
B0747384624826N00806622EA0202602124
B0747394624827N00806630EA0202602124
B0747404624828N00806637EA0202502123
B0747414624830N00806644EA0202402122
B0747424624831N00806652EA0202302122
B0747434624833N00806659EA0202202121
B0747444624834N00806666EA0202202121
B0747454624836N00806673EA0202202120
B0747464624838N00806680EA0202102119
B0747474624839N00806687EA0202002118
B0747484624841N00806694EA0201902117
B0747494624843N00806701EA0201802117
B0747504624844N00806709EA0201802116
B0747514624846N00806716EA0201702116
B0747524624848N00806723EA0201602115
B0747534624850N00806731EA0201602114
B0747544624853N00806738EA0201502113
B0747554624855N00806746EA0201402112
B0747564624857N00806754EA0201302112
B0747574624859N00806761EA0201302111
B0747584624860N00806769EA0201302111
B0747594624862N00806777EA0201302112
B0748004624863N00806785EA0201402112
B0748014624864N00806792EA0201302111
B0748024624866N00806800EA0201202110
B0748034624868N00806807EA0201102109
B0748044624869N00806815EA0201002108
B0748054624871N00806822EA0200902108
B0748064624873N00806829EA0200902107
B0748074624874N00806836EA0200802106
B0748084624876N00806843EA0200602105
B0748094624877N00806850EA0200502103
B0748104624879N00806857EA0200302102
B0748114624881N00806864EA0200202100
B0748124624882N00806871EA0200102099
B0748134624884N00806878EA0199902098
B0748144624885N00806886EA0199702096
B0748154624887N00806894EA0199502094
B0748164624890N00806902EA0199402092
B0748174624892N00806909EA0199302091
B0748184624894N00806917EA0199202090
B0748194624897N00806925EA0199102089
B0748204624899N00806932EA0199002089
B0748214624902N00806940EA0198902087
B0748224624904N00806947EA0198802086
B0748234624906N00806955EA0198702085
B0748244624909N00806963EA0198602085
B0748254624911N00806971EA0198602084
B0748264624913N00806978EA0198502084
B0748274624915N00806986EA0198402083
B0748284624917N00806993EA0198302082
B0748294624919N00807001EA0198202081
B0748304624921N00807008EA0198102080
B0748314624922N00807016EA0198002078
B0748324624924N00807024EA0197802076
B0748334624926N00807032EA0197702076
B0748344624928N00807040EA0197602074
B0748354624930N00807048EA0197502073
B0748364624932N00807056EA0197402072
B0748374624934N00807064EA0197302071
B0748384624936N00807071EA0197102070
B0748394624938N00807079EA0197002068
B0748404624940N00807087EA0196802066
B0748414624942N00807095EA0196602064
B0748424624944N00807103EA0196502063
B0748434624947N00807110EA0196302061
B0748444624949N00807118EA0196102060
B0748454624950N00807127EA0195902057
B0748464624951N00807135EA0195602055
B0748474624953N00807144EA0195502054
B0748484624955N00807152EA0195402053
B0748494624957N00807160EA0195402052
B0748504624958N00807167EA0195302051
B0748514624960N00807175EA0195102050
B0748524624961N00807182EA0195002048
B0748534624963N00807191EA0194802046
B0748544624964N00807199EA0194702045
B0748554624965N00807208EA0194502043
B0748564624966N00807217EA0194402042
B0748574624967N00807225EA0194302041
B0748584624968N00807234EA0194102040
B0748594624968N00807242EA0194002038
B0749004624969N00807250EA0193902037
B0749014624971N00807259EA0193702035
B0749024624971N00807267EA0193502034
B0749034624972N00807275EA0193402032
B0749044624974N00807284EA0193202031
B0749054624975N00807293EA0193002029
B0749064624976N00807301EA0192802027
B0749074624977N00807310EA0192702025
B0749084624979N00807318EA0192502024
B0749094624981N00807327EA0192402023
B0749104624982N00807336EA0192302021
B0749114624984N00807344EA0192202020
B0749124624986N00807353EA0192002019
B0749134624988N00807361EA0191902017
B0749144624990N00807369EA0191702015
B0749154624991N00807378EA0191502013
B0749164624993N00807387EA0191302011
B0749174624994N00807396EA0191102009
B0749184624996N00807405EA0190902007
B0749194624998N00807414EA0190802006
B0749204625000N00807423EA0190702005
B0749214625001N00807432EA0190602004
B0749224625001N00807440EA0190502003
B0749234625002N00807449EA0190302001
B0749244625004N00807458EA0190202000
B0749254625006N00807467EA0190001998
B0749264625007N00807476EA0189901997
B0749274625008N00807485EA0189801996
B0749284625009N00807493EA0189701995
B0749294625010N00807501EA0189501994
B0749304625012N00807510EA0189401992
B0749314625013N00807519EA0189201991
B0749324625014N00807528EA0189201990
B0749334625015N00807537EA0189101990
B0749344625016N00807545EA0189101989
B0749354625017N00807553EA0189001988
B0749364625018N00807561EA0188801987
B0749374625019N00807570EA0188601984
B0749384625020N00807579EA0188401983
B0749394625021N00807588EA0188301982
B0749404625022N00807597EA0188301981
B0749414625022N00807605EA0188301981
B0749424625023N00807613EA0188201981
B0749434625024N00807621EA0188101980
B0749444625024N00807630EA0188001978
B0749454625025N00807638EA0187901977
B0749464625025N00807647EA0187801976
B0749474625025N00807655EA0187701975
B0749484625025N00807664EA0187601974
B0749494625025N00807673EA0187601974
B0749504625025N00807682EA0187501973
B0749514625025N00807690EA0187401973
B0749524625025N00807698EA0187301972
B0749534625025N00807707EA0187101970
B0749544625024N00807716EA0186901968
B0749554625023N00807725EA0186801966
B0749564625022N00807734EA0186701965
B0749574625021N00807743EA0186601964
B0749584625021N00807751EA0186501963
B0749594625020N00807760EA0186401962
B0750004625019N00807768EA0186201961
B0750014625019N00807777EA0186201960
B0750024625017N00807785EA0186101959
B0750034625015N00807793EA0186001958
B0750044625013N00807801EA0185701956
B0750054625009N00807808EA0185601954
B0750064625006N00807815EA0185501953
B0750074625002N00807822EA0185401952
B0750084624998N00807828EA0185401952
B0750094624994N00807834EA0185501954
B0750104624989N00807839EA0185601954
B0750114624984N00807845EA0185501953
B0750124624980N00807851EA0185501953
B0750134624976N00807856EA0185401953
B0750144624972N00807860EA0185401952
B0750154624968N00807862EA0185301951
B0750164624963N00807862EA0185101949
B0750174624957N00807860EA0184901948
B0750184624952N00807857EA0184801947
B0750194624949N00807852EA0184801947
B0750204624946N00807847EA0184801946
B0750214624945N00807840EA0184701945
B0750224624945N00807833EA0184501944
B0750234624947N00807826EA0184401943
B0750244624949N00807820EA0184301942
B0750254624953N00807815EA0184201941
B0750264624958N00807813EA0184101940
B0750274624963N00807813EA0184001938
B0750284624968N00807815EA0183901937
B0750294624973N00807820EA0183701936
B0750304624976N00807827EA0183601935
B0750314624977N00807835EA0183601934
B0750324624977N00807843EA0183501933
B0750334624975N00807851EA0183301932
B0750344624973N00807859EA0183301931
B0750354624971N00807866EA0183201930
B0750364624970N00807874EA0183101929
B0750374624968N00807882EA0182901928
B0750384624968N00807891EA0182801926
B0750394624966N00807900EA0182601925
B0750404624965N00807908EA0182601924
B0750414624964N00807917EA0182501924
B0750424624963N00807925EA0182501923
B0750434624962N00807933EA0182501923
B0750444624959N00807940EA0182401923
B0750454624955N00807944EA0182201921
B0750464624950N00807944EA0182001918
B0750474624944N00807943EA0182001918
B0750484624939N00807946EA0181801916
B0750494624935N00807952EA0181301912
B0750504624936N00807961EA0180901907
B0750514624939N00807971EA0180901907
B0750524624941N00807980EA0181001908
B0750534624938N00807988EA0180601904
B0750544624932N00807990EA0179901898
B0750554624924N00807985EA0179401893
B0750564624917N00807981EA0179601894
B0750574624911N00807983EA0179301892
B0750584624908N00807991EA0178801886
B0750594624910N00808003EA0178401882
B0751004624913N00808013EA0178601885
B0751014624912N00808022EA0178501883
B0751024624908N00808028EA0178001878
B0751034624902N00808027EA0177501873
B0751044624895N00808022EA0177301871
B0751054624889N00808023EA0177301871
B0751064624884N00808029EA0177001868
B0751074624885N00808039EA0176201860
B0751084624889N00808049EA0176201860
B0751094624891N00808059EA0176401862
B0751104624888N00808068EA0176001858
B0751114624882N00808070EA0175301852
B0751124624875N00808065EA0174801847
B0751134624869N00808064EA0175101849
B0751144624864N00808068EA0175101850
B0751154624861N00808075EA0174601844
B0751164624863N00808086EA0174101839
B0751174624866N00808096EA0174101840
B0751184624868N00808106EA0174301841
B0751194624867N00808113EA0174301841
B0751204624863N00808119EA0174101840
B0751214624860N00808125EA0173901837
B0751224624858N00808132EA0173601834
B0751234624856N00808142EA0173401832
B0751244624855N00808152EA0173401832
B0751254624853N00808161EA0173301832
B0751264624850N00808169EA0173301832
B0751274624847N00808176EA0173301831
B0751284624845N00808183EA0173101830
B0751294624844N00808192EA0173001828
B0751304624842N00808201EA0172901827
B0751314624841N00808210EA0172801826
B0751324624839N00808219EA0172701826
B0751334624837N00808227EA0172701825
B0751344624836N00808236EA0172601824
B0751354624835N00808244EA0172501823
B0751364624834N00808253EA0172401822
B0751374624832N00808261EA0172301822
B0751384624828N00808267EA0172301821
B0751394624823N00808269EA0172101819
B0751404624818N00808266EA0171801816
B0751414624815N00808258EA0171401813
B0751424624818N00808249EA0171101809
B0751434624825N00808246EA0170501804
B0751444624832N00808252EA0169901798
B0751454624833N00808265EA0169501793
B0751464624827N00808274EA0169301791
B0751474624819N00808272EA0169101789
B0751484624817N00808261EA0168401783
B0751494624824N00808255EA0167401773
B0751504624832N00808263EA0166501764
B0751514624830N00808277EA0166001759
B0751524624821N00808280EA0165701756
B0751534624816N00808271EA0165401752
B0751544624820N00808260EA0164401742
B0751554624829N00808264EA0163301731
B0751564624828N00808278EA0162701725
B0751574624819N00808284EA0162501723
B0751584624812N00808276EA0162201720
B0751594624814N00808264EA0161401713
B0752004624821N00808265EA0160201700
B0752014624822N00808277EA0159201691
B0752024624814N00808284EA0158701686
B0752034624806N00808276EA0158501683
B0752044624808N00808264EA0157801676
B0752054624816N00808264EA0156501663
B0752064624816N00808277EA0155301651
B0752074624806N00808282EA0154801646
B0752084624800N00808274EA0154501644
B0752094624803N00808262EA0153801636
B0752104624811N00808266EA0152601624
B0752114624813N00808279EA0151601615
B0752124624804N00808285EA0151201610
B0752134624795N00808282EA0151201611
B0752144624793N00808276EA0151101609
B0752154624797N00808267EA0150701606
B0752164624803N00808270EA0150501603
B0752174624807N00808275EA0150601605
B0752184624809N00808278EA0150901608
B0752194624811N00808279EA0150901608
B0752204624813N00808280EA0150701605
B0752214624818N00808282EA0150301601
B0752224624823N00808286EA0149901597
B0752234624828N00808290EA0149801596
B0752244624832N00808293EA0149801596
B0752254624837N00808295EA0149801597
B0752264624841N00808297EA0149701596
B0752274624845N00808299EA0149501594
B0752284624849N00808302EA0149301591
B0752294624855N00808306EA0149101590
B0752304624859N00808310EA0149101589
B0752314624862N00808316EA0149001589
B0752324624864N00808321EA0148901588
B0752334624865N00808328EA0148801586
B0752344624864N00808335EA0148701586
B0752354624863N00808342EA0148601585
B0752364624861N00808348EA0148501584
B0752374624857N00808354EA0148401582
B0752384624853N00808358EA0148301581
B0752394624849N00808362EA0148201580
B0752404624845N00808366EA0148001579
B0752414624840N00808370EA0147801577
B0752424624836N00808373EA0147701575
B0752434624830N00808375EA0147601574
B0752444624825N00808377EA0147501574
B0752454624819N00808379EA0147501573
B0752464624814N00808381EA0147401572
B0752474624808N00808382EA0147301572
B0752484624803N00808383EA0147201571
B0752494624798N00808383EA0147101570
B0752504624792N00808383EA0147001569
B0752514624787N00808383EA0146901568
B0752524624781N00808382EA0146801567
B0752534624775N00808380EA0146801566
B0752544624770N00808379EA0146701565
B0752554624764N00808377EA0146601564
B0752564624759N00808375EA0146501563
B0752574624753N00808372EA0146201561
B0752584624748N00808369EA0146001558
B0752594624742N00808366EA0145901557
B0753004624736N00808362EA0145901557
B0753014624731N00808358EA0145901557
B0753024624726N00808353EA0145901557
B0753034624721N00808348EA0145801556
B0753044624715N00808344EA0145601555
B0753054624710N00808341EA0145501554
B0753064624705N00808337EA0145401553
B0753074624699N00808334EA0145301552
B0753084624694N00808330EA0145201551
B0753094624688N00808326EA0145101550
B0753104624683N00808322EA0145101549
B0753114624677N00808318EA0145001548
B0753124624672N00808315EA0144901547
B0753134624666N00808310EA0144801547
B0753144624661N00808306EA0144701546
B0753154624655N00808302EA0144701545
B0753164624649N00808298EA0144601544
B0753174624644N00808295EA0144501543
B0753184624638N00808290EA0144401542
B0753194624633N00808286EA0144401542
B0753204624627N00808281EA0144201541
B0753214624622N00808277EA0144101540
B0753224624616N00808273EA0144101540
B0753234624611N00808269EA0144101539
B0753244624606N00808265EA0144001539
B0753254624600N00808262EA0143901538
B0753264624595N00808259EA0143801537
B0753274624589N00808257EA0143701536
B0753284624584N00808255EA0143701535
B0753294624578N00808254EA0143601534
B0753304624572N00808252EA0143501533
B0753314624566N00808251EA0143401533
B0753324624561N00808251EA0143401532
B0753334624556N00808253EA0143201531
B0753344624553N00808259EA0143101530
B0753354624551N00808265EA0143001528
B0753364624551N00808272EA0142901527
B0753374624552N00808277EA0142801526
B0753384624555N00808282EA0142801526
B0753394624559N00808285EA0142601525
B0753404624564N00808286EA0142501523
B0753414624568N00808287EA0142401522
B0753424624573N00808285EA0142201520
B0753434624578N00808281EA0142101519
B0753444624582N00808275EA0142001518
B0753454624585N00808267EA0141901518
B0753464624587N00808259EA0141901517
B0753474624588N00808251EA0141801516
B0753484624587N00808243EA0141701515
B0753494624586N00808234EA0141501514
B0753504624584N00808226EA0141501513
B0753514624581N00808218EA0141401512
B0753524624577N00808212EA0141201511
B0753534624573N00808206EA0141101510
B0753544624568N00808200EA0141001509
B0753554624564N00808194EA0140901507
B0753564624559N00808188EA0140801506
B0753574624554N00808182EA0140701505
B0753584624549N00808176EA0140601504
B0753594624544N00808171EA0140401503
B0754004624538N00808167EA0140401502
B0754014624533N00808162EA0140301501
B0754024624528N00808157EA0140201500
B0754034624523N00808152EA0140101499
B0754044624517N00808147EA0140001498
B0754054624513N00808142EA0139901498
B0754064624507N00808138EA0139801496
B0754074624502N00808134EA0139701495
B0754084624497N00808129EA0139601495
B0754094624492N00808125EA0139501493
B0754104624486N00808121EA0139401492
B0754114624481N00808118EA0139201491
B0754124624475N00808114EA0139101490
B0754134624470N00808110EA0139001489
B0754144624465N00808106EA0138901488
B0754154624460N00808101EA0138801486
B0754164624455N00808097EA0138701485
B0754174624450N00808092EA0138501484
B0754184624445N00808088EA0138401483
B0754194624440N00808085EA0138401482
B0754204624434N00808085EA0138301481
B0754214624429N00808087EA0138101479
B0754224624424N00808091EA0137901478
B0754234624421N00808098EA0137701476
B0754244624420N00808105EA0137601474
B0754254624420N00808113EA0137501473
B0754264624423N00808119EA0137301471
B0754274624427N00808122EA0137101470
B0754284624432N00808124EA0137001469
B0754294624436N00808124EA0136901468
B0754304624441N00808121EA0136801466
B0754314624445N00808116EA0136601465
B0754324624447N00808110EA0136501463
B0754334624449N00808102EA0136301461
B0754344624448N00808094EA0136201460
B0754354624446N00808086EA0136101459
B0754364624443N00808080EA0136001458
B0754374624438N00808074EA0135801456
B0754384624433N00808071EA0135701455
B0754394624427N00808070EA0135501454
B0754404624421N00808070EA0135401452
B0754414624416N00808073EA0135201451
B0754424624411N00808078EA0135101449
B0754434624408N00808085EA0135001448
B0754444624406N00808091EA0134801447
B0754454624406N00808099EA0134701445
B0754464624408N00808105EA0134601444
B0754474624410N00808110EA0134401442
B0754484624414N00808113EA0134301441
B0754494624418N00808114EA0134101439
B0754504624423N00808113EA0134001438
B0754514624427N00808110EA0133801437
B0754524624431N00808105EA0133701435
B0754534624433N00808099EA0133601434
B0754544624435N00808091EA0133401433
B0754554624434N00808083EA0133301431
B0754564624433N00808076EA0133101430
B0754574624429N00808068EA0133001428
B0754584624425N00808063EA0132801427
B0754594624420N00808059EA0132701425
B0755004624414N00808057EA0132501424
B0755014624408N00808057EA0132401423
B0755024624403N00808060EA0132301421
B0755034624398N00808064EA0132101420
B0755044624395N00808070EA0132001419
B0755054624392N00808076EA0131901417
B0755064624391N00808083EA0131801416
B0755074624392N00808090EA0131601415
B0755084624394N00808096EA0131501413
B0755094624397N00808101EA0131301412
B0755104624401N00808105EA0131201411
B0755114624405N00808106EA0131101409
B0755124624410N00808105EA0131001408
B0755134624414N00808102EA0130801407
B0755144624418N00808097EA0130701405
B0755154624421N00808090EA0130501404
B0755164624422N00808083EA0130401402
B0755174624422N00808075EA0130301401
B0755184624421N00808067EA0130101400
B0755194624420N00808059EA0130001398
B0755204624416N00808053EA0129901397
B0755214624412N00808047EA0129701396
B0755224624407N00808043EA0129601394
B0755234624401N00808041EA0129401392
B0755244624396N00808040EA0129301391
B0755254624390N00808042EA0129201390
B0755264624386N00808045EA0129001388
B0755274624382N00808051EA0128801387
B0755284624379N00808057EA0128701385
B0755294624378N00808064EA0128501384
B0755304624378N00808071EA0128401382
B0755314624380N00808077EA0128201381
B0755324624384N00808081EA0128101379
B0755334624389N00808083EA0128001378
B0755344624393N00808083EA0127901377
B0755354624398N00808083EA0127701376
B0755364624402N00808080EA0127601374
B0755374624406N00808076EA0127401373
B0755384624410N00808071EA0127301371
B0755394624412N00808064EA0127101369
B0755404624414N00808057EA0127001368
B0755414624414N00808049EA0126801367
B0755424624412N00808041EA0126701365
B0755434624410N00808034EA0126501364
B0755444624405N00808028EA0126401362
B0755454624401N00808024EA0126301361
B0755464624395N00808022EA0126101359
B0755474624389N00808021EA0125901358
B0755484624384N00808024EA0125801357
B0755494624379N00808028EA0125701355
B0755504624375N00808034EA0125501353
B0755514624373N00808041EA0125301352
B0755524624372N00808048EA0125201350
B0755534624372N00808055EA0125101349
B0755544624373N00808062EA0125001348
B0755554624375N00808068EA0124801347
B0755564624377N00808074EA0124701345
B0755574624379N00808080EA0124501343
B0755584624382N00808086EA0124301342
B0755594624386N00808092EA0124201340
B0756004624390N00808098EA0123901337
B0756014624394N00808103EA0123701335
B0756024624398N00808109EA0123601335
B0756034624401N00808114EA0123501334
B0756044624404N00808120EA0123401332
B0756054624408N00808126EA0123301331
B0756064624411N00808132EA0123201330
B0756074624415N00808137EA0123201330
B0756084624418N00808143EA0123201331
B0756094624421N00808148EA0123001329
B0756104624423N00808153EA0122701325
B0756114624427N00808159EA0122501324
B0756124624430N00808164EA0122401323
B0756134624434N00808170EA0122401322
B0756144624436N00808175EA0122301322
B0756154624440N00808181EA0122301322
B0756164624443N00808186EA0122201320
B0756174624447N00808192EA0122001319
B0756184624451N00808197EA0121801316
B0756194624454N00808202EA0121601315
B0756204624458N00808207EA0121601314
B0756214624462N00808212EA0121501314
B0756224624465N00808217EA0121501313
B0756234624468N00808222EA0121401312
B0756244624472N00808227EA0121301312
B0756254624476N00808233EA0121201311
B0756264624480N00808238EA0121101310
B0756274624483N00808243EA0121001308
B0756284624486N00808249EA0120801307
B0756294624491N00808255EA0120701306
B0756304624494N00808260EA0120601305
B0756314624498N00808266EA0120601304
B0756324624501N00808271EA0120501303
B0756334624505N00808277EA0120401302
B0756344624508N00808282EA0120301302
B0756354624511N00808288EA0120301301
B0756364624515N00808294EA0120201301
B0756374624518N00808300EA0120101300
B0756384624521N00808305EA0120001299
B0756394624525N00808311EA0120001298
B0756404624528N00808317EA0119901297
B0756414624532N00808323EA0119801296
B0756424624535N00808329EA0119701296
B0756434624539N00808334EA0119601295
B0756444624543N00808338EA0119601294
B0756454624549N00808340EA0119501293
B0756464624554N00808339EA0119301291
B0756474624559N00808336EA0119201290
B0756484624563N00808331EA0119101289
B0756494624565N00808326EA0119001288
B0756504624567N00808319EA0118901287
B0756514624567N00808312EA0118801286
B0756524624566N00808304EA0118601284
B0756534624562N00808297EA0118501283
B0756544624558N00808293EA0118501283
B0756554624552N00808290EA0118401282
B0756564624547N00808291EA0118301282
B0756574624542N00808294EA0118201281
B0756584624538N00808299EA0118101280
B0756594624534N00808305EA0118001279
B0757004624533N00808313EA0118001278
B0757014624533N00808321EA0117901277
B0757024624536N00808327EA0117801276
B0757034624540N00808331EA0117701275
B0757044624545N00808334EA0117601274
B0757054624549N00808334EA0117501274
B0757064624554N00808331EA0117401272
B0757074624558N00808327EA0117201271
B0757084624560N00808320EA0117101269
B0757094624562N00808312EA0116901267
B0757104624562N00808304EA0116801266
B0757114624560N00808296EA0116701265
B0757124624556N00808289EA0116601264
B0757134624551N00808285EA0116601264
B0757144624547N00808283EA0116501264
B0757154624542N00808284EA0116401263
B0757164624537N00808286EA0116301262
B0757174624533N00808290EA0116201260
B0757184624529N00808295EA0116201260
B0757194624526N00808301EA0116201260
B0757204624524N00808307EA0116201260
B0757214624523N00808314EA0116001259
B0757224624523N00808320EA0115901257
B0757234624524N00808326EA0115701256
B0757244624526N00808332EA0115501253
B0757254624528N00808339EA0115301251
B0757264624530N00808345EA0115101249
B0757274624533N00808351EA0114901248
B0757284624537N00808356EA0114801246
B0757294624541N00808360EA0114601245
B0757304624546N00808363EA0114501243
B0757314624550N00808365EA0114301241
B0757324624555N00808366EA0114201240
B0757334624560N00808365EA0114101239
B0757344624565N00808364EA0114001238
B0757354624569N00808360EA0113901237
B0757364624573N00808356EA0113701235
B0757374624577N00808351EA0113501234
B0757384624582N00808344EA0113401232
B0757394624586N00808336EA0113301232
B0757404624588N00808328EA0113301232
B0757414624589N00808319EA0113301231
B0757424624590N00808310EA0113201230
B0757434624589N00808301EA0113001229
B0757444624589N00808292EA0112901228
B0757454624590N00808283EA0112901227
B0757464624590N00808274EA0112701226
B0757474624590N00808266EA0112701225
B0757484624589N00808258EA0112501224
B0757494624588N00808251EA0112401222
B0757504624585N00808243EA0112201220
B0757514624582N00808237EA0112001219
B0757524624579N00808230EA0111901218
B0757534624576N00808224EA0111901217
B0757544624574N00808217EA0111801216
B0757554624571N00808211EA0111601215
B0757564624569N00808204EA0111501214
B0757574624566N00808197EA0111501213
B0757584624563N00808191EA0111401212
B0757594624560N00808185EA0111301211
B0758004624557N00808179EA0111201210
B0758014624554N00808172EA0111101209
B0758024624552N00808165EA0111001208
B0758034624550N00808157EA0110801207
B0758044624547N00808150EA0110801206
B0758054624544N00808144EA0110701205
B0758064624541N00808138EA0110501204
B0758074624537N00808133EA0110401202
B0758084624533N00808127EA0110301201
B0758094624529N00808121EA0110101200
B0758104624526N00808116EA0110001198
B0758114624521N00808112EA0109901197
B0758124624517N00808109EA0109801196
B0758134624511N00808108EA0109601194
B0758144624507N00808109EA0109401193
B0758154624502N00808110EA0109301192
B0758164624497N00808112EA0109201191
B0758174624493N00808113EA0109101189
B0758184624489N00808114EA0109001188
B0758194624485N00808115EA0108701186
B0758204624481N00808117EA0108501183
B0758214624477N00808121EA0108201181
B0758224624474N00808125EA0108101179
B0758234624472N00808130EA0108001179
B0758244624470N00808134EA0107901178
B0758254624468N00808138EA0107801177
B0758264624467N00808142EA0107701175
B0758274624465N00808146EA0107501173
B0758284624463N00808150EA0107201171
B0758294624461N00808156EA0107001168
B0758304624460N00808162EA0106801167
B0758314624460N00808167EA0106701165
B0758324624462N00808172EA0106601164
B0758334624465N00808176EA0106401163
B0758344624470N00808178EA0106201161
B0758354624474N00808177EA0106101159
B0758364624478N00808174EA0106001158
B0758374624481N00808169EA0105901157
B0758384624484N00808164EA0105701155
B0758394624486N00808159EA0105601154
B0758404624490N00808155EA0105501154
B0758414624494N00808154EA0105401152
B0758424624499N00808157EA0105101149
B0758434624502N00808163EA0104801146
B0758444624502N00808172EA0104501144
B0758454624500N00808180EA0104501143
B0758464624498N00808186EA0104601144
B0758474624496N00808191EA0104601144
B0758484624495N00808196EA0104401143
B0758494624496N00808202EA0104201141
B0758504624497N00808209EA0104001138
B0758514624500N00808216EA0103901137
B0758524624503N00808220EA0103801137
B0758534624508N00808222EA0103701135
B0758544624512N00808220EA0103501133
B0758554624516N00808215EA0103401132
B0758564624519N00808210EA0103301132
B0758574624522N00808207EA0103101130
B0758584624527N00808206EA0102901127
B0758594624532N00808207EA0102601125
B0759004624536N00808210EA0102501124
B0759014624540N00808215EA0102501123
B0759024624542N00808221EA0102301122
B0759034624542N00808228EA0102201120
B0759044624543N00808234EA0102101119
B0759054624546N00808239EA0101901118
B0759064624549N00808243EA0101801116
B0759074624553N00808247EA0101701115
B0759084624556N00808251EA0101601114
B0759094624558N00808255EA0101501114
B0759104624560N00808260EA0101401113
B0759114624562N00808264EA0101301112
B0759124624564N00808267EA0101201111
B0759134624564N00808269EA0101301112
B0759144624565N00808271EA0101401112
B0759154624565N00808271EA0101401112
B0759164624565N00808271EA0101301112
B0759174624566N00808271EA0101301112
B0759184624566N00808271EA0101301112
B0759194624566N00808271EA0101401112
B0759204624566N00808271EA0101401112
B0759214624566N00808271EA0101401112
B0759224624566N00808271EA0101401112
B0759234624566N00808271EA0101401112
B0759244624566N00808271EA0101301112
B0759254624565N00808271EA0101301112
B0759264624565N00808271EA0101301112
B0759274624565N00808271EA0101301112
B0759284624565N00808271EA0101401112
B0759294624565N00808271EA0101401112
B0759304624565N00808272EA0101401112
B0759314624565N00808271EA0101401112
B0759324624565N00808271EA0101401112
B0759334624565N00808272EA0101401112
B0759344624564N00808272EA0101401112
B0759354624564N00808272EA0101401112
B0759364624563N00808272EA0101401112
B0759374624563N00808272EA0101401112
B0759384624562N00808273EA0101401112
B0759394624562N00808273EA0101401112
B0759404624562N00808273EA0101401112
B0759414624562N00808273EA0101401112
B0759424624562N00808273EA0101401112
B0759434624562N00808273EA0101401112
B0759444624562N00808273EA0101301112
B0759454624562N00808273EA0101301112
B0759464624562N00808273EA0101401112
B0759474624562N00808273EA0101401112
B0759484624562N00808272EA0101401112
B0759494624562N00808271EA0101301112
B0759504624562N00808270EA0101301112
B0759514624562N00808269EA0101301112
B0759524624562N00808268EA0101301112
B0759534624562N00808267EA0101301112
B0759544624562N00808267EA0101301111
B0759554624562N00808266EA0101301112
B0759564624562N00808265EA0101301111
B0759574624562N00808264EA0101301111
B0759584624562N00808263EA0101301111
B0759594624562N00808263EA0101301111
B0800004624562N00808262EA0101301111
B0800014624562N00808261EA0101301111
B0800024624561N00808260EA0101301111
B0800034624561N00808259EA0101301111
B0800044624561N00808258EA0101301111
B0800054624561N00808257EA0101301111
B0800064624561N00808256EA0101301111
B0800074624561N00808255EA0101301111
B0800084624561N00808254EA0101301111
B0800094624561N00808253EA0101301111
B0800104624561N00808252EA0101201111
B0800114624561N00808251EA0101201111
B0800124624562N00808250EA0101301111
B0800134624562N00808249EA0101201111
B0800144624562N00808248EA0101301111
B0800154624562N00808248EA0101301111
B0800164624563N00808247EA0101201111
B0800174624563N00808246EA0101201111
B0800184624563N00808245EA0101201111
B0800194624563N00808244EA0101201111
B0800204624562N00808243EA0101201111
B0800214624562N00808242EA0101201111
B0800224624562N00808240EA0101201111
B0800234624562N00808239EA0101201111
B0800244624562N00808238EA0101201111
B0800254624561N00808237EA0101201110
B0800264624561N00808236EA0101201110
B0800274624561N00808235EA0101201110
B0800284624560N00808234EA0101201110
B0800294624560N00808233EA0101201110
B0800304624560N00808232EA0101201110
B0800314624560N00808231EA0101201110
B0800324624560N00808230EA0101201110
B0800334624559N00808229EA0101201110
B0800344624559N00808228EA0101201110
B0800354624559N00808227EA0101201110
B0800364624559N00808226EA0101201110
B0800374624559N00808225EA0101201110
B0800384624559N00808224EA0101201110
B0800394624559N00808224EA0101201110
B0800404624560N00808223EA0101201110
B0800414624560N00808222EA0101201110
B0800424624560N00808221EA0101201110
B0800434624560N00808221EA0101201110
B0800444624560N00808220EA0101201110
B0800454624561N00808219EA0101201110
B0800464624561N00808219EA0101201110
B0800474624562N00808219EA0101201110
B0800484624562N00808218EA0101201110
B0800494624562N00808218EA0101201110
B0800504624562N00808218EA0101201110
B0800514624562N00808217EA0101201110
B0800524624562N00808217EA0101201110
B0800534624562N00808217EA0101201110
B0800544624562N00808217EA0101201110
B0800554624562N00808217EA0101201110
B0800564624562N00808217EA0101201110
B0800574624562N00808217EA0101201110
B0800584624562N00808217EA0101201110
B0800594624562N00808217EA0101201110
B0801004624562N00808217EA0101201110
B0801014624562N00808216EA0101201110
B0801024624562N00808217EA0101201110
B0801034624562N00808217EA0101201110
B0801044624562N00808216EA0101201110
B0801054624562N00808216EA0101201110
B0801064624562N00808216EA0101201110
B0801074624562N00808216EA0101201110
B0801084624562N00808216EA0101201110
B0801094624562N00808216EA0101201110
LXSX;C1;GM:3.0
LXSX;S1;TS:1723621619;TL:1723622469;AS:2152;AL:1110;AT:2152;AB:1110
LXSX;S1;XS:0;XD:4.32;SP:55.1;MC:0.0;MS:-7.6;NB:852
LXSX;S1;FL:7.6;TG:0;TC:0.0;AG:28;GM:3.0
LXSX;S1;X0:46.41420,8.10792
LXSX;S1;X1:46.41415,8.13937
LXSX;S1;X2:46.40632,8.13380
LXSX;S1;X3:46.40942,8.13940
LXSX;S1;X4:46.40808,8.13525
G136E3414D192F5F4BD4C1C29A2A98537
