AXSX005 SKYTRAXX
HFPLTPILOT:Sepp Bucher
HFGTYGLIDERTYPE:Niviuk Artik R
HFDTM100GPSDATUM:WGS-84
HFRFWFIRMWAREVERSION:202402201509
HFRHWHARDWAREVERSION:4.0
HFTZNTIMEZONE:+1.00
HFSITSITE:Fiesch Kühboden 1 (
HFDTE110324
LXSX;I1;OAB:20240307;OOB:20240305
LXSX;I1;ID:114075
LXSX;I1;AC:1;CAT:C
B1128064624864N00806448EA0222602174
B1128074624864N00806448EA0222602174
B1128084624864N00806448EA0222602174
B1128094624864N00806448EA0222602174
B1128104624864N00806448EA0222602174
B1128114624864N00806448EA0222602174
B1128124624864N00806448EA0222602174
B1128134624864N00806448EA0222602174
B1128144624864N00806448EA0222602174
B1128154624864N00806448EA0222602174
B1128164624864N00806449EA0222602174
B1128174624863N00806449EA0222402172
B1128184624862N00806450EA0222402172
B1128194624860N00806450EA0222402172
B1128204624859N00806451EA0222302171
B1128214624857N00806452EA0222202170
B1128224624855N00806453EA0221902167
B1128234624853N00806455EA0221702165
B1128244624849N00806457EA0221402162
B1128254624846N00806459EA0221102159
B1128264624841N00806463EA0220902157
B1128274624837N00806466EA0221002158
B1128284624832N00806471EA0220802156
B1128294624827N00806476EA0220702155
B1128304624821N00806481EA0220602154
B1128314624816N00806485EA0220702155
B1128324624812N00806488EA0220602154
B1128334624808N00806493EA0220602154
B1128344624805N00806497EA0220502153
B1128354624801N00806502EA0220402152
B1128364624798N00806508EA0220302151
B1128374624796N00806516EA0220302151
B1128384624795N00806523EA0220402152
B1128394624795N00806530EA0220702155
B1128404624795N00806536EA0220802156
B1128414624796N00806541EA0220802156
B1128424624796N00806547EA0220802156
B1128434624796N00806554EA0220702155
B1128444624795N00806561EA0220702155
B1128454624794N00806568EA0220802156
B1128464624791N00806573EA0220902157
B1128474624787N00806576EA0220902157
B1128484624782N00806577EA0220902157
B1128494624777N00806575EA0220802156
B1128504624774N00806571EA0220702155
B1128514624771N00806564EA0220602154
B1128524624770N00806557EA0220502153
B1128534624770N00806548EA0220502153
B1128544624772N00806540EA0220602154
B1128554624776N00806533EA0220702154
B1128564624781N00806528EA0220702155
B1128574624788N00806525EA0220702155
B1128584624794N00806526EA0220902157
B1128594624798N00806529EA0221002158
B1129004624801N00806534EA0220902157
B1129014624802N00806541EA0220802156
B1129024624803N00806548EA0220702155
B1129034624802N00806555EA0220702155
B1129044624800N00806562EA0220602154
B1129054624797N00806568EA0220602154
B1129064624794N00806574EA0220602154
B1129074624790N00806579EA0220602153
B1129084624785N00806583EA0220502153
B1129094624780N00806585EA0220402152
B1129104624774N00806585EA0220302150
B1129114624769N00806583EA0220302151
B1129124624764N00806579EA0220402152
B1129134624762N00806574EA0220402152
B1129144624760N00806568EA0220402152
B1129154624758N00806561EA0220302151
B1129164624758N00806554EA0220202150
B1129174624758N00806545EA0220202150
B1129184624758N00806535EA0220302151
B1129194624760N00806526EA0220602154
B1129204624762N00806518EA0220902157
B1129214624766N00806513EA0221202159
B1129224624771N00806509EA0221202160
B1129234624776N00806507EA0221202159
B1129244624782N00806508EA0221202160
B1129254624787N00806512EA0221202160
B1129264624790N00806518EA0221302160
B1129274624792N00806525EA0221302161
B1129284624792N00806532EA0221402161
B1129294624790N00806538EA0221302161
B1129304624786N00806541EA0221202159
B1129314624782N00806543EA0221002158
B1129324624777N00806544EA0220902157
B1129334624771N00806543EA0220902157
B1129344624765N00806540EA0220902157
B1129354624760N00806537EA0221102158
B1129364624755N00806532EA0221202160
B1129374624752N00806525EA0221502162
B1129384624750N00806518EA0221702165
B1129394624749N00806510EA0221802166
B1129404624750N00806502EA0222002168
B1129414624752N00806494EA0222102169
B1129424624756N00806487EA0222102169
B1129434624761N00806481EA0222102169
B1129444624768N00806480EA0222102168
B1129454624774N00806482EA0222102169
B1129464624779N00806487EA0222202169
B1129474624782N00806495EA0222202169
B1129484624782N00806503EA0222202170
B1129494624781N00806511EA0222502172
B1129504624778N00806517EA0222702174
B1129514624774N00806522EA0222902176
B1129524624771N00806524EA0223002178
B1129534624765N00806525EA0223102179
B1129544624760N00806523EA0223102179
B1129554624755N00806518EA0223102178
B1129564624751N00806510EA0223002178
B1129574624750N00806501EA0223102178
B1129584624750N00806491EA0223202179
B1129594624752N00806483EA0223202180
B1130004624757N00806476EA0223202180
B1130014624762N00806471EA0223302180
B1130024624769N00806468EA0223302181
B1130034624775N00806469EA0223302181
B1130044624781N00806474EA0223302180
B1130054624784N00806481EA0223202179
B1130064624787N00806488EA0223202179
B1130074624789N00806496EA0223302180
B1130084624790N00806505EA0223402182
B1130094624790N00806513EA0223502183
B1130104624790N00806521EA0223702184
B1130114624789N00806528EA0223802186
B1130124624787N00806535EA0223902186
B1130134624784N00806540EA0223802186
B1130144624779N00806544EA0223602184
B1130154624773N00806545EA0223602183
B1130164624768N00806544EA0223602184
B1130174624762N00806541EA0223702184
B1130184624758N00806536EA0223802185
B1130194624755N00806529EA0223802185
B1130204624754N00806521EA0223602183
B1130214624756N00806512EA0223402182
B1130224624760N00806503EA0223202180
B1130234624765N00806497EA0223102178
B1130244624771N00806493EA0223102178
B1130254624777N00806493EA0223002178
B1130264624783N00806495EA0223002177
B1130274624788N00806500EA0223102178
B1130284624791N00806507EA0223202180
B1130294624793N00806515EA0223302181
B1130304624794N00806523EA0223402181
B1130314624795N00806530EA0223502183
B1130324624796N00806536EA0223602184
B1130334624798N00806542EA0223602183
B1130344624798N00806548EA0223502183
B1130354624798N00806556EA0223402181
B1130364624795N00806565EA0223302181
B1130374624791N00806572EA0223402182
B1130384624787N00806576EA0223602184
B1130394624782N00806577EA0223802186
B1130404624778N00806575EA0223902187
B1130414624774N00806570EA0223902187
B1130424624772N00806565EA0223802186
B1130434624771N00806557EA0223702184
B1130444624771N00806548EA0223602183
B1130454624774N00806539EA0223502183
B1130464624779N00806532EA0223502182
B1130474624787N00806528EA0223402182
B1130484624794N00806528EA0223402181
B1130494624800N00806532EA0223402181
B1130504624804N00806539EA0223302181
B1130514624806N00806547EA0223402182
B1130524624807N00806556EA0223502183
B1130534624808N00806563EA0223702184
B1130544624809N00806571EA0223802186
B1130554624810N00806578EA0223902186
B1130564624810N00806585EA0223802186
B1130574624809N00806592EA0223902187
B1130584624807N00806599EA0224002188
B1130594624805N00806605EA0224402191
B1131004624803N00806609EA0224602194
B1131014624800N00806612EA0224602194
B1131024624796N00806613EA0224502193
B1131034624792N00806612EA0224402192
B1131044624788N00806609EA0224202190
B1131054624784N00806602EA0224102189
B1131064624783N00806593EA0224102188
B1131074624784N00806584EA0224102189
B1131084624786N00806576EA0224302191
B1131094624790N00806570EA0224502192
B1131104624795N00806566EA0224602193
B1131114624800N00806563EA0224702194
B1131124624806N00806563EA0224702195
B1131134624812N00806566EA0224802195
B1131144624817N00806571EA0224702195
B1131154624820N00806579EA0224602194
B1131164624820N00806588EA0224502193
B1131174624818N00806596EA0224602194
B1131184624816N00806602EA0224802196
B1131194624813N00806607EA0225102198
B1131204624810N00806612EA0225302201
B1131214624808N00806616EA0225502203
B1131224624806N00806619EA0225702204
B1131234624804N00806622EA0225902206
B1131244624800N00806623EA0225902206
B1131254624796N00806621EA0225802206
B1131264624792N00806616EA0225702205
B1131274624789N00806608EA0225702205
B1131284624789N00806599EA0225702205
B1131294624791N00806591EA0225702204
B1131304624795N00806584EA0225602204
B1131314624801N00806579EA0225502203
B1131324624807N00806576EA0225502202
B1131334624814N00806578EA0225502203
B1131344624819N00806582EA0225602203
B1131354624822N00806588EA0225602204
B1131364624825N00806594EA0225802205
B1131374624826N00806601EA0225802206
B1131384624826N00806606EA0225902207
B1131394624825N00806611EA0225802206
B1131404624822N00806615EA0225802205
B1131414624818N00806619EA0225702205
B1131424624814N00806620EA0225802205
B1131434624809N00806620EA0225802206
B1131444624805N00806618EA0225902207
B1131454624801N00806616EA0226102209
B1131464624797N00806613EA0226302211
B1131474624793N00806608EA0226402211
B1131484624790N00806602EA0226502212
B1131494624787N00806596EA0226602214
B1131504624785N00806588EA0226702215
B1131514624784N00806580EA0226902216
B1131524624785N00806570EA0227002218
B1131534624788N00806562EA0227002218
B1131544624793N00806556EA0227002218
B1131554624799N00806552EA0227002217
B1131564624806N00806551EA0227002217
B1131574624812N00806554EA0227002217
B1131584624816N00806560EA0226902217
B1131594624817N00806568EA0226802216
B1132004624817N00806575EA0226802215
B1132014624814N00806581EA0226802216
B1132024624811N00806586EA0226902216
B1132034624808N00806590EA0227002218
B1132044624803N00806591EA0227202219
B1132054624798N00806591EA0227302220
B1132064624793N00806589EA0227502222
B1132074624789N00806585EA0227702225
B1132084624785N00806579EA0227902227
B1132094624783N00806572EA0228002228
B1132104624782N00806563EA0228002228
B1132114624781N00806555EA0228102229
B1132124624783N00806546EA0228302230
B1132134624786N00806538EA0228302230
B1132144624790N00806531EA0228202230
B1132154624796N00806527EA0228302230
B1132164624803N00806525EA0228402231
B1132174624809N00806528EA0228502233
B1132184624813N00806533EA0228502233
B1132194624815N00806540EA0228502232
B1132204624816N00806548EA0228502232
B1132214624814N00806555EA0228502233
B1132224624810N00806560EA0228602234
B1132234624806N00806563EA0228902236
B1132244624801N00806563EA0229102239
B1132254624797N00806560EA0229202240
B1132264624794N00806554EA0229302241
B1132274624793N00806545EA0229402241
B1132284624794N00806536EA0229402242
B1132294624797N00806528EA0229502243
B1132304624803N00806523EA0229502243
B1132314624809N00806522EA0229502243
B1132324624815N00806525EA0229502243
B1132334624819N00806532EA0229702245
B1132344624821N00806538EA0229902246
B1132354624821N00806545EA0230002248
B1132364624820N00806552EA0230102249
B1132374624817N00806557EA0230302250
B1132384624814N00806562EA0230402251
B1132394624810N00806565EA0230502253
B1132404624806N00806565EA0230702255
B1132414624800N00806562EA0230802255
B1132424624796N00806556EA0230802256
B1132434624794N00806547EA0230902257
B1132444624794N00806537EA0230902257
B1132454624798N00806529EA0230902257
B1132464624803N00806522EA0231102258
B1132474624809N00806518EA0231402261
B1132484624814N00806518EA0231502263
B1132494624819N00806520EA0231602264
B1132504624824N00806526EA0231702264
B1132514624827N00806533EA0231802265
B1132524624829N00806541EA0231902266
B1132534624828N00806548EA0232002267
B1132544624825N00806555EA0232002268
B1132554624821N00806559EA0232002268
B1132564624816N00806560EA0232202270
B1132574624810N00806558EA0232402272
B1132584624806N00806554EA0232602273
B1132594624804N00806547EA0232702274
B1133004624803N00806539EA0232702274
B1133014624806N00806531EA0232702274
B1133024624811N00806525EA0232602274
B1133034624818N00806520EA0232702274
B1133044624825N00806518EA0232902276
B1133054624831N00806519EA0233102278
B1133064624836N00806524EA0233202279
B1133074624840N00806530EA0233402281
B1133084624842N00806536EA0233502283
B1133094624844N00806543EA0233602284
B1133104624844N00806550EA0233702284
B1133114624842N00806557EA0233702285
B1133124624839N00806562EA0233802285
B1133134624834N00806565EA0233902286
B1133144624829N00806564EA0234002288
B1133154624824N00806560EA0234202289
B1133164624821N00806554EA0234302290
B1133174624818N00806547EA0234402292
B1133184624817N00806540EA0234502292
B1133194624817N00806532EA0234502292
B1133204624819N00806524EA0234402291
B1133214624822N00806516EA0234302290
B1133224624827N00806508EA0234302290
B1133234624834N00806503EA0234502292
B1133244624841N00806503EA0234702294
B1133254624848N00806506EA0234902296
B1133264624853N00806511EA0235102298
B1133274624856N00806518EA0235102298
B1133284624857N00806525EA0235202299
B1133294624857N00806532EA0235302300
B1133304624855N00806538EA0235402301
B1133314624852N00806541EA0235502302
B1133324624847N00806541EA0235602302
B1133334624843N00806537EA0235702304
B1133344624839N00806530EA0235902306
B1133354624839N00806521EA0236102308
B1133364624842N00806512EA0236202308
B1133374624848N00806505EA0236202309
B1133384624856N00806503EA0236302310
B1133394624863N00806504EA0236402311
B1133404624869N00806509EA0236402310
B1133414624874N00806515EA0236602312
B1133424624876N00806521EA0236802315
B1133434624876N00806526EA0237002316
B1133444624876N00806531EA0237102317
B1133454624875N00806537EA0237102317
B1133464624873N00806542EA0237002317
B1133474624869N00806547EA0237102317
B1133484624864N00806549EA0237102318
B1133494624858N00806547EA0237202319
B1133504624853N00806541EA0237402320
B1133514624850N00806534EA0237502322
B1133524624849N00806525EA0237602323
B1133534624850N00806515EA0237802325
B1133544624854N00806507EA0237902326
B1133554624860N00806501EA0238102327
B1133564624868N00806500EA0238102327
B1133574624874N00806502EA0238002327
B1133584624879N00806507EA0238102327
B1133594624882N00806513EA0238302330
B1134004624884N00806519EA0238502331
B1134014624884N00806525EA0238502332
B1134024624882N00806531EA0238602332
B1134034624880N00806536EA0238602333
B1134044624876N00806542EA0238602332
B1134054624871N00806545EA0238602333
B1134064624866N00806546EA0238802334
B1134074624860N00806544EA0239002337
B1134084624856N00806539EA0239202338
B1134094624853N00806533EA0239402340
B1134104624851N00806525EA0239502341
B1134114624851N00806515EA0239502341
B1134124624852N00806506EA0239502341
B1134134624856N00806497EA0239502341
B1134144624863N00806492EA0239502341
B1134154624869N00806490EA0239502341
B1134164624876N00806490EA0239502341
B1134174624883N00806493EA0239602342
B1134184624887N00806498EA0239702343
B1134194624890N00806505EA0239902345
B1134204624891N00806511EA0240002347
B1134214624891N00806518EA0240102347
B1134224624888N00806523EA0240202348
B1134234624884N00806527EA0240202349
B1134244624879N00806529EA0240302349
B1134254624874N00806528EA0240502351
B1134264624870N00806524EA0240702353
B1134274624868N00806518EA0240702354
B1134284624865N00806511EA0240902355
B1134294624865N00806502EA0241002356
B1134304624868N00806493EA0241002357
B1134314624871N00806486EA0241102357
B1134324624878N00806481EA0241202358
B1134334624884N00806478EA0241202358
B1134344624890N00806480EA0241202358
B1134354624895N00806484EA0241202359
B1134364624899N00806489EA0241302359
B1134374624902N00806495EA0241502361
B1134384624903N00806502EA0241402360
B1134394624905N00806510EA0241302359
B1134404624907N00806519EA0241202359
B1134414624909N00806527EA0241102358
B1134424624910N00806535EA0240902356
B1134434624912N00806542EA0240602353
B1134444624914N00806550EA0240302349
B1134454624916N00806559EA0240102347
B1134464624918N00806568EA0239902346
B1134474624920N00806576EA0239902345
B1134484624921N00806584EA0239902345
B1134494624922N00806591EA0239902346
B1134504624924N00806598EA0239902345
B1134514624926N00806605EA0239902345
B1134524624928N00806613EA0239802345
B1134534624931N00806620EA0239802344
B1134544624934N00806627EA0239802344
B1134554624937N00806633EA0239802344
B1134564624940N00806639EA0239702344
B1134574624944N00806646EA0239702343
B1134584624947N00806652EA0239802344
B1134594624950N00806659EA0239802345
B1135004624954N00806665EA0239902345
B1135014624957N00806671EA0240002346
B1135024624960N00806677EA0240002346
B1135034624963N00806683EA0239902345
B1135044624966N00806689EA0239902345
B1135054624970N00806694EA0239802344
B1135064624974N00806700EA0239702344
B1135074624978N00806705EA0239702343
B1135084624981N00806711EA0239602342
B1135094624985N00806717EA0239602342
B1135104624988N00806723EA0239602342
B1135114624992N00806729EA0239502342
B1135124624996N00806735EA0239502341
B1135134625000N00806740EA0239502341
B1135144625004N00806746EA0239402340
B1135154625008N00806752EA0239302340
B1135164625012N00806758EA0239202339
B1135174625015N00806764EA0239102338
B1135184625019N00806769EA0239002337
B1135194625024N00806774EA0239002336
B1135204625028N00806780EA0239002336
B1135214625031N00806786EA0238902335
B1135224625035N00806792EA0238802334
B1135234625039N00806797EA0238702333
B1135244625043N00806802EA0238602332
B1135254625047N00806807EA0238402331
B1135264625050N00806814EA0238202329
B1135274625054N00806820EA0238102327
B1135284625058N00806826EA0238002326
B1135294625062N00806832EA0237902325
B1135304625066N00806838EA0237802324
B1135314625069N00806845EA0237702323
B1135324625072N00806851EA0237602322
B1135334625076N00806857EA0237402321
B1135344625079N00806864EA0237302319
B1135354625083N00806870EA0237202319
B1135364625086N00806877EA0237102317
B1135374625089N00806883EA0237002316
B1135384625092N00806890EA0236802315
B1135394625096N00806897EA0236702313
B1135404625099N00806904EA0236502311
B1135414625102N00806911EA0236302309
B1135424625106N00806918EA0236202308
B1135434625109N00806925EA0236102308
B1135444625111N00806932EA0236002307
B1135454625114N00806939EA0235902305
B1135464625118N00806945EA0235802304
B1135474625121N00806952EA0235702303
B1135484625125N00806959EA0235502302
B1135494625128N00806966EA0235502301
B1135504625131N00806973EA0235402300
B1135514625134N00806979EA0235302299
B1135524625137N00806986EA0235202298
B1135534625140N00806992EA0235002296
B1135544625143N00806999EA0234802295
B1135554625147N00807006EA0234702293
B1135564625150N00807013EA0234602292
B1135574625153N00807019EA0234502292
B1135584625157N00807026EA0234502291
B1135594625160N00807032EA0234402290
B1136004625163N00807039EA0234202289
B1136014625166N00807045EA0234102287
B1136024625169N00807052EA0234002286
B1136034625173N00807059EA0233802285
B1136044625176N00807066EA0233802284
B1136054625179N00807073EA0233702283
B1136064625182N00807080EA0233602282
B1136074625185N00807086EA0233502282
B1136084625188N00807093EA0233402281
B1136094625191N00807100EA0233302279
B1136104625194N00807107EA0233202279
B1136114625196N00807114EA0233202278
B1136124625199N00807121EA0233102277
B1136134625202N00807127EA0233002277
B1136144625205N00807135EA0232902276
B1136154625207N00807142EA0232802274
B1136164625210N00807149EA0232702273
B1136174625213N00807157EA0232602272
B1136184625215N00807164EA0232402271
B1136194625218N00807171EA0232402270
B1136204625221N00807178EA0232302269
B1136214625224N00807186EA0232202268
B1136224625227N00807193EA0232102267
B1136234625230N00807200EA0232002266
B1136244625233N00807207EA0231802265
B1136254625236N00807215EA0231702264
B1136264625239N00807222EA0231602263
B1136274625242N00807229EA0231602262
B1136284625245N00807237EA0231502261
B1136294625248N00807244EA0231402260
B1136304625251N00807252EA0231302259
B1136314625254N00807259EA0231202258
B1136324625256N00807267EA0231102257
B1136334625260N00807274EA0231002256
B1136344625262N00807282EA0230902256
B1136354625264N00807289EA0230902255
B1136364625267N00807297EA0230702254
B1136374625269N00807305EA0230602253
B1136384625271N00807312EA0230502252
B1136394625274N00807319EA0230402250
B1136404625276N00807326EA0230302249
B1136414625279N00807333EA0230202248
B1136424625281N00807341EA0230002247
B1136434625283N00807348EA0229902245
B1136444625286N00807355EA0229802244
B1136454625288N00807362EA0229602243
B1136464625290N00807370EA0229502241
B1136474625293N00807377EA0229402240
B1136484625295N00807385EA0229202238
B1136494625297N00807392EA0229002237
B1136504625299N00807400EA0228902235
B1136514625301N00807408EA0228702233
B1136524625304N00807415EA0228502231
B1136534625306N00807423EA0228302229
B1136544625308N00807431EA0228102227
B1136554625310N00807439EA0228002226
B1136564625311N00807446EA0227802224
B1136574625313N00807454EA0227602222
B1136584625315N00807462EA0227402220
B1136594625317N00807469EA0227202218
B1137004625320N00807476EA0227102217
B1137014625323N00807484EA0227002216
B1137024625324N00807491EA0226902215
B1137034625325N00807499EA0226702213
B1137044625327N00807506EA0226602212
B1137054625329N00807513EA0226402210
B1137064625331N00807520EA0226202209
B1137074625333N00807527EA0226002207
B1137084625335N00807535EA0225902205
B1137094625337N00807543EA0225802204
B1137104625338N00807550EA0225702203
B1137114625341N00807557EA0225602202
B1137124625343N00807564EA0225402201
B1137134625345N00807571EA0225302199
B1137144625347N00807579EA0225102197
B1137154625349N00807586EA0225002196
B1137164625351N00807594EA0224802195
B1137174625353N00807601EA0224702193
B1137184625356N00807607EA0224502191
B1137194625358N00807614EA0224302189
B1137204625360N00807622EA0224102187
B1137214625362N00807629EA0223902185
B1137224625364N00807637EA0223702184
B1137234625367N00807644EA0223602182
B1137244625369N00807651EA0223402180
B1137254625371N00807658EA0223202178
B1137264625373N00807666EA0223002176
B1137274625375N00807674EA0222802174
B1137284625377N00807681EA0222602173
B1137294625379N00807689EA0222502171
B1137304625382N00807696EA0222302169
B1137314625383N00807703EA0222102167
B1137324625386N00807710EA0221902165
B1137334625388N00807718EA0221702164
B1137344625391N00807725EA0221602163
B1137354625393N00807732EA0221602162
B1137364625394N00807739EA0221502161
B1137374625396N00807745EA0221302160
B1137384625398N00807752EA0221102157
B1137394625400N00807759EA0221002156
B1137404625402N00807767EA0220802154
B1137414625404N00807774EA0220702153
B1137424625405N00807781EA0220602153
B1137434625407N00807788EA0220502151
B1137444625409N00807794EA0220402150
B1137454625411N00807801EA0220202148
B1137464625413N00807808EA0219902146
B1137474625415N00807815EA0219802144
B1137484625417N00807822EA0219602142
B1137494625420N00807830EA0219402140
B1137504625423N00807838EA0219102138
B1137514625426N00807846EA0218902135
B1137524625430N00807854EA0218702134
B1137534625433N00807863EA0218602132
B1137544625437N00807871EA0218502132
B1137554625440N00807879EA0218402131
B1137564625443N00807887EA0218302129
B1137574625446N00807895EA0218202128
B1137584625448N00807903EA0218002126
B1137594625451N00807912EA0217802124
B1138004625454N00807920EA0217702123
B1138014625458N00807927EA0217602122
B1138024625461N00807935EA0217502121
B1138034625464N00807943EA0217402120
B1138044625467N00807951EA0217202118
B1138054625470N00807959EA0217002116
B1138064625473N00807967EA0216802114
B1138074625477N00807975EA0216602112
B1138084625480N00807983EA0216502111
B1138094625483N00807991EA0216302110
B1138104625486N00807999EA0216202108
B1138114625489N00808007EA0216102107
B1138124625492N00808015EA0215902105
B1138134625495N00808024EA0215702104
B1138144625498N00808032EA0215602102
B1138154625501N00808041EA0215402101
B1138164625504N00808049EA0215302099
B1138174625507N00808057EA0215202098
B1138184625510N00808065EA0215002097
B1138194625512N00808073EA0214902095
B1138204625515N00808082EA0214702093
B1138214625518N00808090EA0214502092
B1138224625522N00808098EA0214402090
B1138234625525N00808107EA0214302089
B1138244625528N00808115EA0214202088
B1138254625531N00808123EA0214102087
B1138264625534N00808131EA0213902086
B1138274625537N00808139EA0213802084
B1138284625540N00808147EA0213602082
B1138294625543N00808155EA0213402080
B1138304625546N00808164EA0213202078
B1138314625549N00808172EA0213002077
B1138324625551N00808181EA0212902075
B1138334625554N00808190EA0212802074
B1138344625556N00808198EA0212702073
B1138354625559N00808206EA0212502071
B1138364625562N00808215EA0212302069
B1138374625564N00808223EA0212102067
B1138384625567N00808232EA0211902066
B1138394625569N00808241EA0211802064
B1138404625572N00808250EA0211602063
B1138414625574N00808259EA0211502061
B1138424625577N00808268EA0211402060
B1138434625579N00808277EA0211202059
B1138444625581N00808286EA0211102057
B1138454625583N00808295EA0210902055
B1138464625584N00808304EA0210702053
B1138474625586N00808313EA0210502052
B1138484625588N00808322EA0210402050
B1138494625590N00808332EA0210302049
B1138504625592N00808341EA0210102047
B1138514625594N00808350EA0210002046
B1138524625595N00808360EA0209902045
B1138534625597N00808369EA0209702043
B1138544625599N00808378EA0209502041
B1138554625600N00808388EA0209302039
B1138564625602N00808397EA0209102037
B1138574625603N00808407EA0208902035
B1138584625605N00808416EA0208702034
B1138594625606N00808426EA0208602032
B1139004625607N00808436EA0208402031
B1139014625608N00808446EA0208302029
B1139024625609N00808455EA0208102028
B1139034625611N00808465EA0208002026
B1139044625613N00808474EA0207902025
B1139054625615N00808483EA0207802024
B1139064625617N00808492EA0207602022
B1139074625618N00808502EA0207402020
B1139084625620N00808511EA0207202018
B1139094625622N00808521EA0207002016
B1139104625624N00808530EA0206902015
B1139114625626N00808540EA0206702013
B1139124625628N00808549EA0206602012
B1139134625629N00808558EA0206402010
B1139144625631N00808567EA0206202008
B1139154625633N00808576EA0206002006
B1139164625635N00808586EA0205802004
B1139174625637N00808595EA0205602002
B1139184625639N00808605EA0205402001
B1139194625641N00808615EA0205302000
B1139204625642N00808625EA0205301999
B1139214625644N00808635EA0205201998
B1139224625645N00808645EA0205101998
B1139234625646N00808654EA0205001996
B1139244625648N00808663EA0204901995
B1139254625649N00808673EA0204801994
B1139264625650N00808682EA0204601992
B1139274625651N00808692EA0204501991
B1139284625653N00808702EA0204401990
B1139294625655N00808711EA0204201988
B1139304625656N00808721EA0204101987
B1139314625657N00808730EA0203901985
B1139324625659N00808740EA0203701983
B1139334625661N00808750EA0203601982
B1139344625663N00808759EA0203401980
B1139354625665N00808769EA0203301979
B1139364625667N00808778EA0203101977
B1139374625669N00808788EA0203001976
B1139384625671N00808798EA0202901975
B1139394625673N00808807EA0202801974
B1139404625674N00808817EA0202701973
B1139414625676N00808826EA0202501971
B1139424625677N00808835EA0202301970
B1139434625679N00808845EA0202201968
B1139444625680N00808854EA0202101967
B1139454625682N00808864EA0202001966
B1139464625684N00808874EA0201901965
B1139474625685N00808883EA0201801964
B1139484625686N00808893EA0201601963
B1139494625687N00808903EA0201401961
B1139504625688N00808913EA0201201958
B1139514625689N00808923EA0201001956
B1139524625691N00808934EA0200801954
B1139534625692N00808944EA0200601952
B1139544625694N00808955EA0200501951
B1139554625695N00808965EA0200401951
B1139564625696N00808974EA0200301950
B1139574625697N00808983EA0200201948
B1139584625698N00808993EA0200001946
B1139594625699N00809002EA0199801944
B1140004625701N00809012EA0199501941
B1140014625702N00809022EA0199401940
B1140024625703N00809033EA0199301939
B1140034625705N00809042EA0199201938
B1140044625707N00809052EA0199001937
B1140054625709N00809061EA0198901935
B1140064625710N00809071EA0198801934
B1140074625712N00809080EA0198601932
B1140084625714N00809090EA0198401930
B1140094625715N00809099EA0198201929
B1140104625717N00809108EA0198101927
B1140114625719N00809118EA0197901925
B1140124625721N00809127EA0197701923
B1140134625722N00809137EA0197501921
B1140144625724N00809146EA0197301919
B1140154625726N00809156EA0197101917
B1140164625728N00809166EA0196901915
B1140174625730N00809175EA0196701914
B1140184625731N00809185EA0196501911
B1140194625733N00809194EA0196301909
B1140204625735N00809203EA0196101907
B1140214625737N00809213EA0195801904
B1140224625738N00809222EA0195501902
B1140234625739N00809232EA0195201899
B1140244625741N00809242EA0195001896
B1140254625743N00809252EA0194801895
B1140264625745N00809261EA0194701893
B1140274625746N00809271EA0194601892
B1140284625748N00809280EA0194601892
B1140294625750N00809288EA0194401890
B1140304625752N00809297EA0194201889
B1140314625754N00809305EA0194001886
B1140324625755N00809314EA0193701883
B1140334625756N00809323EA0193501881
B1140344625758N00809331EA0193401880
B1140354625760N00809339EA0193301879
B1140364625761N00809347EA0193101877
B1140374625762N00809355EA0192801875
B1140384625762N00809364EA0192601872
B1140394625764N00809372EA0192401870
B1140404625765N00809381EA0192301869
B1140414625766N00809389EA0192101867
B1140424625767N00809397EA0191901865
B1140434625768N00809406EA0191701863
B1140444625769N00809415EA0191601862
B1140454625770N00809424EA0191501861
B1140464625771N00809432EA0191401860
B1140474625772N00809440EA0191201858
B1140484625772N00809449EA0191001856
B1140494625773N00809458EA0190701853
B1140504625774N00809468EA0190501851
B1140514625776N00809478EA0190501851
B1140524625777N00809488EA0190501852
B1140534625778N00809497EA0190601852
B1140544625779N00809505EA0190701853
B1140554625780N00809513EA0190601852
B1140564625781N00809521EA0190501851
B1140574625783N00809530EA0190301849
B1140584625784N00809539EA0190101848
B1140594625784N00809548EA0190001847
B1141004625786N00809557EA0190001846
B1141014625787N00809566EA0189901845
B1141024625788N00809575EA0189701844
B1141034625789N00809584EA0189601842
B1141044625789N00809593EA0189501841
B1141054625790N00809602EA0189301840
B1141064625791N00809611EA0189201838
B1141074625793N00809620EA0189101837
B1141084625795N00809629EA0189101837
B1141094625796N00809637EA0189001836
B1141104625797N00809645EA0188901835
B1141114625797N00809654EA0188801834
B1141124625799N00809662EA0188501832
B1141134625799N00809672EA0188401830
B1141144625799N00809682EA0188201828
B1141154625798N00809692EA0188101828
B1141164625797N00809702EA0188201828
B1141174625796N00809711EA0188301829
B1141184625797N00809720EA0188301829
B1141194625797N00809728EA0188201828
B1141204625798N00809737EA0188101827
B1141214625798N00809746EA0187901826
B1141224625798N00809755EA0187901825
B1141234625798N00809764EA0188001826
B1141244625799N00809773EA0188101827
B1141254625799N00809781EA0188201828
B1141264625800N00809788EA0188301829
B1141274625800N00809796EA0188401830
B1141284625801N00809802EA0188501831
B1141294625802N00809809EA0188401830
B1141304625800N00809817EA0188301829
B1141314625798N00809824EA0188201828
B1141324625795N00809830EA0188101827
B1141334625791N00809836EA0188101827
B1141344625787N00809840EA0188201829
B1141354625782N00809841EA0188301829
B1141364625777N00809840EA0188101828
B1141374625772N00809837EA0187901825
B1141384625767N00809834EA0187701824
B1141394625762N00809828EA0187501821
B1141404625758N00809821EA0187301820
B1141414625756N00809812EA0187201818
B1141424625756N00809803EA0187101817
B1141434625757N00809795EA0186901816
B1141444625760N00809789EA0186701813
B1141454625764N00809783EA0186401810
B1141464625769N00809778EA0186101807
B1141474625775N00809777EA0185801805
B1141484625781N00809779EA0185601802
B1141494625787N00809782EA0185401800
B1141504625793N00809787EA0185301799
B1141514625798N00809792EA0185301799
B1141524625803N00809796EA0185201799
B1141534625808N00809801EA0185101797
B1141544625811N00809808EA0185001796
B1141554625814N00809815EA0184801794
B1141564625816N00809824EA0184601793
B1141574625818N00809833EA0184501791
B1141584625819N00809842EA0184301789
B1141594625819N00809851EA0184201789
B1142004625820N00809860EA0184201788
B1142014625821N00809868EA0184201788
B1142024625820N00809876EA0184101787
B1142034625820N00809885EA0183901785
B1142044625820N00809893EA0183801784
B1142054625820N00809902EA0183701783
B1142064625820N00809910EA0183601783
B1142074625820N00809918EA0183601782
B1142084625820N00809925EA0183401780
B1142094625820N00809934EA0183201779
B1142104625819N00809943EA0183101777
B1142114625819N00809953EA0183001776
B1142124625817N00809962EA0183001777
B1142134625816N00809972EA0183101777
B1142144625815N00809980EA0183001776
B1142154625815N00809989EA0182901776
B1142164625813N00809998EA0182801774
B1142174625812N00810007EA0182701773
B1142184625811N00810015EA0182601772
B1142194625810N00810024EA0182501772
B1142204625809N00810033EA0182601772
B1142214625809N00810041EA0182601773
B1142224625808N00810048EA0182701773
B1142234625807N00810055EA0182801774
B1142244625806N00810062EA0182901775
B1142254625807N00810070EA0182901775
B1142264625808N00810078EA0182901775
B1142274625809N00810086EA0182901776
B1142284625809N00810094EA0183001776
B1142294625808N00810102EA0182901776
B1142304625807N00810109EA0182801774
B1142314625806N00810117EA0182701773
B1142324625803N00810124EA0182601772
B1142334625800N00810130EA0182401770
B1142344625797N00810135EA0182301769
B1142354625793N00810139EA0182001767
B1142364625788N00810143EA0181801764
B1142374625783N00810145EA0181501761
B1142384625777N00810146EA0181301759
B1142394625771N00810145EA0181101758
B1142404625766N00810143EA0181001756
B1142414625760N00810141EA0180801755
B1142424625755N00810139EA0180701753
B1142434625749N00810136EA0180601752
B1142444625744N00810133EA0180501751
B1142454625739N00810129EA0180301750
B1142464625734N00810125EA0180301749
B1142474625730N00810121EA0180201748
B1142484625725N00810118EA0180101747
B1142494625721N00810114EA0180001746
B1142504625716N00810109EA0179901745
B1142514625711N00810104EA0179901745
B1142524625707N00810099EA0180001746
B1142534625703N00810093EA0180001746
B1142544625700N00810089EA0180001746
B1142554625696N00810085EA0179901745
B1142564625692N00810081EA0179701744
B1142574625687N00810077EA0179701743
B1142584625683N00810071EA0179601743
B1142594625679N00810065EA0179701743
B1143004625676N00810059EA0179901745
B1143014625672N00810054EA0180001746
B1143024625668N00810050EA0180201748
B1143034625664N00810046EA0180301749
B1143044625660N00810043EA0180401751
B1143054625657N00810040EA0180501751
B1143064625655N00810036EA0180501751
B1143074625654N00810031EA0180401750
B1143084625653N00810025EA0180201749
B1143094625654N00810018EA0180201748
B1143104625656N00810012EA0180201748
B1143114625660N00810008EA0180001747
B1143124625665N00810007EA0179901745
B1143134625671N00810008EA0179801744
B1143144625676N00810010EA0179801744
B1143154625681N00810014EA0179701744
B1143164625686N00810020EA0179701743
B1143174625689N00810026EA0179701744
B1143184625691N00810033EA0179801744
B1143194625692N00810041EA0179801744
B1143204625691N00810049EA0179801744
B1143214625690N00810056EA0179801745
B1143224625689N00810063EA0179901745
B1143234625687N00810070EA0179801745
B1143244625685N00810077EA0179801745
B1143254625681N00810084EA0179801745
B1143264625678N00810089EA0179901746
B1143274625674N00810093EA0180001746
B1143284625670N00810097EA0179901746
B1143294625666N00810099EA0179901746
B1143304625662N00810100EA0179801745
B1143314625657N00810100EA0179701744
B1143324625653N00810097EA0179601743
B1143334625649N00810093EA0179401741
B1143344625645N00810088EA0179301739
B1143354625641N00810083EA0179101738
B1143364625638N00810078EA0179001737
B1143374625635N00810073EA0178901736
B1143384625631N00810067EA0178801735
B1143394625628N00810061EA0178701734
B1143404625624N00810056EA0178601733
B1143414625621N00810051EA0178601733
B1143424625617N00810046EA0178501732
B1143434625613N00810040EA0178401731
B1143444625610N00810035EA0178301731
B1143454625607N00810030EA0178301730
B1143464625604N00810024EA0178201729
B1143474625601N00810018EA0178201729
B1143484625597N00810013EA0178101729
B1143494625594N00810009EA0178101728
B1143504625590N00810004EA0178001727
B1143514625587N00809999EA0177801726
B1143524625584N00809994EA0177701724
B1143534625580N00809988EA0177601724
B1143544625576N00809984EA0177601723
B1143554625571N00809980EA0177501723
B1143564625567N00809976EA0177501722
B1143574625564N00809971EA0177401721
B1143584625560N00809967EA0177301720
B1143594625557N00809961EA0177101718
B1144004625554N00809956EA0177001717
B1144014625551N00809949EA0176801716
B1144024625548N00809943EA0176801716
B1144034625545N00809937EA0176801716
B1144044625542N00809931EA0176701715
B1144054625540N00809924EA0176601713
B1144064625537N00809917EA0176501712
B1144074625535N00809910EA0176501712
B1144084625534N00809903EA0176401712
B1144094625532N00809897EA0176401711
B1144104625530N00809891EA0176301710
B1144114625528N00809885EA0176101708
B1144124625526N00809878EA0175901706
B1144134625523N00809871EA0175701704
B1144144625521N00809864EA0175601703
B1144154625518N00809857EA0175501702
B1144164625516N00809851EA0175101699
B1144174625513N00809844EA0174901696
B1144184625511N00809838EA0174801695
B1144194625508N00809830EA0174601693
B1144204625506N00809823EA0174401691
B1144214625504N00809815EA0174301690
B1144224625502N00809808EA0174201689
B1144234625500N00809801EA0174101688
B1144244625498N00809793EA0174001687
B1144254625497N00809786EA0173901686
B1144264625495N00809779EA0173801685
B1144274625493N00809771EA0173601683
B1144284625491N00809764EA0173401682
B1144294625489N00809756EA0173301680
B1144304625488N00809748EA0173201679
B1144314625486N00809741EA0173101678
B1144324625484N00809734EA0173001677
B1144334625481N00809727EA0172801676
B1144344625479N00809719EA0172701674
B1144354625476N00809712EA0172501672
B1144364625473N00809706EA0172301670
B1144374625470N00809699EA0172101668
B1144384625466N00809693EA0171901666
B1144394625462N00809686EA0171801665
B1144404625458N00809680EA0171701665
B1144414625454N00809674EA0171701664
B1144424625451N00809667EA0171501662
B1144434625447N00809662EA0171301661
B1144444625444N00809656EA0171201659
B1144454625440N00809651EA0171101658
B1144464625436N00809645EA0170901657
B1144474625432N00809640EA0170801655
B1144484625428N00809634EA0170801655
B1144494625422N00809629EA0170701654
B1144504625417N00809624EA0170601653
B1144514625412N00809621EA0170501653
B1144524625407N00809617EA0170501652
B1144534625401N00809614EA0170401651
B1144544625396N00809612EA0170301651
B1144554625390N00809610EA0170201649
B1144564625384N00809609EA0170101648
B1144574625378N00809607EA0169901646
B1144584625372N00809606EA0169801645
B1144594625367N00809605EA0169701644
B1145004625361N00809605EA0169601644
B1145014625356N00809604EA0169601643
B1145024625350N00809603EA0169401642
B1145034625345N00809603EA0169301640
B1145044625339N00809602EA0169201639
B1145054625333N00809602EA0169001637
B1145064625327N00809602EA0168901636
B1145074625321N00809602EA0168801636
B1145084625315N00809601EA0168801635
B1145094625310N00809601EA0168701634
B1145104625304N00809600EA0168601633
B1145114625298N00809599EA0168501632
B1145124625293N00809597EA0168401631
B1145134625287N00809595EA0168301630
B1145144625282N00809593EA0168201629
B1145154625277N00809591EA0168001628
B1145164625272N00809589EA0167801626
B1145174625266N00809586EA0167701624
B1145184625261N00809583EA0167501623
B1145194625255N00809580EA0167501622
B1145204625250N00809577EA0167401621
B1145214625245N00809574EA0167401621
B1145224625239N00809572EA0167301620
B1145234625234N00809570EA0167201619
B1145244625229N00809567EA0167101618
B1145254625223N00809565EA0167001617
B1145264625218N00809561EA0167001617
B1145274625213N00809558EA0167001617
B1145284625207N00809556EA0167101618
B1145294625202N00809555EA0167201619
B1145304625197N00809555EA0167201619
B1145314625193N00809555EA0167101619
B1145324625188N00809554EA0167001617
B1145334625184N00809552EA0166801615
B1145344625179N00809550EA0166701614
B1145354625174N00809547EA0166601613
B1145364625169N00809544EA0166501612
B1145374625165N00809539EA0166401611
B1145384625161N00809534EA0166401611
B1145394625158N00809528EA0166401611
B1145404625156N00809522EA0166401611
B1145414625155N00809515EA0166501612
B1145424625156N00809508EA0166601613
B1145434625158N00809502EA0166501613
B1145444625162N00809498EA0166501612
B1145454625166N00809495EA0166501612
B1145464625172N00809494EA0166501612
B1145474625176N00809495EA0166401611
B1145484625181N00809499EA0166301611
B1145494625185N00809504EA0166301610
B1145504625188N00809511EA0166301610
B1145514625191N00809518EA0166301610
B1145524625191N00809525EA0166301610
B1145534625192N00809533EA0166301610
B1145544625191N00809541EA0166301610
B1145554625188N00809548EA0166301610
B1145564625185N00809555EA0166301610
B1145574625181N00809559EA0166301610
B1145584625176N00809563EA0166201609
B1145594625171N00809564EA0166101609
B1146004625165N00809565EA0166001608
B1146014625161N00809566EA0165901607
B1146024625155N00809564EA0165801606
B1146034625150N00809561EA0165701605
B1146044625146N00809556EA0165601604
B1146054625142N00809551EA0165501603
B1146064625139N00809545EA0165401602
B1146074625136N00809540EA0165301601
B1146084625132N00809535EA0165301600
B1146094625129N00809530EA0165101599
B1146104625126N00809524EA0164901597
B1146114625122N00809518EA0164801596
B1146124625118N00809512EA0164701595
B1146134625115N00809508EA0164701595
B1146144625112N00809502EA0164501593
B1146154625109N00809497EA0164301591
B1146164625106N00809491EA0164101588
B1146174625102N00809484EA0163801586
B1146184625099N00809477EA0163601584
B1146194625096N00809470EA0163501583
B1146204625094N00809463EA0163501582
B1146214625092N00809457EA0163301581
B1146224625088N00809451EA0163201580
B1146234625085N00809446EA0163101579
B1146244625082N00809440EA0163001577
B1146254625079N00809434EA0162901577
B1146264625076N00809427EA0162801576
B1146274625074N00809420EA0162801575
B1146284625071N00809413EA0162701575
B1146294625069N00809407EA0162801575
B1146304625066N00809401EA0162701575
B1146314625064N00809396EA0162601574
B1146324625061N00809390EA0162501573
B1146334625058N00809384EA0162401572
B1146344625054N00809378EA0162301571
B1146354625050N00809371EA0162301571
B1146364625047N00809366EA0162401572
B1146374625043N00809361EA0162401572
B1146384625039N00809357EA0162401572
B1146394625036N00809352EA0162301570
B1146404625032N00809347EA0162101569
B1146414625028N00809341EA0162101569
B1146424625024N00809336EA0162101568
B1146434625021N00809330EA0162001568
B1146444625018N00809325EA0161901566
B1146454625015N00809319EA0161701565
B1146464625012N00809313EA0161501563
B1146474625008N00809307EA0161301561
B1146484625004N00809301EA0161201560
B1146494625001N00809295EA0161201560
B1146504624997N00809289EA0161101559
B1146514624995N00809283EA0161001558
B1146524624991N00809278EA0160901557
B1146534624988N00809273EA0160701555
B1146544624984N00809267EA0160501553
B1146554624981N00809262EA0160401551
B1146564624977N00809256EA0160301551
B1146574624974N00809251EA0160101549
B1146584624969N00809246EA0160001548
B1146594624965N00809242EA0159901547
B1147004624960N00809238EA0159901546
B1147014624956N00809234EA0159801546
B1147024624952N00809230EA0159701545
B1147034624947N00809226EA0159601544
B1147044624943N00809222EA0159401542
B1147054624938N00809218EA0159301541
B1147064624934N00809213EA0159101539
B1147074624929N00809208EA0159001538
B1147084624925N00809204EA0158901537
B1147094624921N00809199EA0158801536
B1147104624918N00809194EA0158701534
B1147114624914N00809189EA0158501533
B1147124624910N00809184EA0158401532
B1147134624907N00809178EA0158301531
B1147144624903N00809173EA0158201529
B1147154624900N00809168EA0158001528
B1147164624897N00809163EA0157801526
B1147174624893N00809158EA0157601524
B1147184624889N00809153EA0157501523
B1147194624885N00809147EA0157301521
B1147204624882N00809142EA0157201520
B1147214624878N00809136EA0157101519
B1147224624875N00809131EA0157001518
B1147234624871N00809126EA0156901517
B1147244624868N00809120EA0156801515
B1147254624864N00809114EA0156701514
B1147264624861N00809109EA0156601514
B1147274624858N00809103EA0156401512
B1147284624855N00809098EA0156301511
B1147294624852N00809092EA0156101509
B1147304624849N00809086EA0155901507
B1147314624845N00809080EA0155701505
B1147324624842N00809074EA0155601504
B1147334624838N00809067EA0155501503
B1147344624835N00809061EA0155401502
B1147354624831N00809054EA0155401502
B1147364624828N00809049EA0155301501
B1147374624825N00809043EA0155301501
B1147384624821N00809038EA0155201500
B1147394624818N00809033EA0155101498
B1147404624815N00809027EA0154901497
B1147414624811N00809021EA0154801496
B1147424624808N00809016EA0154701495
B1147434624805N00809010EA0154601494
B1147444624802N00809005EA0154501493
B1147454624798N00809000EA0154401492
B1147464624795N00808994EA0154201490
B1147474624792N00808989EA0154101489
B1147484624789N00808983EA0154001488
B1147494624786N00808978EA0153901487
B1147504624782N00808973EA0153801485
B1147514624779N00808967EA0153601484
B1147524624776N00808962EA0153501483
B1147534624772N00808957EA0153401482
B1147544624769N00808952EA0153201480
B1147554624765N00808946EA0153101479
B1147564624761N00808941EA0153001478
B1147574624758N00808936EA0152901477
B1147584624754N00808931EA0152801476
B1147594624751N00808926EA0152501473
B1148004624748N00808921EA0152301471
B1148014624745N00808915EA0152201470
B1148024624742N00808909EA0152101469
B1148034624738N00808903EA0152001467
B1148044624735N00808897EA0151801466
B1148054624732N00808891EA0151701465
B1148064624730N00808885EA0151701464
B1148074624727N00808879EA0151501463
B1148084624724N00808872EA0151401461
B1148094624722N00808866EA0151201460
B1148104624719N00808859EA0151101459
B1148114624717N00808852EA0151001458
B1148124624715N00808846EA0150901457
B1148134624713N00808839EA0150801456
B1148144624710N00808832EA0150701455
B1148154624708N00808825EA0150601454
B1148164624706N00808818EA0150501453
B1148174624704N00808811EA0150501453
B1148184624702N00808805EA0150401452
B1148194624700N00808798EA0150201450
B1148204624698N00808791EA0150201449
B1148214624695N00808784EA0150001448
B1148224624693N00808777EA0149901447
B1148234624691N00808770EA0149901446
B1148244624689N00808763EA0149701445
B1148254624687N00808756EA0149701445
B1148264624685N00808749EA0149601444
B1148274624683N00808742EA0149401442
B1148284624681N00808736EA0149201439
B1148294624678N00808729EA0149101438
B1148304624677N00808721EA0149101439
B1148314624675N00808714EA0149101439
B1148324624673N00808707EA0149001438
B1148334624672N00808700EA0148901437
B1148344624670N00808693EA0148801436
B1148354624667N00808686EA0148701435
B1148364624665N00808679EA0148601434
B1148374624662N00808673EA0148501433
B1148384624659N00808667EA0148401432
B1148394624656N00808660EA0148301431
B1148404624653N00808654EA0148201430
B1148414624650N00808648EA0148101429
B1148424624647N00808642EA0148001428
B1148434624644N00808636EA0147901427
B1148444624641N00808630EA0147801426
B1148454624637N00808624EA0147701425
B1148464624634N00808618EA0147601424
B1148474624630N00808612EA0147501423
B1148484624627N00808607EA0147401421
B1148494624623N00808601EA0147201420
B1148504624619N00808596EA0147101419
B1148514624616N00808591EA0146801416
B1148524624612N00808585EA0146601414
B1148534624609N00808579EA0146501413
B1148544624606N00808573EA0146401412
B1148554624605N00808566EA0146301411
B1148564624603N00808558EA0146201410
B1148574624603N00808550EA0146101409
B1148584624602N00808543EA0146101409
B1148594624602N00808535EA0146101408
B1149004624603N00808527EA0146201409
B1149014624603N00808520EA0146101409
B1149024624605N00808512EA0145901407
B1149034624606N00808504EA0145801406
B1149044624607N00808497EA0145701405
B1149054624609N00808489EA0145501403
B1149064624611N00808482EA0145401402
B1149074624612N00808474EA0145301401
B1149084624614N00808467EA0145201400
B1149094624616N00808459EA0145101399
B1149104624618N00808451EA0145101398
B1149114624620N00808444EA0145001398
B1149124624621N00808436EA0144801396
B1149134624622N00808429EA0144701395
B1149144624623N00808421EA0144601394
B1149154624624N00808413EA0144501393
B1149164624626N00808406EA0144401392
B1149174624627N00808398EA0144301391
B1149184624629N00808390EA0144301390
B1149194624629N00808382EA0144201390
B1149204624630N00808375EA0144001388
B1149214624630N00808367EA0143901387
B1149224624630N00808359EA0143801386
B1149234624631N00808351EA0143701385
B1149244624633N00808343EA0143601384
B1149254624634N00808336EA0143601383
B1149264624636N00808328EA0143501383
B1149274624638N00808321EA0143401382
B1149284624640N00808314EA0143301381
B1149294624641N00808306EA0143201380
B1149304624643N00808299EA0143101379
B1149314624645N00808291EA0143001378
B1149324624647N00808284EA0142901376
B1149334624649N00808276EA0142801376
B1149344624651N00808269EA0142701375
B1149354624653N00808261EA0142601373
B1149364624654N00808253EA0142501372
B1149374624655N00808245EA0142301371
B1149384624657N00808238EA0142201370
B1149394624659N00808230EA0142201369
B1149404624660N00808223EA0142101369
B1149414624662N00808215EA0142001368
B1149424624663N00808207EA0141901367
B1149434624665N00808200EA0141801366
B1149444624667N00808192EA0141701365
B1149454624669N00808184EA0141601364
B1149464624671N00808177EA0141501363
B1149474624672N00808169EA0141501363
B1149484624674N00808162EA0141401362
B1149494624675N00808154EA0141401361
B1149504624675N00808147EA0141201360
B1149514624673N00808140EA0141101359
B1149524624672N00808132EA0141001358
B1149534624670N00808125EA0140901357
B1149544624668N00808119EA0140801356
B1149554624665N00808113EA0140701355
B1149564624662N00808108EA0140601354
B1149574624659N00808103EA0140501353
B1149584624655N00808098EA0140401352
B1149594624651N00808095EA0140301351
B1150004624646N00808092EA0140201350
B1150014624641N00808090EA0140201350
B1150024624637N00808089EA0140101349
B1150034624632N00808089EA0140001348
B1150044624627N00808089EA0139801346
B1150054624622N00808091EA0139701345
B1150064624617N00808093EA0139601344
B1150074624613N00808097EA0139501343
B1150084624608N00808101EA0139401342
B1150094624605N00808106EA0139301341
B1150104624601N00808111EA0139201340
B1150114624597N00808116EA0139101339
B1150124624594N00808122EA0139001338
B1150134624590N00808128EA0138901337
B1150144624587N00808134EA0138801336
B1150154624585N00808141EA0138701335
B1150164624583N00808149EA0138601334
B1150174624582N00808157EA0138501333
B1150184624580N00808165EA0138401332
B1150194624580N00808173EA0138301331
B1150204624580N00808181EA0138201330
B1150214624580N00808189EA0138101328
B1150224624582N00808198EA0138001327
B1150234624584N00808206EA0137801326
B1150244624586N00808214EA0137701325
B1150254624589N00808221EA0137601324
B1150264624594N00808228EA0137501323
B1150274624598N00808234EA0137401322
B1150284624603N00808239EA0137301321
B1150294624608N00808243EA0137201320
B1150304624614N00808247EA0137101319
B1150314624619N00808249EA0137101318
B1150324624625N00808251EA0137001318
B1150334624631N00808251EA0136801316
B1150344624637N00808251EA0136701315
B1150354624643N00808249EA0136601314
B1150364624649N00808247EA0136501313
B1150374624654N00808244EA0136401312
B1150384624659N00808240EA0136301311
B1150394624663N00808235EA0136201309
B1150404624667N00808229EA0136001308
B1150414624671N00808222EA0135901307
B1150424624673N00808215EA0135801306
B1150434624675N00808208EA0135801305
B1150444624676N00808201EA0135601304
B1150454624676N00808193EA0135501303
B1150464624675N00808186EA0135401302
B1150474624674N00808179EA0135301301
B1150484624672N00808173EA0135201300
B1150494624669N00808167EA0135101299
B1150504624666N00808162EA0135001298
B1150514624662N00808157EA0134901296
B1150524624658N00808153EA0134801295
B1150534624654N00808149EA0134601294
B1150544624649N00808145EA0134501293
B1150554624645N00808141EA0134401292
B1150564624641N00808138EA0134301291
B1150574624636N00808135EA0134201289
B1150584624632N00808131EA0134001288
B1150594624627N00808128EA0133901287
B1151004624622N00808124EA0133801286
B1151014624618N00808121EA0133801286
B1151024624614N00808118EA0133701285
B1151034624609N00808116EA0133601284
B1151044624605N00808114EA0133501283
B1151054624600N00808112EA0133401282
B1151064624596N00808110EA0133301281
B1151074624591N00808109EA0133201280
B1151084624586N00808109EA0133001278
B1151094624581N00808109EA0132901277
B1151104624576N00808110EA0132801276
B1151114624571N00808111EA0132801275
B1151124624567N00808113EA0132701275
B1151134624562N00808115EA0132601274
B1151144624558N00808118EA0132501273
B1151154624553N00808121EA0132401271
B1151164624549N00808125EA0132201270
B1151174624545N00808130EA0132101269
B1151184624541N00808134EA0132001268
B1151194624537N00808139EA0131901267
B1151204624533N00808144EA0131801266
B1151214624530N00808151EA0131701265
B1151224624527N00808157EA0131601264
B1151234624524N00808164EA0131501263
B1151244624522N00808171EA0131401262
B1151254624520N00808178EA0131301260
B1151264624517N00808186EA0131101259
B1151274624517N00808194EA0131001258
B1151284624516N00808202EA0131001257
B1151294624515N00808210EA0130801256
B1151304624515N00808218EA0130701255
B1151314624515N00808226EA0130601254
B1151324624515N00808235EA0130501252
B1151334624516N00808243EA0130401251
B1151344624517N00808251EA0130201250
B1151354624519N00808259EA0130101249
B1151364624522N00808267EA0130001248
B1151374624527N00808274EA0129901247
B1151384624531N00808280EA0129801246
B1151394624535N00808285EA0129701245
B1151404624541N00808289EA0129601244
B1151414624546N00808291EA0129501243
B1151424624552N00808293EA0129401241
B1151434624558N00808293EA0129201240
B1151444624564N00808292EA0129101239
B1151454624570N00808290EA0129001238
B1151464624575N00808288EA0128901237
B1151474624580N00808284EA0128801236
B1151484624586N00808280EA0128701235
B1151494624590N00808275EA0128601234
B1151504624594N00808269EA0128501233
B1151514624597N00808263EA0128401232
B1151524624599N00808256EA0128301230
B1151534624601N00808248EA0128101229
B1151544624602N00808241EA0128001227
B1151554624602N00808233EA0127801226
B1151564624602N00808225EA0127701225
B1151574624601N00808217EA0127601224
B1151584624600N00808209EA0127501223
B1151594624597N00808203EA0127401222
B1152004624594N00808197EA0127201220
B1152014624591N00808191EA0127101219
B1152024624588N00808185EA0127001217
B1152034624584N00808179EA0126801216
B1152044624581N00808172EA0126601214
B1152054624578N00808167EA0126501213
B1152064624574N00808161EA0126501213
B1152074624571N00808155EA0126401212
B1152084624567N00808150EA0126301211
B1152094624564N00808144EA0126201210
B1152104624561N00808139EA0126101208
B1152114624557N00808135EA0125901207
B1152124624553N00808131EA0125801205
B1152134624549N00808128EA0125601204
B1152144624544N00808124EA0125401202
B1152154624540N00808121EA0125301201
B1152164624535N00808117EA0125201200
B1152174624531N00808114EA0125201199
B1152184624527N00808111EA0125101198
B1152194624522N00808109EA0125001198
B1152204624518N00808108EA0124901197
B1152214624513N00808107EA0124701195
B1152224624509N00808108EA0124601194
B1152234624504N00808110EA0124501192
B1152244624500N00808113EA0124301191
B1152254624495N00808116EA0124201190
B1152264624491N00808120EA0124101189
B1152274624487N00808125EA0124101188
B1152284624484N00808130EA0124001187
B1152294624481N00808137EA0123801186
B1152304624479N00808144EA0123701185
B1152314624477N00808151EA0123601184
B1152324624475N00808159EA0123501182
B1152334624473N00808166EA0123401182
B1152344624470N00808174EA0123301181
B1152354624469N00808181EA0123201180
B1152364624467N00808189EA0123001178
B1152374624466N00808196EA0122801176
B1152384624465N00808204EA0122701174
B1152394624464N00808212EA0122501173
B1152404624462N00808221EA0122301171
B1152414624462N00808229EA0122201170
B1152424624461N00808237EA0122201169
B1152434624461N00808245EA0122101169
B1152444624461N00808252EA0122001168
B1152454624462N00808260EA0121801166
B1152464624464N00808268EA0121701165
B1152474624465N00808276EA0121701164
B1152484624467N00808283EA0121601164
B1152494624468N00808289EA0121501163
B1152504624470N00808296EA0121301161
B1152514624471N00808303EA0121101159
B1152524624473N00808310EA0120901157
B1152534624475N00808317EA0120701155
B1152544624478N00808324EA0120601154
B1152554624482N00808330EA0120501153
B1152564624485N00808336EA0120401152
B1152574624489N00808342EA0120301151
B1152584624493N00808347EA0120201150
B1152594624496N00808352EA0120101148
B1153004624500N00808357EA0119901147
B1153014624504N00808363EA0119801146
B1153024624508N00808368EA0119601144
B1153034624513N00808373EA0119501143
B1153044624517N00808378EA0119401142
B1153054624521N00808383EA0119301141
B1153064624526N00808387EA0119201140
B1153074624530N00808392EA0119001138
B1153084624534N00808397EA0118901137
B1153094624539N00808401EA0118801136
B1153104624543N00808406EA0118701135
B1153114624548N00808410EA0118601134
B1153124624553N00808415EA0118501133
B1153134624557N00808419EA0118401132
B1153144624562N00808423EA0118301131
B1153154624567N00808427EA0118201130
B1153164624572N00808431EA0118101129
B1153174624577N00808434EA0118001128
B1153184624582N00808436EA0117901127
B1153194624586N00808438EA0117801126
B1153204624592N00808439EA0117601124
B1153214624597N00808440EA0117501123
B1153224624603N00808440EA0117301121
B1153234624608N00808439EA0117201120
B1153244624613N00808437EA0117101118
B1153254624618N00808434EA0116901117
B1153264624623N00808431EA0116801116
B1153274624628N00808428EA0116701115
B1153284624632N00808424EA0116601114
B1153294624636N00808419EA0116501112
B1153304624640N00808414EA0116301111
B1153314624644N00808409EA0116201110
B1153324624647N00808404EA0116101109
B1153334624651N00808398EA0116001108
B1153344624654N00808393EA0115901106
B1153354624657N00808387EA0115701105
B1153364624661N00808382EA0115601104
B1153374624663N00808376EA0115501103
B1153384624666N00808370EA0115401102
B1153394624668N00808364EA0115301101
B1153404624669N00808358EA0115201100
B1153414624670N00808352EA0115101098
B1153424624669N00808346EA0114901097
B1153434624668N00808339EA0114701095
B1153444624666N00808333EA0114601094
B1153454624663N00808328EA0114501093
B1153464624660N00808325EA0114401092
B1153474624656N00808322EA0114201090
B1153484624652N00808322EA0114101089
B1153494624647N00808322EA0113901087
B1153504624643N00808322EA0113901086
B1153514624638N00808321EA0113801085
B1153524624635N00808318EA0113601083
B1153534624631N00808312EA0113401082
B1153544624629N00808306EA0113201080
B1153554624628N00808299EA0113201080
B1153564624627N00808292EA0113101079
B1153574624626N00808287EA0113101078
B1153584624623N00808282EA0112801076
B1153594624620N00808277EA0112501073
B1154004624615N00808273EA0112201070
B1154014624610N00808269EA0112101069
B1154024624605N00808266EA0112001068
B1154034624600N00808264EA0111901067
B1154044624595N00808262EA0111801066
B1154054624590N00808260EA0111601064
B1154064624586N00808257EA0111501063
B1154074624581N00808254EA0111301061
B1154084624576N00808251EA0111201060
B1154094624572N00808248EA0111101058
B1154104624568N00808243EA0111001057
B1154114624564N00808239EA0110801056
B1154124624560N00808235EA0110801056
B1154134624557N00808231EA0110901057
B1154144624555N00808228EA0110901057
B1154154624553N00808225EA0110901057
B1154164624551N00808223EA0110901057
B1154174624549N00808222EA0110901057
B1154184624549N00808221EA0110901057
B1154194624549N00808220EA0110901057
B1154204624549N00808220EA0110901057
B1154214624549N00808220EA0110901057
B1154224624549N00808220EA0110901057
B1154234624549N00808220EA0110901057
B1154244624549N00808220EA0110901057
B1154254624549N00808220EA0110901057
B1154264624549N00808220EA0110901057
B1154274624549N00808220EA0110901057
B1154284624548N00808220EA0110901057
B1154294624548N00808220EA0110901057
B1154304624548N00808220EA0110901057
B1154314624548N00808220EA0110901057
B1154324624548N00808220EA0110901057
B1154334624548N00808220EA0110901057
B1154344624549N00808220EA0110901057
B1154354624549N00808220EA0110901057
B1154364624549N00808220EA0110901057
B1154374624549N00808220EA0110901057
B1154384624549N00808220EA0110901057
B1154394624549N00808220EA0110901057
B1154404624549N00808220EA0110901057
B1154414624549N00808221EA0110901057
B1154424624549N00808221EA0110901057
LXSX;C1;GM:1.4
GA6DBACB3731C1414CC52CEA69B83833F
