AXSX005 SKYTRAXX
HFPLTPILOT:Sepp Bucher
HFGTYGLIDERTYPE:Niviuk Artik R
HFDTM100GPSDATUM:WGS-84
HFRFWFIRMWAREVERSION:202310301657
HFRHWHARDWAREVERSION:4.0
HFTZNTIMEZONE:+1.00
HFSITSITE:Bellwald_Steibenkreuz
HFDTE130124
LXSX;I1;OAB:20240111;OOB:20230901
LXSX;I1;ID:114075
LXSX;I1;AC:1;CAT:C
B1107404626881N00809830EA0236802422
B1107414626881N00809830EA0236802422
B1107424626881N00809830EA0236802422
B1107434626881N00809830EA0236802422
B1107444626881N00809830EA0236802422
B1107454626880N00809830EA0236802421
B1107464626880N00809830EA0236802421
B1107474626880N00809829EA0236702421
B1107484626880N00809829EA0236702421
B1107494626880N00809829EA0236702421
B1107504626880N00809829EA0236702421
B1107514626880N00809829EA0236702421
B1107524626880N00809829EA0236702421
B1107534626880N00809829EA0236702421
B1107544626879N00809829EA0236702421
B1107554626878N00809828EA0236502419
B1107564626876N00809828EA0236402418
B1107574626875N00809828EA0236402418
B1107584626874N00809828EA0236302417
B1107594626871N00809827EA0236002414
B1108004626868N00809827EA0235802412
B1108014626864N00809826EA0235502409
B1108024626860N00809824EA0235302407
B1108034626855N00809824EA0235202406
B1108044626849N00809825EA0234902403
B1108054626842N00809827EA0234802402
B1108064626836N00809830EA0234802402
B1108074626831N00809833EA0234802402
B1108084626826N00809838EA0234802402
B1108094626822N00809842EA0234702401
B1108104626817N00809846EA0234502399
B1108114626811N00809850EA0234402398
B1108124626806N00809855EA0234302397
B1108134626801N00809860EA0234302397
B1108144626798N00809866EA0234302397
B1108154626795N00809873EA0234302397
B1108164626793N00809880EA0234102395
B1108174626791N00809887EA0233902393
B1108184626789N00809896EA0233702391
B1108194626787N00809905EA0233602390
B1108204626786N00809914EA0233602390
B1108214626785N00809923EA0233602389
B1108224626784N00809932EA0233502389
B1108234626784N00809940EA0233502389
B1108244626783N00809949EA0233302387
B1108254626782N00809959EA0233202386
B1108264626781N00809968EA0233002384
B1108274626781N00809978EA0232902383
B1108284626781N00809988EA0232802382
B1108294626781N00809998EA0232802382
B1108304626781N00810007EA0232702381
B1108314626781N00810017EA0232602380
B1108324626782N00810026EA0232502379
B1108334626783N00810036EA0232302377
B1108344626784N00810046EA0232202376
B1108354626785N00810055EA0232102375
B1108364626786N00810065EA0232002374
B1108374626787N00810075EA0231902373
B1108384626787N00810085EA0231802372
B1108394626788N00810094EA0231702370
B1108404626789N00810104EA0231502369
B1108414626791N00810114EA0231302367
B1108424626793N00810124EA0231202366
B1108434626796N00810134EA0231002364
B1108444626800N00810143EA0230902363
B1108454626803N00810151EA0230802362
B1108464626807N00810159EA0230702361
B1108474626810N00810168EA0230502359
B1108484626814N00810176EA0230402358
B1108494626818N00810184EA0230202356
B1108504626823N00810190EA0230202356
B1108514626827N00810196EA0230102355
B1108524626832N00810202EA0230102355
B1108534626836N00810209EA0230002354
B1108544626841N00810216EA0229902353
B1108554626845N00810222EA0229902353
B1108564626850N00810229EA0229802352
B1108574626854N00810236EA0229802351
B1108584626859N00810243EA0229702351
B1108594626863N00810250EA0229702351
B1109004626867N00810256EA0229602350
B1109014626870N00810263EA0229502349
B1109024626874N00810271EA0229302347
B1109034626878N00810278EA0229102345
B1109044626882N00810286EA0229002344
B1109054626887N00810293EA0228902343
B1109064626891N00810300EA0228902343
B1109074626895N00810307EA0228802342
B1109084626899N00810314EA0228702341
B1109094626903N00810322EA0228602340
B1109104626906N00810329EA0228502339
B1109114626911N00810336EA0228402338
B1109124626915N00810344EA0228302337
B1109134626919N00810351EA0228202336
B1109144626923N00810358EA0228202336
B1109154626927N00810365EA0228102335
B1109164626931N00810372EA0228002334
B1109174626935N00810379EA0227902332
B1109184626938N00810387EA0227702331
B1109194626942N00810395EA0227602330
B1109204626946N00810402EA0227502329
B1109214626949N00810410EA0227402328
B1109224626953N00810417EA0227302327
B1109234626957N00810424EA0227202326
B1109244626961N00810432EA0227102325
B1109254626965N00810439EA0227002324
B1109264626969N00810446EA0226902323
B1109274626973N00810454EA0226802322
B1109284626977N00810461EA0226702320
B1109294626981N00810468EA0226502319
B1109304626985N00810475EA0226502319
B1109314626988N00810483EA0226402318
B1109324626992N00810490EA0226202316
B1109334626996N00810498EA0226102315
B1109344627000N00810505EA0226002314
B1109354627003N00810513EA0225902313
B1109364627007N00810521EA0225802312
B1109374627011N00810529EA0225702311
B1109384627014N00810537EA0225602310
B1109394627018N00810545EA0225502309
B1109404627022N00810553EA0225402308
B1109414627026N00810561EA0225302307
B1109424627030N00810568EA0225102305
B1109434627034N00810576EA0225002304
B1109444627038N00810584EA0224902303
B1109454627042N00810592EA0224702301
B1109464627047N00810599EA0224602300
B1109474627050N00810607EA0224502299
B1109484627055N00810615EA0224402298
B1109494627059N00810623EA0224302297
B1109504627063N00810631EA0224202296
B1109514627066N00810639EA0224002294
B1109524627071N00810647EA0223902293
B1109534627074N00810655EA0223802292
B1109544627078N00810663EA0223702291
B1109554627081N00810671EA0223602290
B1109564627085N00810679EA0223502289
B1109574627088N00810686EA0223402288
B1109584627091N00810694EA0223302287
B1109594627095N00810701EA0223202286
B1110004627098N00810708EA0223002284
B1110014627102N00810715EA0222902283
B1110024627105N00810723EA0222702281
B1110034627109N00810730EA0222602280
B1110044627113N00810738EA0222502279
B1110054627117N00810746EA0222402278
B1110064627120N00810754EA0222302277
B1110074627124N00810762EA0222302277
B1110084627127N00810770EA0222202276
B1110094627130N00810778EA0222202276
B1110104627133N00810786EA0222102275
B1110114627136N00810795EA0222002274
B1110124627138N00810803EA0221902273
B1110134627141N00810811EA0221802272
B1110144627144N00810820EA0221702271
B1110154627147N00810828EA0221602270
B1110164627150N00810836EA0221502269
B1110174627154N00810845EA0221302267
B1110184627157N00810853EA0221302267
B1110194627160N00810861EA0221202266
B1110204627163N00810869EA0221002264
B1110214627167N00810877EA0220902263
B1110224627170N00810885EA0220902263
B1110234627173N00810892EA0220802262
B1110244627176N00810900EA0220602260
B1110254627179N00810907EA0220602259
B1110264627182N00810915EA0220502259
B1110274627185N00810922EA0220302257
B1110284627188N00810930EA0220202256
B1110294627191N00810938EA0220102255
B1110304627194N00810947EA0220002254
B1110314627196N00810955EA0220002254
B1110324627199N00810963EA0219802252
B1110334627202N00810970EA0219702251
B1110344627205N00810978EA0219602249
B1110354627208N00810986EA0219402248
B1110364627211N00810994EA0219202246
B1110374627214N00811002EA0219002244
B1110384627217N00811010EA0218902243
B1110394627220N00811018EA0218802242
B1110404627223N00811026EA0218702241
B1110414627226N00811034EA0218502239
B1110424627230N00811042EA0218402238
B1110434627233N00811050EA0218302237
B1110444627237N00811058EA0218202236
B1110454627240N00811066EA0218202236
B1110464627243N00811074EA0218102235
B1110474627246N00811082EA0218002233
B1110484627249N00811089EA0217802232
B1110494627253N00811097EA0217702231
B1110504627256N00811105EA0217602230
B1110514627259N00811113EA0217402228
B1110524627262N00811120EA0217302227
B1110534627266N00811127EA0217202226
B1110544627269N00811135EA0217002224
B1110554627273N00811142EA0216902223
B1110564627276N00811150EA0216802222
B1110574627280N00811158EA0216802222
B1110584627283N00811166EA0216802222
B1110594627287N00811173EA0216702221
B1111004627291N00811180EA0216502219
B1111014627295N00811188EA0216402218
B1111024627299N00811197EA0216202216
B1111034627303N00811206EA0216102215
B1111044627307N00811214EA0216202216
B1111054627310N00811222EA0216402218
B1111064627313N00811230EA0216502219
B1111074627316N00811238EA0216602220
B1111084627319N00811246EA0216802222
B1111094627322N00811253EA0216902223
B1111104627323N00811260EA0217102225
B1111114627324N00811267EA0217202226
B1111124627324N00811274EA0217402228
B1111134627322N00811280EA0217502229
B1111144627320N00811285EA0217602230
B1111154627315N00811288EA0217702231
B1111164627311N00811287EA0217702231
B1111174627307N00811284EA0217902233
B1111184627305N00811278EA0218102235
B1111194627305N00811271EA0218202236
B1111204627307N00811265EA0218202236
B1111214627310N00811259EA0218302236
B1111224627315N00811255EA0218302237
B1111234627320N00811251EA0218302237
B1111244627326N00811251EA0218402238
B1111254627333N00811253EA0218502239
B1111264627338N00811259EA0218602240
B1111274627342N00811266EA0218702241
B1111284627345N00811273EA0218802242
B1111294627346N00811281EA0219002244
B1111304627346N00811288EA0219202246
B1111314627344N00811294EA0219202246
B1111324627339N00811298EA0219302247
B1111334627334N00811300EA0219302247
B1111344627330N00811300EA0219502249
B1111354627326N00811298EA0219502249
B1111364627322N00811294EA0219602250
B1111374627320N00811288EA0219802252
B1111384627319N00811281EA0220002254
B1111394627320N00811274EA0220202256
B1111404627323N00811269EA0220302257
B1111414627327N00811264EA0220302257
B1111424627333N00811261EA0220302257
B1111434627339N00811259EA0220402258
B1111444627345N00811261EA0220402258
B1111454627351N00811266EA0220302257
B1111464627356N00811273EA0220302257
B1111474627358N00811281EA0220402258
B1111484627360N00811289EA0220502259
B1111494627360N00811298EA0220602260
B1111504627358N00811305EA0220802262
B1111514627355N00811310EA0220802262
B1111524627350N00811313EA0220702261
B1111534627345N00811314EA0220602259
B1111544627340N00811312EA0220502259
B1111554627335N00811310EA0220602260
B1111564627332N00811306EA0220702261
B1111574627328N00811302EA0220902263
B1111584627326N00811297EA0221102265
B1111594627324N00811291EA0221202266
B1112004627324N00811284EA0221302267
B1112014627325N00811276EA0221302267
B1112024627328N00811268EA0221302267
B1112034627332N00811261EA0221302267
B1112044627337N00811256EA0221402268
B1112054627344N00811254EA0221402268
B1112064627350N00811256EA0221202266
B1112074627356N00811261EA0221102265
B1112084627361N00811268EA0220902263
B1112094627364N00811276EA0220902263
B1112104627365N00811284EA0220802262
B1112114627365N00811292EA0220702261
B1112124627362N00811300EA0220702261
B1112134627358N00811305EA0220602260
B1112144627353N00811307EA0220602260
B1112154627348N00811307EA0220502259
B1112164627343N00811305EA0220702261
B1112174627338N00811302EA0220902263
B1112184627334N00811300EA0221102265
B1112194627331N00811298EA0221302267
B1112204627327N00811295EA0221402268
B1112214627323N00811291EA0221502269
B1112224627320N00811285EA0221502269
B1112234627318N00811279EA0221702271
B1112244627318N00811272EA0221802272
B1112254627320N00811265EA0221902272
B1112264627323N00811259EA0221802272
B1112274627326N00811254EA0221802272
B1112284627331N00811249EA0221702271
B1112294627337N00811247EA0221602270
B1112304627343N00811248EA0221402268
B1112314627349N00811253EA0221302267
B1112324627354N00811259EA0221302267
B1112334627357N00811267EA0221302267
B1112344627359N00811275EA0221302267
B1112354627360N00811284EA0221202266
B1112364627358N00811293EA0221102265
B1112374627354N00811299EA0221102265
B1112384627349N00811303EA0221202265
B1112394627344N00811304EA0221202266
B1112404627339N00811303EA0221302267
B1112414627335N00811301EA0221402268
B1112424627331N00811297EA0221502269
B1112434627327N00811293EA0221802272
B1112444627323N00811289EA0221902273
B1112454627319N00811285EA0222002273
B1112464627315N00811280EA0222002274
B1112474627312N00811274EA0222102275
B1112484627311N00811266EA0222002274
B1112494627312N00811259EA0222102275
B1112504627315N00811252EA0222002274
B1112514627320N00811247EA0221902273
B1112524627326N00811245EA0221802272
B1112534627331N00811245EA0221702271
B1112544627338N00811248EA0221502269
B1112554627342N00811254EA0221302267
B1112564627346N00811262EA0221202266
B1112574627347N00811271EA0221002264
B1112584627345N00811280EA0220802262
B1112594627342N00811288EA0220702261
B1113004627338N00811293EA0220602260
B1113014627333N00811297EA0220802262
B1113024627328N00811300EA0221002264
B1113034627324N00811301EA0221302267
B1113044627320N00811302EA0221602270
B1113054627316N00811303EA0221802272
B1113064627312N00811305EA0221902273
B1113074627308N00811305EA0222002274
B1113084627304N00811304EA0222102275
B1113094627299N00811302EA0222002274
B1113104627294N00811297EA0222002274
B1113114627291N00811291EA0222102275
B1113124627289N00811283EA0222202276
B1113134627289N00811275EA0222302277
B1113144627292N00811268EA0222402278
B1113154627297N00811263EA0222402278
B1113164627303N00811262EA0222402278
B1113174627309N00811263EA0222202276
B1113184627314N00811267EA0222102275
B1113194627318N00811273EA0222202276
B1113204627320N00811282EA0222302277
B1113214627319N00811290EA0222202276
B1113224627316N00811298EA0222302277
B1113234627311N00811304EA0222602280
B1113244627307N00811308EA0222902283
B1113254627304N00811309EA0223102285
B1113264627300N00811309EA0223202286
B1113274627296N00811308EA0223302287
B1113284627292N00811306EA0223302287
B1113294627289N00811301EA0223302287
B1113304627286N00811294EA0223302287
B1113314627286N00811286EA0223202286
B1113324627288N00811279EA0223102286
B1113334627292N00811274EA0223002284
B1113344627298N00811272EA0222902283
B1113354627305N00811273EA0222702281
B1113364627310N00811278EA0222602281
B1113374627315N00811285EA0222702281
B1113384627316N00811294EA0222802282
B1113394627315N00811302EA0222902283
B1113404627312N00811309EA0222802282
B1113414627308N00811315EA0222802282
B1113424627303N00811318EA0222902283
B1113434627297N00811320EA0222902283
B1113444627292N00811319EA0222902283
B1113454627287N00811317EA0223102285
B1113464627282N00811314EA0223402288
B1113474627279N00811310EA0223402289
B1113484627277N00811304EA0223502289
B1113494627276N00811297EA0223502289
B1113504627277N00811289EA0223402288
B1113514627280N00811282EA0223302288
B1113524627285N00811277EA0223302287
B1113534627292N00811275EA0223102285
B1113544627299N00811276EA0223002284
B1113554627305N00811280EA0223002285
B1113564627309N00811286EA0223102285
B1113574627311N00811293EA0223002284
B1113584627312N00811301EA0222802283
B1113594627311N00811310EA0222702281
B1114004627307N00811317EA0222602280
B1114014627302N00811322EA0222502279
B1114024627297N00811325EA0222502279
B1114034627291N00811326EA0222602280
B1114044627285N00811326EA0222802282
B1114054627280N00811326EA0223002285
B1114064627276N00811326EA0223202286
B1114074627272N00811327EA0223602290
B1114084627268N00811326EA0223802293
B1114094627264N00811325EA0224002294
B1114104627261N00811322EA0223902293
B1114114627258N00811318EA0223802292
B1114124627255N00811312EA0223702291
B1114134627254N00811304EA0223502290
B1114144627255N00811295EA0223402288
B1114154627258N00811288EA0223302287
B1114164627264N00811282EA0223302287
B1114174627269N00811279EA0223302287
B1114184627275N00811278EA0223202287
B1114194627281N00811279EA0223102285
B1114204627288N00811280EA0223002284
B1114214627294N00811282EA0222902283
B1114224627300N00811287EA0222702282
B1114234627305N00811292EA0222702281
B1114244627311N00811299EA0222702282
B1114254627316N00811305EA0222802282
B1114264627320N00811312EA0222802282
B1114274627323N00811319EA0222802283
B1114284627328N00811326EA0222802282
B1114294627332N00811333EA0222702281
B1114304627336N00811341EA0222602281
B1114314627341N00811349EA0222702281
B1114324627345N00811357EA0222602281
B1114334627350N00811364EA0222802282
B1114344627354N00811371EA0223002285
B1114354627358N00811378EA0223102285
B1114364627361N00811385EA0223102285
B1114374627364N00811392EA0222902284
B1114384627367N00811399EA0222702282
B1114394627372N00811406EA0222502279
B1114404627377N00811413EA0222402278
B1114414627381N00811420EA0222302277
B1114424627385N00811428EA0222102276
B1114434627388N00811435EA0222002274
B1114444627392N00811443EA0221802273
B1114454627396N00811449EA0221702271
B1114464627401N00811455EA0221402269
B1114474627406N00811462EA0221102266
B1114484627410N00811469EA0220802262
B1114494627415N00811477EA0220502260
B1114504627420N00811484EA0220302258
B1114514627426N00811491EA0220302257
B1114524627430N00811499EA0220102255
B1114534627435N00811506EA0219902253
B1114544627439N00811514EA0219802252
B1114554627445N00811521EA0219702251
B1114564627450N00811528EA0219602250
B1114574627456N00811535EA0219502250
B1114584627461N00811542EA0219502249
B1114594627465N00811549EA0219402248
B1115004627470N00811557EA0219302247
B1115014627475N00811564EA0219202247
B1115024627479N00811571EA0219302247
B1115034627483N00811578EA0219202246
B1115044627487N00811584EA0219102245
B1115054627491N00811591EA0219002244
B1115064627495N00811598EA0218902243
B1115074627499N00811604EA0218702241
B1115084627504N00811611EA0218502240
B1115094627508N00811618EA0218502239
B1115104627512N00811624EA0218402238
B1115114627516N00811631EA0218202237
B1115124627520N00811638EA0218102235
B1115134627523N00811644EA0217902233
B1115144627527N00811651EA0217702231
B1115154627531N00811658EA0217502229
B1115164627535N00811665EA0217302227
B1115174627539N00811672EA0217102225
B1115184627543N00811678EA0216902224
B1115194627547N00811684EA0216902223
B1115204627551N00811690EA0216902223
B1115214627555N00811696EA0216902223
B1115224627558N00811703EA0216802223
B1115234627561N00811710EA0216902223
B1115244627565N00811717EA0216902224
B1115254627568N00811724EA0217102225
B1115264627570N00811731EA0217202226
B1115274627572N00811738EA0217302227
B1115284627576N00811743EA0217502229
B1115294627579N00811749EA0217502229
B1115304627583N00811755EA0217502229
B1115314627587N00811760EA0217502229
B1115324627593N00811764EA0217502229
B1115334627598N00811766EA0217402228
B1115344627603N00811768EA0217302228
B1115354627609N00811772EA0217202227
B1115364627614N00811778EA0217102226
B1115374627619N00811785EA0217102225
B1115384627624N00811791EA0217202226
B1115394627629N00811796EA0217302227
B1115404627633N00811801EA0217302227
B1115414627638N00811807EA0217202226
B1115424627642N00811814EA0217102226
B1115434627647N00811821EA0217002224
B1115444627652N00811827EA0217002224
B1115454627658N00811832EA0217202226
B1115464627663N00811836EA0217502229
B1115474627668N00811839EA0218002234
B1115484627671N00811843EA0218102235
B1115494627673N00811847EA0218102235
B1115504627675N00811852EA0217902234
B1115514627678N00811858EA0217702231
B1115524627682N00811865EA0217302227
B1115534627686N00811873EA0217102226
B1115544627689N00811881EA0217102226
B1115554627691N00811889EA0217302227
B1115564627692N00811897EA0217302228
B1115574627693N00811904EA0217302227
B1115584627694N00811911EA0217202226
B1115594627695N00811919EA0217102225
B1116004627697N00811926EA0216902224
B1116014627699N00811934EA0216802222
B1116024627702N00811942EA0216602220
B1116034627706N00811951EA0216402219
B1116044627708N00811959EA0216102215
B1116054627710N00811968EA0215802212
B1116064627714N00811977EA0215502209
B1116074627717N00811986EA0215302208
B1116084627721N00811996EA0215302207
B1116094627724N00812005EA0215202207
B1116104627728N00812013EA0215202207
B1116114627731N00812020EA0215202206
B1116124627735N00812028EA0215002205
B1116134627739N00812036EA0214802202
B1116144627744N00812044EA0214602201
B1116154627749N00812051EA0214702201
B1116164627753N00812059EA0214602201
B1116174627757N00812067EA0214602200
B1116184627760N00812074EA0214502200
B1116194627764N00812081EA0214402198
B1116204627768N00812089EA0214202197
B1116214627773N00812096EA0214102196
B1116224627776N00812104EA0214202196
B1116234627780N00812111EA0214102196
B1116244627783N00812117EA0214002195
B1116254627786N00812124EA0213802192
B1116264627790N00812131EA0213602190
B1116274627794N00812138EA0213402188
B1116284627799N00812146EA0213202186
B1116294627803N00812154EA0213102185
B1116304627807N00812161EA0213202186
B1116314627811N00812168EA0213102186
B1116324627814N00812174EA0213002184
B1116334627818N00812181EA0212802182
B1116344627822N00812188EA0212702181
B1116354627826N00812196EA0212602180
B1116364627830N00812203EA0212502179
B1116374627833N00812211EA0212402178
B1116384627836N00812219EA0212302177
B1116394627839N00812226EA0212102176
B1116404627843N00812233EA0212002174
B1116414627847N00812240EA0211802172
B1116424627850N00812248EA0211702171
B1116434627854N00812256EA0211602170
B1116444627858N00812263EA0211502169
B1116454627861N00812270EA0211402168
B1116464627865N00812277EA0211302167
B1116474627868N00812285EA0211202166
B1116484627872N00812292EA0211002164
B1116494627876N00812300EA0210802163
B1116504627879N00812307EA0210702162
B1116514627883N00812314EA0210602160
B1116524627887N00812321EA0210502159
B1116534627890N00812328EA0210302158
B1116544627894N00812335EA0210202156
B1116554627899N00812342EA0210102155
B1116564627902N00812349EA0209902154
B1116574627906N00812356EA0209702152
B1116584627911N00812363EA0209602150
B1116594627915N00812370EA0209502149
B1117004627919N00812377EA0209402148
B1117014627923N00812384EA0209202147
B1117024627927N00812391EA0209102145
B1117034627931N00812397EA0209002144
B1117044627936N00812403EA0208802143
B1117054627940N00812409EA0208702141
B1117064627944N00812415EA0208602140
B1117074627949N00812422EA0208502139
B1117084627953N00812428EA0208302137
B1117094627957N00812434EA0208202136
B1117104627962N00812440EA0208002135
B1117114627967N00812446EA0207902133
B1117124627971N00812452EA0207802133
B1117134627976N00812458EA0207802132
B1117144627980N00812464EA0207702131
B1117154627984N00812470EA0207502130
B1117164627989N00812476EA0207402128
B1117174627994N00812482EA0207202127
B1117184627998N00812488EA0207102125
B1117194628003N00812494EA0207002124
B1117204628007N00812500EA0206802123
B1117214628012N00812505EA0206802122
B1117224628017N00812511EA0206702121
B1117234628021N00812517EA0206602120
B1117244628025N00812523EA0206402118
B1117254628029N00812530EA0206302117
B1117264628033N00812535EA0206202116
B1117274628038N00812541EA0206102115
B1117284628043N00812546EA0206002114
B1117294628048N00812552EA0206002114
B1117304628054N00812557EA0206102115
B1117314628060N00812562EA0206202116
B1117324628064N00812566EA0206302117
B1117334628069N00812568EA0206202117
B1117344628073N00812571EA0206102115
B1117354628079N00812573EA0205902113
B1117364628085N00812576EA0205702111
B1117374628091N00812579EA0205502110
B1117384628097N00812584EA0205502109
B1117394628104N00812589EA0205602110
B1117404628109N00812595EA0205702111
B1117414628114N00812601EA0205802113
B1117424628118N00812607EA0206102115
B1117434628122N00812613EA0206202116
B1117444628125N00812619EA0206202117
B1117454628127N00812627EA0206102115
B1117464628129N00812635EA0205902113
B1117474628130N00812645EA0205802112
B1117484628133N00812654EA0205702111
B1117494628137N00812662EA0205702112
B1117504628141N00812669EA0205802113
B1117514628144N00812675EA0205902113
B1117524628146N00812682EA0205902113
B1117534628148N00812689EA0205702112
B1117544628150N00812696EA0205502110
B1117554628154N00812704EA0205302107
B1117564628159N00812711EA0205102106
B1117574628163N00812718EA0205102105
B1117584628168N00812724EA0205102105
B1117594628172N00812730EA0205102105
B1118004628176N00812736EA0205002104
B1118014628179N00812743EA0204802102
B1118024628183N00812750EA0204602101
B1118034628187N00812757EA0204502099
B1118044628192N00812764EA0204402098
B1118054628196N00812771EA0204302097
B1118064628200N00812778EA0204202096
B1118074628204N00812785EA0204002095
B1118084628209N00812792EA0203902093
B1118094628213N00812798EA0203702091
B1118104628217N00812805EA0203502089
B1118114628222N00812812EA0203302088
B1118124628225N00812820EA0203202086
B1118134628229N00812827EA0203102085
B1118144628233N00812834EA0203002084
B1118154628237N00812841EA0202902083
B1118164628241N00812849EA0202802082
B1118174628245N00812856EA0202602080
B1118184628250N00812863EA0202402078
B1118194628254N00812870EA0202202077
B1118204628257N00812878EA0202102075
B1118214628261N00812885EA0201902073
B1118224628266N00812892EA0201802073
B1118234628270N00812899EA0201702071
B1118244628274N00812906EA0201602070
B1118254628277N00812913EA0201502069
B1118264628280N00812921EA0201402068
B1118274628283N00812928EA0201302067
B1118284628287N00812935EA0201202066
B1118294628291N00812941EA0201102066
B1118304628296N00812948EA0201102065
B1118314628299N00812954EA0201002065
B1118324628304N00812960EA0200902064
B1118334628308N00812966EA0200802063
B1118344628312N00812973EA0200702061
B1118354628316N00812979EA0200602060
B1118364628321N00812986EA0200602060
B1118374628325N00812993EA0200502059
B1118384628330N00813000EA0200202056
B1118394628335N00813007EA0200202056
B1118404628339N00813015EA0200202056
B1118414628343N00813021EA0200202057
B1118424628347N00813027EA0200302058
B1118434628351N00813032EA0200402059
B1118444628354N00813038EA0200402058
B1118454628358N00813044EA0200202056
B1118464628361N00813051EA0200102055
B1118474628366N00813058EA0200102056
B1118484628371N00813065EA0200302057
B1118494628375N00813070EA0200502059
B1118504628379N00813074EA0200702061
B1118514628384N00813077EA0200702061
B1118524628388N00813079EA0200602060
B1118534628392N00813083EA0200402058
B1118544628396N00813088EA0200202056
B1118554628400N00813095EA0200002054
B1118564628403N00813102EA0199902053
B1118574628407N00813109EA0199902053
B1118584628411N00813116EA0199802053
B1118594628414N00813123EA0199902053
B1119004628418N00813129EA0199902053
B1119014628421N00813136EA0199902053
B1119024628424N00813143EA0199902054
B1119034628427N00813149EA0200002054
B1119044628430N00813154EA0200002055
B1119054628434N00813160EA0200002054
B1119064628437N00813166EA0199902053
B1119074628441N00813172EA0199802052
B1119084628445N00813178EA0199802052
B1119094628448N00813185EA0199802052
B1119104628452N00813192EA0199802052
B1119114628455N00813199EA0199702052
B1119124628458N00813206EA0199602050
B1119134628462N00813212EA0199402049
B1119144628466N00813220EA0199202047
B1119154628469N00813228EA0199102046
B1119164628473N00813236EA0199002045
B1119174628476N00813243EA0199002045
B1119184628479N00813251EA0198902044
B1119194628483N00813258EA0198902043
B1119204628486N00813266EA0198702041
B1119214628490N00813274EA0198402039
B1119224628493N00813282EA0198202037
B1119234628496N00813290EA0198102036
B1119244628499N00813299EA0198002034
B1119254628502N00813308EA0197902034
B1119264628505N00813315EA0197902033
B1119274628508N00813323EA0197802032
B1119284628511N00813331EA0197602031
B1119294628515N00813339EA0197402029
B1119304628518N00813346EA0197202026
B1119314628521N00813354EA0196902023
B1119324628525N00813362EA0196602021
B1119334628529N00813371EA0196402018
B1119344628532N00813380EA0196302017
B1119354628535N00813389EA0196202016
B1119364628539N00813396EA0196102015
B1119374628542N00813404EA0195902014
B1119384628545N00813412EA0195802012
B1119394628548N00813420EA0195602010
B1119404628550N00813429EA0195502009
B1119414628553N00813438EA0195402009
B1119424628556N00813446EA0195402008
B1119434628559N00813454EA0195302007
B1119444628561N00813462EA0195002005
B1119454628564N00813470EA0194902004
B1119464628566N00813477EA0194802003
B1119474628569N00813485EA0194802002
B1119484628571N00813492EA0194602001
B1119494628574N00813499EA0194401999
B1119504628577N00813507EA0194201996
B1119514628580N00813515EA0194001994
B1119524628583N00813524EA0193801993
B1119534628586N00813532EA0193701992
B1119544628590N00813540EA0193701991
B1119554628593N00813547EA0193601990
B1119564628596N00813555EA0193401988
B1119574628598N00813563EA0193201987
B1119584628602N00813571EA0193101985
B1119594628604N00813580EA0192901984
B1120004628607N00813588EA0192801983
B1120014628610N00813596EA0192801982
B1120024628613N00813604EA0192701981
B1120034628616N00813612EA0192501979
B1120044628619N00813620EA0192301978
B1120054628622N00813628EA0192201976
B1120064628624N00813637EA0192001975
B1120074628627N00813645EA0191901973
B1120084628630N00813654EA0191801972
B1120094628633N00813662EA0191701972
B1120104628636N00813671EA0191601971
B1120114628637N00813679EA0191501969
B1120124628640N00813688EA0191301967
B1120134628643N00813696EA0191101966
B1120144628646N00813705EA0191001965
B1120154628649N00813714EA0190901964
B1120164628652N00813722EA0190901963
B1120174628655N00813730EA0190801962
B1120184628657N00813737EA0190801962
B1120194628659N00813745EA0190701961
B1120204628661N00813753EA0190601961
B1120214628663N00813762EA0190901963
B1120224628665N00813771EA0191001965
B1120234628668N00813778EA0191201966
B1120244628672N00813785EA0191401968
B1120254628676N00813790EA0191401968
B1120264628680N00813794EA0191401968
B1120274628684N00813798EA0191301967
B1120284628688N00813803EA0191101965
B1120294628691N00813810EA0190901963
B1120304628693N00813817EA0190701962
B1120314628696N00813825EA0190701961
B1120324628699N00813831EA0190601961
B1120334628701N00813838EA0190701961
B1120344628702N00813844EA0190801963
B1120354628704N00813851EA0191001964
B1120364628707N00813857EA0191101966
B1120374628711N00813863EA0191301967
B1120384628715N00813869EA0191501969
B1120394628716N00813875EA0191601970
B1120404628716N00813881EA0191501970
B1120414628714N00813886EA0191501969
B1120424628712N00813891EA0191401969
B1120434628709N00813895EA0191501969
B1120444628705N00813898EA0191501969
B1120454628700N00813898EA0191601970
B1120464628696N00813896EA0191601971
B1120474628691N00813892EA0191701972
B1120484628689N00813887EA0192001974
B1120494628687N00813881EA0192001975
B1120504628687N00813873EA0192101975
B1120514628688N00813864EA0192101976
B1120524628691N00813856EA0192301977
B1120534628695N00813849EA0192401979
B1120544628699N00813844EA0192701981
B1120554628703N00813838EA0193001984
B1120564628707N00813833EA0193101985
B1120574628710N00813827EA0193201986
B1120584628713N00813820EA0193201986
B1120594628715N00813811EA0193201987
B1121004628715N00813802EA0193301987
B1121014628714N00813794EA0193201987
B1121024628711N00813789EA0193101985
B1121034628709N00813785EA0193001984
B1121044628706N00813781EA0192801983
B1121054628702N00813779EA0192701982
B1121064628697N00813779EA0192601980
B1121074628692N00813781EA0192501980
B1121084628688N00813784EA0192401979
B1121094628686N00813789EA0192301978
B1121104628685N00813795EA0192301977
B1121114628684N00813802EA0192301977
B1121124628685N00813810EA0192301978
B1121134628687N00813817EA0192401978
B1121144628691N00813823EA0192401978
B1121154628696N00813828EA0192401978
B1121164628701N00813831EA0192501979
B1121174628706N00813835EA0192501979
B1121184628710N00813840EA0192501979
B1121194628715N00813846EA0192501979
B1121204628718N00813852EA0192501980
B1121214628723N00813858EA0192701982
B1121224628727N00813863EA0192901984
B1121234628731N00813868EA0193101986
B1121244628734N00813874EA0193101986
B1121254628736N00813880EA0193101985
B1121264628739N00813887EA0193101985
B1121274628742N00813894EA0193001984
B1121284628745N00813901EA0192901983
B1121294628749N00813907EA0192901983
B1121304628753N00813913EA0192901983
B1121314628756N00813919EA0192801982
B1121324628760N00813925EA0192501980
B1121334628763N00813931EA0192301977
B1121344628767N00813938EA0192001975
B1121354628772N00813945EA0191901974
B1121364628775N00813952EA0191801972
B1121374628780N00813959EA0191601971
B1121384628783N00813964EA0191501970
B1121394628786N00813970EA0191401969
B1121404628789N00813977EA0191101966
B1121414628792N00813985EA0190901963
B1121424628796N00813993EA0190701962
B1121434628800N00814000EA0190601961
B1121444628803N00814007EA0190701961
B1121454628807N00814013EA0190701961
B1121464628809N00814020EA0190601960
B1121474628812N00814026EA0190501959
B1121484628815N00814033EA0190301957
B1121494628819N00814039EA0190201956
B1121504628823N00814047EA0189901954
B1121514628827N00814055EA0189801952
B1121524628830N00814061EA0189701952
B1121534628834N00814068EA0189701951
B1121544628837N00814074EA0189601950
B1121554628841N00814081EA0189301947
B1121564628844N00814088EA0189101945
B1121574628848N00814096EA0189001945
B1121584628852N00814104EA0189001944
B1121594628855N00814111EA0188901943
B1122004628859N00814118EA0188801942
B1122014628862N00814125EA0188701941
B1122024628865N00814132EA0188501940
B1122034628868N00814140EA0188401938
B1122044628871N00814148EA0188301937
B1122054628875N00814156EA0188201936
B1122064628878N00814163EA0188101935
B1122074628881N00814169EA0188001934
B1122084628884N00814176EA0187801932
B1122094628888N00814183EA0187601930
B1122104628892N00814191EA0187401929
B1122114628896N00814198EA0187301928
B1122124628899N00814205EA0187301927
B1122134628902N00814212EA0187201926
B1122144628905N00814219EA0187001925
B1122154628909N00814226EA0186901923
B1122164628912N00814233EA0186701922
B1122174628916N00814241EA0186601920
B1122184628919N00814248EA0186501919
B1122194628922N00814255EA0186401918
B1122204628925N00814263EA0186301918
B1122214628929N00814270EA0186301917
B1122224628932N00814277EA0186201916
B1122234628935N00814284EA0186001914
B1122244628938N00814292EA0185801913
B1122254628942N00814299EA0185701911
B1122264628946N00814307EA0185701911
B1122274628950N00814316EA0185901913
B1122284628953N00814324EA0186001914
B1122294628956N00814331EA0186101915
B1122304628958N00814337EA0186101915
B1122314628960N00814343EA0186001914
B1122324628963N00814349EA0185901913
B1122334628967N00814356EA0185801913
B1122344628971N00814364EA0186001914
B1122354628975N00814370EA0186201916
B1122364628978N00814376EA0186301918
B1122374628981N00814381EA0186401918
B1122384628984N00814386EA0186401918
B1122394628988N00814392EA0186301917
B1122404628992N00814398EA0186101915
B1122414628995N00814405EA0185901913
B1122424628999N00814411EA0185701912
B1122434629003N00814419EA0185601910
B1122444629006N00814426EA0185401908
B1122454629009N00814434EA0185201906
B1122464629013N00814441EA0185101906
B1122474629016N00814449EA0185201906
B1122484629019N00814456EA0185401908
B1122494629022N00814462EA0185501910
B1122504629024N00814467EA0185601911
B1122514629027N00814472EA0185601910
B1122524629030N00814477EA0185501909
B1122534629033N00814483EA0185301907
B1122544629035N00814490EA0185101905
B1122554629039N00814497EA0184901904
B1122564629042N00814504EA0184801903
B1122574629046N00814510EA0184801902
B1122584629049N00814516EA0184601900
B1122594629053N00814522EA0184401899
B1123004629056N00814528EA0184201897
B1123014629059N00814535EA0183901894
B1123024629063N00814542EA0183701892
B1123034629066N00814549EA0183601890
B1123044629069N00814556EA0183501889
B1123054629073N00814563EA0183401889
B1123064629077N00814568EA0183401889
B1123074629080N00814574EA0183401888
B1123084629084N00814581EA0183201886
B1123094629087N00814588EA0183001885
B1123104629090N00814595EA0182801882
B1123114629093N00814601EA0182601881
B1123124629097N00814608EA0182501880
B1123134629100N00814615EA0182401879
B1123144629103N00814622EA0182401878
B1123154629107N00814629EA0182301877
B1123164629110N00814636EA0182201877
B1123174629114N00814643EA0182201877
B1123184629116N00814650EA0182301877
B1123194629119N00814657EA0182101876
B1123204629122N00814664EA0182001874
B1123214629125N00814671EA0181801873
B1123224629129N00814678EA0181701872
B1123234629132N00814685EA0181701872
B1123244629135N00814692EA0181801872
B1123254629138N00814699EA0182001874
B1123264629139N00814704EA0182101876
B1123274629141N00814709EA0182201876
B1123284629144N00814714EA0182201876
B1123294629147N00814719EA0182101875
B1123304629150N00814725EA0181801873
B1123314629153N00814730EA0181701871
B1123324629156N00814737EA0181501869
B1123334629158N00814744EA0181301868
B1123344629161N00814751EA0181201866
B1123354629164N00814757EA0181101865
B1123364629166N00814764EA0180901864
B1123374629170N00814771EA0180801863
B1123384629173N00814778EA0180801862
B1123394629176N00814785EA0180701862
B1123404629180N00814791EA0180701861
B1123414629183N00814798EA0180901863
B1123424629186N00814804EA0181001864
B1123434629188N00814810EA0181001864
B1123444629191N00814815EA0180901864
B1123454629194N00814820EA0180901863
B1123464629198N00814827EA0180901863
B1123474629202N00814833EA0181001864
B1123484629206N00814840EA0181101866
B1123494629210N00814845EA0181401868
B1123504629213N00814850EA0181501870
B1123514629216N00814854EA0181601870
B1123524629219N00814858EA0181501869
B1123534629222N00814862EA0181301868
B1123544629226N00814868EA0181101866
B1123554629230N00814873EA0181101865
B1123564629235N00814879EA0181001865
B1123574629239N00814885EA0181101866
B1123584629242N00814891EA0181201867
B1123594629245N00814898EA0181301868
B1124004629248N00814903EA0181301868
B1124014629252N00814909EA0181301867
B1124024629256N00814915EA0181201867
B1124034629260N00814921EA0181101866
B1124044629263N00814929EA0181201866
B1124054629266N00814935EA0181201866
B1124064629270N00814941EA0181101865
B1124074629274N00814946EA0181001864
B1124084629277N00814952EA0181001864
B1124094629281N00814959EA0181001864
B1124104629285N00814966EA0181101865
B1124114629288N00814973EA0181301867
B1124124629292N00814979EA0181401869
B1124134629296N00814984EA0181501870
B1124144629300N00814989EA0181501870
B1124154629303N00814994EA0181401869
B1124164629306N00815000EA0181301868
B1124174629310N00815006EA0181201867
B1124184629314N00815013EA0181201866
B1124194629318N00815019EA0181201866
B1124204629322N00815026EA0181101866
B1124214629325N00815033EA0181101865
B1124224629328N00815039EA0181001864
B1124234629332N00815046EA0180901863
B1124244629335N00815052EA0180901863
B1124254629339N00815058EA0180801863
B1124264629342N00815064EA0180901863
B1124274629344N00815070EA0180901864
B1124284629347N00815076EA0181001865
B1124294629349N00815081EA0181101866
B1124304629352N00815086EA0181101866
B1124314629355N00815091EA0181101866
B1124324629358N00815096EA0181101865
B1124334629360N00815102EA0180901864
B1124344629363N00815109EA0180801863
B1124354629366N00815115EA0180801862
B1124364629369N00815121EA0180601861
B1124374629372N00815127EA0180601860
B1124384629375N00815133EA0180501859
B1124394629378N00815140EA0180401858
B1124404629381N00815146EA0180401858
B1124414629383N00815153EA0180201857
B1124424629387N00815159EA0180101855
B1124434629391N00815166EA0180101856
B1124444629394N00815172EA0180001855
B1124454629398N00815179EA0179801853
B1124464629401N00815185EA0179601851
B1124474629404N00815193EA0179501849
B1124484629407N00815200EA0179301847
B1124494629410N00815208EA0179201846
B1124504629413N00815216EA0179101846
B1124514629416N00815223EA0179101845
B1124524629419N00815229EA0179001844
B1124534629422N00815236EA0178801842
B1124544629425N00815244EA0178701841
B1124554629428N00815251EA0178501840
B1124564629432N00815258EA0178401838
B1124574629435N00815265EA0178401838
B1124584629438N00815272EA0178301837
B1124594629441N00815279EA0178201836
B1125004629444N00815285EA0178001835
B1125014629448N00815292EA0178001834
B1125024629451N00815298EA0177801832
B1125034629454N00815305EA0177701831
B1125044629457N00815312EA0177601830
B1125054629460N00815319EA0177501829
B1125064629463N00815326EA0177401828
B1125074629466N00815333EA0177301827
B1125084629470N00815340EA0177201826
B1125094629472N00815347EA0177001825
B1125104629475N00815354EA0176901824
B1125114629478N00815361EA0176901823
B1125124629481N00815368EA0176801822
B1125134629484N00815375EA0176701821
B1125144629487N00815381EA0176601820
B1125154629490N00815388EA0176401819
B1125164629493N00815395EA0176301818
B1125174629496N00815402EA0176201816
B1125184629499N00815409EA0176101815
B1125194629502N00815416EA0176001815
B1125204629505N00815423EA0175901813
B1125214629509N00815429EA0175601811
B1125224629512N00815436EA0175601810
B1125234629516N00815441EA0175601811
B1125244629520N00815447EA0175501810
B1125254629524N00815452EA0175501809
B1125264629527N00815457EA0175401808
B1125274629531N00815463EA0175301807
B1125284629533N00815470EA0175201806
B1125294629536N00815477EA0175001804
B1125304629539N00815484EA0175001804
B1125314629543N00815490EA0175001804
B1125324629546N00815497EA0174901803
B1125334629549N00815503EA0174801802
B1125344629552N00815509EA0174601800
B1125354629556N00815515EA0174501799
B1125364629559N00815522EA0174401798
B1125374629563N00815528EA0174301798
B1125384629567N00815534EA0174201796
B1125394629570N00815541EA0174101795
B1125404629573N00815547EA0174001795
B1125414629577N00815554EA0174001794
B1125424629580N00815560EA0173901794
B1125434629583N00815567EA0173801792
B1125444629587N00815573EA0173701792
B1125454629591N00815580EA0173701791
B1125464629594N00815586EA0173601791
B1125474629598N00815592EA0173501790
B1125484629602N00815599EA0173401788
B1125494629605N00815606EA0173301788
B1125504629609N00815612EA0173301788
B1125514629612N00815619EA0173201787
B1125524629615N00815626EA0173101786
B1125534629619N00815633EA0173101785
B1125544629622N00815639EA0173101785
B1125554629625N00815646EA0173001784
B1125564629628N00815653EA0172901783
B1125574629632N00815660EA0172801782
B1125584629635N00815667EA0172701781
B1125594629638N00815674EA0172601780
B1126004629641N00815681EA0172401779
B1126014629644N00815688EA0172301778
B1126024629648N00815695EA0172301777
B1126034629651N00815702EA0172301777
B1126044629654N00815708EA0172201776
B1126054629658N00815715EA0172001775
B1126064629661N00815721EA0171901773
B1126074629665N00815728EA0171801772
B1126084629669N00815735EA0171601770
B1126094629672N00815741EA0171501769
B1126104629676N00815748EA0171401769
B1126114629679N00815755EA0171301768
B1126124629682N00815762EA0171301767
B1126134629685N00815769EA0171101766
B1126144629688N00815776EA0171001765
B1126154629691N00815783EA0170901764
B1126164629693N00815790EA0170901763
B1126174629697N00815797EA0170701762
B1126184629699N00815804EA0170601761
B1126194629702N00815811EA0170601760
B1126204629705N00815818EA0170501759
B1126214629708N00815825EA0170301758
B1126224629711N00815832EA0170201757
B1126234629714N00815839EA0170101755
B1126244629717N00815846EA0170001754
B1126254629720N00815853EA0169901754
B1126264629723N00815860EA0169901753
B1126274629725N00815867EA0169801753
B1126284629729N00815874EA0169801752
B1126294629731N00815881EA0169801753
B1126304629734N00815888EA0169801752
B1126314629737N00815894EA0169701752
B1126324629740N00815900EA0169701751
B1126334629742N00815906EA0169601750
B1126344629745N00815913EA0169601751
B1126354629747N00815920EA0169701751
B1126364629750N00815926EA0169501750
B1126374629752N00815932EA0169401748
B1126384629755N00815938EA0169201746
B1126394629756N00815945EA0169101745
B1126404629759N00815952EA0169001745
B1126414629761N00815957EA0169001744
B1126424629763N00815963EA0168901744
B1126434629766N00815969EA0168801742
B1126444629768N00815975EA0168601740
B1126454629770N00815982EA0168501740
B1126464629772N00815989EA0168501739
B1126474629775N00815996EA0168501739
B1126484629778N00816002EA0168501739
B1126494629781N00816008EA0168501739
B1126504629783N00816014EA0168401739
B1126514629786N00816020EA0168401738
B1126524629788N00816025EA0168401738
B1126534629790N00816031EA0168301737
B1126544629792N00816037EA0168301737
B1126554629794N00816043EA0168201737
B1126564629797N00816049EA0168201736
B1126574629799N00816054EA0168201737
B1126584629803N00816061EA0168301737
B1126594629806N00816067EA0168301738
B1127004629809N00816073EA0168401738
B1127014629811N00816079EA0168501739
B1127024629814N00816084EA0168501740
B1127034629818N00816089EA0168501740
B1127044629821N00816094EA0168501739
B1127054629823N00816099EA0168301737
B1127064629825N00816105EA0168101735
B1127074629827N00816111EA0167901734
B1127084629830N00816117EA0167801732
B1127094629832N00816123EA0167601731
B1127104629835N00816129EA0167501730
B1127114629837N00816136EA0167401729
B1127124629840N00816142EA0167401728
B1127134629842N00816148EA0167301728
B1127144629845N00816154EA0167301728
B1127154629847N00816160EA0167401728
B1127164629849N00816165EA0167401728
B1127174629851N00816169EA0167401728
B1127184629853N00816174EA0167301727
B1127194629855N00816180EA0167201726
B1127204629858N00816186EA0167201726
B1127214629861N00816192EA0167401728
B1127224629864N00816197EA0167501729
B1127234629867N00816202EA0167501730
B1127244629869N00816206EA0167501729
B1127254629871N00816210EA0167401728
B1127264629874N00816215EA0167201726
B1127274629877N00816222EA0167001724
B1127284629880N00816228EA0166901723
B1127294629883N00816235EA0166801722
B1127304629885N00816242EA0166701721
B1127314629889N00816248EA0166601721
B1127324629892N00816254EA0166601720
B1127334629895N00816260EA0166501720
B1127344629898N00816266EA0166401718
B1127354629901N00816272EA0166201717
B1127364629904N00816278EA0166101715
B1127374629907N00816284EA0165901714
B1127384629910N00816291EA0165601711
B1127394629913N00816297EA0165501709
B1127404629916N00816304EA0165501709
B1127414629919N00816311EA0165501709
B1127424629921N00816318EA0165601710
B1127434629923N00816325EA0165601710
B1127444629925N00816331EA0165601710
B1127454629928N00816336EA0165501709
B1127464629932N00816342EA0165601710
B1127474629934N00816348EA0165601710
B1127484629936N00816353EA0165601710
B1127494629938N00816359EA0165601710
B1127504629940N00816364EA0165501709
B1127514629943N00816369EA0165401708
B1127524629945N00816374EA0165201707
B1127534629948N00816380EA0165101706
B1127544629951N00816387EA0165101706
B1127554629954N00816393EA0165201707
B1127564629957N00816398EA0165301707
B1127574629959N00816403EA0165301707
B1127584629962N00816407EA0165301707
B1127594629966N00816413EA0165201706
B1128004629968N00816418EA0165201706
B1128014629971N00816424EA0165101705
B1128024629974N00816430EA0165001705
B1128034629977N00816436EA0165001704
B1128044629979N00816441EA0164901704
B1128054629982N00816446EA0164801702
B1128064629984N00816451EA0164701702
B1128074629987N00816457EA0164601700
B1128084629990N00816463EA0164501700
B1128094629992N00816470EA0164401698
B1128104629995N00816476EA0164401698
B1128114629998N00816482EA0164301697
B1128124630000N00816488EA0164201696
B1128134630003N00816494EA0164101695
B1128144630005N00816500EA0163901694
B1128154630008N00816507EA0163901693
B1128164630011N00816513EA0164001694
B1128174630014N00816519EA0164001694
B1128184630017N00816524EA0163901693
B1128194630020N00816529EA0163801692
B1128204630023N00816534EA0163601691
B1128214630026N00816540EA0163501689
B1128224630029N00816545EA0163401688
B1128234630033N00816551EA0163301687
B1128244630035N00816557EA0163201686
B1128254630039N00816563EA0163101686
B1128264630042N00816569EA0163101685
B1128274630045N00816574EA0163001684
B1128284630047N00816580EA0162901683
B1128294630051N00816586EA0162701681
B1128304630054N00816592EA0162601680
B1128314630057N00816598EA0162501679
B1128324630061N00816603EA0162401678
B1128334630064N00816609EA0162301677
B1128344630068N00816614EA0162201676
B1128354630071N00816620EA0162101676
B1128364630075N00816625EA0162001675
B1128374630078N00816631EA0161901673
B1128384630082N00816636EA0161801672
B1128394630085N00816642EA0161701671
B1128404630089N00816648EA0161601670
B1128414630092N00816654EA0161501669
B1128424630095N00816659EA0161401668
B1128434630098N00816665EA0161301667
B1128444630102N00816671EA0161101666
B1128454630105N00816677EA0161001665
B1128464630108N00816684EA0160901664
B1128474630110N00816690EA0160801663
B1128484630113N00816697EA0160701662
B1128494630116N00816703EA0160701661
B1128504630119N00816708EA0160501659
B1128514630122N00816714EA0160301658
B1128524630126N00816720EA0160201656
B1128534630128N00816726EA0160001655
B1128544630131N00816732EA0159901653
B1128554630134N00816738EA0159801652
B1128564630137N00816744EA0159701651
B1128574630140N00816750EA0159501650
B1128584630142N00816756EA0159401648
B1128594630144N00816763EA0159301647
B1129004630146N00816770EA0159201646
B1129014630148N00816776EA0159101645
B1129024630150N00816783EA0159001644
B1129034630151N00816790EA0158901643
B1129044630153N00816797EA0158801642
B1129054630154N00816804EA0158601640
B1129064630155N00816812EA0158501639
B1129074630157N00816819EA0158401638
B1129084630159N00816826EA0158201637
B1129094630160N00816833EA0158101636
B1129104630162N00816841EA0158001634
B1129114630163N00816849EA0157901634
B1129124630164N00816856EA0157901633
B1129134630166N00816863EA0157801633
B1129144630167N00816870EA0157801632
B1129154630168N00816877EA0157701631
B1129164630170N00816884EA0157501629
B1129174630171N00816892EA0157201627
B1129184630171N00816899EA0157201627
B1129194630173N00816907EA0157201626
B1129204630173N00816914EA0157101625
B1129214630173N00816921EA0157001624
B1129224630174N00816929EA0156901623
B1129234630174N00816936EA0156801623
B1129244630175N00816943EA0156701622
B1129254630175N00816951EA0156601620
B1129264630176N00816958EA0156501620
B1129274630176N00816966EA0156401619
B1129284630176N00816973EA0156301617
B1129294630176N00816980EA0156201616
B1129304630177N00816988EA0156001615
B1129314630177N00816995EA0155901613
B1129324630177N00817003EA0155801612
B1129334630177N00817010EA0155501610
B1129344630176N00817018EA0155501609
B1129354630176N00817025EA0155401608
B1129364630175N00817033EA0155301608
B1129374630175N00817040EA0155201606
B1129384630174N00817047EA0155001604
B1129394630173N00817054EA0154901604
B1129404630173N00817062EA0154901603
B1129414630172N00817069EA0154801602
B1129424630171N00817076EA0154601601
B1129434630171N00817084EA0154601600
B1129444630171N00817091EA0154401598
B1129454630171N00817099EA0154201597
B1129464630171N00817106EA0154101596
B1129474630170N00817114EA0154001595
B1129484630170N00817122EA0154001594
B1129494630169N00817129EA0153901594
B1129504630169N00817136EA0153901593
B1129514630168N00817143EA0153801593
B1129524630167N00817151EA0153701591
B1129534630166N00817158EA0153501589
B1129544630166N00817166EA0153501590
B1129554630165N00817173EA0153501589
B1129564630164N00817181EA0153301587
B1129574630163N00817188EA0153201586
B1129584630162N00817195EA0153101585
B1129594630161N00817202EA0153001584
B1130004630161N00817209EA0152901583
B1130014630160N00817216EA0152801582
B1130024630160N00817224EA0152601581
B1130034630159N00817231EA0152601580
B1130044630159N00817238EA0152501579
B1130054630159N00817245EA0152401578
B1130064630160N00817252EA0152301577
B1130074630160N00817260EA0152201576
B1130084630160N00817267EA0152001575
B1130094630160N00817274EA0151901574
B1130104630161N00817281EA0151801572
B1130114630162N00817288EA0151701571
B1130124630163N00817295EA0151501570
B1130134630164N00817303EA0151501569
B1130144630164N00817310EA0151401568
B1130154630165N00817317EA0151301567
B1130164630165N00817324EA0151201566
B1130174630167N00817331EA0151101565
B1130184630168N00817338EA0150901564
B1130194630169N00817345EA0150801562
B1130204630170N00817353EA0150701561
B1130214630171N00817359EA0150601560
B1130224630173N00817366EA0150501559
B1130234630175N00817373EA0150301558
B1130244630176N00817380EA0150201557
B1130254630178N00817387EA0150101556
B1130264630179N00817394EA0150001555
B1130274630181N00817401EA0149901553
B1130284630182N00817407EA0149801552
B1130294630184N00817414EA0149701551
B1130304630186N00817420EA0149501550
B1130314630188N00817427EA0149401548
B1130324630190N00817434EA0149301547
B1130334630192N00817440EA0149101546
B1130344630195N00817446EA0149001545
B1130354630197N00817453EA0149001544
B1130364630200N00817460EA0148801542
B1130374630202N00817466EA0148701541
B1130384630204N00817473EA0148601540
B1130394630205N00817480EA0148501539
B1130404630206N00817488EA0148401538
B1130414630207N00817495EA0148301537
B1130424630207N00817503EA0148201536
B1130434630207N00817510EA0148101535
B1130444630207N00817517EA0147901534
B1130454630205N00817525EA0147801533
B1130464630204N00817532EA0147701531
B1130474630203N00817540EA0147601530
B1130484630201N00817547EA0147501529
B1130494630198N00817554EA0147401528
B1130504630196N00817560EA0147301527
B1130514630193N00817567EA0147201526
B1130524630190N00817573EA0147101525
B1130534630187N00817579EA0147001524
B1130544630183N00817584EA0146801523
B1130554630179N00817590EA0146701521
B1130564630175N00817595EA0146601520
B1130574630171N00817601EA0146501519
B1130584630167N00817606EA0146401518
B1130594630163N00817611EA0146101515
B1131004630159N00817616EA0145901513
B1131014630155N00817621EA0145801513
B1131024630151N00817626EA0145901513
B1131034630146N00817631EA0145801513
B1131044630142N00817635EA0145701511
B1131054630137N00817640EA0145601510
B1131064630133N00817644EA0145501509
B1131074630128N00817648EA0145401509
B1131084630123N00817652EA0145301508
B1131094630118N00817655EA0145201506
B1131104630113N00817658EA0145101506
B1131114630107N00817660EA0145001505
B1131124630102N00817660EA0144901504
B1131134630096N00817659EA0144801503
B1131144630090N00817657EA0144701501
B1131154630084N00817654EA0144501500
B1131164630079N00817650EA0144401499
B1131174630074N00817645EA0144301498
B1131184630070N00817638EA0144201497
B1131194630065N00817631EA0144001495
B1131204630062N00817624EA0143901494
B1131214630059N00817615EA0143801493
B1131224630057N00817607EA0143701492
B1131234630056N00817598EA0143601491
B1131244630056N00817589EA0143401489
B1131254630057N00817581EA0143301488
B1131264630059N00817572EA0143201487
B1131274630061N00817565EA0143101486
B1131284630064N00817558EA0142901484
B1131294630068N00817552EA0142801483
B1131304630073N00817548EA0142601481
B1131314630078N00817545EA0142501480
B1131324630083N00817544EA0142401479
B1131334630088N00817546EA0142201478
B1131344630092N00817548EA0142101476
B1131354630096N00817552EA0142001475
B1131364630098N00817557EA0141901474
B1131374630100N00817563EA0141701473
B1131384630101N00817570EA0141601471
B1131394630101N00817577EA0141401470
B1131404630100N00817584EA0141301468
B1131414630097N00817590EA0141101467
B1131424630094N00817596EA0141001466
B1131434630089N00817600EA0140901464
B1131444630084N00817603EA0140801463
B1131454630079N00817604EA0140601462
B1131464630074N00817605EA0140501460
B1131474630068N00817604EA0140301459
B1131484630063N00817602EA0140201458
B1131494630057N00817597EA0140001456
B1131504630052N00817592EA0139901455
B1131514630049N00817585EA0139801453
B1131524630046N00817577EA0139601452
B1131534630045N00817569EA0139501451
B1131544630045N00817560EA0139401450
B1131554630046N00817552EA0139301448
B1131564630049N00817545EA0139101447
B1131574630052N00817539EA0139001446
B1131584630056N00817534EA0138801444
B1131594630060N00817530EA0138701443
B1132004630065N00817528EA0138601442
B1132014630071N00817528EA0138401440
B1132024630076N00817530EA0138301439
B1132034630079N00817534EA0138201438
B1132044630083N00817538EA0138101437
B1132054630085N00817544EA0137901436
B1132064630087N00817551EA0137801434
B1132074630087N00817558EA0137701433
B1132084630087N00817565EA0137501431
B1132094630085N00817573EA0137401430
B1132104630083N00817580EA0137301429
B1132114630081N00817587EA0137101427
B1132124630078N00817593EA0136901426
B1132134630075N00817600EA0136801424
B1132144630071N00817606EA0136701423
B1132154630067N00817611EA0136501422
B1132164630063N00817616EA0136401421
B1132174630059N00817621EA0136301419
B1132184630054N00817626EA0136201418
B1132194630049N00817630EA0136101418
B1132204630044N00817633EA0136001417
B1132214630039N00817634EA0135901415
B1132224630033N00817635EA0135701414
B1132234630027N00817634EA0135601412
B1132244630021N00817633EA0135401411
B1132254630015N00817631EA0135401410
B1132264630009N00817628EA0135201409
B1132274630004N00817625EA0135101407
B1132284629998N00817622EA0134901405
B1132294629992N00817620EA0134801404
B1132304629986N00817617EA0134701403
B1132314629980N00817614EA0134501402
B1132324629974N00817611EA0134401401
B1132334629969N00817606EA0134301400
B1132344629964N00817602EA0134201399
B1132354629958N00817596EA0134101398
B1132364629953N00817591EA0133901396
B1132374629948N00817585EA0133801395
B1132384629943N00817579EA0133701394
B1132394629939N00817572EA0133601393
B1132404629934N00817565EA0133501392
B1132414629930N00817558EA0133401392
B1132424629926N00817552EA0133401391
B1132434629922N00817545EA0133301390
B1132444629918N00817538EA0133101389
B1132454629914N00817531EA0133101388
B1132464629910N00817525EA0133001387
B1132474629906N00817518EA0132901386
B1132484629902N00817511EA0132801385
B1132494629899N00817504EA0132701384
B1132504629895N00817497EA0132601383
B1132514629892N00817489EA0132501382
B1132524629888N00817482EA0132401381
B1132534629885N00817475EA0132301380
B1132544629881N00817467EA0132201379
B1132554629878N00817460EA0132101378
B1132564629874N00817452EA0132001377
B1132574629871N00817445EA0131901376
B1132584629869N00817437EA0131801376
B1132594629866N00817430EA0131801376
B1133004629864N00817422EA0131701375
B1133014629862N00817415EA0131601374
B1133024629861N00817408EA0131401372
B1133034629860N00817400EA0131301370
B1133044629860N00817391EA0131101369
B1133054629860N00817383EA0131101368
B1133064629862N00817376EA0131001368
B1133074629863N00817369EA0130901367
B1133084629865N00817362EA0130801366
B1133094629867N00817356EA0130601364
B1133104629871N00817350EA0130401362
B1133114629875N00817345EA0130301361
B1133124629879N00817340EA0130101359
B1133134629884N00817336EA0130101359
B1133144629887N00817331EA0130001358
B1133154629892N00817327EA0129901357
B1133164629896N00817323EA0129801356
B1133174629900N00817319EA0129601354
B1133184629905N00817317EA0129501353
B1133194629910N00817314EA0129301351
B1133204629915N00817312EA0129301351
B1133214629919N00817310EA0129301351
B1133224629923N00817308EA0129201350
B1133234629927N00817305EA0129101350
B1133244629931N00817304EA0129001348
B1133254629935N00817303EA0128801346
B1133264629940N00817303EA0128601344
B1133274629945N00817304EA0128601344
B1133284629948N00817305EA0128501343
B1133294629951N00817306EA0128301342
B1133304629955N00817308EA0128101339
B1133314629960N00817310EA0127801336
B1133324629965N00817313EA0127401333
B1133334629969N00817317EA0127201330
B1133344629974N00817320EA0127101330
B1133354629979N00817323EA0127101329
B1133364629984N00817326EA0127001328
B1133374629988N00817330EA0126801326
B1133384629992N00817333EA0126701325
B1133394629997N00817336EA0126601324
B1133404630000N00817340EA0126601324
B1133414630004N00817343EA0126601324
B1133424630007N00817345EA0126701325
B1133434630009N00817346EA0126701325
B1133444630010N00817347EA0126701325
B1133454630011N00817348EA0126701325
B1133464630013N00817349EA0126701325
B1133474630013N00817350EA0126701325
B1133484630014N00817350EA0126701325
B1133494630015N00817350EA0126701326
B1133504630015N00817351EA0126701326
B1133514630015N00817351EA0126701326
B1133524630015N00817351EA0126801326
B1133534630015N00817352EA0126801326
B1133544630016N00817352EA0126801326
B1133554630016N00817351EA0126801326
B1133564630016N00817351EA0126801326
B1133574630016N00817351EA0126801326
B1133584630016N00817351EA0126701326
B1133594630016N00817351EA0126801326
B1134004630016N00817351EA0126701326
B1134014630016N00817351EA0126801326
B1134024630016N00817351EA0126801326
B1134034630016N00817351EA0126701326
B1134044630016N00817351EA0126801326
B1134054630016N00817351EA0126801326
B1134064630016N00817351EA0126701326
B1134074630016N00817351EA0126701326
B1134084630015N00817351EA0126801326
B1134094630015N00817351EA0126801326
B1134104630015N00817351EA0126801326
LXSX;C1;GM:1.3
G310574A0AE66D31360EB0CD9238A0123
