AXSX005 SKYTRAXX
HFPLTPILOT:Sepp Bucher
HFGTYGLIDERTYPE:Niviuk Artik R
HFDTM100GPSDATUM:WGS-84
HFRFWFIRMWAREVERSION:202406271636
HFRHWHARDWAREVERSION:4.0
HFTZNTIMEZONE:+2.00
HFSITSITE:Fiesch Kühboden 1 (
HFDTE180924
LXSX;I1;OAB:20240906;OOB:20240903
LXSX;I1;ID:114075
LXSX;I1;AC:1;CAT:C
B0902504624847N00806470EA0205802147
B0902514624847N00806470EA0205802147
B0902524624846N00806469EA0205802146
B0902534624846N00806469EA0205802146
B0902544624846N00806469EA0205802146
B0902554624847N00806470EA0205802147
B0902564624847N00806470EA0205802147
B0902574624847N00806470EA0205802147
B0902584624847N00806470EA0205802147
B0902594624847N00806470EA0205802147
B0903004624847N00806470EA0205802147
B0903014624846N00806470EA0205802146
B0903024624846N00806470EA0205702146
B0903034624846N00806470EA0205702146
B0903044624846N00806470EA0205602145
B0903054624844N00806469EA0205402143
B0903064624842N00806470EA0205302141
B0903074624839N00806472EA0205002139
B0903084624835N00806473EA0204902138
B0903094624831N00806477EA0204802137
B0903104624828N00806480EA0205102140
B0903114624826N00806483EA0205202141
B0903124624823N00806487EA0205202141
B0903134624821N00806490EA0205302141
B0903144624817N00806495EA0205202141
B0903154624815N00806500EA0205202141
B0903164624815N00806505EA0205102140
B0903174624816N00806511EA0205002138
B0903184624816N00806517EA0204702136
B0903194624816N00806523EA0204502134
B0903204624813N00806527EA0204402133
B0903214624809N00806531EA0204502133
B0903224624807N00806536EA0204602135
B0903234624806N00806542EA0204502133
B0903244624806N00806550EA0204202131
B0903254624803N00806556EA0204202131
B0903264624800N00806560EA0204202131
B0903274624796N00806563EA0204302132
B0903284624794N00806569EA0204202131
B0903294624793N00806576EA0204002128
B0903304624793N00806582EA0204102130
B0903314624792N00806587EA0204202131
B0903324624790N00806591EA0204002129
B0903334624789N00806596EA0203902128
B0903344624788N00806602EA0203702126
B0903354624788N00806609EA0203902128
B0903364624787N00806614EA0204202131
B0903374624786N00806619EA0204402133
B0903384624784N00806623EA0204602135
B0903394624783N00806628EA0204502134
B0903404624781N00806633EA0204402133
B0903414624778N00806637EA0204302132
B0903424624775N00806639EA0204102130
B0903434624773N00806642EA0203902128
B0903444624771N00806645EA0203602125
B0903454624768N00806648EA0203402122
B0903464624764N00806651EA0203102120
B0903474624760N00806654EA0202802117
B0903484624758N00806659EA0202802117
B0903494624759N00806667EA0202302112
B0903504624764N00806673EA0201502104
B0903514624771N00806677EA0201702106
B0903524624777N00806681EA0202102110
B0903534624780N00806687EA0202002109
B0903544624781N00806692EA0201702106
B0903554624783N00806699EA0201702105
B0903564624786N00806704EA0201702106
B0903574624789N00806710EA0202002109
B0903584624790N00806716EA0201902108
B0903594624789N00806721EA0201602105
B0904004624788N00806727EA0201502104
B0904014624787N00806732EA0201302102
B0904024624788N00806738EA0201402103
B0904034624787N00806742EA0201302102
B0904044624784N00806744EA0200902098
B0904054624780N00806745EA0200802097
B0904064624779N00806748EA0200702095
B0904074624780N00806755EA0200202091
B0904084624783N00806763EA0200402093
B0904094624784N00806770EA0200902098
B0904104624784N00806774EA0201102099
B0904114624784N00806778EA0201202101
B0904124624784N00806783EA0201202101
B0904134624787N00806789EA0201102100
B0904144624790N00806795EA0201002099
B0904154624795N00806802EA0201202100
B0904164624799N00806808EA0201402103
B0904174624804N00806812EA0201502104
B0904184624809N00806817EA0201702106
B0904194624814N00806821EA0201702106
B0904204624820N00806825EA0201602104
B0904214624825N00806830EA0201402103
B0904224624830N00806836EA0201402102
B0904234624836N00806842EA0201202101
B0904244624840N00806848EA0201102099
B0904254624846N00806855EA0200902098
B0904264624851N00806861EA0200802097
B0904274624855N00806868EA0200802097
B0904284624859N00806874EA0200802097
B0904294624863N00806880EA0200602095
B0904304624866N00806887EA0200302092
B0904314624870N00806894EA0200002089
B0904324624872N00806901EA0200202091
B0904334624875N00806908EA0200002089
B0904344624877N00806915EA0199902088
B0904354624879N00806923EA0199802086
B0904364624882N00806930EA0199702086
B0904374624884N00806937EA0199602085
B0904384624885N00806945EA0199502084
B0904394624887N00806952EA0199302082
B0904404624889N00806960EA0198902078
B0904414624893N00806968EA0198702075
B0904424624898N00806977EA0198602075
B0904434624903N00806985EA0198702076
B0904444624908N00806992EA0199002078
B0904454624913N00806998EA0199002079
B0904464624919N00807004EA0199102080
B0904474624926N00807010EA0199202081
B0904484624933N00807018EA0199202081
B0904494624938N00807027EA0199302081
B0904504624943N00807035EA0199502083
B0904514624949N00807041EA0199602085
B0904524624955N00807045EA0199702086
B0904534624962N00807048EA0199702086
B0904544624970N00807050EA0199702086
B0904554624977N00807050EA0199702086
B0904564624985N00807049EA0199702086
B0904574624991N00807044EA0199802087
B0904584624997N00807037EA0199802087
B0904594625001N00807030EA0199802087
B0905004625004N00807022EA0199802087
B0905014625006N00807013EA0199902088
B0905024625006N00807002EA0200002089
B0905034625005N00806992EA0200302092
B0905044625003N00806984EA0200802096
B0905054625000N00806978EA0201202100
B0905064624997N00806975EA0201402103
B0905074624994N00806974EA0201602105
B0905084624990N00806971EA0201602105
B0905094624987N00806967EA0201702105
B0905104624984N00806962EA0201802106
B0905114624982N00806956EA0202002109
B0905124624983N00806950EA0202102110
B0905134624985N00806943EA0202202111
B0905144624988N00806937EA0202302112
B0905154624992N00806931EA0202402112
B0905164624997N00806927EA0202402113
B0905174625003N00806924EA0202502114
B0905184625010N00806924EA0202602115
B0905194625016N00806926EA0202602115
B0905204625022N00806931EA0202702116
B0905214625028N00806935EA0202802117
B0905224625032N00806941EA0202902118
B0905234625034N00806948EA0202902118
B0905244625034N00806956EA0202802117
B0905254625031N00806963EA0202802117
B0905264625027N00806967EA0202902118
B0905274625022N00806970EA0203102120
B0905284625018N00806972EA0203302122
B0905294625016N00806976EA0203602124
B0905304625014N00806980EA0203702126
B0905314625012N00806982EA0203602125
B0905324625008N00806983EA0203402123
B0905334625004N00806982EA0203402122
B0905344625000N00806980EA0203302122
B0905354624996N00806977EA0203302122
B0905364624993N00806974EA0203402123
B0905374624990N00806970EA0203402123
B0905384624987N00806965EA0203602125
B0905394624985N00806960EA0203802127
B0905404624982N00806956EA0204202131
B0905414624981N00806952EA0204602135
B0905424624979N00806948EA0205002139
B0905434624978N00806944EA0205402143
B0905444624977N00806938EA0205602144
B0905454624976N00806932EA0205802147
B0905464624975N00806924EA0206102149
B0905474624976N00806916EA0206302152
B0905484624979N00806908EA0206502154
B0905494624985N00806902EA0206602155
B0905504624992N00806897EA0206802157
B0905514625000N00806896EA0207002158
B0905524625008N00806897EA0207102160
B0905534625015N00806902EA0207302162
B0905544625021N00806908EA0207302162
B0905554625025N00806916EA0207402162
B0905564625027N00806924EA0207402163
B0905574625028N00806932EA0207502164
B0905584625028N00806939EA0207602165
B0905594625026N00806945EA0207802167
B0906004625023N00806948EA0208002168
B0906014625019N00806948EA0208202171
B0906024625015N00806946EA0208402173
B0906034625012N00806943EA0208602175
B0906044625009N00806940EA0209002179
B0906054625007N00806936EA0209402183
B0906064625005N00806930EA0209702186
B0906074625003N00806924EA0210002189
B0906084625002N00806916EA0210302192
B0906094625003N00806908EA0210602195
B0906104625005N00806899EA0210802197
B0906114625009N00806890EA0211002199
B0906124625015N00806882EA0211302202
B0906134625023N00806878EA0211602205
B0906144625031N00806877EA0211902207
B0906154625038N00806880EA0212102209
B0906164625044N00806884EA0212302211
B0906174625049N00806891EA0212402213
B0906184625052N00806898EA0212602214
B0906194625054N00806906EA0212702216
B0906204625053N00806914EA0212902218
B0906214625051N00806919EA0213102219
B0906224625047N00806922EA0213202221
B0906234625044N00806923EA0213602225
B0906244625040N00806923EA0214102229
B0906254625038N00806923EA0214502233
B0906264625036N00806923EA0214802237
B0906274625033N00806921EA0215002239
B0906284625030N00806919EA0215202241
B0906294625028N00806915EA0215302242
B0906304625024N00806909EA0215602244
B0906314625022N00806901EA0215802247
B0906324625021N00806891EA0216002249
B0906334625023N00806881EA0216202251
B0906344625025N00806871EA0216402252
B0906354625029N00806861EA0216602255
B0906364625034N00806852EA0216802257
B0906374625040N00806845EA0217002259
B0906384625046N00806840EA0217102260
B0906394625054N00806837EA0217202261
B0906404625063N00806838EA0217402263
B0906414625070N00806842EA0217702266
B0906424625074N00806849EA0217902268
B0906434625075N00806856EA0218202271
B0906444625075N00806862EA0218602274
B0906454625072N00806865EA0219002279
B0906464625070N00806864EA0219402282
B0906474625067N00806860EA0219502284
B0906484625064N00806854EA0219702285
B0906494625062N00806846EA0219902288
B0906504625062N00806836EA0220202291
B0906514625063N00806826EA0220402293
B0906524625066N00806817EA0220502294
B0906534625070N00806808EA0220702296
B0906544625076N00806801EA0220902298
B0906554625083N00806796EA0221102300
B0906564625091N00806794EA0221202301
B0906574625099N00806794EA0221202301
B0906584625106N00806796EA0221302301
B0906594625113N00806800EA0221302302
B0907004625119N00806806EA0221402303
B0907014625123N00806812EA0221602304
B0907024625125N00806820EA0221702306
B0907034625124N00806826EA0221802307
B0907044625120N00806830EA0222002309
B0907054625116N00806831EA0222202311
B0907064625112N00806829EA0222602314
B0907074625108N00806825EA0223002319
B0907084625105N00806821EA0223402323
B0907094625103N00806815EA0223702326
B0907104625101N00806809EA0223902328
B0907114625099N00806801EA0224202330
B0907124625099N00806791EA0224402333
B0907134625100N00806781EA0224602335
B0907144625104N00806771EA0224802337
B0907154625110N00806763EA0225002339
B0907164625117N00806757EA0225202341
B0907174625125N00806754EA0225402343
B0907184625132N00806752EA0225602345
B0907194625139N00806753EA0225802346
B0907204625146N00806756EA0225702346
B0907214625152N00806761EA0225602345
B0907224625157N00806767EA0225502344
B0907234625161N00806775EA0225502344
B0907244625163N00806782EA0225402343
B0907254625162N00806789EA0225502344
B0907264625159N00806794EA0225802347
B0907274625156N00806797EA0226202351
B0907284625152N00806798EA0226702356
B0907294625149N00806797EA0227202360
B0907304625146N00806796EA0227602364
B0907314625143N00806794EA0227902368
B0907324625141N00806791EA0228202371
B0907334625137N00806788EA0228602375
B0907344625134N00806783EA0228902378
B0907354625132N00806776EA0229202381
B0907364625131N00806767EA0229502384
B0907374625131N00806756EA0229902387
B0907384625133N00806746EA0230202391
B0907394625137N00806736EA0230502394
B0907404625143N00806727EA0230702396
B0907414625150N00806721EA0230902398
B0907424625158N00806717EA0231102400
B0907434625166N00806717EA0231202401
B0907444625173N00806720EA0231202401
B0907454625180N00806725EA0231302402
B0907464625183N00806732EA0231202401
B0907474625185N00806739EA0231102400
B0907484625185N00806745EA0231102399
B0907494625183N00806753EA0231102400
B0907504625181N00806760EA0231402403
B0907514625178N00806766EA0232102410
B0907524625174N00806768EA0232702415
B0907534625171N00806767EA0233202421
B0907544625169N00806766EA0233602425
B0907554625167N00806766EA0233902427
B0907564625164N00806768EA0234002429
B0907574625161N00806768EA0234202430
B0907584625156N00806766EA0234402432
B0907594625152N00806761EA0234602435
B0908004625150N00806752EA0234802437
B0908014625152N00806744EA0235202440
B0908024625155N00806736EA0235402443
B0908034625160N00806729EA0235502444
B0908044625166N00806724EA0235802446
B0908054625172N00806720EA0236002448
B0908064625179N00806720EA0236202451
B0908074625186N00806722EA0236502454
B0908084625192N00806728EA0236802457
B0908094625196N00806734EA0237202461
B0908104625197N00806739EA0237602465
B0908114625196N00806744EA0237902467
B0908124625194N00806746EA0238102469
B0908134625191N00806748EA0238402472
B0908144625188N00806747EA0238602475
B0908154625186N00806746EA0238802477
B0908164625184N00806742EA0238902478
B0908174625182N00806735EA0239202480
B0908184625182N00806728EA0239402483
B0908194625183N00806720EA0239702486
B0908204625186N00806711EA0240002488
B0908214625191N00806704EA0240202491
B0908224625197N00806700EA0240502494
B0908234625205N00806697EA0240802497
B0908244625213N00806697EA0241102500
B0908254625220N00806699EA0241502503
B0908264625226N00806702EA0241802507
B0908274625231N00806707EA0242202511
B0908284625234N00806712EA0242602515
B0908294625237N00806718EA0243002519
B0908304625238N00806724EA0243402523
B0908314625238N00806729EA0243702526
B0908324625236N00806734EA0243902527
B0908334625234N00806737EA0244102530
B0908344625231N00806737EA0244402532
B0908354625228N00806735EA0244602535
B0908364625225N00806729EA0244802537
B0908374625223N00806721EA0245002539
B0908384625224N00806712EA0245302542
B0908394625227N00806703EA0245702545
B0908404625231N00806696EA0245902548
B0908414625237N00806689EA0246102550
B0908424625244N00806683EA0246402553
B0908434625253N00806679EA0246802557
B0908444625260N00806678EA0247302561
B0908454625267N00806680EA0247602565
B0908464625272N00806686EA0248002569
B0908474625275N00806693EA0248402573
B0908484625275N00806700EA0248902578
B0908494625273N00806704EA0249202581
B0908504625270N00806705EA0249502584
B0908514625266N00806703EA0249802587
B0908524625263N00806700EA0250102590
B0908534625261N00806694EA0250502594
B0908544625259N00806687EA0250902597
B0908554625259N00806678EA0251102600
B0908564625261N00806669EA0251302601
B0908574625264N00806659EA0251502604
B0908584625270N00806651EA0251802607
B0908594625277N00806645EA0252102610
B0909004625285N00806642EA0252402613
B0909014625293N00806642EA0252702616
B0909024625301N00806644EA0253102619
B0909034625307N00806649EA0253402622
B0909044625312N00806655EA0253602625
B0909054625314N00806664EA0253802627
B0909064625315N00806672EA0254202631
B0909074625314N00806679EA0254702636
B0909084625311N00806683EA0255202640
B0909094625308N00806684EA0255502644
B0909104625304N00806682EA0255802647
B0909114625301N00806678EA0256202650
B0909124625299N00806671EA0256402653
B0909134625298N00806664EA0256802657
B0909144625298N00806655EA0257202661
B0909154625301N00806645EA0257502664
B0909164625306N00806637EA0257802666
B0909174625313N00806631EA0258202670
B0909184625321N00806627EA0258502674
B0909194625329N00806627EA0258802677
B0909204625336N00806630EA0259102680
B0909214625342N00806635EA0259302682
B0909224625348N00806642EA0259602685
B0909234625353N00806649EA0260002688
B0909244625356N00806657EA0260302692
B0909254625357N00806665EA0260602695
B0909264625356N00806671EA0260902698
B0909274625352N00806674EA0261102700
B0909284625348N00806673EA0261502704
B0909294625344N00806670EA0262002709
B0909304625342N00806665EA0262402713
B0909314625341N00806659EA0262802717
B0909324625342N00806651EA0263102720
B0909334625342N00806643EA0263502724
B0909344625343N00806635EA0263902728
B0909354625346N00806627EA0264402733
B0909364625349N00806621EA0264802736
B0909374625354N00806617EA0265002739
B0909384625360N00806612EA0265202741
B0909394625366N00806607EA0265402743
B0909404625374N00806604EA0265702746
B0909414625381N00806605EA0265902748
B0909424625388N00806608EA0266102750
B0909434625394N00806614EA0266302752
B0909444625398N00806622EA0266502754
B0909454625400N00806631EA0266902758
B0909464625401N00806638EA0267202760
B0909474625399N00806644EA0267302762
B0909484625397N00806648EA0267502764
B0909494625393N00806650EA0267702766
B0909504625389N00806649EA0268002769
B0909514625385N00806646EA0268302772
B0909524625382N00806641EA0268602775
B0909534625378N00806635EA0269002778
B0909544625376N00806628EA0269402782
B0909554625376N00806620EA0269702786
B0909564625378N00806611EA0269902788
B0909574625381N00806603EA0270202791
B0909584625386N00806595EA0270502794
B0909594625391N00806589EA0270802797
B0910004625397N00806585EA0271102800
B0910014625404N00806584EA0271302802
B0910024625411N00806586EA0271502803
B0910034625417N00806590EA0271702806
B0910044625423N00806596EA0271902807
B0910054625427N00806602EA0272102810
B0910064625430N00806610EA0272302812
B0910074625431N00806618EA0272502814
B0910084625430N00806626EA0272802817
B0910094625429N00806632EA0273202821
B0910104625425N00806635EA0273602825
B0910114625420N00806636EA0274002828
B0910124625416N00806635EA0274402833
B0910134625412N00806633EA0274902838
B0910144625409N00806632EA0275402842
B0910154625407N00806629EA0275702846
B0910164625405N00806625EA0275902848
B0910174625403N00806619EA0276102850
B0910184625402N00806611EA0276202851
B0910194625402N00806602EA0276302852
B0910204625405N00806594EA0276502853
B0910214625410N00806586EA0276602855
B0910224625416N00806582EA0276802857
B0910234625423N00806580EA0277002859
B0910244625429N00806582EA0277102860
B0910254625435N00806585EA0277202861
B0910264625441N00806591EA0277402863
B0910274625445N00806598EA0277702866
B0910284625450N00806605EA0278102870
B0910294625454N00806613EA0278602875
B0910304625457N00806620EA0278902878
B0910314625461N00806626EA0279102880
B0910324625466N00806634EA0279402883
B0910334625470N00806642EA0279802887
B0910344625473N00806649EA0280102890
B0910354625476N00806657EA0280302892
B0910364625479N00806664EA0280702896
B0910374625481N00806671EA0281102900
B0910384625484N00806678EA0281402903
B0910394625487N00806684EA0281602905
B0910404625491N00806691EA0281902908
B0910414625495N00806697EA0282102910
B0910424625498N00806705EA0282402912
B0910434625501N00806713EA0282702916
B0910444625504N00806720EA0283102920
B0910454625508N00806727EA0283502923
B0910464625512N00806734EA0283802927
B0910474625516N00806740EA0284202931
B0910484625519N00806747EA0284602934
B0910494625523N00806755EA0284802936
B0910504625527N00806762EA0285002938
B0910514625531N00806769EA0285102940
B0910524625535N00806775EA0285302942
B0910534625539N00806782EA0285402943
B0910544625543N00806789EA0285502944
B0910554625548N00806797EA0285602944
B0910564625553N00806805EA0285602945
B0910574625558N00806813EA0285702945
B0910584625564N00806821EA0285702946
B0910594625569N00806829EA0285802947
B0911004625574N00806837EA0286002948
B0911014625577N00806846EA0286102949
B0911024625581N00806854EA0286202951
B0911034625586N00806861EA0286202951
B0911044625590N00806869EA0286202951
B0911054625594N00806876EA0286102950
B0911064625598N00806885EA0286102950
B0911074625602N00806893EA0286102950
B0911084625605N00806901EA0286302952
B0911094625608N00806909EA0286302951
B0911104625611N00806918EA0286202950
B0911114625614N00806927EA0285902948
B0911124625616N00806936EA0285802947
B0911134625620N00806946EA0285802946
B0911144625623N00806957EA0285702946
B0911154625625N00806967EA0285802946
B0911164625628N00806976EA0285802947
B0911174625631N00806984EA0285802946
B0911184625634N00806992EA0285702946
B0911194625637N00807000EA0285702945
B0911204625640N00807009EA0285502944
B0911214625643N00807017EA0285402943
B0911224625646N00807026EA0285302942
B0911234625649N00807034EA0285202941
B0911244625652N00807042EA0285102939
B0911254625655N00807049EA0284902938
B0911264625658N00807057EA0284702936
B0911274625661N00807065EA0284502934
B0911284625663N00807074EA0284302932
B0911294625667N00807082EA0284202930
B0911304625670N00807091EA0284002929
B0911314625673N00807099EA0283902928
B0911324625676N00807107EA0283802927
B0911334625678N00807114EA0283602925
B0911344625681N00807122EA0283402923
B0911354625684N00807130EA0283202921
B0911364625686N00807138EA0283102919
B0911374625689N00807145EA0282902918
B0911384625692N00807153EA0282702916
B0911394625695N00807161EA0282602915
B0911404625697N00807168EA0282402913
B0911414625700N00807176EA0282302912
B0911424625703N00807185EA0282102909
B0911434625705N00807193EA0281902908
B0911444625707N00807201EA0281702906
B0911454625708N00807209EA0281502904
B0911464625710N00807217EA0281302902
B0911474625712N00807224EA0281102899
B0911484625715N00807232EA0280902898
B0911494625718N00807239EA0280802896
B0911504625721N00807246EA0280502894
B0911514625724N00807253EA0280402893
B0911524625727N00807260EA0280202891
B0911534625731N00807267EA0280102889
B0911544625734N00807274EA0279902888
B0911554625738N00807281EA0279802887
B0911564625742N00807287EA0279702886
B0911574625747N00807293EA0279602885
B0911584625751N00807298EA0279502884
B0911594625756N00807303EA0279302882
B0912004625761N00807309EA0279202881
B0912014625766N00807314EA0279002879
B0912024625772N00807319EA0278902878
B0912034625778N00807323EA0278802876
B0912044625784N00807327EA0278702876
B0912054625789N00807331EA0278702876
B0912064625795N00807334EA0278702875
B0912074625802N00807337EA0278502873
B0912084625808N00807340EA0278302872
B0912094625815N00807343EA0278102870
B0912104625822N00807345EA0278002869
B0912114625828N00807348EA0278002868
B0912124625834N00807350EA0277902868
B0912134625841N00807351EA0277802867
B0912144625847N00807352EA0277502864
B0912154625854N00807354EA0277102860
B0912164625860N00807358EA0276902858
B0912174625866N00807363EA0276702856
B0912184625872N00807368EA0276702856
B0912194625878N00807373EA0276702855
B0912204625882N00807378EA0276602855
B0912214625886N00807383EA0276602854
B0912224625889N00807389EA0276402853
B0912234625892N00807397EA0276202851
B0912244625896N00807405EA0276002849
B0912254625899N00807413EA0275902848
B0912264625903N00807422EA0276002849
B0912274625906N00807431EA0275902848
B0912284625909N00807440EA0276002849
B0912294625912N00807448EA0276102849
B0912304625915N00807456EA0276102850
B0912314625919N00807463EA0276102850
B0912324625922N00807470EA0276202850
B0912334625925N00807477EA0276202851
B0912344625928N00807483EA0276202851
B0912354625932N00807490EA0276202850
B0912364625935N00807497EA0276202851
B0912374625938N00807504EA0276202850
B0912384625941N00807512EA0276202851
B0912394625944N00807518EA0276302852
B0912404625947N00807525EA0276402853
B0912414625949N00807532EA0276402853
B0912424625953N00807539EA0276402853
B0912434625956N00807546EA0276402853
B0912444625959N00807553EA0276402853
B0912454625961N00807560EA0276402853
B0912464625965N00807567EA0276502854
B0912474625967N00807574EA0276702856
B0912484625970N00807580EA0276802856
B0912494625973N00807586EA0276802857
B0912504625976N00807592EA0276702856
B0912514625979N00807598EA0276502854
B0912524625982N00807605EA0276402852
B0912534625984N00807612EA0276202851
B0912544625988N00807619EA0276002849
B0912554625992N00807626EA0275902848
B0912564625996N00807632EA0275802847
B0912574625999N00807638EA0275802846
B0912584626002N00807644EA0275602845
B0912594626006N00807650EA0275402843
B0913004626009N00807656EA0275102840
B0913014626013N00807663EA0274902837
B0913024626016N00807670EA0274602835
B0913034626019N00807677EA0274402833
B0913044626022N00807685EA0274302832
B0913054626024N00807692EA0274302832
B0913064626027N00807698EA0274202831
B0913074626030N00807704EA0274102830
B0913084626034N00807710EA0274002829
B0913094626037N00807716EA0273802827
B0913104626041N00807723EA0273502824
B0913114626045N00807730EA0273302822
B0913124626048N00807737EA0273202821
B0913134626051N00807745EA0273202821
B0913144626053N00807752EA0273002819
B0913154626055N00807759EA0272802817
B0913164626057N00807766EA0272702815
B0913174626060N00807773EA0272402813
B0913184626063N00807781EA0272002809
B0913194626065N00807790EA0271802807
B0913204626067N00807798EA0271502804
B0913214626068N00807806EA0271402803
B0913224626070N00807814EA0271302802
B0913234626073N00807821EA0271102800
B0913244626076N00807828EA0270802797
B0913254626079N00807836EA0270602795
B0913264626082N00807843EA0270402793
B0913274626085N00807851EA0270102790
B0913284626088N00807858EA0269902788
B0913294626091N00807865EA0269702786
B0913304626094N00807872EA0269502783
B0913314626097N00807879EA0269202781
B0913324626100N00807887EA0269002779
B0913334626102N00807894EA0268802777
B0913344626104N00807899EA0268602775
B0913354626109N00807904EA0268402773
B0913364626113N00807910EA0268102770
B0913374626117N00807916EA0267902768
B0913384626120N00807923EA0267502764
B0913394626122N00807930EA0267202761
B0913404626124N00807937EA0267102760
B0913414626128N00807943EA0266902758
B0913424626132N00807949EA0266602755
B0913434626135N00807956EA0266502753
B0913444626139N00807963EA0266202750
B0913454626142N00807970EA0266102750
B0913464626146N00807977EA0265902748
B0913474626150N00807984EA0265802747
B0913484626153N00807991EA0265802746
B0913494626155N00807998EA0265702746
B0913504626157N00808005EA0265602744
B0913514626160N00808011EA0265502744
B0913524626162N00808018EA0265502744
B0913534626165N00808024EA0265402743
B0913544626167N00808031EA0265202741
B0913554626170N00808038EA0265002739
B0913564626172N00808045EA0264802737
B0913574626174N00808052EA0264702736
B0913584626177N00808058EA0264502734
B0913594626180N00808065EA0264302732
B0914004626182N00808072EA0264102730
B0914014626185N00808079EA0264002728
B0914024626188N00808086EA0263702726
B0914034626191N00808092EA0263402723
B0914044626195N00808098EA0263302721
B0914054626199N00808105EA0263102720
B0914064626203N00808111EA0262902717
B0914074626207N00808118EA0262602715
B0914084626211N00808124EA0262402713
B0914094626215N00808131EA0262202711
B0914104626218N00808137EA0262102709
B0914114626222N00808143EA0261802707
B0914124626225N00808150EA0261502703
B0914134626229N00808157EA0261202701
B0914144626233N00808165EA0260902698
B0914154626236N00808173EA0260802696
B0914164626240N00808181EA0260602695
B0914174626243N00808188EA0260502694
B0914184626247N00808196EA0260302692
B0914194626249N00808203EA0260102690
B0914204626252N00808211EA0259902688
B0914214626255N00808219EA0259702686
B0914224626258N00808227EA0259502684
B0914234626261N00808234EA0259402683
B0914244626263N00808241EA0259302682
B0914254626266N00808248EA0259102680
B0914264626269N00808255EA0258902678
B0914274626271N00808262EA0258702676
B0914284626274N00808270EA0258502673
B0914294626277N00808278EA0258302672
B0914304626279N00808286EA0258202671
B0914314626282N00808294EA0258102670
B0914324626284N00808300EA0257902668
B0914334626286N00808307EA0257702666
B0914344626289N00808314EA0257402663
B0914354626291N00808321EA0257102660
B0914364626293N00808329EA0256802657
B0914374626295N00808336EA0256602655
B0914384626298N00808344EA0256402653
B0914394626300N00808351EA0256202650
B0914404626302N00808358EA0255802647
B0914414626305N00808366EA0255502644
B0914424626307N00808373EA0255202641
B0914434626310N00808381EA0254902638
B0914444626312N00808388EA0254602635
B0914454626315N00808395EA0254402632
B0914464626317N00808402EA0254102629
B0914474626319N00808410EA0253802627
B0914484626321N00808419EA0253502624
B0914494626324N00808426EA0253302622
B0914504626327N00808434EA0253102620
B0914514626330N00808442EA0252902618
B0914524626333N00808449EA0252602615
B0914534626336N00808457EA0252302612
B0914544626339N00808465EA0252002609
B0914554626342N00808473EA0251702606
B0914564626346N00808482EA0251502603
B0914574626349N00808490EA0251302602
B0914584626352N00808498EA0251102600
B0914594626355N00808505EA0250802597
B0915004626358N00808512EA0250502594
B0915014626361N00808520EA0250102590
B0915024626364N00808528EA0249802587
B0915034626367N00808537EA0249502584
B0915044626369N00808545EA0249302582
B0915054626372N00808554EA0249102580
B0915064626375N00808562EA0249002579
B0915074626377N00808570EA0248902578
B0915084626381N00808577EA0248702575
B0915094626384N00808584EA0248402572
B0915104626388N00808592EA0248002569
B0915114626391N00808600EA0247702566
B0915124626393N00808608EA0247502564
B0915134626396N00808617EA0247302562
B0915144626400N00808625EA0247102560
B0915154626402N00808633EA0246902558
B0915164626405N00808641EA0246702556
B0915174626408N00808649EA0246402553
B0915184626410N00808657EA0246102550
B0915194626413N00808665EA0245802547
B0915204626415N00808673EA0245602545
B0915214626417N00808681EA0245402543
B0915224626419N00808690EA0245202541
B0915234626421N00808697EA0245002539
B0915244626423N00808705EA0244702536
B0915254626425N00808713EA0244502533
B0915264626427N00808721EA0244202531
B0915274626429N00808729EA0244002529
B0915284626430N00808736EA0243802526
B0915294626432N00808744EA0243502524
B0915304626434N00808752EA0243202521
B0915314626436N00808760EA0242902518
B0915324626437N00808769EA0242702516
B0915334626439N00808777EA0242502514
B0915344626442N00808785EA0242302512
B0915354626444N00808793EA0242202510
B0915364626446N00808801EA0242002508
B0915374626447N00808808EA0241702506
B0915384626448N00808817EA0241502503
B0915394626449N00808825EA0241202501
B0915404626451N00808834EA0241102500
B0915414626452N00808842EA0240902498
B0915424626453N00808849EA0240702496
B0915434626454N00808857EA0240502494
B0915444626455N00808865EA0240202491
B0915454626457N00808873EA0239902488
B0915464626458N00808882EA0239702486
B0915474626460N00808890EA0239602485
B0915484626461N00808898EA0239402483
B0915494626462N00808906EA0239302481
B0915504626463N00808913EA0239002479
B0915514626464N00808921EA0238802477
B0915524626465N00808929EA0238602475
B0915534626466N00808937EA0238402473
B0915544626467N00808945EA0238302471
B0915554626469N00808953EA0238202470
B0915564626470N00808961EA0238002469
B0915574626471N00808969EA0237902468
B0915584626471N00808977EA0237802466
B0915594626471N00808985EA0237502464
B0916004626472N00808993EA0237402462
B0916014626473N00809001EA0237202460
B0916024626473N00809010EA0237002459
B0916034626473N00809018EA0236902457
B0916044626474N00809026EA0236702456
B0916054626475N00809034EA0236502453
B0916064626476N00809042EA0236202451
B0916074626478N00809050EA0236102449
B0916084626478N00809059EA0235802447
B0916094626479N00809067EA0235602445
B0916104626481N00809076EA0235502444
B0916114626482N00809084EA0235302442
B0916124626482N00809093EA0235102440
B0916134626481N00809100EA0235002438
B0916144626480N00809107EA0234702436
B0916154626480N00809115EA0234602434
B0916164626480N00809124EA0234402433
B0916174626481N00809132EA0234302432
B0916184626482N00809139EA0234102430
B0916194626482N00809146EA0234002428
B0916204626483N00809154EA0233802426
B0916214626483N00809161EA0233502424
B0916224626483N00809169EA0233402423
B0916234626483N00809177EA0233302422
B0916244626483N00809185EA0233302422
B0916254626483N00809192EA0233302421
B0916264626482N00809198EA0233202421
B0916274626481N00809206EA0233002419
B0916284626481N00809214EA0232902417
B0916294626481N00809223EA0232702416
B0916304626481N00809232EA0232702416
B0916314626481N00809241EA0232702416
B0916324626482N00809249EA0232702416
B0916334626482N00809257EA0232702415
B0916344626482N00809266EA0232602414
B0916354626482N00809275EA0232502414
B0916364626482N00809284EA0232502414
B0916374626482N00809294EA0232502414
B0916384626482N00809303EA0232602415
B0916394626482N00809312EA0232602415
B0916404626481N00809321EA0232502414
B0916414626480N00809330EA0232402413
B0916424626479N00809340EA0232402413
B0916434626479N00809349EA0232502414
B0916444626478N00809359EA0232702415
B0916454626478N00809369EA0233102419
B0916464626477N00809376EA0233502424
B0916474626476N00809383EA0233902428
B0916484626475N00809389EA0234202430
B0916494626476N00809395EA0234202431
B0916504626476N00809402EA0234202431
B0916514626477N00809411EA0234402432
B0916524626476N00809421EA0234502433
B0916534626473N00809430EA0234802436
B0916544626469N00809436EA0235202441
B0916554626465N00809438EA0235502444
B0916564626460N00809438EA0235702446
B0916574626455N00809436EA0235902448
B0916584626451N00809432EA0236002449
B0916594626447N00809426EA0236002449
B0917004626445N00809419EA0236002449
B0917014626446N00809411EA0236002449
B0917024626448N00809404EA0236002449
B0917034626453N00809398EA0236002449
B0917044626459N00809395EA0236102450
B0917054626464N00809394EA0236302452
B0917064626470N00809396EA0236502454
B0917074626475N00809399EA0236702456
B0917084626479N00809404EA0237002458
B0917094626483N00809410EA0237202461
B0917104626486N00809416EA0237502463
B0917114626489N00809424EA0237702466
B0917124626489N00809433EA0238102469
B0917134626488N00809441EA0238202471
B0917144626485N00809449EA0238402473
B0917154626482N00809455EA0238602474
B0917164626477N00809461EA0238702476
B0917174626472N00809465EA0238902477
B0917184626466N00809466EA0239002479
B0917194626461N00809464EA0239202480
B0917204626457N00809460EA0239202481
B0917214626455N00809454EA0239202481
B0917224626455N00809447EA0239302482
B0917234626455N00809440EA0239302482
B0917244626458N00809435EA0239302482
B0917254626462N00809430EA0239302482
B0917264626468N00809427EA0239402483
B0917274626474N00809427EA0239502484
B0917284626480N00809429EA0239702486
B0917294626485N00809432EA0240002488
B0917304626489N00809435EA0240202491
B0917314626494N00809439EA0240402493
B0917324626498N00809444EA0240602495
B0917334626501N00809450EA0240802497
B0917344626504N00809458EA0241002499
B0917354626505N00809467EA0241202501
B0917364626503N00809475EA0241402502
B0917374626500N00809482EA0241502504
B0917384626495N00809487EA0241702505
B0917394626490N00809489EA0241802507
B0917404626486N00809487EA0242002509
B0917414626482N00809484EA0242102510
B0917424626480N00809478EA0242102510
B0917434626479N00809472EA0242202511
B0917444626480N00809465EA0242302511
B0917454626483N00809459EA0242202511
B0917464626488N00809456EA0242202511
B0917474626495N00809455EA0242202511
B0917484626502N00809457EA0242302512
B0917494626508N00809462EA0242602515
B0917504626514N00809468EA0243002518
B0917514626520N00809474EA0243402522
B0917524626524N00809480EA0243702526
B0917534626529N00809485EA0244002529
B0917544626534N00809490EA0244302531
B0917554626537N00809496EA0244302531
B0917564626538N00809504EA0244202531
B0917574626539N00809513EA0244102530
B0917584626537N00809523EA0244202531
B0917594626535N00809531EA0244302532
B0918004626531N00809536EA0244502534
B0918014626527N00809537EA0244602535
B0918024626524N00809536EA0244702535
B0918034626521N00809531EA0244702536
B0918044626521N00809524EA0244702536
B0918054626523N00809516EA0244902537
B0918064626526N00809509EA0245102540
B0918074626532N00809503EA0245402543
B0918084626537N00809501EA0245702546
B0918094626543N00809502EA0246002549
B0918104626549N00809506EA0246102550
B0918114626554N00809511EA0246102550
B0918124626558N00809518EA0246202550
B0918134626562N00809525EA0246102550
B0918144626564N00809533EA0246102550
B0918154626565N00809542EA0246002549
B0918164626564N00809550EA0246002549
B0918174626562N00809559EA0246002549
B0918184626559N00809565EA0246102549
B0918194626556N00809569EA0246102550
B0918204626552N00809570EA0246202551
B0918214626548N00809569EA0246402553
B0918224626545N00809566EA0246502554
B0918234626544N00809562EA0246802556
B0918244626542N00809556EA0247102560
B0918254626541N00809550EA0247502564
B0918264626542N00809544EA0247802567
B0918274626545N00809539EA0248002569
B0918284626548N00809535EA0248102569
B0918294626553N00809532EA0248102570
B0918304626559N00809529EA0248102570
B0918314626565N00809528EA0248102569
B0918324626572N00809530EA0248002569
B0918334626579N00809535EA0248002569
B0918344626585N00809543EA0248002569
B0918354626589N00809552EA0248002569
B0918364626592N00809560EA0248002569
B0918374626594N00809568EA0248002569
B0918384626596N00809575EA0247902567
B0918394626597N00809583EA0247702566
B0918404626598N00809592EA0247402563
B0918414626598N00809601EA0247202561
B0918424626599N00809611EA0247202561
B0918434626601N00809620EA0247102560
B0918444626605N00809630EA0247002559
B0918454626608N00809639EA0246902558
B0918464626611N00809649EA0246802557
B0918474626613N00809659EA0246602555
B0918484626616N00809668EA0246502554
B0918494626619N00809678EA0246302551
B0918504626622N00809688EA0246102550
B0918514626626N00809698EA0245902548
B0918524626628N00809708EA0245702546
B0918534626630N00809717EA0245502544
B0918544626633N00809725EA0245302542
B0918554626636N00809734EA0245102539
B0918564626639N00809742EA0244702536
B0918574626642N00809751EA0244302532
B0918584626645N00809760EA0244002528
B0918594626647N00809769EA0243602525
B0919004626649N00809778EA0243202521
B0919014626652N00809787EA0242902518
B0919024626654N00809796EA0242702515
B0919034626657N00809805EA0242502513
B0919044626660N00809814EA0242302512
B0919054626663N00809823EA0242202510
B0919064626665N00809831EA0242002508
B0919074626668N00809840EA0241702506
B0919084626671N00809849EA0241502504
B0919094626673N00809858EA0241202501
B0919104626677N00809867EA0241102500
B0919114626680N00809875EA0241002499
B0919124626683N00809883EA0240902497
B0919134626685N00809890EA0240602495
B0919144626688N00809898EA0240402492
B0919154626691N00809906EA0240102490
B0919164626693N00809915EA0239802487
B0919174626696N00809924EA0239502484
B0919184626698N00809933EA0239202481
B0919194626701N00809942EA0238902478
B0919204626704N00809952EA0238702475
B0919214626706N00809962EA0238502474
B0919224626708N00809971EA0238402472
B0919234626710N00809981EA0238202470
B0919244626711N00809990EA0237902468
B0919254626713N00809999EA0237702465
B0919264626715N00810010EA0237302462
B0919274626718N00810020EA0237002459
B0919284626720N00810031EA0236702456
B0919294626722N00810042EA0236502454
B0919304626725N00810053EA0236302452
B0919314626728N00810063EA0236202451
B0919324626730N00810073EA0236002449
B0919334626732N00810083EA0235902448
B0919344626734N00810094EA0235802446
B0919354626737N00810103EA0235602445
B0919364626740N00810112EA0235502443
B0919374626743N00810121EA0235302441
B0919384626745N00810130EA0235202441
B0919394626747N00810139EA0235102440
B0919404626750N00810148EA0234902438
B0919414626753N00810156EA0234802437
B0919424626755N00810165EA0234602435
B0919434626758N00810174EA0234502434
B0919444626761N00810183EA0234502434
B0919454626765N00810191EA0234602435
B0919464626768N00810199EA0234702436
B0919474626770N00810207EA0234802437
B0919484626772N00810215EA0234902438
B0919494626774N00810223EA0235102439
B0919504626776N00810232EA0235202441
B0919514626777N00810241EA0235302442
B0919524626778N00810250EA0235302441
B0919534626780N00810258EA0235202440
B0919544626781N00810266EA0235002439
B0919554626784N00810275EA0234802437
B0919564626787N00810284EA0234602435
B0919574626792N00810293EA0234402433
B0919584626797N00810300EA0234302432
B0919594626800N00810308EA0234202431
B0920004626804N00810317EA0234202430
B0920014626808N00810326EA0234102430
B0920024626812N00810335EA0233902428
B0920034626817N00810343EA0233602425
B0920044626821N00810351EA0233402423
B0920054626825N00810359EA0233202421
B0920064626829N00810368EA0233002419
B0920074626833N00810377EA0232802417
B0920084626838N00810387EA0232702415
B0920094626843N00810397EA0232602415
B0920104626849N00810406EA0232702415
B0920114626854N00810416EA0232702416
B0920124626860N00810425EA0233102419
B0920134626866N00810433EA0233502423
B0920144626871N00810440EA0233802427
B0920154626875N00810447EA0234102430
B0920164626879N00810454EA0234302432
B0920174626882N00810462EA0234502433
B0920184626886N00810469EA0234502434
B0920194626890N00810477EA0234602435
B0920204626894N00810484EA0234602435
B0920214626897N00810491EA0234602434
B0920224626901N00810499EA0234602435
B0920234626905N00810508EA0234702436
B0920244626908N00810516EA0234702436
B0920254626911N00810523EA0234702436
B0920264626914N00810531EA0234602434
B0920274626917N00810538EA0234302432
B0920284626921N00810546EA0234002428
B0920294626924N00810555EA0233702425
B0920304626927N00810565EA0233402423
B0920314626930N00810574EA0233302422
B0920324626934N00810583EA0233202421
B0920334626937N00810592EA0233002419
B0920344626940N00810600EA0232802417
B0920354626944N00810608EA0232602415
B0920364626948N00810616EA0232402413
B0920374626952N00810625EA0232202410
B0920384626956N00810634EA0232002409
B0920394626960N00810644EA0231802407
B0920404626963N00810653EA0231602405
B0920414626968N00810661EA0231402403
B0920424626973N00810670EA0231102400
B0920434626978N00810678EA0230902398
B0920444626983N00810687EA0230702396
B0920454626987N00810695EA0230502394
B0920464626993N00810705EA0230302392
B0920474626997N00810714EA0230202390
B0920484627001N00810722EA0230002388
B0920494627005N00810730EA0229802387
B0920504627009N00810738EA0229602385
B0920514627014N00810747EA0229402382
B0920524627019N00810755EA0229202380
B0920534627024N00810763EA0229002379
B0920544627029N00810771EA0228802377
B0920554627034N00810779EA0228602375
B0920564627039N00810787EA0228502374
B0920574627044N00810794EA0228302371
B0920584627049N00810802EA0228102369
B0920594627054N00810810EA0227802367
B0921004627058N00810818EA0227502364
B0921014627063N00810827EA0227202361
B0921024627068N00810835EA0227002359
B0921034627073N00810845EA0226802357
B0921044627079N00810854EA0226602355
B0921054627084N00810863EA0226402353
B0921064627089N00810871EA0226202351
B0921074627094N00810880EA0226002349
B0921084627100N00810890EA0225802346
B0921094627106N00810899EA0225502344
B0921104627112N00810908EA0225302342
B0921114627117N00810917EA0225102340
B0921124627122N00810926EA0224902338
B0921134627128N00810935EA0224702336
B0921144627134N00810944EA0224502334
B0921154627140N00810953EA0224402332
B0921164627145N00810962EA0224202331
B0921174627151N00810971EA0224202330
B0921184627156N00810980EA0224102329
B0921194627161N00810988EA0224002328
B0921204627166N00810996EA0223802327
B0921214627171N00811005EA0223602325
B0921224627176N00811013EA0223502324
B0921234627181N00811021EA0223302322
B0921244627186N00811030EA0223202321
B0921254627191N00811038EA0223102320
B0921264627196N00811046EA0223102319
B0921274627200N00811054EA0223002319
B0921284627204N00811062EA0222902318
B0921294627207N00811070EA0222802317
B0921304627211N00811078EA0222702315
B0921314627215N00811087EA0222602314
B0921324627220N00811095EA0222502313
B0921334627224N00811103EA0222402312
B0921344627228N00811111EA0222202311
B0921354627233N00811119EA0222102310
B0921364627239N00811127EA0222002309
B0921374627244N00811135EA0221902308
B0921384627249N00811142EA0221802307
B0921394627254N00811149EA0221702306
B0921404627259N00811157EA0221702305
B0921414627264N00811166EA0221602305
B0921424627269N00811175EA0221602304
B0921434627274N00811184EA0221602305
B0921444627279N00811192EA0221702306
B0921454627283N00811200EA0221802307
B0921464627288N00811207EA0221902308
B0921474627293N00811214EA0221902308
B0921484627298N00811221EA0221902308
B0921494627303N00811229EA0222002308
B0921504627307N00811237EA0222002308
B0921514627312N00811245EA0222002309
B0921524627317N00811253EA0222102309
B0921534627322N00811262EA0222102310
B0921544627327N00811270EA0222202310
B0921554627331N00811279EA0222302311
B0921564627336N00811288EA0222402313
B0921574627339N00811297EA0222602314
B0921584627344N00811306EA0222902318
B0921594627348N00811314EA0223202321
B0922004627353N00811322EA0223502324
B0922014627357N00811329EA0223702326
B0922024627360N00811336EA0223802326
B0922034627364N00811343EA0223802327
B0922044627368N00811352EA0223802327
B0922054627373N00811361EA0223802327
B0922064627378N00811369EA0223902328
B0922074627382N00811377EA0223902328
B0922084627386N00811385EA0224002329
B0922094627389N00811393EA0224002329
B0922104627393N00811401EA0224102329
B0922114627398N00811409EA0224102329
B0922124627402N00811416EA0224002329
B0922134627407N00811423EA0223902328
B0922144627412N00811430EA0223802327
B0922154627416N00811438EA0223702325
B0922164627421N00811445EA0223502324
B0922174627425N00811453EA0223402323
B0922184627430N00811460EA0223302322
B0922194627435N00811468EA0223202321
B0922204627439N00811476EA0223002319
B0922214627444N00811484EA0222902318
B0922224627448N00811491EA0222802316
B0922234627453N00811499EA0222602315
B0922244627458N00811507EA0222502313
B0922254627464N00811515EA0222302312
B0922264627469N00811523EA0222202311
B0922274627475N00811531EA0222102310
B0922284627480N00811539EA0222002309
B0922294627485N00811547EA0221902308
B0922304627491N00811555EA0221802307
B0922314627496N00811564EA0221802307
B0922324627501N00811572EA0221802307
B0922334627506N00811579EA0221702306
B0922344627511N00811586EA0221602305
B0922354627515N00811593EA0221402303
B0922364627520N00811601EA0221202301
B0922374627525N00811610EA0221002299
B0922384627530N00811618EA0220802297
B0922394627534N00811627EA0220802297
B0922404627540N00811636EA0220802296
B0922414627544N00811645EA0220802296
B0922424627548N00811653EA0220802297
B0922434627553N00811662EA0220702296
B0922444627557N00811671EA0220602295
B0922454627561N00811680EA0220502294
B0922464627566N00811689EA0220502294
B0922474627570N00811698EA0220502294
B0922484627575N00811707EA0220402293
B0922494627579N00811716EA0220402293
B0922504627583N00811724EA0220402292
B0922514627588N00811732EA0220302292
B0922524627593N00811740EA0220302292
B0922534627597N00811747EA0220102289
B0922544627601N00811754EA0219702286
B0922554627605N00811763EA0219402283
B0922564627609N00811772EA0219202281
B0922574627614N00811782EA0219002278
B0922584627618N00811792EA0218802277
B0922594627623N00811801EA0218602275
B0923004627627N00811809EA0218402273
B0923014627632N00811817EA0218202271
B0923024627637N00811825EA0218002269
B0923034627642N00811834EA0217802267
B0923044627647N00811842EA0217602265
B0923054627652N00811851EA0217402263
B0923064627657N00811860EA0217302262
B0923074627662N00811868EA0217202261
B0923084627666N00811877EA0217002259
B0923094627671N00811886EA0216902258
B0923104627676N00811894EA0216702255
B0923114627681N00811903EA0216502254
B0923124627687N00811912EA0216402252
B0923134627692N00811920EA0216302251
B0923144627697N00811928EA0216202251
B0923154627703N00811936EA0216102250
B0923164627708N00811945EA0216002249
B0923174627713N00811953EA0215902248
B0923184627719N00811961EA0215802247
B0923194627724N00811968EA0215802246
B0923204627730N00811975EA0215702246
B0923214627735N00811983EA0215602245
B0923224627739N00811991EA0215502244
B0923234627744N00811999EA0215402243
B0923244627750N00812007EA0215302242
B0923254627756N00812015EA0215302242
B0923264627762N00812022EA0215302242
B0923274627768N00812029EA0215302242
B0923284627773N00812037EA0215302242
B0923294627777N00812044EA0215202241
B0923304627782N00812051EA0215102240
B0923314627786N00812059EA0215002238
B0923324627790N00812065EA0214702236
B0923334627795N00812072EA0214402233
B0923344627800N00812080EA0214102230
B0923354627805N00812089EA0213902227
B0923364627809N00812097EA0213602225
B0923374627813N00812106EA0213402223
B0923384627818N00812114EA0213202221
B0923394627821N00812121EA0212902218
B0923404627825N00812129EA0212602215
B0923414627830N00812138EA0212302212
B0923424627834N00812146EA0212002209
B0923434627838N00812155EA0211902207
B0923444627841N00812163EA0211702206
B0923454627845N00812170EA0211602204
B0923464627849N00812177EA0211302202
B0923474627853N00812184EA0211102199
B0923484627857N00812192EA0210802197
B0923494627862N00812200EA0210502194
B0923504627866N00812207EA0210302191
B0923514627871N00812215EA0210102190
B0923524627875N00812223EA0209902187
B0923534627879N00812230EA0209602185
B0923544627882N00812237EA0209402182
B0923554627887N00812245EA0209102180
B0923564627891N00812252EA0208802177
B0923574627895N00812260EA0208602174
B0923584627899N00812268EA0208302172
B0923594627902N00812276EA0208002169
B0924004627905N00812284EA0207802167
B0924014627908N00812293EA0207602164
B0924024627912N00812301EA0207402162
B0924034627915N00812309EA0207202160
B0924044627918N00812317EA0206902158
B0924054627921N00812326EA0206802156
B0924064627925N00812334EA0206602154
B0924074627928N00812342EA0206402153
B0924084627931N00812351EA0206302151
B0924094627935N00812359EA0206102150
B0924104627939N00812367EA0205902148
B0924114627942N00812375EA0205702145
B0924124627946N00812383EA0205502144
B0924134627949N00812392EA0205402142
B0924144627952N00812400EA0205202141
B0924154627956N00812407EA0205002139
B0924164627960N00812415EA0204902138
B0924174627963N00812423EA0204702136
B0924184627966N00812431EA0204602134
B0924194627970N00812439EA0204402133
B0924204627973N00812447EA0204202131
B0924214627977N00812455EA0204102129
B0924224627980N00812463EA0203902128
B0924234627983N00812472EA0203802126
B0924244627987N00812480EA0203602125
B0924254627989N00812489EA0203502123
B0924264627992N00812498EA0203302122
B0924274627995N00812507EA0203202121
B0924284627998N00812516EA0203102120
B0924294628002N00812525EA0203202120
B0924304628006N00812533EA0203302121
B0924314628011N00812540EA0203402123
B0924324628015N00812547EA0203502124
B0924334628018N00812553EA0203502124
B0924344628022N00812559EA0203602125
B0924354628026N00812565EA0203702126
B0924364628031N00812571EA0203702126
B0924374628038N00812576EA0203702125
B0924384628045N00812577EA0203802127
B0924394628052N00812576EA0203902128
B0924404628059N00812572EA0204002129
B0924414628063N00812566EA0204102130
B0924424628065N00812559EA0204202131
B0924434628066N00812552EA0204402133
B0924444628066N00812546EA0204702135
B0924454628065N00812540EA0204802137
B0924464628062N00812535EA0205002139
B0924474628059N00812533EA0205102140
B0924484628055N00812535EA0205202141
B0924494628051N00812539EA0205202141
B0924504628050N00812545EA0205202141
B0924514628050N00812553EA0205302142
B0924524628051N00812561EA0205402142
B0924534628055N00812568EA0205402143
B0924544628060N00812575EA0205402143
B0924554628068N00812578EA0205402143
B0924564628076N00812579EA0205402143
B0924574628083N00812575EA0205502144
B0924584628089N00812570EA0205702146
B0924594628094N00812564EA0205902148
B0925004628096N00812557EA0206102150
B0925014628097N00812550EA0206402152
B0925024628097N00812544EA0206502154
B0925034628095N00812539EA0206502154
B0925044628092N00812535EA0206602155
B0925054628089N00812534EA0206702156
B0925064628085N00812534EA0206802156
B0925074628081N00812537EA0206802157
B0925084628078N00812542EA0206902157
B0925094628076N00812548EA0206802157
B0925104628077N00812556EA0206802157
B0925114628079N00812564EA0206802156
B0925124628084N00812572EA0206802156
B0925134628089N00812577EA0206802157
B0925144628097N00812581EA0206802157
B0925154628104N00812583EA0206902158
B0925164628110N00812584EA0207002159
B0925174628117N00812582EA0207202161
B0925184628123N00812579EA0207302162
B0925194628128N00812573EA0207402162
B0925204628131N00812566EA0207402163
B0925214628133N00812559EA0207502164
B0925224628134N00812552EA0207602165
B0925234628133N00812547EA0207702166
B0925244628131N00812542EA0207802167
B0925254628128N00812538EA0207802167
B0925264628124N00812536EA0208002169
B0925274628121N00812535EA0208202170
B0925284628118N00812537EA0208202171
B0925294628115N00812541EA0208302171
B0925304628113N00812546EA0208302171
B0925314628112N00812553EA0208302172
B0925324628113N00812560EA0208302172
B0925334628114N00812568EA0208302172
B0925344628118N00812576EA0208302171
B0925354628123N00812584EA0208302172
B0925364628129N00812590EA0208402173
B0925374628136N00812594EA0208402173
B0925384628143N00812595EA0208502174
B0925394628151N00812594EA0208602175
B0925404628157N00812591EA0208702176
B0925414628162N00812586EA0208802177
B0925424628166N00812580EA0208902178
B0925434628168N00812573EA0209002178
B0925444628168N00812566EA0209102180
B0925454628168N00812560EA0209202181
B0925464628166N00812557EA0209302182
B0925474628163N00812554EA0209402183
B0925484628160N00812553EA0209602185
B0925494628157N00812553EA0209702186
B0925504628154N00812554EA0209802186
B0925514628151N00812556EA0209802187
B0925524628149N00812560EA0209902187
B0925534628147N00812566EA0209902188
B0925544628146N00812573EA0209902188
B0925554628145N00812580EA0210002189
B0925564628147N00812587EA0210002189
B0925574628150N00812595EA0209902188
B0925584628154N00812603EA0210002188
B0925594628161N00812611EA0210002188
B0926004628168N00812616EA0210102190
B0926014628175N00812618EA0210202191
B0926024628182N00812617EA0210402193
B0926034628189N00812614EA0210602195
B0926044628194N00812608EA0210802197
B0926054628198N00812602EA0211002198
B0926064628200N00812595EA0211002199
B0926074628200N00812590EA0211102200
B0926084628199N00812584EA0211202200
B0926094628198N00812579EA0211302202
B0926104628196N00812575EA0211402203
B0926114628193N00812573EA0211602204
B0926124628190N00812573EA0211602205
B0926134628187N00812575EA0211702206
B0926144628184N00812580EA0211802207
B0926154628182N00812587EA0212002208
B0926164628181N00812594EA0212002209
B0926174628182N00812602EA0212102210
B0926184628182N00812610EA0212102210
B0926194628183N00812619EA0212202210
B0926204628184N00812628EA0212202211
B0926214628186N00812637EA0212202211
B0926224628190N00812646EA0212202211
B0926234628195N00812656EA0212302212
B0926244628199N00812665EA0212402213
B0926254628204N00812674EA0212702215
B0926264628209N00812683EA0212802217
B0926274628214N00812691EA0213102220
B0926284628219N00812700EA0213402222
B0926294628223N00812707EA0213502224
B0926304628227N00812713EA0213602225
B0926314628231N00812720EA0213702225
B0926324628236N00812727EA0213802227
B0926334628239N00812736EA0213902228
B0926344628243N00812744EA0214102230
B0926354628247N00812752EA0214302232
B0926364628251N00812759EA0214502234
B0926374628255N00812765EA0214702236
B0926384628259N00812773EA0214802237
B0926394628263N00812781EA0214902238
B0926404628267N00812789EA0215002239
B0926414628271N00812798EA0215102240
B0926424628275N00812806EA0215302242
B0926434628280N00812813EA0215402243
B0926444628284N00812821EA0215602244
B0926454628288N00812829EA0215602245
B0926464628291N00812836EA0215602245
B0926474628294N00812844EA0215502243
B0926484628297N00812853EA0215302242
B0926494628301N00812861EA0215202241
B0926504628305N00812869EA0215202240
B0926514628310N00812876EA0215102239
B0926524628314N00812884EA0214902238
B0926534628318N00812891EA0214802237
B0926544628322N00812900EA0214702235
B0926554628327N00812909EA0214502234
B0926564628331N00812919EA0214402232
B0926574628336N00812928EA0214202231
B0926584628340N00812937EA0214002229
B0926594628344N00812946EA0213802227
B0927004628349N00812955EA0213602225
B0927014628354N00812964EA0213402223
B0927024628358N00812973EA0213302222
B0927034628363N00812983EA0213202221
B0927044628368N00812992EA0213102220
B0927054628372N00813000EA0213002219
B0927064628377N00813008EA0212802217
B0927074628381N00813016EA0212602215
B0927084628386N00813024EA0212502214
B0927094628391N00813033EA0212502213
B0927104628395N00813041EA0212502214
B0927114628400N00813049EA0212602215
B0927124628404N00813057EA0212602215
B0927134628407N00813065EA0212602214
B0927144628411N00813073EA0212602215
B0927154628414N00813081EA0212702216
B0927164628417N00813090EA0212502213
B0927174628420N00813099EA0212202211
B0927184628423N00813108EA0211902208
B0927194628427N00813117EA0211602205
B0927204628431N00813126EA0211402203
B0927214628436N00813136EA0211302202
B0927224628440N00813145EA0211202201
B0927234628445N00813154EA0211202201
B0927244628450N00813162EA0211102200
B0927254628455N00813169EA0211002199
B0927264628460N00813177EA0210802197
B0927274628464N00813185EA0210602195
B0927284628469N00813194EA0210502194
B0927294628473N00813204EA0210402193
B0927304628477N00813213EA0210402193
B0927314628480N00813222EA0210402192
B0927324628485N00813230EA0210302191
B0927334628489N00813238EA0210102190
B0927344628493N00813247EA0209902188
B0927354628498N00813256EA0209802187
B0927364628502N00813265EA0209702186
B0927374628507N00813274EA0209702186
B0927384628512N00813283EA0209702186
B0927394628516N00813291EA0209702185
B0927404628521N00813298EA0209602185
B0927414628525N00813306EA0209502184
B0927424628530N00813315EA0209302182
B0927434628534N00813323EA0209302182
B0927444628539N00813331EA0209202181
B0927454628543N00813339EA0209202181
B0927464628548N00813346EA0209102180
B0927474628552N00813354EA0209002179
B0927484628557N00813362EA0209002178
B0927494628562N00813370EA0208902178
B0927504628566N00813378EA0208802177
B0927514628570N00813386EA0208702176
B0927524628574N00813394EA0208602175
B0927534628578N00813402EA0208402173
B0927544628581N00813411EA0208302171
B0927554628585N00813419EA0208102170
B0927564628588N00813428EA0208002169
B0927574628592N00813436EA0207902167
B0927584628596N00813444EA0207702166
B0927594628599N00813452EA0207602165
B0928004628602N00813460EA0207402163
B0928014628606N00813468EA0207302162
B0928024628610N00813475EA0207102160
B0928034628614N00813483EA0207002158
B0928044628618N00813490EA0206802157
B0928054628621N00813498EA0206502154
B0928064628625N00813505EA0206302152
B0928074628629N00813513EA0206102150
B0928084628633N00813521EA0205902148
B0928094628637N00813528EA0205702146
B0928104628641N00813536EA0205602145
B0928114628645N00813543EA0205502143
B0928124628649N00813551EA0205302142
B0928134628652N00813559EA0205202141
B0928144628656N00813567EA0205202140
B0928154628659N00813575EA0205002139
B0928164628663N00813583EA0205002139
B0928174628667N00813591EA0204902138
B0928184628671N00813599EA0204902138
B0928194628675N00813607EA0204902138
B0928204628678N00813615EA0204902138
B0928214628682N00813624EA0205002139
B0928224628685N00813633EA0205002139
B0928234628689N00813641EA0205002139
B0928244628694N00813649EA0205002139
B0928254628697N00813657EA0205002139
B0928264628699N00813666EA0205002138
B0928274628700N00813674EA0204802137
B0928284628703N00813681EA0204702136
B0928294628706N00813689EA0204502133
B0928304628710N00813697EA0204302131
B0928314628714N00813705EA0204102130
B0928324628718N00813712EA0204102129
B0928334628722N00813718EA0204002129
B0928344628726N00813724EA0203802127
B0928354628729N00813731EA0203602124
B0928364628732N00813738EA0203202121
B0928374628736N00813747EA0203002118
B0928384628740N00813756EA0202802116
B0928394628743N00813765EA0202602115
B0928404628747N00813773EA0202602115
B0928414628751N00813780EA0202602115
B0928424628754N00813787EA0202502114
B0928434628758N00813795EA0202402113
B0928444628761N00813803EA0202302112
B0928454628765N00813812EA0202202111
B0928464628769N00813820EA0202202111
B0928474628773N00813828EA0202102110
B0928484628777N00813836EA0202002109
B0928494628781N00813844EA0202002108
B0928504628785N00813853EA0201902107
B0928514628789N00813863EA0202002109
B0928524628794N00813872EA0202202111
B0928534628799N00813880EA0202402113
B0928544628803N00813888EA0202602115
B0928554628806N00813896EA0202802117
B0928564628810N00813903EA0203002119
B0928574628814N00813910EA0203002119
B0928584628818N00813916EA0203002118
B0928594628823N00813923EA0202902118
B0929004628828N00813929EA0202802117
B0929014628833N00813936EA0202802117
B0929024628838N00813944EA0202802117
B0929034628842N00813952EA0202902118
B0929044628846N00813959EA0203002118
B0929054628850N00813966EA0202902118
B0929064628854N00813973EA0202802117
B0929074628859N00813981EA0202802117
B0929084628865N00813990EA0202702116
B0929094628869N00813999EA0202802117
B0929104628874N00814007EA0202902118
B0929114628878N00814015EA0203002119
B0929124628882N00814022EA0203002119
B0929134628886N00814029EA0203102120
B0929144628891N00814036EA0203102120
B0929154628896N00814044EA0203202121
B0929164628901N00814051EA0203302122
B0929174628905N00814058EA0203502124
B0929184628910N00814064EA0203602124
B0929194628914N00814071EA0203602125
B0929204628919N00814078EA0203602125
B0929214628923N00814086EA0203602124
B0929224628927N00814093EA0203502124
B0929234628931N00814100EA0203502123
B0929244628935N00814107EA0203302122
B0929254628940N00814114EA0203102120
B0929264628945N00814122EA0202902118
B0929274628949N00814131EA0202802116
B0929284628954N00814139EA0202602115
B0929294628958N00814148EA0202602114
B0929304628963N00814155EA0202502114
B0929314628967N00814163EA0202502114
B0929324628972N00814170EA0202402113
B0929334628976N00814178EA0202302112
B0929344628980N00814185EA0202102110
B0929354628984N00814193EA0201902108
B0929364628988N00814202EA0201802106
B0929374628992N00814210EA0201602105
B0929384628996N00814218EA0201602104
B0929394629000N00814226EA0201502104
B0929404629004N00814234EA0201402103
B0929414629008N00814241EA0201402102
B0929424629012N00814249EA0201202101
B0929434629016N00814257EA0201102099
B0929444629020N00814265EA0200902098
B0929454629024N00814273EA0200902097
B0929464629028N00814280EA0200802097
B0929474629032N00814287EA0200802097
B0929484629037N00814294EA0200702095
B0929494629040N00814301EA0200502094
B0929504629044N00814308EA0200302092
B0929514629048N00814316EA0200202091
B0929524629052N00814324EA0200102090
B0929534629056N00814331EA0200002089
B0929544629060N00814338EA0200002088
B0929554629063N00814345EA0199902087
B0929564629067N00814353EA0199702086
B0929574629071N00814360EA0199602084
B0929584629076N00814368EA0199502083
B0929594629080N00814376EA0199402083
B0930004629085N00814384EA0199302082
B0930014629090N00814391EA0199302082
B0930024629095N00814399EA0199202081
B0930034629100N00814407EA0199202081
B0930044629103N00814414EA0199202081
B0930054629106N00814422EA0199102079
B0930064629110N00814430EA0198902078
B0930074629114N00814439EA0198702075
B0930084629117N00814447EA0198502074
B0930094629121N00814456EA0198402072
B0930104629125N00814464EA0198202071
B0930114629128N00814473EA0198102070
B0930124629132N00814480EA0198102070
B0930134629137N00814488EA0198202070
B0930144629141N00814494EA0198102070
B0930154629145N00814501EA0198102069
B0930164629148N00814508EA0197902068
B0930174629152N00814515EA0197702066
B0930184629156N00814524EA0197702066
B0930194629160N00814532EA0197702066
B0930204629165N00814540EA0197702066
B0930214629169N00814547EA0197802067
B0930224629173N00814554EA0197802067
B0930234629176N00814561EA0197802066
B0930244629179N00814568EA0197602065
B0930254629183N00814576EA0197502064
B0930264629187N00814584EA0197402063
B0930274629190N00814591EA0197302062
B0930284629195N00814599EA0197202061
B0930294629198N00814607EA0197102060
B0930304629202N00814614EA0197002059
B0930314629206N00814622EA0197002059
B0930324629210N00814629EA0196902058
B0930334629214N00814637EA0196902057
B0930344629217N00814644EA0196902057
B0930354629221N00814652EA0196902057
B0930364629225N00814660EA0196902058
B0930374629229N00814667EA0197002059
B0930384629233N00814675EA0197102060
B0930394629237N00814682EA0197202061
B0930404629241N00814689EA0197202061
B0930414629245N00814695EA0197202061
B0930424629250N00814702EA0197202061
B0930434629254N00814709EA0197102060
B0930444629259N00814717EA0197002059
B0930454629263N00814726EA0197002059
B0930464629268N00814734EA0196902058
B0930474629272N00814742EA0196902058
B0930484629276N00814750EA0197002059
B0930494629280N00814758EA0197202061
B0930504629284N00814765EA0197302061
B0930514629288N00814772EA0197302061
B0930524629292N00814780EA0197202061
B0930534629296N00814789EA0197302062
B0930544629301N00814798EA0197602064
B0930554629305N00814807EA0197802066
B0930564629308N00814814EA0198002069
B0930574629312N00814820EA0198102070
B0930584629316N00814825EA0198002069
B0930594629320N00814832EA0197802067
B0931004629325N00814840EA0197602065
B0931014629330N00814850EA0197502064
B0931024629335N00814859EA0197402063
B0931034629340N00814868EA0197502063
B0931044629344N00814876EA0197402063
B0931054629348N00814883EA0197302062
B0931064629351N00814890EA0197202061
B0931074629355N00814898EA0197002059
B0931084629360N00814906EA0196902058
B0931094629364N00814914EA0196802057
B0931104629368N00814923EA0196602055
B0931114629371N00814932EA0196602054
B0931124629375N00814940EA0196502054
B0931134629379N00814947EA0196402053
B0931144629382N00814955EA0196402052
B0931154629385N00814963EA0196202051
B0931164629388N00814971EA0196102050
B0931174629392N00814980EA0196002048
B0931184629395N00814990EA0195702046
B0931194629399N00814999EA0195602045
B0931204629403N00815007EA0195502044
B0931214629406N00815015EA0195402043
B0931224629410N00815023EA0195202041
B0931234629415N00815031EA0195002038
B0931244629419N00815040EA0194802036
B0931254629423N00815049EA0194602034
B0931264629428N00815058EA0194402033
B0931274629433N00815066EA0194302032
B0931284629437N00815075EA0194202030
B0931294629442N00815083EA0194002029
B0931304629447N00815092EA0193802026
B0931314629452N00815101EA0193702025
B0931324629455N00815110EA0193802027
B0931334629460N00815118EA0193902028
B0931344629465N00815125EA0194002028
B0931354629469N00815132EA0193902028
B0931364629474N00815140EA0193902028
B0931374629478N00815148EA0193802027
B0931384629482N00815156EA0193702026
B0931394629487N00815165EA0193602025
B0931404629492N00815173EA0193602025
B0931414629497N00815181EA0193602025
B0931424629501N00815189EA0193602025
B0931434629506N00815196EA0193502023
B0931444629510N00815205EA0193302022
B0931454629515N00815214EA0193102020
B0931464629520N00815223EA0193002019
B0931474629525N00815232EA0192902017
B0931484629531N00815241EA0192702016
B0931494629536N00815249EA0192602015
B0931504629541N00815258EA0192602014
B0931514629546N00815267EA0192502014
B0931524629550N00815276EA0192502013
B0931534629554N00815285EA0192302012
B0931544629558N00815293EA0192102010
B0931554629562N00815302EA0191902008
B0931564629567N00815311EA0191702006
B0931574629571N00815320EA0191502004
B0931584629576N00815329EA0191502003
B0931594629580N00815338EA0191402003
B0932004629585N00815345EA0191202001
B0932014629588N00815353EA0191001999
B0932024629592N00815360EA0190701996
B0932034629597N00815368EA0190601995
B0932044629601N00815376EA0190401993
B0932054629605N00815383EA0190201991
B0932064629609N00815389EA0190001989
B0932074629614N00815396EA0189801987
B0932084629617N00815404EA0189601985
B0932094629622N00815411EA0189401983
B0932104629626N00815419EA0189201981
B0932114629630N00815426EA0189001979
B0932124629634N00815434EA0188801977
B0932134629638N00815441EA0188701976
B0932144629642N00815448EA0188501974
B0932154629646N00815455EA0188301972
B0932164629650N00815462EA0188201971
B0932174629655N00815469EA0188101970
B0932184629659N00815476EA0187901968
B0932194629662N00815483EA0187701966
B0932204629667N00815491EA0187501964
B0932214629670N00815499EA0187401963
B0932224629673N00815506EA0187301961
B0932234629677N00815514EA0187201961
B0932244629680N00815521EA0187101960
B0932254629683N00815528EA0187001958
B0932264629686N00815535EA0186801957
B0932274629690N00815542EA0186701956
B0932284629693N00815550EA0186601954
B0932294629697N00815557EA0186501953
B0932304629701N00815564EA0186401952
B0932314629705N00815571EA0186201951
B0932324629709N00815579EA0186101950
B0932334629713N00815587EA0185901948
B0932344629717N00815594EA0185801947
B0932354629721N00815602EA0185701946
B0932364629725N00815611EA0185601944
B0932374629728N00815618EA0185501944
B0932384629732N00815626EA0185501944
B0932394629735N00815634EA0185401943
B0932404629740N00815642EA0185301942
B0932414629743N00815650EA0185401943
B0932424629747N00815658EA0185401943
B0932434629751N00815665EA0185301942
B0932444629755N00815673EA0185401943
B0932454629759N00815680EA0185401942
B0932464629762N00815688EA0185401943
B0932474629766N00815697EA0185501943
B0932484629770N00815707EA0185501944
B0932494629773N00815716EA0185701946
B0932504629777N00815724EA0186001949
B0932514629781N00815731EA0186301951
B0932524629784N00815736EA0186401953
B0932534629787N00815742EA0186401952
B0932544629790N00815749EA0186301951
B0932554629794N00815756EA0186201951
B0932564629798N00815763EA0186201950
B0932574629801N00815771EA0186101949
B0932584629805N00815778EA0185901948
B0932594629808N00815786EA0185801947
B0933004629811N00815795EA0185601945
B0933014629813N00815803EA0185501943
B0933024629816N00815812EA0185301942
B0933034629819N00815820EA0185201941
B0933044629822N00815828EA0185001939
B0933054629826N00815837EA0184901937
B0933064629829N00815846EA0184701936
B0933074629832N00815855EA0184601935
B0933084629835N00815864EA0184601934
B0933094629838N00815873EA0184501934
B0933104629842N00815882EA0184401933
B0933114629845N00815891EA0184401932
B0933124629848N00815900EA0184401932
B0933134629851N00815909EA0184401932
B0933144629853N00815918EA0184401933
B0933154629856N00815925EA0184501933
B0933164629858N00815933EA0184401933
B0933174629860N00815941EA0184201931
B0933184629863N00815949EA0184001929
B0933194629866N00815958EA0183901928
B0933204629869N00815967EA0183801927
B0933214629873N00815976EA0183801927
B0933224629876N00815984EA0183801927
B0933234629879N00815992EA0183701926
B0933244629882N00815999EA0183601925
B0933254629886N00816007EA0183401923
B0933264629890N00816016EA0183201921
B0933274629894N00816026EA0183201920
B0933284629898N00816035EA0183201920
B0933294629902N00816043EA0183201921
B0933304629906N00816051EA0183201921
B0933314629910N00816059EA0183101920
B0933324629914N00816068EA0183001918
B0933334629918N00816077EA0182901918
B0933344629922N00816086EA0182801917
B0933354629926N00816096EA0182801917
B0933364629929N00816104EA0182701916
B0933374629933N00816113EA0182701915
B0933384629937N00816122EA0182601915
B0933394629941N00816131EA0182501913
B0933404629945N00816139EA0182301912
B0933414629950N00816148EA0182301912
B0933424629954N00816156EA0182401913
B0933434629959N00816164EA0182401913
B0933444629962N00816171EA0182401913
B0933454629966N00816178EA0182301912
B0933464629971N00816185EA0182201910
B0933474629976N00816193EA0182101909
B0933484629981N00816201EA0182001908
B0933494629985N00816210EA0181801907
B0933504629990N00816217EA0181801906
B0933514629995N00816223EA0181801906
B0933524629999N00816229EA0181801906
B0933534630004N00816234EA0181701905
B0933544630009N00816240EA0181501904
B0933554630013N00816246EA0181401903
B0933564630018N00816253EA0181201901
B0933574630022N00816261EA0181101900
B0933584630027N00816269EA0181201901
B0933594630033N00816276EA0181601905
B0934004630037N00816282EA0182001908
B0934014630041N00816287EA0182201910
B0934024630043N00816293EA0182201911
B0934034630046N00816299EA0182201911
B0934044630049N00816306EA0182201910
B0934054630051N00816314EA0182301911
B0934064630054N00816322EA0182501914
B0934074630055N00816330EA0182701916
B0934084630056N00816337EA0182801917
B0934094630057N00816343EA0183001918
B0934104630059N00816351EA0183001919
B0934114630060N00816359EA0183001919
B0934124630063N00816368EA0182901918
B0934134630065N00816376EA0182801917
B0934144630069N00816384EA0182801916
B0934154630073N00816391EA0182701915
B0934164630076N00816399EA0182501914
B0934174630079N00816407EA0182301911
B0934184630084N00816415EA0182001909
B0934194630088N00816424EA0181901908
B0934204630091N00816432EA0181801906
B0934214630094N00816440EA0181601905
B0934224630096N00816448EA0181401903
B0934234630099N00816457EA0181201901
B0934244630102N00816466EA0181001898
B0934254630106N00816475EA0180801897
B0934264630110N00816484EA0180701895
B0934274630113N00816492EA0180501894
B0934284630115N00816501EA0180401893
B0934294630118N00816509EA0180301891
B0934304630122N00816518EA0180101889
B0934314630126N00816526EA0179901888
B0934324630131N00816533EA0179701886
B0934334630135N00816542EA0179601885
B0934344630139N00816550EA0179501884
B0934354630142N00816559EA0179301882
B0934364630146N00816567EA0179201881
B0934374630150N00816575EA0179001879
B0934384630153N00816584EA0178901878
B0934394630157N00816592EA0178701876
B0934404630160N00816600EA0178601875
B0934414630164N00816608EA0178401872
B0934424630168N00816617EA0178201871
B0934434630171N00816625EA0178101869
B0934444630175N00816634EA0177901868
B0934454630178N00816643EA0177801867
B0934464630182N00816651EA0177701866
B0934474630185N00816660EA0177601865
B0934484630188N00816668EA0177401863
B0934494630192N00816677EA0177301862
B0934504630195N00816685EA0177201861
B0934514630199N00816694EA0177001859
B0934524630203N00816703EA0176901857
B0934534630207N00816711EA0176701856
B0934544630211N00816720EA0176601855
B0934554630214N00816728EA0176601854
B0934564630217N00816737EA0176501854
B0934574630221N00816745EA0176401853
B0934584630225N00816754EA0176301852
B0934594630228N00816762EA0176101850
B0935004630232N00816771EA0176001849
B0935014630236N00816779EA0175901847
B0935024630239N00816787EA0175701846
B0935034630242N00816796EA0175601845
B0935044630245N00816805EA0175501844
B0935054630248N00816814EA0175401843
B0935064630251N00816823EA0175301842
B0935074630254N00816831EA0175201841
B0935084630257N00816840EA0175101840
B0935094630260N00816849EA0175001838
B0935104630263N00816858EA0174801837
B0935114630266N00816867EA0174701836
B0935124630270N00816876EA0174601835
B0935134630273N00816885EA0174501834
B0935144630276N00816893EA0174401833
B0935154630279N00816902EA0174201831
B0935164630283N00816911EA0174101830
B0935174630286N00816920EA0174101829
B0935184630289N00816929EA0174001828
B0935194630293N00816937EA0173801827
B0935204630295N00816946EA0173801826
B0935214630299N00816955EA0173601825
B0935224630302N00816963EA0173501824
B0935234630306N00816972EA0173501824
B0935244630310N00816981EA0173301822
B0935254630314N00816990EA0173101820
B0935264630317N00816998EA0173101820
B0935274630321N00817007EA0173101820
B0935284630324N00817015EA0173001818
B0935294630327N00817024EA0172801817
B0935304630331N00817033EA0172601815
B0935314630333N00817042EA0172601815
B0935324630336N00817051EA0172501814
B0935334630339N00817060EA0172301812
B0935344630342N00817068EA0172101810
B0935354630345N00817078EA0172001809
B0935364630348N00817087EA0172001808
B0935374630351N00817097EA0171901808
B0935384630353N00817106EA0171901808
B0935394630356N00817115EA0171801807
B0935404630359N00817124EA0171701806
B0935414630362N00817132EA0171601805
B0935424630364N00817141EA0171501804
B0935434630367N00817150EA0171401803
B0935444630370N00817159EA0171301802
B0935454630373N00817168EA0171201801
B0935464630376N00817177EA0171101800
B0935474630378N00817186EA0171001798
B0935484630381N00817194EA0170801797
B0935494630383N00817203EA0170701796
B0935504630385N00817212EA0170501794
B0935514630387N00817221EA0170401793
B0935524630389N00817231EA0170301792
B0935534630390N00817241EA0170201791
B0935544630391N00817250EA0170101790
B0935554630392N00817259EA0170001789
B0935564630392N00817268EA0169901788
B0935574630393N00817277EA0169801786
B0935584630394N00817286EA0169601785
B0935594630395N00817296EA0169501783
B0936004630397N00817305EA0169301782
B0936014630398N00817315EA0169201781
B0936024630399N00817325EA0169001779
B0936034630400N00817334EA0168901778
B0936044630401N00817344EA0168801776
B0936054630401N00817354EA0168601775
B0936064630401N00817363EA0168401773
B0936074630402N00817373EA0168201771
B0936084630402N00817383EA0168101770
B0936094630401N00817392EA0167901768
B0936104630401N00817402EA0167801767
B0936114630401N00817411EA0167601765
B0936124630401N00817421EA0167501763
B0936134630400N00817430EA0167401762
B0936144630398N00817438EA0167201761
B0936154630396N00817446EA0167101760
B0936164630394N00817452EA0167001759
B0936174630391N00817459EA0166901758
B0936184630388N00817465EA0166801757
B0936194630386N00817473EA0166701756
B0936204630384N00817481EA0166601755
B0936214630382N00817488EA0166401753
B0936224630379N00817495EA0166201751
B0936234630377N00817503EA0166001749
B0936244630374N00817510EA0165801746
B0936254630372N00817518EA0165501744
B0936264630369N00817526EA0165401742
B0936274630366N00817534EA0165201740
B0936284630363N00817541EA0165001739
B0936294630360N00817548EA0164801737
B0936304630357N00817555EA0164401733
B0936314630354N00817562EA0164201731
B0936324630351N00817568EA0164101730
B0936334630347N00817575EA0163901728
B0936344630344N00817582EA0163701726
B0936354630340N00817589EA0163601725
B0936364630337N00817596EA0163601725
B0936374630334N00817603EA0163501724
B0936384630331N00817611EA0163401723
B0936394630328N00817618EA0163301721
B0936404630325N00817625EA0163101720
B0936414630322N00817632EA0162901718
B0936424630319N00817640EA0162701716
B0936434630316N00817648EA0162601715
B0936444630313N00817655EA0162301711
B0936454630309N00817663EA0162101710
B0936464630306N00817669EA0162001709
B0936474630303N00817676EA0161901708
B0936484630299N00817682EA0161801707
B0936494630296N00817689EA0161601705
B0936504630292N00817695EA0161501704
B0936514630288N00817701EA0161401702
B0936524630284N00817707EA0161201701
B0936534630280N00817712EA0161101700
B0936544630276N00817717EA0161001699
B0936554630272N00817721EA0160901698
B0936564630267N00817726EA0160701696
B0936574630263N00817730EA0160601694
B0936584630258N00817733EA0160401693
B0936594630254N00817737EA0160301692
B0937004630249N00817739EA0160201691
B0937014630244N00817742EA0160001689
B0937024630240N00817745EA0159901688
B0937034630236N00817747EA0159801687
B0937044630230N00817749EA0159601684
B0937054630226N00817750EA0159301681
B0937064630221N00817752EA0159101680
B0937074630216N00817753EA0159001679
B0937084630211N00817754EA0158901677
B0937094630207N00817754EA0158701676
B0937104630202N00817754EA0158501674
B0937114630197N00817754EA0158301672
B0937124630191N00817752EA0158201671
B0937134630187N00817751EA0158101670
B0937144630182N00817750EA0157901668
B0937154630177N00817747EA0157801667
B0937164630173N00817745EA0157601665
B0937174630169N00817742EA0157501664
B0937184630164N00817739EA0157401663
B0937194630160N00817735EA0157401663
B0937204630157N00817731EA0157301662
B0937214630153N00817727EA0157101660
B0937224630150N00817721EA0157001658
B0937234630147N00817716EA0156801657
B0937244630144N00817710EA0156701656
B0937254630142N00817705EA0156601654
B0937264630139N00817699EA0156401653
B0937274630137N00817693EA0156301652
B0937284630134N00817686EA0156401653
B0937294630132N00817680EA0156301651
B0937304630130N00817673EA0156101650
B0937314630129N00817666EA0155901648
B0937324630128N00817659EA0155801647
B0937334630126N00817653EA0155601645
B0937344630124N00817647EA0155401643
B0937354630120N00817641EA0155301641
B0937364630117N00817636EA0155201641
B0937374630113N00817630EA0155101640
B0937384630110N00817625EA0155001639
B0937394630107N00817620EA0154801637
B0937404630103N00817615EA0154701636
B0937414630099N00817610EA0154501634
B0937424630095N00817605EA0154401633
B0937434630091N00817599EA0154301632
B0937444630087N00817594EA0154301632
B0937454630084N00817589EA0154201631
B0937464630081N00817584EA0154101630
B0937474630078N00817579EA0153901628
B0937484630075N00817574EA0153801627
B0937494630072N00817568EA0153601625
B0937504630068N00817562EA0153501624
B0937514630065N00817556EA0153401623
B0937524630062N00817551EA0153301622
B0937534630058N00817546EA0153201621
B0937544630055N00817542EA0153101620
B0937554630051N00817538EA0153001619
B0937564630047N00817534EA0152901618
B0937574630043N00817530EA0152801616
B0937584630038N00817527EA0152601615
B0937594630034N00817525EA0152501614
B0938004630029N00817524EA0152401612
B0938014630024N00817523EA0152101610
B0938024630020N00817522EA0151901608
B0938034630015N00817521EA0151801607
B0938044630010N00817520EA0151801606
B0938054630005N00817520EA0151701605
B0938064630000N00817519EA0151501604
B0938074629995N00817519EA0151501604
B0938084629990N00817519EA0151501603
B0938094629986N00817520EA0151301602
B0938104629981N00817523EA0151101600
B0938114629977N00817527EA0150901598
B0938124629973N00817532EA0150801597
B0938134629968N00817537EA0150701596
B0938144629965N00817543EA0150701595
B0938154629961N00817549EA0150601595
B0938164629958N00817556EA0150501594
B0938174629956N00817563EA0150401593
B0938184629954N00817571EA0150201591
B0938194629951N00817578EA0150101590
B0938204629950N00817586EA0150001589
B0938214629948N00817594EA0149901588
B0938224629947N00817602EA0149801587
B0938234629946N00817610EA0149701586
B0938244629946N00817618EA0149601584
B0938254629945N00817626EA0149401582
B0938264629945N00817634EA0149201581
B0938274629945N00817643EA0149001579
B0938284629946N00817651EA0148901577
B0938294629946N00817660EA0148701576
B0938304629947N00817669EA0148601575
B0938314629948N00817677EA0148501574
B0938324629950N00817686EA0148401573
B0938334629952N00817694EA0148301572
B0938344629954N00817702EA0148201570
B0938354629956N00817710EA0148001569
B0938364629959N00817718EA0147901567
B0938374629962N00817725EA0147701566
B0938384629965N00817733EA0147601565
B0938394629968N00817740EA0147501563
B0938404629972N00817747EA0147301562
B0938414629977N00817753EA0147201561
B0938424629981N00817758EA0147101560
B0938434629986N00817762EA0147001559
B0938444629992N00817766EA0146901557
B0938454629997N00817768EA0146801556
B0938464630004N00817770EA0146601555
B0938474630010N00817771EA0146501553
B0938484630015N00817771EA0146301552
B0938494630021N00817769EA0146201551
B0938504630027N00817767EA0146001549
B0938514630032N00817763EA0145901548
B0938524630036N00817758EA0145701546
B0938534630040N00817753EA0145601545
B0938544630043N00817746EA0145401543
B0938554630047N00817740EA0145301541
B0938564630049N00817733EA0145101540
B0938574630052N00817726EA0145001538
B0938584630054N00817719EA0144801537
B0938594630056N00817711EA0144701536
B0939004630057N00817703EA0144601535
B0939014630058N00817695EA0144601534
B0939024630059N00817688EA0144401533
B0939034630060N00817681EA0144301532
B0939044630060N00817673EA0144101530
B0939054630060N00817665EA0144001529
B0939064630060N00817656EA0143901528
B0939074630060N00817649EA0143901527
B0939084630061N00817641EA0143801527
B0939094630061N00817634EA0143601525
B0939104630062N00817627EA0143501523
B0939114630062N00817619EA0143301522
B0939124630062N00817612EA0143201521
B0939134630063N00817604EA0143101520
B0939144630064N00817597EA0142801516
B0939154630065N00817590EA0142601515
B0939164630066N00817582EA0142601514
B0939174630067N00817575EA0142401513
B0939184630068N00817567EA0142301512
B0939194630069N00817560EA0142201511
B0939204630070N00817553EA0142101510
B0939214630071N00817546EA0141901508
B0939224630072N00817538EA0141801506
B0939234630073N00817530EA0141601505
B0939244630074N00817523EA0141601505
B0939254630076N00817516EA0141601504
B0939264630076N00817509EA0141501504
B0939274630076N00817503EA0141401503
B0939284630075N00817497EA0141201501
B0939294630073N00817490EA0141001499
B0939304630072N00817482EA0140801497
B0939314630071N00817475EA0140601495
B0939324630070N00817468EA0140501494
B0939334630069N00817461EA0140401493
B0939344630068N00817454EA0140401493
B0939354630068N00817448EA0140301492
B0939364630067N00817441EA0140101490
B0939374630066N00817433EA0139901488
B0939384630065N00817426EA0139701486
B0939394630064N00817418EA0139701486
B0939404630063N00817411EA0139701486
B0939414630061N00817405EA0139601485
B0939424630060N00817398EA0139501484
B0939434630058N00817391EA0139401483
B0939444630055N00817384EA0139401483
B0939454630053N00817376EA0139401483
B0939464630052N00817369EA0139301482
B0939474630050N00817362EA0139301481
B0939484630047N00817356EA0139101480
B0939494630045N00817349EA0139101479
B0939504630042N00817342EA0138901478
B0939514630039N00817336EA0138801477
B0939524630036N00817329EA0138701476
B0939534630033N00817324EA0138601475
B0939544630029N00817318EA0138501474
B0939554630025N00817313EA0138301472
B0939564630021N00817308EA0138201471
B0939574630017N00817303EA0138101470
B0939584630013N00817298EA0138001469
B0939594630009N00817293EA0138001469
B0940004630004N00817288EA0137901468
B0940014630000N00817284EA0137701466
B0940024629996N00817279EA0137601465
B0940034629991N00817275EA0137501463
B0940044629986N00817271EA0137301462
B0940054629981N00817268EA0137101460
B0940064629975N00817266EA0137001459
B0940074629970N00817263EA0136901458
B0940084629964N00817261EA0136801457
B0940094629959N00817260EA0136701456
B0940104629954N00817260EA0136601454
B0940114629948N00817261EA0136401453
B0940124629943N00817261EA0136201450
B0940134629937N00817262EA0136101449
B0940144629932N00817262EA0136101450
B0940154629927N00817262EA0136001449
B0940164629922N00817263EA0135901448
B0940174629917N00817265EA0135701446
B0940184629912N00817268EA0135601444
B0940194629908N00817272EA0135401443
B0940204629903N00817277EA0135301442
B0940214629899N00817283EA0135201441
B0940224629896N00817289EA0135101440
B0940234629894N00817295EA0135001439
B0940244629892N00817303EA0134901437
B0940254629891N00817311EA0134801436
B0940264629891N00817318EA0134701435
B0940274629892N00817325EA0134501434
B0940284629894N00817331EA0134401433
B0940294629896N00817338EA0134201431
B0940304629898N00817345EA0134101429
B0940314629901N00817353EA0133901427
B0940324629903N00817361EA0133701426
B0940334629906N00817368EA0133701425
B0940344629908N00817375EA0133701425
B0940354629911N00817381EA0133701426
B0940364629914N00817387EA0133801427
B0940374629915N00817393EA0133801427
B0940384629916N00817398EA0133801426
B0940394629918N00817404EA0133701425
B0940404629919N00817411EA0133601424
B0940414629921N00817418EA0133501424
B0940424629923N00817424EA0133501424
B0940434629926N00817430EA0133401423
B0940444629928N00817435EA0133401422
B0940454629931N00817440EA0133201421
B0940464629934N00817446EA0133001419
B0940474629938N00817451EA0132801417
B0940484629942N00817457EA0132701416
B0940494629946N00817463EA0132601415
B0940504629951N00817467EA0132501414
B0940514629956N00817468EA0132401413
B0940524629961N00817470EA0132301412
B0940534629966N00817471EA0132201411
B0940544629971N00817473EA0132101410
B0940554629976N00817475EA0132001409
B0940564629981N00817477EA0131901408
B0940574629987N00817477EA0131801407
B0940584629992N00817477EA0131701406
B0940594629997N00817480EA0131601405
B0941004630001N00817481EA0131501404
B0941014630007N00817482EA0131401403
B0941024630011N00817482EA0131201401
B0941034630016N00817481EA0131101399
B0941044630020N00817479EA0130901397
B0941054630025N00817478EA0130701396
B0941064630029N00817473EA0130501394
B0941074630033N00817469EA0130301392
B0941084630035N00817463EA0130101390
B0941094630037N00817457EA0130001388
B0941104630039N00817450EA0129901387
B0941114630041N00817443EA0129801387
B0941124630043N00817437EA0129701386
B0941134630046N00817431EA0129601385
B0941144630047N00817424EA0129501383
B0941154630047N00817417EA0129301381
B0941164630046N00817409EA0129001379
B0941174630043N00817403EA0128901378
B0941184630039N00817398EA0128901377
B0941194630036N00817394EA0128801376
B0941204630034N00817390EA0128601374
B0941214630031N00817385EA0128301371
B0941224630027N00817379EA0127901368
B0941234630024N00817373EA0127701366
B0941244630021N00817368EA0127701366
B0941254630020N00817362EA0127801367
B0941264630019N00817358EA0127801367
B0941274630018N00817355EA0127801367
B0941284630017N00817353EA0127801367
B0941294630017N00817352EA0127801367
B0941304630017N00817351EA0127801367
B0941314630018N00817350EA0127801367
B0941324630018N00817350EA0127801367
B0941334630018N00817349EA0127801367
B0941344630018N00817349EA0127801367
B0941354630018N00817349EA0127801367
B0941364630018N00817349EA0127801367
B0941374630018N00817349EA0127801367
B0941384630019N00817349EA0127801367
B0941394630019N00817349EA0127801367
B0941404630019N00817348EA0127801367
B0941414630019N00817348EA0127801367
B0941424630019N00817348EA0127801367
B0941434630019N00817348EA0127801367
B0941444630019N00817348EA0127901367
B0941454630019N00817348EA0127901367
B0941464630019N00817348EA0127901367
B0941474630019N00817348EA0127901367
B0941484630019N00817348EA0127801367
B0941494630019N00817348EA0127801367
B0941504630019N00817348EA0127801367
B0941514630019N00817348EA0127801367
B0941524630019N00817348EA0127801367
B0941534630019N00817348EA0127801367
B0941544630019N00817348EA0127801367
B0941554630019N00817348EA0127801367
B0941564630019N00817348EA0127801367
B0941574630019N00817348EA0127801367
B0941584630019N00817348EA0127801367
B0941594630019N00817348EA0127801367
B0942004630020N00817348EA0127801367
B0942014630020N00817348EA0127801367
B0942024630020N00817348EA0127901367
B0942034630020N00817348EA0127901367
B0942044630019N00817348EA0127901367
B0942054630019N00817348EA0127901367
B0942064630019N00817348EA0127901367
B0942074630019N00817348EA0127901367
B0942084630019N00817348EA0127901367
B0942094630019N00817348EA0127901367
B0942104630019N00817348EA0127901367
B0942114630019N00817348EA0127801367
B0942124630019N00817349EA0127801367
B0942134630020N00817349EA0127801367
B0942144630020N00817349EA0127801367
B0942154630020N00817349EA0127801367
B0942164630020N00817349EA0127801367
B0942174630020N00817349EA0127801367
B0942184630020N00817349EA0127801367
B0942194630020N00817349EA0127801367
B0942204630020N00817349EA0127801367
B0942214630020N00817349EA0127901367
B0942224630019N00817349EA0127901367
B0942234630019N00817349EA0127901367
B0942244630019N00817349EA0127901367
B0942254630019N00817349EA0127901367
B0942264630019N00817350EA0127901367
B0942274630019N00817350EA0127901367
B0942284630019N00817350EA0127901367
B0942294630020N00817350EA0127801367
B0942304630020N00817350EA0127801367
B0942314630020N00817350EA0127801367
B0942324630020N00817350EA0127801367
B0942334630020N00817350EA0127901367
B0942344630020N00817351EA0127901367
B0942354630020N00817351EA0127901367
B0942364630020N00817352EA0127901367
B0942374630020N00817352EA0127901367
B0942384630020N00817353EA0127901367
B0942394630020N00817353EA0127901367
B0942404630020N00817354EA0127901367
B0942414630020N00817355EA0127901367
B0942424630020N00817355EA0127901367
B0942434630020N00817355EA0127901367
B0942444630020N00817355EA0127901367
B0942454630020N00817355EA0127901367
B0942464630020N00817355EA0127901367
B0942474630020N00817355EA0127901367
B0942484630020N00817355EA0127801367
B0942494630020N00817356EA0127901367
B0942504630020N00817355EA0127901367
B0942514630020N00817355EA0127901367
B0942524630020N00817355EA0127901367
B0942534630020N00817355EA0127901367
B0942544630020N00817355EA0127901367
B0942554630020N00817355EA0127901367
B0942564630020N00817356EA0127901367
B0942574630021N00817356EA0127901367
B0942584630021N00817356EA0127901367
B0942594630022N00817356EA0127901367
B0943004630022N00817356EA0127901367
B0943014630022N00817356EA0127901367
B0943024630023N00817356EA0127901367
B0943034630024N00817356EA0127901367
B0943044630024N00817356EA0127901367
B0943054630025N00817357EA0127901367
B0943064630026N00817357EA0127901368
B0943074630027N00817358EA0127901367
B0943084630027N00817358EA0127901367
B0943094630028N00817358EA0127901368
B0943104630029N00817357EA0127901368
B0943114630029N00817357EA0127901368
B0943124630031N00817357EA0127901368
B0943134630031N00817358EA0127901368
B0943144630031N00817358EA0127901368
B0943154630032N00817359EA0127901368
B0943164630032N00817359EA0127901368
B0943174630032N00817359EA0127901368
B0943184630032N00817359EA0127901368
B0943194630032N00817359EA0127901368
B0943204630032N00817359EA0127901368
B0943214630033N00817359EA0127901368
B0943224630032N00817359EA0127901368
B0943234630032N00817359EA0127901368
B0943244630032N00817359EA0127901368
B0943254630032N00817359EA0127901368
B0943264630032N00817359EA0127901368
B0943274630033N00817358EA0127901368
B0943284630033N00817358EA0127901368
B0943294630033N00817358EA0127901368
B0943304630033N00817357EA0127901368
LXSX;C1;GM:1.5
LXSX;S1;TS:1726650170;TL:1726652610;AS:2147;AL:1368;AT:2952;AB:1366
LXSX;S1;XS:0;XD:19.46;SP:55.7;MC:3.8;MS:-2.8;NB:2442
LXSX;S1;FL:26.2;TG:877;TC:2.3;AG:1387;GM:1.5
LXSX;S1;X0:46.41410,8.10783
LXSX;S1;X1:46.41642,8.11748
LXSX;S1;X2:46.42372,8.10993
LXSX;S1;X3:46.50460,8.29528
LXSX;S1;X4:46.49820,8.28838
G71518C340432952D53A573ECD81942B4
