AXSX005 SKYTRAXX
HFPLTPILOT:Sepp Bucher
HFGTYGLIDERTYPE:Niviuk Artik R
HFDTM100GPSDATUM:WGS-84
HFRFWFIRMWAREVERSION:202404261547
HFRHWHARDWAREVERSION:4.0
HFTZNTIMEZONE:+1.00
HFSITSITE:Castelo de Vide_La Pe
HFDTE060624
LXSX;I1;OAB:20240603;OOB:20240604
LXSX;I1;ID:114075
LXSX;I1;AC:1;CAT:C
B1340173924050N00727540WA0071500742
B1340183924050N00727540WA0071500742
B1340193924050N00727540WA0071500742
B1340203924050N00727540WA0071500742
B1340213924050N00727540WA0071500742
B1340223924050N00727540WA0071500741
B1340233924050N00727540WA0071500742
B1340243924049N00727540WA0071500741
B1340253924049N00727540WA0071500742
B1340263924049N00727540WA0071500742
B1340273924049N00727540WA0071500741
B1340283924049N00727540WA0071500741
B1340293924049N00727541WA0071500741
B1340303924049N00727542WA0071500741
B1340313924049N00727542WA0071500741
B1340323924050N00727543WA0071400740
B1340333924049N00727544WA0071300740
B1340343924048N00727546WA0071200738
B1340353924047N00727549WA0071000736
B1340363924046N00727552WA0070800735
B1340373924044N00727556WA0070800734
B1340383924043N00727559WA0070900736
B1340393924041N00727563WA0071100737
B1340403924038N00727566WA0071200738
B1340413924036N00727569WA0071100737
B1340423924035N00727572WA0071000737
B1340433924033N00727575WA0070900735
B1340443924030N00727577WA0070800734
B1340453924026N00727578WA0070600732
B1340463924021N00727579WA0070500732
B1340473924017N00727580WA0070500731
B1340483924013N00727582WA0070600732
B1340493924010N00727585WA0070600732
B1340503924008N00727587WA0070500731
B1340513924005N00727590WA0070200729
B1340523924001N00727593WA0070000726
B1340533923997N00727597WA0069900725
B1340543923993N00727601WA0069800724
B1340553923988N00727605WA0069900726
B1340563923984N00727609WA0070200729
B1340573923982N00727612WA0070700733
B1340583923981N00727615WA0070900735
B1340593923981N00727617WA0070800734
B1341003923981N00727621WA0070600733
B1341013923981N00727626WA0070400731
B1341023923981N00727633WA0070200729
B1341033923982N00727640WA0070200728
B1341043923986N00727648WA0070100727
B1341053923991N00727653WA0070100727
B1341063923998N00727657WA0069800725
B1341073924005N00727658WA0069700723
B1341083924014N00727659WA0069700723
B1341093924021N00727661WA0069700723
B1341103924028N00727664WA0069600723
B1341113924035N00727668WA0069700723
B1341123924041N00727673WA0069600723
B1341133924046N00727679WA0069700723
B1341143924050N00727685WA0069700723
B1341153924054N00727692WA0069800724
B1341163924057N00727698WA0069800724
B1341173924059N00727704WA0069800724
B1341183924060N00727710WA0069700723
B1341193924059N00727715WA0069600723
B1341203924057N00727720WA0069700723
B1341213924054N00727723WA0069700724
B1341223924051N00727724WA0069800725
B1341233924047N00727723WA0070000726
B1341243924044N00727722WA0070100728
B1341253924041N00727721WA0070100728
B1341263924038N00727718WA0070100727
B1341273924037N00727713WA0070000726
B1341283924036N00727706WA0070000726
B1341293924036N00727698WA0070000726
B1341303924037N00727692WA0070100727
B1341313924037N00727687WA0070000726
B1341323924036N00727683WA0069900726
B1341333924034N00727681WA0069800724
B1341343924032N00727680WA0069600722
B1341353924030N00727680WA0069300719
B1341363924028N00727681WA0069000716
B1341373924025N00727684WA0068700713
B1341383924022N00727688WA0068500711
B1341393924021N00727694WA0068200708
B1341403924021N00727701WA0068000706
B1341413924022N00727708WA0068000706
B1341423924023N00727715WA0068100707
B1341433924025N00727722WA0068200708
B1341443924027N00727729WA0068300710
B1341453924029N00727735WA0068500711
B1341463924031N00727742WA0068600712
B1341473924033N00727748WA0068700713
B1341483924036N00727754WA0068700714
B1341493924037N00727760WA0068700713
B1341503924038N00727766WA0068700713
B1341513924039N00727772WA0068600712
B1341523924038N00727778WA0068600712
B1341533924036N00727784WA0068600712
B1341543924035N00727789WA0068700713
B1341553924033N00727793WA0068800714
B1341563924031N00727797WA0068700714
B1341573924028N00727800WA0068700713
B1341583924025N00727800WA0068600713
B1341593924022N00727799WA0068500712
B1342003924019N00727796WA0068500711
B1342013924017N00727791WA0068400711
B1342023924016N00727786WA0068600712
B1342033924017N00727780WA0068600712
B1342043924019N00727774WA0068600712
B1342053924023N00727768WA0068500711
B1342063924027N00727762WA0068400711
B1342073924031N00727757WA0068400710
B1342083924038N00727753WA0068400710
B1342093924046N00727751WA0068300709
B1342103924054N00727752WA0068300709
B1342113924061N00727754WA0068300709
B1342123924068N00727757WA0068400710
B1342133924074N00727761WA0068400710
B1342143924078N00727767WA0068400710
B1342153924082N00727773WA0068300710
B1342163924085N00727780WA0068300709
B1342173924086N00727788WA0068300709
B1342183924088N00727795WA0068300709
B1342193924088N00727802WA0068400710
B1342203924088N00727808WA0068400710
B1342213924088N00727813WA0068400710
B1342223924086N00727818WA0068400710
B1342233924083N00727823WA0068400710
B1342243924080N00727827WA0068400710
B1342253924077N00727829WA0068400711
B1342263924075N00727832WA0068500711
B1342273924073N00727835WA0068400710
B1342283924071N00727836WA0068300709
B1342293924068N00727837WA0068100707
B1342303924065N00727836WA0067900705
B1342313924062N00727834WA0067800704
B1342323924059N00727831WA0067800704
B1342333924057N00727827WA0067800704
B1342343924057N00727821WA0067700703
B1342353924057N00727814WA0067600702
B1342363924058N00727808WA0067500701
B1342373924058N00727801WA0067400701
B1342383924058N00727795WA0067400700
B1342393924057N00727790WA0067300699
B1342403924055N00727786WA0067100697
B1342413924052N00727783WA0066900696
B1342423924048N00727783WA0066800695
B1342433924045N00727784WA0066900695
B1342443924042N00727787WA0066800695
B1342453924041N00727791WA0066700694
B1342463924040N00727797WA0066600692
B1342473924041N00727803WA0066500691
B1342483924042N00727809WA0066400690
B1342493924045N00727816WA0066200689
B1342503924048N00727823WA0066100688
B1342513924052N00727830WA0066100687
B1342523924055N00727837WA0066000686
B1342533924059N00727844WA0065800685
B1342543924063N00727851WA0065700683
B1342553924066N00727858WA0065600682
B1342563924068N00727866WA0065400681
B1342573924070N00727872WA0065200678
B1342583924073N00727879WA0064900676
B1342593924075N00727886WA0064600673
B1343003924078N00727893WA0064300669
B1343013924082N00727901WA0063900665
B1343023924086N00727908WA0063500661
B1343033924090N00727916WA0063200658
B1343043924093N00727924WA0062900655
B1343053924097N00727932WA0062600652
B1343063924101N00727939WA0062500652
B1343073924104N00727946WA0062400650
B1343083924108N00727952WA0062200649
B1343093924112N00727959WA0062100647
B1343103924117N00727967WA0061900645
B1343113924122N00727974WA0061700644
B1343123924127N00727981WA0061700643
B1343133924133N00727987WA0061600643
B1343143924138N00727993WA0061600642
B1343153924144N00727999WA0061600642
B1343163924149N00728006WA0061500641
B1343173924154N00728012WA0061400641
B1343183924159N00728019WA0061400640
B1343193924163N00728027WA0061300639
B1343203924166N00728035WA0061200638
B1343213924168N00728043WA0061100637
B1343223924169N00728051WA0061000636
B1343233924168N00728058WA0060900635
B1343243924166N00728064WA0060800634
B1343253924164N00728068WA0060600632
B1343263924161N00728071WA0060400630
B1343273924158N00728074WA0060200629
B1343283924155N00728076WA0060100627
B1343293924151N00728078WA0059900626
B1343303924147N00728079WA0059800625
B1343313924144N00728080WA0059700624
B1343323924140N00728080WA0059600623
B1343333924137N00728081WA0059500622
B1343343924134N00728081WA0059400620
B1343353924130N00728081WA0059200618
B1343363924126N00728081WA0059100617
B1343373924122N00728080WA0058900616
B1343383924118N00728079WA0058900615
B1343393924115N00728078WA0058800614
B1343403924111N00728077WA0058600612
B1343413924108N00728076WA0058400611
B1343423924105N00728074WA0058200608
B1343433924101N00728073WA0058000607
B1343443924097N00728072WA0057900605
B1343453924093N00728071WA0057700603
B1343463924090N00728070WA0057600602
B1343473924086N00728068WA0057400600
B1343483924083N00728066WA0057200598
B1343493924080N00728064WA0057000596
B1343503924076N00728062WA0056800594
B1343513924072N00728061WA0056500592
B1343523924068N00728060WA0056400590
B1343533924064N00728059WA0056200588
B1343543924061N00728058WA0056000587
B1343553924057N00728059WA0055800584
B1343563924053N00728059WA0055500581
B1343573924049N00728060WA0055200578
B1343583924044N00728062WA0054900575
B1343593924039N00728063WA0054600572
B1344003924034N00728065WA0054400570
B1344013924029N00728067WA0054200568
B1344023924024N00728068WA0054100568
B1344033924019N00728069WA0054000567
B1344043924015N00728070WA0054100567
B1344053924011N00728071WA0054100568
B1344063924008N00728071WA0054000566
B1344073924006N00728069WA0053800564
B1344083924002N00728069WA0053500562
B1344093923998N00728069WA0053200558
B1344103923994N00728070WA0052900555
B1344113923990N00728071WA0052600552
B1344123923985N00728074WA0052300549
B1344133923979N00728078WA0052100547
B1344143923974N00728081WA0052000546
B1344153923969N00728084WA0052100547
B1344163923965N00728087WA0052100548
B1344173923961N00728090WA0052100547
B1344183923957N00728093WA0052000547
B1344193923952N00728097WA0051900545
B1344203923947N00728099WA0051900545
B1344213923941N00728100WA0051900546
B1344223923935N00728101WA0052100547
B1344233923931N00728101WA0052300549
B1344243923928N00728102WA0052500551
B1344253923925N00728103WA0052600552
B1344263923923N00728104WA0052600552
B1344273923920N00728104WA0052600552
B1344283923916N00728105WA0052600552
B1344293923913N00728104WA0052600552
B1344303923911N00728102WA0052600552
B1344313923908N00728099WA0052500551
B1344323923906N00728095WA0052400551
B1344333923904N00728091WA0052400550
B1344343923902N00728087WA0052300550
B1344353923899N00728084WA0052300549
B1344363923896N00728083WA0052300549
B1344373923893N00728085WA0052300549
B1344383923892N00728088WA0052300549
B1344393923892N00728093WA0052300549
B1344403923893N00728098WA0052200548
B1344413923895N00728104WA0052000547
B1344423923895N00728110WA0051800544
B1344433923895N00728115WA0051500542
B1344443923894N00728120WA0051300539
B1344453923890N00728123WA0051100537
B1344463923887N00728125WA0051000536
B1344473923885N00728127WA0050900535
B1344483923882N00728128WA0050800534
B1344493923879N00728130WA0050700533
B1344503923875N00728132WA0050500531
B1344513923872N00728134WA0050400530
B1344523923869N00728136WA0050300530
B1344533923867N00728137WA0050200528
B1344543923864N00728139WA0050100527
B1344553923862N00728140WA0049900525
B1344563923859N00728141WA0049700523
B1344573923855N00728142WA0049500521
B1344583923852N00728144WA0049500521
B1344593923848N00728145WA0049500522
B1345003923845N00728147WA0049600522
B1345013923843N00728150WA0049600522
B1345023923841N00728152WA0049600522
B1345033923838N00728155WA0049700523
B1345043923836N00728159WA0049700524
B1345053923835N00728163WA0049800524
B1345063923833N00728167WA0049800524
B1345073923831N00728171WA0050000526
B1345083923828N00728173WA0050100527
B1345093923825N00728174WA0050100527
B1345103923821N00728173WA0050200528
B1345113923819N00728170WA0050200528
B1345123923818N00728166WA0050200528
B1345133923817N00728161WA0050000526
B1345143923817N00728155WA0049800524
B1345153923816N00728149WA0049600522
B1345163923814N00728145WA0049400520
B1345173923811N00728143WA0049200518
B1345183923808N00728143WA0049000516
B1345193923804N00728143WA0048800514
B1345203923801N00728146WA0048700514
B1345213923799N00728149WA0048600513
B1345223923798N00728153WA0048500511
B1345233923796N00728156WA0048400510
B1345243923795N00728159WA0048200508
B1345253923793N00728162WA0047900505
B1345263923790N00728164WA0047600502
B1345273923786N00728166WA0047300499
B1345283923782N00728166WA0047200498
B1345293923778N00728166WA0047100498
B1345303923773N00728165WA0047200498
B1345313923770N00728165WA0047300499
B1345323923768N00728166WA0047400500
B1345333923765N00728166WA0047300499
B1345343923764N00728168WA0047300499
B1345353923763N00728168WA0047400500
B1345363923763N00728169WA0047400500
B1345373923763N00728170WA0047400500
B1345383923763N00728169WA0047300500
B1345393923763N00728169WA0047400500
B1345403923763N00728169WA0047400500
B1345413923764N00728168WA0047400500
B1345423923764N00728169WA0047400500
B1345433923764N00728169WA0047400500
B1345443923764N00728169WA0047400500
B1345453923764N00728169WA0047400500
B1345463923764N00728169WA0047400500
B1345473923764N00728169WA0047400500
B1345483923764N00728169WA0047400500
B1345493923764N00728170WA0047400500
B1345503923764N00728170WA0047400500
B1345513923764N00728170WA0047400500
B1345523923764N00728170WA0047400500
B1345533923764N00728170WA0047400500
B1345543923764N00728170WA0047400500
B1345553923764N00728170WA0047400500
B1345563923764N00728170WA0047400500
B1345573923764N00728170WA0047400500
B1345583923764N00728170WA0047400500
B1345593923764N00728170WA0047400500
B1346003923764N00728170WA0047400500
B1346013923764N00728170WA0047400500
B1346023923764N00728170WA0047400500
B1346033923764N00728170WA0047400500
B1346043923764N00728170WA0047400500
B1346053923764N00728170WA0047400500
B1346063923764N00728171WA0047400500
B1346073923764N00728171WA0047400500
B1346083923764N00728171WA0047400500
B1346093923764N00728172WA0047400500
B1346103923765N00728172WA0047400500
B1346113923765N00728172WA0047400500
B1346123923765N00728172WA0047400500
B1346133923765N00728173WA0047400500
B1346143923765N00728173WA0047400500
B1346153923765N00728173WA0047400500
B1346163923765N00728173WA0047400500
B1346173923765N00728173WA0047400500
B1346183923765N00728173WA0047400500
B1346193923765N00728173WA0047400500
B1346203923765N00728173WA0047400500
B1346213923765N00728173WA0047400500
B1346223923765N00728173WA0047400500
B1346233923765N00728173WA0047400500
B1346243923765N00728173WA0047400500
B1346253923765N00728173WA0047400500
B1346263923765N00728173WA0047300500
B1346273923766N00728173WA0047300500
B1346283923766N00728173WA0047400500
B1346293923766N00728173WA0047400500
B1346303923766N00728173WA0047400500
B1346313923766N00728173WA0047400500
B1346323923766N00728173WA0047400500
B1346333923766N00728173WA0047400500
B1346343923767N00728173WA0047400500
B1346353923768N00728173WA0047400500
B1346363923768N00728172WA0047400500
B1346373923768N00728172WA0047400500
B1346383923769N00728172WA0047400500
B1346393923769N00728172WA0047400500
B1346403923770N00728171WA0047400500
B1346413923770N00728171WA0047400500
B1346423923771N00728172WA0047400500
B1346433923772N00728172WA0047400500
B1346443923773N00728173WA0047400500
B1346453923773N00728173WA0047300500
B1346463923773N00728174WA0047300500
B1346473923774N00728175WA0047300499
B1346483923774N00728175WA0047300500
B1346493923775N00728175WA0047300500
B1346503923776N00728176WA0047300500
B1346513923776N00728176WA0047300500
B1346523923776N00728177WA0047300500
B1346533923777N00728177WA0047300499
B1346543923778N00728178WA0047300500
B1346553923779N00728178WA0047300500
B1346563923779N00728179WA0047300499
B1346573923779N00728179WA0047300499
B1346583923780N00728180WA0047300499
B1346593923781N00728180WA0047300499
B1347003923781N00728181WA0047300499
B1347013923782N00728181WA0047300499
B1347023923782N00728182WA0047300499
B1347033923782N00728182WA0047300499
B1347043923783N00728183WA0047300499
B1347053923784N00728183WA0047300499
B1347063923784N00728183WA0047300499
B1347073923785N00728184WA0047300499
B1347083923785N00728184WA0047300499
B1347093923786N00728185WA0047300499
B1347103923786N00728185WA0047300499
B1347113923787N00728186WA0047300499
B1347123923788N00728186WA0047300499
B1347133923788N00728187WA0047300499
B1347143923789N00728187WA0047300499
B1347153923789N00728188WA0047300499
B1347163923790N00728188WA0047300499
B1347173923791N00728188WA0047300499
B1347183923792N00728188WA0047300499
B1347193923792N00728189WA0047300499
B1347203923793N00728189WA0047300499
B1347213923793N00728190WA0047300499
B1347223923794N00728190WA0047300499
B1347233923794N00728191WA0047300499
B1347243923794N00728191WA0047300499
B1347253923795N00728191WA0047300499
B1347263923795N00728192WA0047300499
B1347273923796N00728193WA0047300499
B1347283923796N00728193WA0047300499
B1347293923796N00728193WA0047300499
B1347303923796N00728193WA0047300499
B1347313923797N00728194WA0047300499
B1347323923797N00728194WA0047300499
B1347333923798N00728194WA0047300499
B1347343923798N00728195WA0047300499
B1347353923798N00728195WA0047300499
LXSX;C1;GM:1.2
LXSX;S1;TS:1717681217;TL:1717681655;AS:742;AL:499;AT:742;AB:498
LXSX;S1;XS:0;XD:1.74;SP:48.3;MC:0.6;MS:-2.6;NB:440
LXSX;S1;FL:2.6;TG:0;TC:0.0;AG:61;GM:1.2
LXSX;S1;X0:39.40083,-7.45905
LXSX;S1;X1:39.39973,-7.46015
LXSX;S1;X2:39.40268,-7.46785
LXSX;S1;X3:39.39606,-7.46952
LXSX;S1;X4:39.39662,-7.46990
GEBDE877FB735BC2B9E4814486B4F90F7
