AXSX005 SKYTRAXX
HFPLTPILOT:Sepp Bucher
HFGTYGLIDERTYPE:Niviuk Artik R
HFDTM100GPSDATUM:WGS-84
HFRFWFIRMWAREVERSION:202403311323
HFRHWHARDWAREVERSION:4.0
HFTZNTIMEZONE:+2.00
HFSITSITE:Norma
HFDTE150424
LXSX;I1;OAB:20240408;OOB:20240402
LXSX;I1;ID:114075
LXSX;I1;AC:1;CAT:C
B1348184135465N01257430EA0039600450
B1348194135465N01257430EA0039600450
B1348204135465N01257430EA0039600450
B1348214135465N01257430EA0039600450
B1348224135465N01257430EA0039600450
B1348234135465N01257430EA0039600450
B1348244135465N01257430EA0039600450
B1348254135465N01257429EA0039600450
B1348264135465N01257429EA0039500450
B1348274135465N01257429EA0039500450
B1348284135465N01257430EA0039500450
B1348294135465N01257429EA0039500450
B1348304135465N01257428EA0039400449
B1348314135465N01257426EA0039400449
B1348324135466N01257425EA0039400448
B1348334135466N01257423EA0039300447
B1348344135466N01257420EA0039100445
B1348354135466N01257417EA0039100446
B1348364135466N01257414EA0039000444
B1348374135466N01257410EA0038700442
B1348384135466N01257407EA0038600440
B1348394135466N01257403EA0038600440
B1348404135466N01257399EA0038400438
B1348414135466N01257395EA0038200437
B1348424135466N01257390EA0038000434
B1348434135465N01257385EA0038000434
B1348444135464N01257380EA0038100435
B1348454135461N01257377EA0038100436
B1348464135458N01257375EA0038100435
B1348474135454N01257375EA0037900433
B1348484135449N01257376EA0038000434
B1348494135445N01257376EA0038300437
B1348504135441N01257376EA0038500439
B1348514135439N01257376EA0038600440
B1348524135436N01257377EA0038500439
B1348534135432N01257379EA0038300437
B1348544135427N01257381EA0038000435
B1348554135422N01257382EA0037900434
B1348564135416N01257383EA0038000434
B1348574135411N01257383EA0038300437
B1348584135408N01257384EA0038600440
B1348594135405N01257384EA0038500439
B1349004135401N01257385EA0038200437
B1349014135396N01257386EA0038100435
B1349024135391N01257389EA0038000434
B1349034135385N01257391EA0038200436
B1349044135381N01257394EA0038400438
B1349054135378N01257397EA0038500439
B1349064135376N01257400EA0038400438
B1349074135372N01257403EA0038100436
B1349084135368N01257406EA0037900433
B1349094135363N01257409EA0037700431
B1349104135358N01257413EA0037700431
B1349114135354N01257418EA0037700432
B1349124135351N01257421EA0037800432
B1349134135347N01257425EA0037700431
B1349144135343N01257430EA0037600430
B1349154135339N01257436EA0037700431
B1349164135336N01257444EA0037800432
B1349174135334N01257451EA0037900434
B1349184135331N01257456EA0038200436
B1349194135329N01257460EA0038500439
B1349204135326N01257464EA0038700441
B1349214135324N01257470EA0038900443
B1349224135322N01257477EA0039200446
B1349234135321N01257483EA0039400448
B1349244135320N01257489EA0039600451
B1349254135317N01257492EA0039700452
B1349264135314N01257494EA0039700451
B1349274135311N01257494EA0039700451
B1349284135307N01257493EA0039700451
B1349294135305N01257488EA0039600451
B1349304135306N01257483EA0039600450
B1349314135309N01257479EA0039500450
B1349324135313N01257476EA0039700451
B1349334135319N01257473EA0039900453
B1349344135323N01257472EA0040200456
B1349354135328N01257471EA0040400458
B1349364135332N01257469EA0040600460
B1349374135337N01257468EA0040800462
B1349384135343N01257467EA0041000464
B1349394135348N01257465EA0041200466
B1349404135353N01257464EA0041300467
B1349414135359N01257462EA0041400468
B1349424135363N01257462EA0041400468
B1349434135369N01257460EA0041400468
B1349444135373N01257458EA0041400468
B1349454135378N01257455EA0041400468
B1349464135381N01257452EA0041400468
B1349474135385N01257450EA0041300468
B1349484135387N01257446EA0041200466
B1349494135389N01257441EA0041000464
B1349504135389N01257435EA0040800463
B1349514135387N01257429EA0040900463
B1349524135383N01257425EA0040900463
B1349534135378N01257425EA0040900464
B1349544135375N01257427EA0041100465
B1349554135372N01257430EA0041100465
B1349564135369N01257433EA0041200466
B1349574135366N01257438EA0041200466
B1349584135364N01257442EA0041300467
B1349594135361N01257447EA0041400468
B1350004135358N01257452EA0041400468
B1350014135357N01257458EA0041500469
B1350024135356N01257464EA0041600470
B1350034135354N01257470EA0041500469
B1350044135352N01257476EA0041500469
B1350054135349N01257483EA0041700472
B1350064135345N01257489EA0042100475
B1350074135342N01257493EA0042300477
B1350084135339N01257495EA0042200476
B1350094135336N01257496EA0042000474
B1350104135333N01257495EA0041800472
B1350114135330N01257492EA0041600470
B1350124135328N01257488EA0041400468
B1350134135329N01257482EA0041200466
B1350144135332N01257478EA0041100465
B1350154135336N01257474EA0041100464
B1350164135341N01257472EA0041100464
B1350174135345N01257470EA0041000464
B1350184135349N01257468EA0041000464
B1350194135353N01257466EA0040900463
B1350204135358N01257463EA0040700461
B1350214135362N01257458EA0040600460
B1350224135368N01257453EA0040600460
B1350234135373N01257447EA0040700461
B1350244135378N01257441EA0041000463
B1350254135382N01257436EA0041200466
B1350264135385N01257430EA0041400468
B1350274135386N01257425EA0041600470
B1350284135386N01257420EA0041800472
B1350294135384N01257416EA0041900472
B1350304135381N01257415EA0041900473
B1350314135377N01257416EA0042100474
B1350324135374N01257419EA0042200476
B1350334135371N01257423EA0042300477
B1350344135369N01257427EA0042600479
B1350354135365N01257431EA0042800482
B1350364135362N01257435EA0043100484
B1350374135359N01257439EA0043200485
B1350384135357N01257445EA0043300486
B1350394135355N01257452EA0043300487
B1350404135353N01257459EA0043400488
B1350414135351N01257464EA0043600490
B1350424135348N01257466EA0043700491
B1350434135346N01257463EA0043500488
B1350444135344N01257458EA0043300486
B1350454135346N01257450EA0043200486
B1350464135349N01257444EA0043200486
B1350474135353N01257439EA0043300487
B1350484135359N01257436EA0043500488
B1350494135364N01257433EA0043600490
B1350504135370N01257432EA0043700491
B1350514135376N01257431EA0043800492
B1350524135383N01257430EA0044000493
B1350534135390N01257430EA0044200496
B1350544135396N01257428EA0044500499
B1350554135401N01257425EA0044700500
B1350564135405N01257420EA0044700500
B1350574135408N01257415EA0044700500
B1350584135411N01257410EA0044800502
B1350594135412N01257405EA0044900503
B1351004135412N01257401EA0044900503
B1351014135411N01257397EA0044900502
B1351024135409N01257392EA0044900503
B1351034135406N01257388EA0045000503
B1351044135402N01257387EA0045000504
B1351054135399N01257391EA0045000503
B1351064135396N01257397EA0045100505
B1351074135394N01257404EA0045400508
B1351084135393N01257410EA0045800512
B1351094135393N01257416EA0046100515
B1351104135392N01257421EA0046300517
B1351114135392N01257427EA0046400518
B1351124135391N01257433EA0046500519
B1351134135390N01257440EA0046600520
B1351144135389N01257448EA0046700521
B1351154135386N01257454EA0046800522
B1351164135384N01257460EA0046900523
B1351174135381N01257466EA0047000524
B1351184135379N01257472EA0047200525
B1351194135378N01257478EA0047200526
B1351204135377N01257485EA0047300527
B1351214135376N01257490EA0047300526
B1351224135372N01257493EA0047100525
B1351234135368N01257493EA0047000523
B1351244135364N01257491EA0046900523
B1351254135361N01257487EA0047000523
B1351264135360N01257481EA0047000524
B1351274135360N01257476EA0047100525
B1351284135363N01257471EA0047100525
B1351294135366N01257466EA0047200526
B1351304135371N01257462EA0047300526
B1351314135376N01257458EA0047300527
B1351324135382N01257455EA0047400528
B1351334135387N01257451EA0047600529
B1351344135393N01257447EA0047800531
B1351354135398N01257444EA0047900532
B1351364135404N01257441EA0047900533
B1351374135410N01257438EA0048000534
B1351384135416N01257434EA0048100534
B1351394135422N01257431EA0048100535
B1351404135429N01257428EA0048100535
B1351414135436N01257425EA0048400537
B1351424135442N01257423EA0048500538
B1351434135449N01257420EA0048600540
B1351444135455N01257417EA0048700541
B1351454135461N01257414EA0048900542
B1351464135466N01257410EA0048900543
B1351474135470N01257406EA0048800542
B1351484135474N01257402EA0048600539
B1351494135479N01257398EA0048300537
B1351504135484N01257393EA0048200535
B1351514135487N01257388EA0048000534
B1351524135490N01257382EA0047900532
B1351534135490N01257376EA0047700531
B1351544135490N01257370EA0047500529
B1351554135487N01257365EA0047400527
B1351564135485N01257361EA0047200525
B1351574135481N01257359EA0047000523
B1351584135477N01257359EA0046700521
B1351594135473N01257361EA0046500519
B1352004135468N01257363EA0046400517
B1352014135464N01257366EA0046200516
B1352024135460N01257368EA0046100515
B1352034135455N01257371EA0046000513
B1352044135451N01257374EA0045900512
B1352054135447N01257378EA0045800511
B1352064135442N01257382EA0045700511
B1352074135438N01257387EA0045700510
B1352084135434N01257392EA0045700511
B1352094135430N01257397EA0045800512
B1352104135426N01257402EA0045700511
B1352114135422N01257407EA0045600509
B1352124135419N01257412EA0045400508
B1352134135414N01257417EA0045200506
B1352144135410N01257422EA0045200505
B1352154135406N01257427EA0045200505
B1352164135402N01257431EA0045200506
B1352174135398N01257436EA0045200506
B1352184135395N01257441EA0045100505
B1352194135392N01257445EA0045100504
B1352204135387N01257450EA0045000504
B1352214135384N01257454EA0045100504
B1352224135379N01257459EA0045200506
B1352234135376N01257465EA0045300507
B1352244135374N01257470EA0045400508
B1352254135371N01257475EA0045400508
B1352264135369N01257480EA0045300507
B1352274135366N01257486EA0045100505
B1352284135363N01257493EA0044900503
B1352294135361N01257501EA0044700501
B1352304135359N01257509EA0044600500
B1352314135357N01257518EA0044600500
B1352324135356N01257526EA0044600500
B1352334135354N01257533EA0044600500
B1352344135353N01257540EA0044600499
B1352354135353N01257548EA0044500498
B1352364135352N01257555EA0044400497
B1352374135351N01257564EA0044300496
B1352384135351N01257572EA0044300497
B1352394135351N01257580EA0044400497
B1352404135351N01257587EA0044400497
B1352414135351N01257595EA0044300497
B1352424135351N01257603EA0044200496
B1352434135352N01257610EA0044200495
B1352444135353N01257618EA0044100495
B1352454135353N01257626EA0044100495
B1352464135353N01257633EA0044100494
B1352474135353N01257641EA0044000494
B1352484135353N01257648EA0043900493
B1352494135354N01257657EA0043900492
B1352504135354N01257665EA0043900492
B1352514135354N01257673EA0043900493
B1352524135354N01257682EA0044000493
B1352534135353N01257690EA0044000493
B1352544135353N01257698EA0044000494
B1352554135353N01257706EA0044000493
B1352564135352N01257714EA0044000493
B1352574135351N01257722EA0044000493
B1352584135350N01257730EA0044000494
B1352594135349N01257738EA0044000494
B1353004135349N01257746EA0044000494
B1353014135349N01257754EA0044000493
B1353024135349N01257761EA0043900493
B1353034135348N01257767EA0043900492
B1353044135346N01257774EA0043900492
B1353054135344N01257780EA0043900492
B1353064135342N01257786EA0043900492
B1353074135340N01257792EA0043900493
B1353084135337N01257798EA0043900493
B1353094135335N01257803EA0044000494
B1353104135332N01257808EA0044100495
B1353114135330N01257813EA0044200496
B1353124135327N01257818EA0044200496
B1353134135324N01257823EA0044200495
B1353144135321N01257827EA0044100494
B1353154135317N01257833EA0044000494
B1353164135313N01257840EA0044100495
B1353174135309N01257846EA0044300496
B1353184135306N01257851EA0044500498
B1353194135303N01257856EA0044600499
B1353204135300N01257860EA0044600500
B1353214135298N01257864EA0044600499
B1353224135295N01257869EA0044500499
B1353234135292N01257874EA0044400497
B1353244135288N01257878EA0044300496
B1353254135285N01257883EA0044200496
B1353264135281N01257888EA0044200496
B1353274135279N01257892EA0044100495
B1353284135275N01257897EA0044000494
B1353294135273N01257900EA0044000493
B1353304135269N01257902EA0043900492
B1353314135266N01257901EA0043700491
B1353324135263N01257897EA0043600489
B1353334135261N01257891EA0043500488
B1353344135262N01257885EA0043400488
B1353354135265N01257879EA0043400488
B1353364135268N01257874EA0043400488
B1353374135272N01257869EA0043400487
B1353384135276N01257864EA0043300486
B1353394135280N01257859EA0043200486
B1353404135284N01257853EA0043100485
B1353414135287N01257847EA0043100485
B1353424135290N01257841EA0043300487
B1353434135293N01257835EA0043400488
B1353444135294N01257829EA0043600490
B1353454135296N01257824EA0043800492
B1353464135298N01257819EA0043900493
B1353474135300N01257814EA0044000494
B1353484135302N01257809EA0044100495
B1353494135303N01257803EA0044300496
B1353504135303N01257798EA0044300497
B1353514135301N01257794EA0044400497
B1353524135297N01257791EA0044400498
B1353534135294N01257789EA0044500499
B1353544135290N01257790EA0044500499
B1353554135286N01257792EA0044600499
B1353564135283N01257796EA0044600499
B1353574135280N01257802EA0044600499
B1353584135278N01257810EA0044700500
B1353594135277N01257817EA0044800502
B1354004135275N01257823EA0044900502
B1354014135273N01257828EA0044900503
B1354024135270N01257831EA0044900503
B1354034135267N01257832EA0044900503
B1354044135264N01257831EA0044900502
B1354054135261N01257828EA0044800502
B1354064135259N01257824EA0044800502
B1354074135259N01257818EA0044900503
B1354084135260N01257812EA0045000504
B1354094135263N01257806EA0045200505
B1354104135268N01257803EA0045200506
B1354114135274N01257801EA0045300507
B1354124135280N01257802EA0045400508
B1354134135285N01257806EA0045400507
B1354144135290N01257811EA0045300507
B1354154135292N01257818EA0045300507
B1354164135294N01257827EA0045400507
B1354174135293N01257835EA0045500509
B1354184135292N01257842EA0045700510
B1354194135288N01257847EA0045800511
B1354204135286N01257851EA0045800511
B1354214135283N01257853EA0045800511
B1354224135280N01257854EA0045700511
B1354234135277N01257854EA0045700510
B1354244135274N01257851EA0045500508
B1354254135272N01257846EA0045300506
B1354264135272N01257840EA0045200506
B1354274135272N01257833EA0045300506
B1354284135274N01257827EA0045500509
B1354294135276N01257821EA0045800512
B1354304135278N01257816EA0046100514
B1354314135280N01257811EA0046200515
B1354324135281N01257806EA0046200515
B1354334135283N01257801EA0046200515
B1354344135284N01257795EA0046200515
B1354354135284N01257789EA0046100515
B1354364135282N01257784EA0046000514
B1354374135280N01257780EA0046000513
B1354384135277N01257779EA0045900513
B1354394135274N01257779EA0045800512
B1354404135270N01257780EA0045800511
B1354414135266N01257784EA0045700511
B1354424135263N01257789EA0045600510
B1354434135261N01257795EA0045600510
B1354444135260N01257802EA0045600509
B1354454135259N01257810EA0045600509
B1354464135259N01257818EA0045700510
B1354474135259N01257827EA0045800512
B1354484135258N01257835EA0046000514
B1354494135256N01257842EA0046200515
B1354504135255N01257849EA0046300517
B1354514135254N01257855EA0046400518
B1354524135252N01257861EA0046400518
B1354534135250N01257867EA0046400517
B1354544135248N01257873EA0046300516
B1354554135246N01257879EA0046200515
B1354564135244N01257886EA0046100514
B1354574135242N01257893EA0046000514
B1354584135239N01257900EA0046000514
B1354594135237N01257907EA0046100514
B1355004135234N01257914EA0046100514
B1355014135232N01257920EA0046000514
B1355024135229N01257926EA0046000513
B1355034135226N01257932EA0046000513
B1355044135223N01257938EA0046000513
B1355054135220N01257943EA0046000513
B1355064135217N01257949EA0045900512
B1355074135215N01257955EA0045800512
B1355084135212N01257961EA0045800511
B1355094135209N01257967EA0045700511
B1355104135206N01257973EA0045700511
B1355114135204N01257979EA0045700510
B1355124135202N01257985EA0045600509
B1355134135199N01257991EA0045500508
B1355144135197N01257998EA0045400507
B1355154135194N01258004EA0045300507
B1355164135192N01258011EA0045200506
B1355174135190N01258017EA0045100505
B1355184135188N01258024EA0045000504
B1355194135185N01258030EA0044900503
B1355204135182N01258036EA0044800501
B1355214135179N01258043EA0044700501
B1355224135176N01258050EA0044600500
B1355234135173N01258056EA0044500499
B1355244135170N01258062EA0044400498
B1355254135167N01258068EA0044400497
B1355264135164N01258074EA0044300497
B1355274135161N01258081EA0044200496
B1355284135159N01258086EA0044200495
B1355294135155N01258092EA0044100494
B1355304135152N01258097EA0044000493
B1355314135149N01258103EA0043800492
B1355324135146N01258110EA0043700490
B1355334135143N01258116EA0043600489
B1355344135139N01258121EA0043500489
B1355354135135N01258127EA0043500489
B1355364135132N01258132EA0043500488
B1355374135129N01258137EA0043500488
B1355384135126N01258142EA0043400487
B1355394135123N01258148EA0043300487
B1355404135119N01258153EA0043300487
B1355414135116N01258158EA0043300486
B1355424135113N01258164EA0043300486
B1355434135110N01258169EA0043200486
B1355444135106N01258175EA0043200486
B1355454135102N01258181EA0043200485
B1355464135099N01258187EA0043200486
B1355474135095N01258194EA0043300486
B1355484135092N01258200EA0043300486
B1355494135090N01258206EA0043200486
B1355504135087N01258211EA0043100484
B1355514135083N01258217EA0042900483
B1355524135081N01258223EA0042800481
B1355534135078N01258229EA0042700480
B1355544135075N01258235EA0042600479
B1355554135072N01258240EA0042600479
B1355564135069N01258245EA0042700480
B1355574135067N01258251EA0042700481
B1355584135065N01258257EA0042800482
B1355594135064N01258263EA0042900483
B1356004135062N01258269EA0043100485
B1356014135060N01258274EA0043300486
B1356024135059N01258278EA0043400488
B1356034135057N01258282EA0043500488
B1356044135054N01258286EA0043500488
B1356054135052N01258288EA0043500488
B1356064135049N01258290EA0043500488
B1356074135045N01258288EA0043400488
B1356084135043N01258284EA0043300487
B1356094135041N01258277EA0043200486
B1356104135042N01258268EA0043100485
B1356114135045N01258261EA0043100485
B1356124135049N01258256EA0043200486
B1356134135055N01258253EA0043400487
B1356144135060N01258252EA0043400488
B1356154135066N01258251EA0043500488
B1356164135072N01258251EA0043500489
B1356174135078N01258250EA0043500489
B1356184135084N01258249EA0043400488
B1356194135090N01258246EA0043300486
B1356204135094N01258241EA0043200485
B1356214135097N01258236EA0043100484
B1356224135098N01258232EA0042900482
B1356234135099N01258227EA0042700481
B1356244135099N01258222EA0042500479
B1356254135098N01258217EA0042300477
B1356264135095N01258212EA0042200475
B1356274135092N01258210EA0042100475
B1356284135088N01258209EA0042100474
B1356294135085N01258210EA0042100474
B1356304135082N01258212EA0042100474
B1356314135080N01258215EA0042200475
B1356324135077N01258219EA0042200475
B1356334135076N01258225EA0042200475
B1356344135075N01258231EA0042200475
B1356354135075N01258237EA0042200476
B1356364135074N01258242EA0042300477
B1356374135074N01258247EA0042400478
B1356384135073N01258252EA0042600479
B1356394135072N01258258EA0042600480
B1356404135070N01258263EA0042700480
B1356414135069N01258268EA0042700481
B1356424135067N01258272EA0042700481
B1356434135065N01258277EA0042700481
B1356444135064N01258281EA0042700481
B1356454135061N01258284EA0042700481
B1356464135058N01258286EA0042700481
B1356474135055N01258285EA0042600480
B1356484135052N01258281EA0042500479
B1356494135050N01258275EA0042400477
B1356504135051N01258267EA0042300476
B1356514135054N01258260EA0042200476
B1356524135058N01258253EA0042200476
B1356534135062N01258247EA0042200476
B1356544135065N01258241EA0042300476
B1356554135070N01258234EA0042400477
B1356564135074N01258228EA0042600479
B1356574135079N01258223EA0042700481
B1356584135083N01258219EA0042900482
B1356594135087N01258215EA0043000483
B1357004135089N01258211EA0042900483
B1357014135089N01258205EA0042700481
B1357024135087N01258199EA0042600479
B1357034135083N01258194EA0042600480
B1357044135080N01258191EA0042700481
B1357054135075N01258190EA0042800481
B1357064135072N01258191EA0042800481
B1357074135067N01258193EA0042800481
B1357084135064N01258196EA0042700481
B1357094135060N01258200EA0042800481
B1357104135057N01258203EA0042800482
B1357114135053N01258206EA0042900482
B1357124135050N01258209EA0043000483
B1357134135048N01258213EA0043000484
B1357144135047N01258218EA0043100484
B1357154135047N01258224EA0043100484
B1357164135046N01258229EA0043000484
B1357174135046N01258235EA0043000483
B1357184135045N01258241EA0042900483
B1357194135045N01258248EA0042900482
B1357204135045N01258255EA0042800482
B1357214135044N01258261EA0042700481
B1357224135043N01258267EA0042600479
B1357234135041N01258273EA0042400477
B1357244135037N01258278EA0042200476
B1357254135034N01258283EA0042100474
B1357264135030N01258287EA0042000473
B1357274135026N01258290EA0041900472
B1357284135022N01258293EA0041800471
B1357294135018N01258296EA0041600470
B1357304135014N01258299EA0041400468
B1357314135010N01258301EA0041300467
B1357324135006N01258304EA0041200465
B1357334135002N01258308EA0041100464
B1357344134999N01258311EA0041000464
B1357354134996N01258314EA0040900463
B1357364134992N01258316EA0040800462
B1357374134988N01258318EA0040800462
B1357384134984N01258320EA0040800461
B1357394134981N01258323EA0040800462
B1357404134977N01258325EA0040800462
B1357414134974N01258327EA0040900462
B1357424134970N01258329EA0040900462
B1357434134967N01258331EA0040900462
B1357444134964N01258332EA0040800462
B1357454134961N01258334EA0040700461
B1357464134958N01258337EA0040600460
B1357474134954N01258340EA0040500459
B1357484134951N01258344EA0040500459
B1357494134948N01258347EA0040500459
B1357504134945N01258351EA0040600459
B1357514134943N01258355EA0040600459
B1357524134941N01258359EA0040500459
B1357534134938N01258363EA0040400458
B1357544134936N01258368EA0040400457
B1357554134933N01258373EA0040300457
B1357564134930N01258378EA0040300456
B1357574134928N01258384EA0040300456
B1357584134926N01258390EA0040300456
B1357594134923N01258394EA0040200455
B1358004134919N01258396EA0040000453
B1358014134915N01258395EA0039800451
B1358024134911N01258390EA0039600449
B1358034134909N01258384EA0039400448
B1358044134910N01258376EA0039300446
B1358054134912N01258370EA0039200446
B1358064134916N01258365EA0039200445
B1358074134920N01258360EA0039200445
B1358084134923N01258356EA0039200445
B1358094134927N01258351EA0039200445
B1358104134931N01258346EA0039100444
B1358114134936N01258341EA0039000444
B1358124134941N01258337EA0038900443
B1358134134946N01258333EA0038800442
B1358144134951N01258329EA0038700441
B1358154134956N01258324EA0038600440
B1358164134961N01258319EA0038500439
B1358174134967N01258314EA0038400438
B1358184134972N01258309EA0038400438
B1358194134976N01258304EA0038400437
B1358204134980N01258299EA0038300437
B1358214134984N01258293EA0038200436
B1358224134988N01258288EA0038200435
B1358234134993N01258283EA0038100435
B1358244134997N01258277EA0038000434
B1358254135002N01258272EA0038000433
B1358264135006N01258267EA0037900432
B1358274135011N01258263EA0037800431
B1358284135015N01258258EA0037700430
B1358294135020N01258253EA0037600429
B1358304135025N01258247EA0037400428
B1358314135029N01258242EA0037300427
B1358324135034N01258237EA0037200426
B1358334135040N01258232EA0037100425
B1358344135045N01258226EA0037000424
B1358354135049N01258219EA0036900423
B1358364135054N01258213EA0036800422
B1358374135059N01258207EA0036800421
B1358384135064N01258201EA0036700420
B1358394135068N01258195EA0036600419
B1358404135072N01258188EA0036500419
B1358414135076N01258181EA0036500418
B1358424135080N01258174EA0036500418
B1358434135084N01258167EA0036500418
B1358444135088N01258160EA0036400418
B1358454135093N01258153EA0036500419
B1358464135097N01258147EA0036600419
B1358474135101N01258141EA0036700420
B1358484135105N01258136EA0036700421
B1358494135109N01258130EA0036700420
B1358504135113N01258124EA0036600420
B1358514135117N01258117EA0036500419
B1358524135121N01258111EA0036500419
B1358534135125N01258104EA0036500419
B1358544135130N01258098EA0036600420
B1358554135133N01258091EA0036700420
B1358564135136N01258085EA0036700421
B1358574135139N01258079EA0036800422
B1358584135142N01258072EA0036900422
B1358594135146N01258065EA0037100424
B1359004135149N01258060EA0037200426
B1359014135152N01258055EA0037400427
B1359024135155N01258051EA0037400428
B1359034135159N01258047EA0037400428
B1359044135163N01258043EA0037400428
B1359054135167N01258038EA0037500428
B1359064135172N01258033EA0037700430
B1359074135176N01258028EA0037900432
B1359084135178N01258023EA0038000434
B1359094135178N01258018EA0038000434
B1359104135178N01258012EA0038000433
B1359114135175N01258006EA0038000434
B1359124135172N01258003EA0038100435
B1359134135168N01258001EA0038200435
B1359144135163N01258003EA0038200436
B1359154135159N01258006EA0038400438
B1359164135156N01258010EA0038700440
B1359174135154N01258015EA0038900443
B1359184135152N01258020EA0039100444
B1359194135151N01258026EA0039100444
B1359204135151N01258032EA0039000444
B1359214135150N01258039EA0039100444
B1359224135149N01258046EA0039300447
B1359234135147N01258051EA0039500448
B1359244135143N01258053EA0039500449
B1359254135140N01258053EA0039400448
B1359264135136N01258051EA0039400448
B1359274135133N01258047EA0039400448
B1359284135130N01258041EA0039400448
B1359294135130N01258034EA0039400448
B1359304135132N01258027EA0039400447
B1359314135136N01258021EA0039300447
B1359324135142N01258016EA0039300446
B1359334135148N01258014EA0039300446
B1359344135154N01258014EA0039300446
B1359354135160N01258014EA0039300447
B1359364135166N01258013EA0039300447
B1359374135173N01258011EA0039400447
B1359384135179N01258008EA0039500448
B1359394135185N01258004EA0039700450
B1359404135190N01258000EA0039800452
B1359414135193N01257996EA0039800452
B1359424135194N01257990EA0039700451
B1359434135193N01257984EA0039700451
B1359444135192N01257978EA0039700450
B1359454135190N01257973EA0039700451
B1359464135187N01257970EA0039900452
B1359474135184N01257970EA0039900453
B1359484135180N01257971EA0039900453
B1359494135177N01257974EA0040000453
B1359504135175N01257980EA0040000454
B1359514135175N01257987EA0040100454
B1359524135177N01257994EA0040200455
B1359534135179N01258001EA0040300457
B1359544135181N01258007EA0040400457
B1359554135180N01258013EA0040400457
B1359564135179N01258018EA0040400458
B1359574135176N01258023EA0040500459
B1359584135173N01258025EA0040500459
B1359594135169N01258026EA0040500459
B1400004135166N01258023EA0040500459
B1400014135163N01258019EA0040400458
B1400024135162N01258013EA0040400457
B1400034135162N01258006EA0040500458
B1400044135163N01257999EA0040600459
B1400054135167N01257994EA0040600460
B1400064135172N01257989EA0040700460
B1400074135177N01257986EA0040700460
B1400084135183N01257985EA0040700461
B1400094135190N01257985EA0040700461
B1400104135196N01257985EA0040800461
B1400114135202N01257984EA0040900462
B1400124135209N01257981EA0040900462
B1400134135214N01257977EA0040900462
B1400144135218N01257971EA0041000463
B1400154135222N01257966EA0041200465
B1400164135224N01257960EA0041300467
B1400174135224N01257955EA0041400468
B1400184135224N01257950EA0041600469
B1400194135221N01257946EA0041700471
B1400204135218N01257944EA0041800471
B1400214135213N01257944EA0041900473
B1400224135210N01257947EA0042000473
B1400234135208N01257952EA0042000474
B1400244135205N01257958EA0042100475
B1400254135204N01257963EA0042200475
B1400264135202N01257969EA0042200476
B1400274135200N01257974EA0042300476
B1400284135197N01257979EA0042300476
B1400294135195N01257985EA0042300476
B1400304135193N01257991EA0042300477
B1400314135192N01257997EA0042300477
B1400324135190N01258003EA0042400477
B1400334135188N01258009EA0042400478
B1400344135186N01258014EA0042500478
B1400354135184N01258020EA0042500478
B1400364135183N01258027EA0042500478
B1400374135181N01258033EA0042500479
B1400384135179N01258039EA0042500479
B1400394135177N01258044EA0042500479
B1400404135173N01258049EA0042500479
B1400414135171N01258054EA0042600480
B1400424135168N01258059EA0042700480
B1400434135166N01258064EA0042700480
B1400444135164N01258069EA0042700480
B1400454135162N01258075EA0042700480
B1400464135160N01258080EA0042700480
B1400474135157N01258085EA0042600480
B1400484135155N01258091EA0042500479
B1400494135153N01258096EA0042500478
B1400504135151N01258102EA0042400478
B1400514135149N01258106EA0042400477
B1400524135146N01258111EA0042400477
B1400534135144N01258116EA0042300477
B1400544135141N01258122EA0042300477
B1400554135139N01258127EA0042300476
B1400564135137N01258132EA0042200476
B1400574135135N01258136EA0042100474
B1400584135132N01258141EA0042000473
B1400594135130N01258147EA0041900472
B1401004135126N01258152EA0041800472
B1401014135124N01258156EA0041900472
B1401024135120N01258158EA0041800472
B1401034135116N01258158EA0041800471
B1401044135113N01258157EA0041700470
B1401054135110N01258153EA0041700470
B1401064135108N01258148EA0041600470
B1401074135108N01258142EA0041600469
B1401084135109N01258135EA0041600469
B1401094135111N01258129EA0041500469
B1401104135115N01258123EA0041400468
B1401114135118N01258117EA0041400467
B1401124135123N01258112EA0041300467
B1401134135127N01258106EA0041300467
B1401144135131N01258101EA0041200466
B1401154135136N01258096EA0041200465
B1401164135140N01258090EA0041200465
B1401174135144N01258085EA0041200465
B1401184135148N01258080EA0041200465
B1401194135153N01258075EA0041100465
B1401204135157N01258071EA0041100465
B1401214135162N01258067EA0041100464
B1401224135167N01258062EA0041000464
B1401234135171N01258056EA0040900463
B1401244135174N01258051EA0040900462
B1401254135178N01258045EA0040800462
B1401264135183N01258040EA0040800461
B1401274135187N01258035EA0040700461
B1401284135191N01258030EA0040600460
B1401294135195N01258024EA0040600460
B1401304135199N01258019EA0040600459
B1401314135203N01258013EA0040600459
B1401324135206N01258007EA0040600459
B1401334135210N01258001EA0040600459
B1401344135213N01257996EA0040500459
B1401354135216N01257990EA0040500458
B1401364135219N01257984EA0040400457
B1401374135222N01257978EA0040400457
B1401384135225N01257972EA0040300456
B1401394135229N01257965EA0040200456
B1401404135232N01257959EA0040100455
B1401414135236N01257953EA0040100454
B1401424135240N01257947EA0040000454
B1401434135243N01257941EA0040100454
B1401444135247N01257936EA0040200455
B1401454135251N01257931EA0040300457
B1401464135256N01257926EA0040400457
B1401474135261N01257922EA0040400458
B1401484135265N01257917EA0040500458
B1401494135270N01257911EA0040400458
B1401504135274N01257906EA0040300457
B1401514135277N01257900EA0040300456
B1401524135280N01257894EA0040200456
B1401534135280N01257888EA0040200456
B1401544135279N01257883EA0040200456
B1401554135276N01257879EA0040200456
B1401564135273N01257878EA0040300456
B1401574135270N01257878EA0040400457
B1401584135267N01257880EA0040400458
B1401594135264N01257882EA0040500458
B1402004135261N01257886EA0040500458
B1402014135259N01257892EA0040500459
B1402024135257N01257899EA0040600459
B1402034135256N01257906EA0040700461
B1402044135254N01257912EA0040900462
B1402054135252N01257918EA0041100464
B1402064135251N01257923EA0041200466
B1402074135250N01257929EA0041300467
B1402084135249N01257935EA0041300467
B1402094135248N01257941EA0041400467
B1402104135246N01257947EA0041400468
B1402114135244N01257952EA0041400468
B1402124135241N01257957EA0041500468
B1402134135239N01257961EA0041500469
B1402144135236N01257965EA0041600469
B1402154135233N01257969EA0041600470
B1402164135230N01257972EA0041700470
B1402174135226N01257972EA0041600470
B1402184135223N01257969EA0041600469
B1402194135221N01257965EA0041600469
B1402204135221N01257959EA0041600469
B1402214135222N01257953EA0041600470
B1402224135225N01257948EA0041700471
B1402234135230N01257943EA0041800471
B1402244135235N01257940EA0041900473
B1402254135241N01257938EA0042000474
B1402264135248N01257936EA0042100475
B1402274135253N01257932EA0042200475
B1402284135259N01257928EA0042200476
B1402294135263N01257922EA0042300477
B1402304135267N01257916EA0042500478
B1402314135268N01257911EA0042600480
B1402324135268N01257906EA0042700480
B1402334135266N01257902EA0042600480
B1402344135263N01257900EA0042500479
B1402354135259N01257899EA0042500478
B1402364135256N01257900EA0042500479
B1402374135252N01257905EA0042500478
B1402384135249N01257912EA0042400478
B1402394135247N01257919EA0042500478
B1402404135246N01257928EA0042600480
B1402414135245N01257935EA0042800481
B1402424135244N01257942EA0042900482
B1402434135243N01257949EA0043000483
B1402444135241N01257956EA0043000483
B1402454135240N01257962EA0043000484
B1402464135238N01257969EA0043100484
B1402474135235N01257975EA0043100485
B1402484135233N01257981EA0043200485
B1402494135231N01257986EA0043300486
B1402504135228N01257992EA0043400487
B1402514135225N01257997EA0043600489
B1402524135223N01258002EA0043700491
B1402534135221N01258006EA0043800492
B1402544135219N01258009EA0043900492
B1402554135216N01258012EA0043900492
B1402564135213N01258013EA0043800491
B1402574135210N01258012EA0043600489
B1402584135207N01258008EA0043500488
B1402594135205N01258002EA0043400487
B1403004135206N01257995EA0043300487
B1403014135209N01257988EA0043400487
B1403024135212N01257982EA0043400487
B1403034135217N01257977EA0043400488
B1403044135221N01257973EA0043400488
B1403054135226N01257969EA0043400488
B1403064135231N01257964EA0043400488
B1403074135236N01257959EA0043500488
B1403084135241N01257954EA0043600489
B1403094135246N01257950EA0043700490
B1403104135251N01257945EA0043800491
B1403114135255N01257941EA0043800492
B1403124135259N01257937EA0043800492
B1403134135262N01257932EA0043900492
B1403144135265N01257927EA0043900492
B1403154135267N01257921EA0043800492
B1403164135267N01257916EA0043800492
B1403174135267N01257912EA0043900492
B1403184135266N01257908EA0043900493
B1403194135264N01257906EA0043900493
B1403204135261N01257905EA0043900493
B1403214135258N01257906EA0043900493
B1403224135254N01257909EA0043900493
B1403234135251N01257914EA0044000493
B1403244135248N01257921EA0044000493
B1403254135247N01257928EA0044000494
B1403264135246N01257935EA0044100494
B1403274135243N01257942EA0044200496
B1403284135241N01257948EA0044300496
B1403294135239N01257955EA0044400497
B1403304135237N01257961EA0044500498
B1403314135234N01257967EA0044500499
B1403324135232N01257973EA0044500499
B1403334135229N01257979EA0044600499
B1403344135226N01257986EA0044600499
B1403354135224N01257992EA0044700500
B1403364135221N01257998EA0044800501
B1403374135218N01258004EA0044900502
B1403384135216N01258010EA0045000503
B1403394135214N01258015EA0045000504
B1403404135212N01258020EA0045100504
B1403414135210N01258025EA0045100504
B1403424135208N01258029EA0045100504
B1403434135204N01258031EA0045000504
B1403444135200N01258031EA0045000503
B1403454135197N01258030EA0045000503
B1403464135194N01258026EA0044900503
B1403474135193N01258021EA0044900503
B1403484135194N01258015EA0044800502
B1403494135196N01258009EA0044800501
B1403504135200N01258003EA0044800501
B1403514135204N01257999EA0044800501
B1403524135209N01257994EA0044800501
B1403534135215N01257990EA0044900502
B1403544135220N01257986EA0045000504
B1403554135225N01257982EA0045100505
B1403564135230N01257978EA0045200505
B1403574135235N01257973EA0045200506
B1403584135240N01257968EA0045300507
B1403594135244N01257963EA0045400508
B1404004135247N01257957EA0045600509
B1404014135249N01257952EA0045600510
B1404024135248N01257947EA0045600509
B1404034135247N01257943EA0045600510
B1404044135243N01257940EA0045700511
B1404054135240N01257939EA0045800511
B1404064135235N01257942EA0045800512
B1404074135232N01257946EA0045900512
B1404084135230N01257951EA0046000513
B1404094135228N01257957EA0046000513
B1404104135226N01257962EA0046000514
B1404114135224N01257968EA0046100514
B1404124135222N01257974EA0046100514
B1404134135220N01257982EA0046200516
B1404144135218N01257989EA0046400517
B1404154135216N01257995EA0046500518
B1404164135213N01258001EA0046600520
B1404174135210N01258006EA0046700521
B1404184135207N01258011EA0046900522
B1404194135204N01258014EA0046900522
B1404204135201N01258015EA0046800522
B1404214135198N01258015EA0046800521
B1404224135195N01258012EA0046700521
B1404234135193N01258008EA0046700520
B1404244135194N01258002EA0046600520
B1404254135197N01257996EA0046600520
B1404264135200N01257990EA0046700520
B1404274135205N01257985EA0046700520
B1404284135209N01257980EA0046700520
B1404294135215N01257976EA0046700521
B1404304135220N01257972EA0046800521
B1404314135225N01257967EA0046800521
B1404324135230N01257963EA0046800521
B1404334135235N01257958EA0046800522
B1404344135240N01257953EA0046900522
B1404354135245N01257948EA0047000523
B1404364135249N01257943EA0047000524
B1404374135254N01257938EA0047100524
B1404384135258N01257932EA0047200525
B1404394135261N01257926EA0047100525
B1404404135261N01257920EA0047000524
B1404414135259N01257915EA0046900522
B1404424135256N01257912EA0046800522
B1404434135252N01257910EA0046800521
B1404444135248N01257910EA0046700520
B1404454135244N01257912EA0046600519
B1404464135240N01257916EA0046500518
B1404474135238N01257922EA0046400518
B1404484135236N01257929EA0046300517
B1404494135235N01257937EA0046400517
B1404504135233N01257945EA0046400518
B1404514135231N01257952EA0046600519
B1404524135229N01257958EA0046700520
B1404534135228N01257965EA0046800521
B1404544135227N01257972EA0046900522
B1404554135225N01257978EA0046900522
B1404564135223N01257985EA0046900523
B1404574135220N01257991EA0047000523
B1404584135218N01257997EA0047100524
B1404594135216N01258003EA0047200525
B1405004135214N01258009EA0047300526
B1405014135213N01258014EA0047400527
B1405024135211N01258020EA0047400527
B1405034135209N01258026EA0047400528
B1405044135208N01258032EA0047400527
B1405054135205N01258038EA0047400527
B1405064135203N01258045EA0047300527
B1405074135201N01258050EA0047300526
B1405084135198N01258054EA0047200525
B1405094135194N01258055EA0047100524
B1405104135191N01258054EA0046900522
B1405114135188N01258050EA0046800521
B1405124135187N01258044EA0046700520
B1405134135189N01258038EA0046600519
B1405144135191N01258033EA0046500519
B1405154135193N01258027EA0046500518
B1405164135197N01258022EA0046500518
B1405174135200N01258016EA0046500518
B1405184135205N01258010EA0046500518
B1405194135209N01258005EA0046400518
B1405204135213N01257999EA0046600519
B1405214135217N01257993EA0046800521
B1405224135221N01257988EA0046900523
B1405234135226N01257983EA0047100524
B1405244135231N01257978EA0047200525
B1405254135236N01257973EA0047200526
B1405264135241N01257968EA0047300526
B1405274135246N01257962EA0047400527
B1405284135250N01257957EA0047400528
B1405294135254N01257953EA0047400527
B1405304135258N01257948EA0047200526
B1405314135262N01257944EA0047000524
B1405324135266N01257939EA0046800521
B1405334135270N01257934EA0046600519
B1405344135274N01257928EA0046500518
B1405354135278N01257922EA0046500518
B1405364135282N01257917EA0046500518
B1405374135286N01257912EA0046500518
B1405384135289N01257907EA0046400518
B1405394135293N01257902EA0046300517
B1405404135297N01257896EA0046200515
B1405414135301N01257890EA0046100514
B1405424135305N01257884EA0046000513
B1405434135309N01257879EA0046000514
B1405444135313N01257874EA0046100514
B1405454135316N01257869EA0046000514
B1405464135319N01257864EA0045900512
B1405474135322N01257858EA0045700510
B1405484135326N01257852EA0045500509
B1405494135330N01257846EA0045500508
B1405504135333N01257840EA0045500508
B1405514135337N01257835EA0045400508
B1405524135340N01257830EA0045300507
B1405534135343N01257824EA0045200506
B1405544135346N01257818EA0045200505
B1405554135350N01257812EA0045100505
B1405564135353N01257806EA0045200505
B1405574135356N01257801EA0045300506
B1405584135359N01257796EA0045400507
B1405594135361N01257791EA0045400508
B1406004135364N01257786EA0045400507
B1406014135368N01257781EA0045300506
B1406024135371N01257775EA0045200505
B1406034135373N01257769EA0045200505
B1406044135376N01257763EA0045100504
B1406054135378N01257757EA0045100504
B1406064135381N01257751EA0045000504
B1406074135383N01257745EA0044900503
B1406084135385N01257739EA0044900502
B1406094135389N01257733EA0044900502
B1406104135392N01257727EA0044900502
B1406114135395N01257721EA0044900502
B1406124135396N01257714EA0044800502
B1406134135398N01257708EA0044800502
B1406144135400N01257702EA0044800501
B1406154135402N01257695EA0044700501
B1406164135404N01257689EA0044700500
B1406174135406N01257682EA0044600499
B1406184135409N01257676EA0044600499
B1406194135411N01257669EA0044500498
B1406204135415N01257663EA0044400498
B1406214135419N01257656EA0044400498
B1406224135422N01257651EA0044400498
B1406234135426N01257646EA0044400497
B1406244135429N01257641EA0044200495
B1406254135432N01257635EA0044000494
B1406264135435N01257629EA0043900493
B1406274135439N01257623EA0043900493
B1406284135443N01257618EA0043900493
B1406294135447N01257613EA0044000494
B1406304135451N01257608EA0044100494
B1406314135455N01257604EA0044100494
B1406324135459N01257600EA0044100494
B1406334135463N01257597EA0044000494
B1406344135468N01257593EA0044000493
B1406354135472N01257589EA0043900492
B1406364135476N01257585EA0043800491
B1406374135481N01257582EA0043700490
B1406384135485N01257578EA0043600489
B1406394135489N01257574EA0043400488
B1406404135493N01257570EA0043300487
B1406414135497N01257566EA0043300486
B1406424135500N01257562EA0043200485
B1406434135503N01257557EA0043100485
B1406444135505N01257552EA0043200485
B1406454135507N01257547EA0043100485
B1406464135509N01257542EA0043100484
B1406474135511N01257537EA0042900483
B1406484135513N01257531EA0042700481
B1406494135514N01257526EA0042500479
B1406504135513N01257521EA0042300477
B1406514135511N01257517EA0042100474
B1406524135507N01257516EA0041900472
B1406534135503N01257516EA0041800471
B1406544135500N01257516EA0041700470
B1406554135497N01257514EA0041500468
B1406564135494N01257513EA0041300467
B1406574135492N01257511EA0041200465
B1406584135489N01257509EA0040900463
B1406594135487N01257507EA0040900462
B1407004135485N01257504EA0040800462
B1407014135484N01257502EA0040700460
B1407024135482N01257499EA0040500458
B1407034135480N01257497EA0040400457
B1407044135478N01257494EA0040200456
B1407054135476N01257490EA0040300456
B1407064135475N01257487EA0040200455
B1407074135475N01257483EA0040100454
B1407084135475N01257480EA0040000453
B1407094135475N01257477EA0039900452
B1407104135476N01257476EA0040000454
B1407114135476N01257475EA0040100454
B1407124135477N01257475EA0040000454
B1407134135478N01257476EA0040000454
B1407144135479N01257476EA0040000454
B1407154135479N01257476EA0040000454
B1407164135479N01257476EA0040100454
B1407174135479N01257476EA0040100454
B1407184135479N01257476EA0040100454
B1407194135479N01257476EA0040000454
B1407204135479N01257476EA0040000454
B1407214135479N01257476EA0040100454
B1407224135479N01257476EA0040100454
B1407234135479N01257476EA0040000454
B1407244135479N01257476EA0040100454
B1407254135479N01257476EA0040100454
B1407264135479N01257476EA0040100454
B1407274135479N01257476EA0040100454
B1407284135479N01257476EA0040100454
B1407294135480N01257476EA0040100454
B1407304135480N01257475EA0040000454
B1407314135480N01257475EA0040100454
B1407324135480N01257475EA0040000454
B1407334135480N01257475EA0040000454
B1407344135480N01257475EA0040000454
B1407354135480N01257475EA0040000454
B1407364135480N01257475EA0040000454
B1407374135481N01257474EA0040000454
B1407384135481N01257475EA0040000454
B1407394135481N01257474EA0040000454
B1407404135481N01257475EA0040000454
B1407414135481N01257474EA0040000454
B1407424135482N01257474EA0040000454
B1407434135482N01257474EA0040000453
B1407444135482N01257474EA0040000454
B1407454135482N01257474EA0040000454
B1407464135482N01257474EA0040000453
B1407474135482N01257474EA0040000453
B1407484135482N01257474EA0040000454
B1407494135482N01257473EA0040000453
B1407504135482N01257473EA0040000453
B1407514135482N01257472EA0040000453
B1407524135482N01257471EA0040000453
B1407534135483N01257471EA0040000453
B1407544135483N01257470EA0040000453
B1407554135483N01257469EA0039900453
B1407564135484N01257468EA0039900453
B1407574135484N01257468EA0040000453
B1407584135485N01257468EA0040000453
B1407594135485N01257467EA0039900453
B1408004135485N01257467EA0039900453
B1408014135485N01257466EA0039900453
B1408024135485N01257466EA0040000453
B1408034135485N01257466EA0040000453
B1408044135485N01257466EA0040000453
B1408054135485N01257466EA0040000453
B1408064135485N01257466EA0040000453
B1408074135485N01257466EA0040000453
B1408084135485N01257466EA0039900453
B1408094135485N01257465EA0039900453
B1408104135485N01257465EA0039900453
B1408114135485N01257464EA0039900453
B1408124135485N01257464EA0039900453
B1408134135485N01257464EA0039900453
B1408144135485N01257464EA0039900453
B1408154135485N01257464EA0039900453
B1408164135485N01257464EA0039900453
B1408174135485N01257464EA0039900453
B1408184135485N01257464EA0039900453
B1408194135485N01257464EA0039900453
B1408204135485N01257464EA0039900453
B1408214135485N01257464EA0039900453
B1408224135485N01257464EA0039900453
B1408234135485N01257464EA0039900453
LXSX;C1;GM:1.3
LXSX;S1;TS:1713188898;TL:1713190103;AS:450;AL:453;AT:543;AB:418
LXSX;S1;XS:1;XD:3.56;SP:45.4;MC:1.6;MS:-1.5;NB:1207
LXSX;S1;FL:10.3;TG:113;TC:0.7;AG:462;GM:1.3
LXSX;S1;X0:41.59108,12.95717
LXSX;S1;X1:41.59145,12.95608
LXSX;S1;X2:41.58205,12.97323
LXSX;S1;X3:41.59185,12.95862
LXSX;S1;X4:41.59142,12.95773
G58E9B23AE63DB03697DFFE49FC89BE87
