AXSX006 SKYTRAXX
HFPLTPILOT:Sepp
HFGTYGLIDERTYPE:Advance Sigma 12
HFDTM100GPSDATUM:WGS-84
HFRFWFIRMWAREVERSION:202503211137
HFRHWHARDWAREVERSION:5.0
HFTZNTIMEZONE:+2.00
HFSITSITE:Colli di San Fermo 
HFDTE020425
LXSX;I1;OAB:20250401;OOB:20250401
LXSX;I1;ID:115785
LXSX;I1;AC:1;CAT:C
LXSX;RAT:LTE M1 ;GSM:2
B1043214544588N00956896EA0124901287
B1043224544588N00956896EA0124901287
B1043234544588N00956896EA0124901287
B1043244544587N00956896EA0124901287
B1043254544588N00956896EA0124901287
B1043264544589N00956896EA0124901287
B1043274544588N00956897EA0124801286
B1043284544588N00956898EA0124901287
B1043294544588N00956898EA0124901287
B1043304544588N00956898EA0124801286
B1043314544587N00956897EA0124801286
B1043324544587N00956896EA0125001287
B1043334544587N00956895EA0125001288
B1043344544587N00956894EA0124901287
B1043354544587N00956892EA0124901287
B1043364544587N00956890EA0124801286
B1043374544587N00956887EA0124801286
B1043384544587N00956884EA0124701285
B1043394544588N00956880EA0124701285
B1043404544588N00956877EA0124601284
B1043414544588N00956873EA0124601284
B1043424544590N00956869EA0124801286
B1043434544591N00956866EA0124901287
B1043444544593N00956863EA0124901287
B1043454544594N00956862EA0125001288
B1043464544595N00956860EA0125101289
B1043474544596N00956860EA0125101289
B1043484544596N00956859EA0125101289
B1043494544596N00956858EA0125101289
B1043504544597N00956858EA0125101289
B1043514544597N00956857EA0125201290
B1043524544597N00956857EA0125101289
B1043534544597N00956857EA0125101289
B1043544544596N00956857EA0125101289
B1043554544596N00956857EA0125001288
B1043564544596N00956857EA0124901287
B1043574544594N00956857EA0124601283
B1043584544592N00956859EA0124701285
B1043594544591N00956859EA0125101289
B1044004544589N00956859EA0125301291
B1044014544588N00956858EA0125201290
B1044024544587N00956858EA0125201290
B1044034544585N00956858EA0125101289
B1044044544583N00956858EA0125001288
B1044054544581N00956860EA0125001288
B1044064544579N00956862EA0124901287
B1044074544577N00956864EA0124801285
B1044084544575N00956864EA0124601284
B1044094544572N00956862EA0124401282
B1044104544569N00956858EA0124401282
B1044114544567N00956856EA0124801286
B1044124544565N00956855EA0124801286
B1044134544564N00956854EA0124701285
B1044144544562N00956851EA0124501283
B1044154544559N00956850EA0124201280
B1044164544555N00956849EA0123801276
B1044174544550N00956849EA0123601274
B1044184544544N00956849EA0123701275
B1044194544541N00956848EA0124001278
B1044204544538N00956848EA0124301281
B1044214544537N00956847EA0124401282
B1044224544535N00956847EA0124301281
B1044234544532N00956847EA0124001278
B1044244544529N00956847EA0123801276
B1044254544525N00956847EA0123701275
B1044264544521N00956847EA0123701275
B1044274544518N00956847EA0123501273
B1044284544515N00956847EA0123201270
B1044294544511N00956846EA0122901268
B1044304544506N00956845EA0122801266
B1044314544502N00956844EA0122901267
B1044324544498N00956844EA0123101269
B1044334544496N00956844EA0123201270
B1044344544493N00956843EA0123201270
B1044354544491N00956843EA0123201270
B1044364544487N00956843EA0123101270
B1044374544483N00956843EA0123201270
B1044384544479N00956844EA0123401272
B1044394544476N00956845EA0123501274
B1044404544473N00956847EA0123701275
B1044414544470N00956848EA0123701276
B1044424544467N00956851EA0123801276
B1044434544463N00956854EA0123801277
B1044444544460N00956859EA0124101279
B1044454544458N00956866EA0124301282
B1044464544457N00956873EA0124501283
B1044474544456N00956879EA0124601285
B1044484544455N00956885EA0124701285
B1044494544454N00956890EA0124601285
B1044504544451N00956896EA0124601284
B1044514544448N00956901EA0124601285
B1044524544445N00956906EA0124901287
B1044534544442N00956909EA0125101290
B1044544544438N00956912EA0125501293
B1044554544436N00956915EA0125701295
B1044564544433N00956919EA0125801297
B1044574544430N00956922EA0126001298
B1044584544426N00956925EA0126001299
B1044594544422N00956928EA0126201301
B1045004544419N00956931EA0126101300
B1045014544417N00956935EA0126301302
B1045024544414N00956940EA0126501303
B1045034544412N00956946EA0126701306
B1045044544409N00956950EA0127001308
B1045054544407N00956954EA0127101310
B1045064544405N00956957EA0127301312
B1045074544402N00956961EA0127301312
B1045084544399N00956965EA0127401312
B1045094544398N00956970EA0127401313
B1045104544395N00956976EA0127501313
B1045114544392N00956982EA0127601314
B1045124544388N00956988EA0127901318
B1045134544385N00956992EA0128301321
B1045144544382N00956996EA0128601324
B1045154544380N00956998EA0128801327
B1045164544378N00957001EA0129001328
B1045174544375N00957005EA0129101330
B1045184544373N00957010EA0129401333
B1045194544370N00957013EA0129701336
B1045204544367N00957015EA0129901338
B1045214544365N00957015EA0130001339
B1045224544362N00957012EA0130101340
B1045234544361N00957008EA0130301341
B1045244544361N00957002EA0130401342
B1045254544365N00956996EA0130501344
B1045264544370N00956991EA0130801346
B1045274544377N00956989EA0131101350
B1045284544382N00956988EA0131501354
B1045294544387N00956987EA0131901357
B1045304544392N00956986EA0132101359
B1045314544397N00956985EA0132101360
B1045324544402N00956985EA0132301361
B1045334544408N00956985EA0132401363
B1045344544415N00956984EA0132601364
B1045354544420N00956983EA0132801367
B1045364544426N00956981EA0133101369
B1045374544430N00956977EA0133301372
B1045384544434N00956973EA0133501373
B1045394544438N00956969EA0133501374
B1045404544443N00956965EA0133601374
B1045414544447N00956959EA0133701376
B1045424544451N00956953EA0133801377
B1045434544455N00956947EA0134001378
B1045444544460N00956942EA0134201381
B1045454544463N00956936EA0134401382
B1045464544466N00956929EA0134401383
B1045474544468N00956922EA0134601384
B1045484544469N00956915EA0134801386
B1045494544470N00956909EA0134901388
B1045504544470N00956902EA0135001389
B1045514544469N00956897EA0135001389
B1045524544466N00956891EA0135001389
B1045534544464N00956886EA0135001389
B1045544544461N00956883EA0135001388
B1045554544457N00956880EA0134901388
B1045564544453N00956877EA0134901388
B1045574544448N00956876EA0134901387
B1045584544444N00956875EA0134801387
B1045594544440N00956873EA0134701386
B1046004544436N00956871EA0134701385
B1046014544431N00956869EA0134601384
B1046024544427N00956867EA0134501383
B1046034544422N00956865EA0134501383
B1046044544417N00956865EA0134501383
B1046054544414N00956866EA0134401383
B1046064544411N00956867EA0134201380
B1046074544407N00956867EA0133801377
B1046084544403N00956865EA0133401372
B1046094544399N00956863EA0133101369
B1046104544395N00956860EA0132901367
B1046114544391N00956859EA0132701365
B1046124544387N00956857EA0132501363
B1046134544383N00956856EA0132301361
B1046144544378N00956855EA0132001359
B1046154544374N00956855EA0131901357
B1046164544369N00956855EA0131801356
B1046174544363N00956855EA0131701356
B1046184544359N00956854EA0131901357
B1046194544355N00956852EA0132101360
B1046204544351N00956850EA0132401363
B1046214544349N00956848EA0132701365
B1046224544345N00956846EA0132801366
B1046234544343N00956845EA0132901367
B1046244544339N00956844EA0132901367
B1046254544336N00956844EA0132801366
B1046264544332N00956843EA0132701365
B1046274544327N00956843EA0132601364
B1046284544323N00956842EA0132601364
B1046294544318N00956841EA0132601364
B1046304544315N00956840EA0132501363
B1046314544311N00956840EA0132301361
B1046324544307N00956839EA0132101359
B1046334544302N00956839EA0131801357
B1046344544297N00956839EA0131701355
B1046354544292N00956839EA0131601354
B1046364544288N00956838EA0131501353
B1046374544283N00956838EA0131401352
B1046384544279N00956837EA0131301352
B1046394544274N00956836EA0131301352
B1046404544270N00956834EA0131201350
B1046414544269N00956829EA0130901347
B1046424544269N00956822EA0130501343
B1046434544273N00956815EA0130301341
B1046444544278N00956812EA0130001338
B1046454544284N00956815EA0129601335
B1046464544288N00956823EA0129301331
B1046474544287N00956834EA0129101329
B1046484544281N00956839EA0128701326
B1046494544274N00956836EA0128601324
B1046504544271N00956826EA0128201320
B1046514544276N00956817EA0127801317
B1046524544283N00956813EA0127801316
B1046534544290N00956815EA0128001318
B1046544544294N00956820EA0128301321
B1046554544298N00956825EA0128501323
B1046564544301N00956830EA0128601324
B1046574544304N00956835EA0128501324
B1046584544308N00956841EA0128501323
B1046594544313N00956847EA0128601324
B1047004544316N00956854EA0128801326
B1047014544317N00956861EA0128801327
B1047024544317N00956867EA0128701325
B1047034544315N00956872EA0128601324
B1047044544312N00956877EA0128601324
B1047054544307N00956879EA0128601324
B1047064544303N00956880EA0128701325
B1047074544299N00956879EA0128801326
B1047084544295N00956879EA0128901327
B1047094544291N00956879EA0129001328
B1047104544287N00956878EA0129001329
B1047114544282N00956876EA0129001328
B1047124544277N00956874EA0129001329
B1047134544273N00956872EA0129101329
B1047144544269N00956870EA0129101329
B1047154544265N00956866EA0128901328
B1047164544261N00956863EA0128801326
B1047174544257N00956860EA0128601324
B1047184544252N00956857EA0128501324
B1047194544249N00956855EA0128301322
B1047204544244N00956853EA0128101319
B1047214544241N00956850EA0127901317
B1047224544237N00956847EA0127701316
B1047234544233N00956845EA0127601314
B1047244544228N00956842EA0127401312
B1047254544224N00956840EA0127301311
B1047264544220N00956838EA0127201310
B1047274544217N00956834EA0127001309
B1047284544214N00956829EA0126901307
B1047294544211N00956824EA0126701305
B1047304544207N00956818EA0126501304
B1047314544203N00956812EA0126401302
B1047324544200N00956806EA0126301302
B1047334544196N00956801EA0126301301
B1047344544194N00956796EA0126201301
B1047354544191N00956791EA0126101300
B1047364544189N00956786EA0126101299
B1047374544186N00956781EA0125801297
B1047384544183N00956776EA0125701295
B1047394544181N00956771EA0125601294
B1047404544178N00956767EA0125401293
B1047414544175N00956762EA0125301292
B1047424544173N00956757EA0125301291
B1047434544171N00956751EA0125201290
B1047444544170N00956746EA0125101289
B1047454544168N00956740EA0125001289
B1047464544166N00956734EA0125001289
B1047474544166N00956727EA0125001289
B1047484544168N00956719EA0125101289
B1047494544171N00956712EA0125001289
B1047504544174N00956706EA0125001288
B1047514544179N00956700EA0125001288
B1047524544184N00956694EA0125001288
B1047534544191N00956690EA0124901288
B1047544544197N00956688EA0124901287
B1047554544204N00956687EA0124801287
B1047564544211N00956689EA0124801286
B1047574544217N00956692EA0124701285
B1047584544223N00956696EA0124601284
B1047594544228N00956701EA0124501283
B1048004544233N00956707EA0124401283
B1048014544238N00956713EA0124401282
B1048024544243N00956719EA0124401282
B1048034544247N00956725EA0124301282
B1048044544251N00956732EA0124301281
B1048054544255N00956739EA0124201280
B1048064544260N00956746EA0124201280
B1048074544264N00956753EA0124101280
B1048084544268N00956760EA0124101279
B1048094544273N00956767EA0124101279
B1048104544278N00956774EA0124001278
B1048114544282N00956781EA0123901277
B1048124544287N00956788EA0123801276
B1048134544291N00956795EA0123701275
B1048144544296N00956801EA0123601274
B1048154544301N00956808EA0123501273
B1048164544304N00956814EA0123401272
B1048174544308N00956820EA0123301271
B1048184544312N00956826EA0123101270
B1048194544316N00956832EA0122901267
B1048204544320N00956838EA0122701266
B1048214544325N00956845EA0122701265
B1048224544329N00956851EA0122601264
B1048234544334N00956857EA0122601264
B1048244544340N00956862EA0122501263
B1048254544346N00956868EA0122401262
B1048264544351N00956874EA0122301261
B1048274544357N00956881EA0122201260
B1048284544362N00956887EA0122301261
B1048294544367N00956894EA0122401261
B1048304544370N00956902EA0122401262
B1048314544374N00956910EA0122501263
B1048324544377N00956919EA0122701265
B1048334544379N00956928EA0122901267
B1048344544380N00956937EA0123201270
B1048354544380N00956946EA0123501273
B1048364544382N00956953EA0123701275
B1048374544385N00956961EA0123901277
B1048384544388N00956968EA0124001278
B1048394544393N00956975EA0124201279
B1048404544399N00956981EA0124401282
B1048414544404N00956986EA0124601283
B1048424544408N00956991EA0124801286
B1048434544413N00956994EA0124901287
B1048444544418N00956995EA0125001288
B1048454544424N00956997EA0125101288
B1048464544430N00956999EA0125201289
B1048474544435N00956999EA0125201290
B1048484544441N00957000EA0125301290
B1048494544446N00957000EA0125101289
B1048504544454N00957002EA0125101288
B1048514544462N00957004EA0125101288
B1048524544469N00957004EA0125301290
B1048534544477N00957003EA0125501292
B1048544544482N00957002EA0125601293
B1048554544488N00957001EA0125601294
B1048564544494N00957000EA0125601293
B1048574544500N00956997EA0125601294
B1048584544507N00956995EA0125601293
B1048594544514N00956994EA0125601293
B1049004544521N00956992EA0125601293
B1049014544527N00956989EA0125701294
B1049024544533N00956986EA0125901296
B1049034544537N00956981EA0125901296
B1049044544542N00956976EA0126001297
B1049054544547N00956972EA0125901296
B1049064544552N00956968EA0125901296
B1049074544557N00956965EA0126001297
B1049084544561N00956960EA0126101298
B1049094544564N00956956EA0126101298
B1049104544566N00956951EA0126201299
B1049114544569N00956946EA0126201299
B1049124544573N00956940EA0126201299
B1049134544575N00956934EA0126301299
B1049144544579N00956929EA0126401301
B1049154544582N00956924EA0126601302
B1049164544585N00956919EA0126701304
B1049174544587N00956914EA0126801304
B1049184544589N00956909EA0126801304
B1049194544591N00956904EA0126801304
B1049204544591N00956898EA0126801304
B1049214544591N00956892EA0126901305
B1049224544591N00956887EA0127001306
B1049234544592N00956881EA0127101307
B1049244544593N00956876EA0127101308
B1049254544594N00956870EA0127101308
B1049264544593N00956864EA0127101308
B1049274544591N00956859EA0127301310
B1049284544588N00956856EA0127601312
B1049294544585N00956856EA0127801314
B1049304544582N00956857EA0128001316
B1049314544580N00956857EA0128101317
B1049324544578N00956855EA0128101317
B1049334544577N00956853EA0128101317
B1049344544575N00956851EA0128101317
B1049354544572N00956850EA0128001316
B1049364544570N00956852EA0128001316
B1049374544567N00956854EA0128101317
B1049384544565N00956857EA0128201318
B1049394544563N00956859EA0128301319
B1049404544562N00956862EA0128301319
B1049414544561N00956866EA0128201317
B1049424544559N00956871EA0128001316
B1049434544557N00956875EA0127901315
B1049444544553N00956876EA0127601312
B1049454544550N00956873EA0127301309
B1049464544550N00956866EA0127101307
B1049474544550N00956859EA0127201308
B1049484544551N00956853EA0127401310
B1049494544552N00956849EA0127401309
B1049504544551N00956846EA0127101307
B1049514544548N00956844EA0126901305
B1049524544545N00956842EA0126901305
B1049534544542N00956842EA0127101306
B1049544544540N00956845EA0127201308
B1049554544538N00956849EA0127301309
B1049564544537N00956852EA0127401310
B1049574544535N00956855EA0127301309
B1049584544533N00956857EA0127201307
B1049594544531N00956858EA0127201307
B1050004544529N00956859EA0127201308
B1050014544528N00956860EA0127301309
B1050024544527N00956860EA0127301309
B1050034544526N00956860EA0127301308
B1050044544524N00956860EA0127001306
B1050054544522N00956861EA0126701303
B1050064544520N00956862EA0126501301
B1050074544517N00956861EA0126501300
B1050084544515N00956859EA0126601301
B1050094544511N00956860EA0126701303
B1050104544509N00956863EA0126901304
B1050114544506N00956866EA0127001306
B1050124544504N00956867EA0127101307
B1050134544501N00956866EA0127101307
B1050144544499N00956863EA0127101307
B1050154544497N00956859EA0127101307
B1050164544496N00956855EA0127001306
B1050174544495N00956852EA0126801304
B1050184544494N00956847EA0126501301
B1050194544491N00956844EA0126401300
B1050204544487N00956840EA0126501301
B1050214544484N00956837EA0126601302
B1050224544483N00956833EA0126701303
B1050234544481N00956829EA0126701303
B1050244544479N00956825EA0126701303
B1050254544477N00956822EA0126701302
B1050264544473N00956819EA0126601302
B1050274544470N00956817EA0126601302
B1050284544467N00956815EA0126701302
B1050294544463N00956814EA0126701302
B1050304544460N00956812EA0126601302
B1050314544456N00956811EA0126501300
B1050324544451N00956809EA0126401300
B1050334544446N00956807EA0126301299
B1050344544442N00956806EA0126401300
B1050354544439N00956804EA0126501301
B1050364544436N00956803EA0126601301
B1050374544432N00956801EA0126401299
B1050384544428N00956800EA0126201298
B1050394544424N00956799EA0126201297
B1050404544420N00956800EA0126101297
B1050414544417N00956801EA0126101297
B1050424544414N00956802EA0126201297
B1050434544410N00956801EA0126201297
B1050444544407N00956800EA0126201298
B1050454544403N00956799EA0126301299
B1050464544399N00956798EA0126501300
B1050474544396N00956797EA0126601302
B1050484544393N00956795EA0126801304
B1050494544390N00956793EA0127101307
B1050504544387N00956792EA0127301309
B1050514544385N00956790EA0127401309
B1050524544382N00956789EA0127401310
B1050534544379N00956788EA0127401310
B1050544544375N00956788EA0127501311
B1050554544371N00956789EA0127701313
B1050564544369N00956789EA0127901314
B1050574544367N00956789EA0128001315
B1050584544365N00956790EA0127901315
B1050594544362N00956791EA0127901314
B1051004544359N00956792EA0127901314
B1051014544355N00956793EA0128101316
B1051024544351N00956792EA0128401319
B1051034544348N00956791EA0128801323
B1051044544345N00956790EA0129201327
B1051054544344N00956790EA0129401330
B1051064544342N00956789EA0129501330
B1051074544340N00956789EA0129401329
B1051084544338N00956788EA0129301329
B1051094544334N00956787EA0129401329
B1051104544331N00956787EA0129501331
B1051114544328N00956787EA0129701333
B1051124544325N00956788EA0129801334
B1051134544323N00956790EA0129801333
B1051144544319N00956791EA0129601331
B1051154544315N00956793EA0129301328
B1051164544310N00956794EA0129101326
B1051174544305N00956796EA0128901324
B1051184544300N00956798EA0128901324
B1051194544296N00956797EA0128801322
B1051204544292N00956796EA0128701322
B1051214544289N00956795EA0128501320
B1051224544286N00956795EA0128401318
B1051234544283N00956795EA0128201317
B1051244544280N00956794EA0128001314
B1051254544277N00956794EA0127601311
B1051264544274N00956793EA0127301308
B1051274544271N00956793EA0127001305
B1051284544267N00956794EA0126901303
B1051294544264N00956795EA0126601301
B1051304544261N00956795EA0126301298
B1051314544258N00956795EA0126001295
B1051324544254N00956795EA0125801293
B1051334544249N00956796EA0125601291
B1051344544245N00956798EA0125501290
B1051354544241N00956800EA0125501290
B1051364544237N00956802EA0125401289
B1051374544234N00956803EA0125301287
B1051384544230N00956804EA0125101285
B1051394544225N00956805EA0124901283
B1051404544221N00956807EA0124801283
B1051414544216N00956809EA0124801283
B1051424544212N00956811EA0124801282
B1051434544208N00956811EA0124601280
B1051444544204N00956812EA0124301278
B1051454544200N00956814EA0123901274
B1051464544195N00956816EA0123601270
B1051474544191N00956818EA0123301267
B1051484544186N00956820EA0123201266
B1051494544182N00956823EA0123001264
B1051504544179N00956827EA0122801262
B1051514544175N00956831EA0122501259
B1051524544172N00956836EA0122301257
B1051534544169N00956843EA0122001254
B1051544544168N00956851EA0121801252
B1051554544168N00956860EA0121601250
B1051564544169N00956868EA0121501249
B1051574544171N00956875EA0121301247
B1051584544174N00956881EA0121101245
B1051594544177N00956889EA0120801242
B1052004544181N00956896EA0120601240
B1052014544187N00956902EA0120401238
B1052024544192N00956907EA0120301236
B1052034544198N00956912EA0120101235
B1052044544203N00956916EA0119901233
B1052054544209N00956920EA0119701231
B1052064544216N00956924EA0119501229
B1052074544223N00956927EA0119401228
B1052084544230N00956931EA0119401227
B1052094544236N00956936EA0119301227
B1052104544243N00956939EA0119301227
B1052114544250N00956942EA0119301226
B1052124544257N00956945EA0119201226
B1052134544264N00956947EA0119201226
B1052144544271N00956951EA0119201225
B1052154544278N00956954EA0119201225
B1052164544284N00956956EA0119101225
B1052174544292N00956958EA0119101224
B1052184544299N00956960EA0119001224
B1052194544306N00956962EA0119001223
B1052204544313N00956964EA0119001223
B1052214544320N00956965EA0119001223
B1052224544326N00956966EA0119201225
B1052234544333N00956966EA0119301227
B1052244544340N00956965EA0119401228
B1052254544346N00956964EA0119501228
B1052264544352N00956964EA0119501228
B1052274544358N00956963EA0119501228
B1052284544365N00956962EA0119601230
B1052294544370N00956958EA0119801232
B1052304544375N00956953EA0119901232
B1052314544378N00956946EA0119901232
B1052324544381N00956940EA0120201235
B1052334544385N00956935EA0120601239
B1052344544388N00956932EA0121001243
B1052354544391N00956929EA0121301246
B1052364544395N00956927EA0121501248
B1052374544399N00956924EA0121501248
B1052384544405N00956922EA0121401247
B1052394544411N00956920EA0121401247
B1052404544417N00956919EA0121501248
B1052414544423N00956917EA0121601249
B1052424544429N00956916EA0121701250
B1052434544435N00956916EA0121801251
B1052444544442N00956915EA0122001253
B1052454544448N00956913EA0122201255
B1052464544453N00956910EA0122401258
B1052474544458N00956906EA0122701260
B1052484544463N00956903EA0122901262
B1052494544467N00956900EA0122901262
B1052504544470N00956896EA0122901262
B1052514544472N00956892EA0122701260
B1052524544474N00956887EA0122501258
B1052534544475N00956881EA0122301256
B1052544544474N00956877EA0122301256
B1052554544472N00956875EA0122301255
B1052564544469N00956875EA0122201255
B1052574544465N00956876EA0122301256
B1052584544462N00956879EA0122501257
B1052594544458N00956881EA0122701260
B1053004544455N00956882EA0122901262
B1053014544453N00956883EA0123101264
B1053024544451N00956884EA0123201264
B1053034544450N00956886EA0123001263
B1053044544449N00956889EA0122801261
B1053054544446N00956893EA0122601259
B1053064544442N00956896EA0122501258
B1053074544439N00956900EA0122601259
B1053084544437N00956903EA0122701260
B1053094544435N00956906EA0122801261
B1053104544434N00956910EA0122801261
B1053114544431N00956915EA0122701259
B1053124544430N00956920EA0122501258
B1053134544426N00956925EA0122601258
B1053144544423N00956930EA0122601259
B1053154544420N00956934EA0122701259
B1053164544418N00956937EA0122601259
B1053174544415N00956941EA0122501258
B1053184544412N00956945EA0122501258
B1053194544408N00956948EA0122601258
B1053204544405N00956951EA0122701260
B1053214544401N00956954EA0122901262
B1053224544398N00956957EA0123101264
B1053234544396N00956960EA0123401266
B1053244544394N00956964EA0123601268
B1053254544392N00956968EA0123701269
B1053264544390N00956972EA0123801270
B1053274544388N00956976EA0123801271
B1053284544386N00956978EA0123901272
B1053294544383N00956978EA0123701270
B1053304544381N00956975EA0123601268
B1053314544380N00956969EA0123601268
B1053324544381N00956963EA0123601268
B1053334544385N00956956EA0123701270
B1053344544390N00956952EA0123901271
B1053354544396N00956951EA0124101273
B1053364544402N00956951EA0124201275
B1053374544409N00956953EA0124401277
B1053384544414N00956955EA0124501277
B1053394544421N00956957EA0124501277
B1053404544428N00956959EA0124501278
B1053414544435N00956960EA0124701280
B1053424544441N00956961EA0124901281
B1053434544447N00956962EA0125001283
B1053444544453N00956963EA0125101284
B1053454544459N00956965EA0125101283
B1053464544466N00956968EA0125201285
B1053474544472N00956971EA0125401286
B1053484544478N00956973EA0125601288
B1053494544484N00956974EA0125701289
B1053504544490N00956976EA0125801291
B1053514544495N00956978EA0125901292
B1053524544501N00956979EA0125901292
B1053534544507N00956980EA0125901292
B1053544544512N00956982EA0126001292
B1053554544518N00956984EA0126101293
B1053564544523N00956984EA0126101294
B1053574544529N00956982EA0126101293
B1053584544535N00956980EA0126101293
B1053594544541N00956978EA0126201294
B1054004544547N00956976EA0126301296
B1054014544553N00956974EA0126501297
B1054024544558N00956972EA0126601298
B1054034544562N00956971EA0126601299
B1054044544566N00956968EA0126601298
B1054054544569N00956965EA0126501298
B1054064544573N00956962EA0126501298
B1054074544577N00956958EA0126501297
B1054084544580N00956954EA0126401296
B1054094544582N00956949EA0126201294
B1054104544584N00956944EA0126201294
B1054114544584N00956938EA0126201294
B1054124544583N00956934EA0126301295
B1054134544581N00956932EA0126301295
B1054144544579N00956930EA0126301295
B1054154544575N00956930EA0126201294
B1054164544572N00956931EA0126001293
B1054174544568N00956935EA0126001292
B1054184544564N00956939EA0126001293
B1054194544560N00956944EA0126101293
B1054204544557N00956947EA0126201295
B1054214544554N00956949EA0126401297
B1054224544551N00956949EA0126501298
B1054234544549N00956948EA0126501297
B1054244544546N00956945EA0126601298
B1054254544544N00956940EA0126701299
B1054264544545N00956934EA0126801300
B1054274544548N00956930EA0126801301
B1054284544551N00956926EA0126901301
B1054294544555N00956923EA0127001302
B1054304544558N00956920EA0127101303
B1054314544561N00956918EA0127101303
B1054324544565N00956917EA0127101304
B1054334544569N00956914EA0127201304
B1054344544574N00956912EA0127201305
B1054354544577N00956911EA0127201304
B1054364544582N00956910EA0127201304
B1054374544585N00956909EA0127201304
B1054384544590N00956908EA0127101304
B1054394544594N00956907EA0127001303
B1054404544598N00956906EA0126901301
B1054414544602N00956904EA0126601299
B1054424544606N00956901EA0126401297
B1054434544608N00956897EA0126201295
B1054444544610N00956893EA0126101294
B1054454544611N00956888EA0126001293
B1054464544612N00956884EA0126001292
B1054474544613N00956880EA0125901291
B1054484544613N00956876EA0125801291
B1054494544613N00956874EA0125901292
B1054504544613N00956873EA0126001292
B1054514544613N00956874EA0125901292
B1054524544614N00956875EA0125901292
B1054534544614N00956875EA0126001292
B1054544544614N00956875EA0126001293
B1054554544614N00956875EA0126001293
B1054564544615N00956875EA0126001292
B1054574544615N00956875EA0126001293
B1054584544615N00956875EA0126001292
B1054594544614N00956875EA0126001293
B1055004544614N00956875EA0126001293
B1055014544614N00956875EA0126001293
B1055024544614N00956875EA0126001293
B1055034544614N00956875EA0125901292
B1055044544614N00956875EA0125901292
B1055054544614N00956875EA0126001293
B1055064544615N00956875EA0126001293
B1055074544615N00956875EA0126001293
B1055084544615N00956875EA0126001293
B1055094544615N00956875EA0126001293
B1055104544615N00956875EA0126001293
B1055114544615N00956875EA0126001293
B1055124544615N00956875EA0126001293
B1055134544615N00956875EA0126001293
B1055144544615N00956875EA0126001293
B1055154544615N00956875EA0126001293
B1055164544615N00956875EA0126001293
B1055174544615N00956875EA0126001293
B1055184544614N00956875EA0126001293
B1055194544614N00956875EA0126001293
B1055204544614N00956875EA0126001293
B1055214544614N00956875EA0126001293
B1055224544614N00956875EA0126001293
B1055234544614N00956875EA0126001293
B1055244544614N00956875EA0126001293
B1055254544614N00956875EA0126001293
B1055264544614N00956875EA0126001294
B1055274544614N00956875EA0126101294
B1055284544614N00956875EA0126101295
B1055294544614N00956875EA0126101294
B1055304544614N00956874EA0126101294
B1055314544614N00956875EA0126101294
B1055324544615N00956875EA0126101294
B1055334544615N00956874EA0126001294
B1055344544615N00956875EA0126001294
B1055354544615N00956875EA0126001294
B1055364544615N00956875EA0126001294
B1055374544615N00956875EA0126001294
B1055384544615N00956875EA0126001294
B1055394544615N00956875EA0126001294
B1055404544615N00956875EA0126001294
B1055414544615N00956875EA0126001294
B1055424544615N00956875EA0126001294
B1055434544615N00956875EA0126101294
B1055444544615N00956875EA0126101295
B1055454544615N00956875EA0126101295
B1055464544615N00956876EA0126101295
B1055474544615N00956876EA0126101295
B1055484544615N00956875EA0126001294
B1055494544615N00956875EA0126001294
B1055504544615N00956875EA0126001294
B1055514544615N00956875EA0126001294
B1055524544615N00956875EA0126001294
B1055534544615N00956875EA0126001294
B1055544544615N00956875EA0126101294
B1055554544615N00956875EA0126001294
B1055564544615N00956875EA0126001294
B1055574544615N00956875EA0126001294
B1055584544615N00956875EA0126101294
B1055594544615N00956875EA0126001294
B1056004544615N00956875EA0126001294
B1056014544615N00956875EA0126001294
B1056024544615N00956875EA0126001294
B1056034544615N00956875EA0126001294
B1056044544615N00956875EA0126101294
B1056054544615N00956875EA0126101294
B1056064544615N00956875EA0126101294
B1056074544615N00956875EA0126101294
B1056084544615N00956875EA0126001294
B1056094544615N00956875EA0126001294
B1056104544615N00956875EA0126001294
B1056114544615N00956875EA0126001294
B1056124544615N00956875EA0126101294
B1056134544615N00956875EA0126101294
B1056144544615N00956875EA0126101295
B1056154544615N00956875EA0126101295
B1056164544615N00956875EA0126101295
B1056174544615N00956875EA0126101294
B1056184544615N00956875EA0126101295
B1056194544615N00956875EA0126101295
B1056204544615N00956875EA0126101294
B1056214544615N00956875EA0126101294
B1056224544615N00956875EA0126101294
B1056234544615N00956875EA0126101294
B1056244544615N00956875EA0126001294
B1056254544615N00956875EA0126101294
B1056264544615N00956875EA0126101294
B1056274544615N00956875EA0126101294
B1056284544615N00956874EA0126101295
B1056294544615N00956875EA0126101295
B1056304544615N00956874EA0126101295
B1056314544615N00956874EA0126001294
B1056324544615N00956874EA0126001294
B1056334544615N00956874EA0126001294
B1056344544615N00956874EA0126001294
B1056354544615N00956874EA0126001294
B1056364544615N00956874EA0126001294
B1056374544615N00956874EA0126001294
B1056384544615N00956874EA0126001294
B1056394544615N00956874EA0126101294
B1056404544615N00956874EA0126101294
B1056414544615N00956874EA0126101295
B1056424544615N00956874EA0126101295
B1056434544615N00956874EA0126101295
B1056444544615N00956874EA0126101294
B1056454544615N00956874EA0126101295
B1056464544615N00956873EA0126101295
B1056474544615N00956873EA0126001294
B1056484544615N00956873EA0126101294
LXSX;C1;GM:1.7
LXSX;S1;TS:1743590601;TL:1743591408;AS:1287;AL:1294;AT:1389;AB:1223
LXSX;S1;XS:0;XD:3.24;SP:48.0;MC:2.4;MS:-2.5;NB:809
LXSX;S1;FL:5.6;TG:123;TC:1.5;AG:437;GM:1.7
LXSX;S1;X0:45.74327,9.94762
LXSX;S1;X1:45.73610,9.94557
LXSX;S1;X2:45.74308,9.94865
LXSX;S1;X3:45.73615,9.94780
LXSX;S1;X4:45.74353,9.94807
GA71094ACCBDDD727E5DE604F00044D36
