AXSX006 SKYTRAXX
HFPLTPILOT:Sepp
HFGTYGLIDERTYPE:Advance Sigma 12
HFDTM100GPSDATUM:WGS-84
HFRFWFIRMWAREVERSION:202504281601
HFRHWHARDWAREVERSION:5.0
HFTZNTIMEZONE:+1.00
HFSITSITE:Linhares da Beira_Si
HFDTE280525
LXSX;I1;OAB:20250527;OOB:20250501
LXSX;I1;ID:115785
LXSX;I1;AC:1;CAT:C
LXSX;RAT:LTE M1;GSM:3
B1722134031974N00726734WA0103501160
B1722144031973N00726734WA0103401160
B1722154031973N00726735WA0103401160
B1722164031974N00726735WA0103401160
B1722174031974N00726736WA0103401160
B1722184031975N00726736WA0103301159
B1722194031975N00726737WA0103301159
B1722204031976N00726738WA0103301159
B1722214031976N00726739WA0103201158
B1722224031977N00726740WA0103201158
B1722234031978N00726742WA0103001156
B1722244031980N00726743WA0103001156
B1722254031982N00726743WA0103101157
B1722264031983N00726744WA0103001156
B1722274031985N00726744WA0103001156
B1722284031986N00726745WA0103001156
B1722294031987N00726747WA0102901155
B1722304031988N00726748WA0102901155
B1722314031989N00726750WA0102701153
B1722324031989N00726753WA0102601152
B1722334031990N00726756WA0102701153
B1722344031991N00726759WA0102701153
B1722354031993N00726761WA0102701153
B1722364031994N00726764WA0102901155
B1722374031996N00726766WA0102901155
B1722384031999N00726768WA0103101157
B1722394032001N00726768WA0103101157
B1722404032004N00726767WA0103001156
B1722414032008N00726765WA0103001156
B1722424032011N00726765WA0103001155
B1722434032014N00726766WA0103001155
B1722444032018N00726765WA0103001156
B1722454032022N00726763WA0103101156
B1722464032026N00726761WA0103101156
B1722474032030N00726758WA0103001156
B1722484032034N00726756WA0102901155
B1722494032038N00726754WA0102901154
B1722504032043N00726751WA0102801154
B1722514032048N00726748WA0102901154
B1722524032052N00726745WA0102901154
B1722534032057N00726743WA0102901154
B1722544032061N00726740WA0102801154
B1722554032065N00726739WA0102901154
B1722564032070N00726737WA0102801154
B1722574032074N00726736WA0102801153
B1722584032078N00726736WA0102801153
B1722594032083N00726735WA0102701152
B1723004032087N00726733WA0102601152
B1723014032092N00726732WA0102701152
B1723024032097N00726731WA0102601152
B1723034032101N00726730WA0102601151
B1723044032106N00726729WA0102501150
B1723054032111N00726727WA0102501150
B1723064032116N00726727WA0102501150
B1723074032120N00726726WA0102501150
B1723084032125N00726726WA0102401149
B1723094032130N00726725WA0102401149
B1723104032134N00726725WA0102301148
B1723114032139N00726725WA0102301148
B1723124032144N00726724WA0102201147
B1723134032149N00726724WA0102201147
B1723144032154N00726723WA0102101146
B1723154032158N00726723WA0102101146
B1723164032163N00726723WA0102001145
B1723174032168N00726722WA0102001145
B1723184032173N00726722WA0101901144
B1723194032178N00726721WA0101901144
B1723204032184N00726721WA0101901143
B1723214032189N00726721WA0101901143
B1723224032193N00726721WA0101901144
B1723234032198N00726720WA0101801143
B1723244032203N00726719WA0101801142
B1723254032208N00726720WA0101701142
B1723264032212N00726721WA0101701141
B1723274032217N00726721WA0101701141
B1723284032222N00726721WA0101701141
B1723294032227N00726721WA0101701142
B1723304032232N00726721WA0101801142
B1723314032236N00726721WA0101901143
B1723324032240N00726722WA0102001144
B1723334032244N00726723WA0102101145
B1723344032248N00726724WA0102101146
B1723354032253N00726724WA0102201147
B1723364032257N00726724WA0102301147
B1723374032262N00726724WA0102301148
B1723384032267N00726726WA0102501149
B1723394032270N00726728WA0102501150
B1723404032272N00726731WA0102501150
B1723414032272N00726735WA0102501149
B1723424032271N00726739WA0102401149
B1723434032268N00726742WA0102501149
B1723444032265N00726744WA0102501149
B1723454032261N00726744WA0102501149
B1723464032256N00726743WA0102401149
B1723474032251N00726741WA0102401148
B1723484032246N00726737WA0102401148
B1723494032241N00726730WA0102301148
B1723504032238N00726722WA0102201147
B1723514032237N00726712WA0102301147
B1723524032237N00726703WA0102301147
B1723534032240N00726692WA0102301147
B1723544032243N00726686WA0102301147
B1723554032247N00726680WA0102301148
B1723564032252N00726675WA0102401148
B1723574032258N00726672WA0102401149
B1723584032263N00726671WA0102401149
B1723594032268N00726671WA0102501150
B1724004032273N00726672WA0102601151
B1724014032278N00726673WA0102701152
B1724024032282N00726674WA0102701152
B1724034032285N00726676WA0102701152
B1724044032287N00726679WA0102601151
B1724054032288N00726682WA0102601150
B1724064032287N00726687WA0102501150
B1724074032286N00726690WA0102601151
B1724084032283N00726693WA0102601151
B1724094032280N00726694WA0102601151
B1724104032275N00726693WA0102501149
B1724114032270N00726690WA0102301147
B1724124032265N00726685WA0102101146
B1724134032260N00726676WA0102101145
B1724144032258N00726666WA0102001144
B1724154032258N00726656WA0101901144
B1724164032260N00726647WA0101901144
B1724174032264N00726639WA0101901144
B1724184032269N00726633WA0101901144
B1724194032275N00726629WA0101901144
B1724204032280N00726627WA0101901143
B1724214032284N00726627WA0101901143
B1724224032288N00726628WA0101901143
B1724234032292N00726630WA0101801142
B1724244032295N00726631WA0101701142
B1724254032299N00726634WA0101701141
B1724264032302N00726636WA0101601141
B1724274032307N00726638WA0101601141
B1724284032310N00726640WA0101601141
B1724294032314N00726643WA0101701142
B1724304032317N00726645WA0101801142
B1724314032321N00726647WA0101801143
B1724324032325N00726648WA0101901143
B1724334032328N00726649WA0101901144
B1724344032332N00726650WA0102001144
B1724354032336N00726651WA0102001145
B1724364032340N00726652WA0102101146
B1724374032344N00726652WA0102101146
B1724384032348N00726653WA0102001145
B1724394032351N00726655WA0101901144
B1724404032354N00726657WA0101901143
B1724414032357N00726660WA0101801142
B1724424032359N00726663WA0101801142
B1724434032360N00726666WA0101701141
B1724444032361N00726670WA0101601140
B1724454032360N00726673WA0101501140
B1724464032358N00726677WA0101501139
B1724474032355N00726679WA0101401139
B1724484032351N00726680WA0101401138
B1724494032346N00726680WA0101401138
B1724504032341N00726678WA0101401138
B1724514032336N00726674WA0101401139
B1724524032330N00726669WA0101501139
B1724534032326N00726663WA0101601140
B1724544032322N00726657WA0101701141
B1724554032318N00726652WA0101801142
B1724564032314N00726647WA0101801142
B1724574032309N00726644WA0101701141
B1724584032305N00726643WA0101701141
B1724594032300N00726644WA0101601140
B1725004032295N00726645WA0101601140
B1725014032292N00726647WA0101701141
B1725024032290N00726650WA0101701141
B1725034032290N00726653WA0101601140
B1725044032289N00726656WA0101601140
B1725054032290N00726660WA0101601140
B1725064032292N00726663WA0101601140
B1725074032295N00726665WA0101701140
B1725084032300N00726665WA0101701141
B1725094032305N00726664WA0101801142
B1725104032309N00726661WA0101801142
B1725114032313N00726658WA0101801141
B1725124032318N00726654WA0101701141
B1725134032321N00726651WA0101701140
B1725144032325N00726648WA0101601139
B1725154032330N00726645WA0101501139
B1725164032335N00726644WA0101501138
B1725174032340N00726644WA0101501139
B1725184032344N00726645WA0101501139
B1725194032346N00726647WA0101501138
B1725204032349N00726649WA0101401138
B1725214032351N00726652WA0101301137
B1725224032352N00726655WA0101301136
B1725234032354N00726658WA0101201135
B1725244032354N00726661WA0101101135
B1725254032354N00726665WA0101001134
B1725264032355N00726668WA0101001133
B1725274032355N00726672WA0100901133
B1725284032357N00726675WA0100901132
B1725294032359N00726678WA0100901132
B1725304032362N00726680WA0100901132
B1725314032365N00726682WA0100801131
B1725324032368N00726683WA0100701130
B1725334032371N00726684WA0100601130
B1725344032374N00726686WA0100501128
B1725354032377N00726689WA0100401127
B1725364032379N00726692WA0100301126
B1725374032381N00726695WA0100201125
B1725384032382N00726699WA0100101124
B1725394032383N00726703WA0100001123
B1725404032384N00726706WA0099901122
B1725414032387N00726709WA0099801121
B1725424032389N00726712WA0099701120
B1725434032392N00726714WA0099601119
B1725444032395N00726716WA0099501118
B1725454032399N00726718WA0099401116
B1725464032402N00726720WA0099201114
B1725474032405N00726723WA0099001113
B1725484032407N00726727WA0098901111
B1725494032408N00726731WA0098801111
B1725504032409N00726735WA0098801110
B1725514032409N00726739WA0098801110
B1725524032409N00726743WA0098801110
B1725534032409N00726747WA0098701110
B1725544032407N00726750WA0098701109
B1725554032405N00726753WA0098501107
B1725564032404N00726756WA0098301106
B1725574032402N00726760WA0098201104
B1725584032400N00726763WA0098101104
B1725594032398N00726767WA0098101103
B1726004032397N00726771WA0098001102
B1726014032397N00726774WA0098001102
B1726024032397N00726778WA0097901102
B1726034032399N00726781WA0097901101
B1726044032401N00726783WA0097801100
B1726054032404N00726785WA0097701099
B1726064032408N00726786WA0097601098
B1726074032412N00726787WA0097401096
B1726084032417N00726786WA0097301095
B1726094032422N00726784WA0097301095
B1726104032426N00726782WA0097201094
B1726114032430N00726779WA0097101093
B1726124032435N00726775WA0096901091
B1726134032440N00726770WA0096701089
B1726144032444N00726764WA0096601088
B1726154032449N00726756WA0096501087
B1726164032452N00726748WA0096601088
B1726174032454N00726739WA0096601088
B1726184032454N00726730WA0096701089
B1726194032453N00726722WA0096701089
B1726204032450N00726715WA0096701089
B1726214032446N00726709WA0096701088
B1726224032441N00726705WA0096701089
B1726234032437N00726702WA0096701089
B1726244032433N00726702WA0096601088
B1726254032430N00726704WA0096501087
B1726264032428N00726707WA0096501087
B1726274032427N00726710WA0096401085
B1726284032426N00726714WA0096301085
B1726294032427N00726717WA0096301084
B1726304032428N00726720WA0096201083
B1726314032430N00726723WA0096101083
B1726324032433N00726725WA0096001081
B1726334032437N00726726WA0095901080
B1726344032443N00726726WA0095801079
B1726354032448N00726723WA0095701078
B1726364032453N00726719WA0095701078
B1726374032458N00726714WA0095701078
B1726384032461N00726709WA0095701078
B1726394032465N00726703WA0095701079
B1726404032469N00726697WA0095801079
B1726414032473N00726691WA0095801079
B1726424032478N00726687WA0095801079
B1726434032483N00726683WA0095901080
B1726444032487N00726682WA0095901080
B1726454032491N00726683WA0095901080
B1726464032493N00726686WA0095901080
B1726474032494N00726689WA0096001081
B1726484032495N00726693WA0096001081
B1726494032495N00726696WA0096201082
B1726504032497N00726699WA0096301084
B1726514032499N00726701WA0096401085
B1726524032502N00726702WA0096501086
B1726534032506N00726701WA0096501086
B1726544032511N00726698WA0096401085
B1726554032515N00726693WA0096301084
B1726564032518N00726686WA0096201083
B1726574032521N00726678WA0096301084
B1726584032523N00726670WA0096301084
B1726594032522N00726661WA0096201083
B1727004032519N00726653WA0096101081
B1727014032514N00726646WA0096101081
B1727024032508N00726641WA0096101081
B1727034032503N00726639WA0096101082
B1727044032498N00726639WA0096101081
B1727054032493N00726641WA0096001081
B1727064032489N00726642WA0096001080
B1727074032485N00726645WA0095901080
B1727084032481N00726648WA0096001080
B1727094032477N00726651WA0096001080
B1727104032473N00726654WA0096101081
B1727114032469N00726657WA0096201082
B1727124032466N00726659WA0096301083
B1727134032463N00726662WA0096401084
B1727144032461N00726666WA0096501085
B1727154032460N00726669WA0096501085
B1727164032460N00726672WA0096501085
B1727174032461N00726677WA0096501085
B1727184032463N00726681WA0096501085
B1727194032465N00726685WA0096701087
B1727204032468N00726688WA0096801088
B1727214032473N00726688WA0096901089
B1727224032478N00726686WA0096901089
B1727234032483N00726683WA0097001090
B1727244032486N00726677WA0097101091
B1727254032490N00726670WA0097101090
B1727264032490N00726660WA0097001090
B1727274032488N00726651WA0097101090
B1727284032484N00726643WA0097101091
B1727294032479N00726639WA0097201091
B1727304032474N00726637WA0097201092
B1727314032469N00726638WA0097201092
B1727324032465N00726640WA0097201092
B1727334032461N00726642WA0097301093
B1727344032457N00726645WA0097401094
B1727354032454N00726648WA0097501094
B1727364032452N00726651WA0097601095
B1727374032452N00726654WA0097501095
B1727384032453N00726658WA0097501094
B1727394032455N00726662WA0097501094
B1727404032458N00726666WA0097501095
B1727414032463N00726667WA0097501095
B1727424032468N00726665WA0097501094
B1727434032474N00726661WA0097501094
B1727444032478N00726654WA0097501095
B1727454032481N00726645WA0097501095
B1727464032481N00726636WA0097601095
B1727474032478N00726627WA0097601095
B1727484032474N00726620WA0097601095
B1727494032468N00726616WA0097601096
B1727504032463N00726615WA0097701096
B1727514032458N00726615WA0097801097
B1727524032454N00726617WA0097901098
B1727534032450N00726620WA0098001100
B1727544032448N00726622WA0098101101
B1727554032446N00726625WA0098201101
B1727564032444N00726628WA0098201101
B1727574032444N00726632WA0098201101
B1727584032445N00726636WA0098101100
B1727594032447N00726640WA0098101100
B1728004032450N00726644WA0098201102
B1728014032454N00726646WA0098401103
B1728024032458N00726646WA0098301103
B1728034032463N00726643WA0098201102
B1728044032468N00726638WA0098201101
B1728054032472N00726631WA0098201101
B1728064032474N00726622WA0098101100
B1728074032473N00726612WA0098101100
B1728084032469N00726603WA0098101101
B1728094032464N00726598WA0098301102
B1728104032459N00726596WA0098401103
B1728114032455N00726595WA0098501104
B1728124032451N00726596WA0098501104
B1728134032448N00726598WA0098501104
B1728144032444N00726600WA0098501104
B1728154032442N00726603WA0098501104
B1728164032439N00726607WA0098601105
B1728174032437N00726611WA0098601106
B1728184032435N00726614WA0098701106
B1728194032433N00726617WA0098701107
B1728204032430N00726620WA0098701107
B1728214032428N00726623WA0098701106
B1728224032427N00726626WA0098601105
B1728234032426N00726630WA0098501104
B1728244032425N00726634WA0098401103
B1728254032424N00726639WA0098301102
B1728264032425N00726643WA0098201102
B1728274032427N00726647WA0098101100
B1728284032429N00726650WA0098101100
B1728294032432N00726653WA0098001100
B1728304032436N00726655WA0098001099
B1728314032439N00726657WA0098001099
B1728324032444N00726659WA0098001100
B1728334032448N00726659WA0098001100
B1728344032453N00726658WA0098001099
B1728354032457N00726657WA0098101100
B1728364032461N00726657WA0098101101
B1728374032464N00726659WA0098101100
B1728384032467N00726662WA0098101100
B1728394032469N00726666WA0098001099
B1728404032471N00726671WA0098101100
B1728414032473N00726675WA0098101100
B1728424032475N00726679WA0098201102
B1728434032478N00726682WA0098301103
B1728444032480N00726685WA0098401103
B1728454032482N00726688WA0098401103
B1728464032484N00726691WA0098401103
B1728474032486N00726694WA0098401103
B1728484032486N00726697WA0098401103
B1728494032486N00726701WA0098301102
B1728504032484N00726706WA0098301102
B1728514032481N00726709WA0098301102
B1728524032477N00726712WA0098401103
B1728534032473N00726713WA0098501104
B1728544032469N00726713WA0098501104
B1728554032465N00726712WA0098501104
B1728564032460N00726710WA0098501104
B1728574032455N00726707WA0098501104
B1728584032450N00726702WA0098501104
B1728594032446N00726695WA0098601105
B1729004032442N00726687WA0098701105
B1729014032440N00726679WA0098701106
B1729024032440N00726670WA0098801107
B1729034032441N00726662WA0098901108
B1729044032445N00726655WA0099001109
B1729054032449N00726650WA0099101110
B1729064032453N00726647WA0099201111
B1729074032458N00726645WA0099201111
B1729084032462N00726645WA0099301112
B1729094032465N00726648WA0099301112
B1729104032468N00726651WA0099201111
B1729114032468N00726655WA0099301112
B1729124032468N00726659WA0099401112
B1729134032467N00726662WA0099401113
B1729144032464N00726664WA0099401113
B1729154032461N00726666WA0099501114
B1729164032457N00726667WA0099501114
B1729174032453N00726668WA0099501114
B1729184032448N00726667WA0099501114
B1729194032443N00726665WA0099601115
B1729204032438N00726661WA0099701116
B1729214032433N00726655WA0099701116
B1729224032430N00726647WA0099801117
B1729234032429N00726639WA0100001119
B1729244032430N00726630WA0100101120
B1729254032433N00726623WA0100101119
B1729264032436N00726617WA0100001119
B1729274032441N00726614WA0100101120
B1729284032446N00726613WA0100201121
B1729294032450N00726612WA0100301121
B1729304032453N00726612WA0100301122
B1729314032456N00726614WA0100401122
B1729324032458N00726616WA0100301122
B1729334032459N00726620WA0100301121
B1729344032458N00726624WA0100301122
B1729354032456N00726628WA0100401123
B1729364032454N00726630WA0100501123
B1729374032450N00726632WA0100501124
B1729384032447N00726633WA0100501124
B1729394032441N00726633WA0100501124
B1729404032436N00726632WA0100501124
B1729414032431N00726632WA0100501124
B1729424032426N00726630WA0100501124
B1729434032422N00726625WA0100501123
B1729444032417N00726618WA0100401122
B1729454032413N00726609WA0100301122
B1729464032411N00726599WA0100401123
B1729474032412N00726590WA0100501123
B1729484032415N00726581WA0100601124
B1729494032420N00726576WA0100701126
B1729504032424N00726573WA0100901127
B1729514032428N00726573WA0101001129
B1729524032431N00726574WA0101101129
B1729534032433N00726574WA0101101130
B1729544032436N00726576WA0101101130
B1729554032439N00726579WA0101101130
B1729564032439N00726583WA0101101129
B1729574032437N00726587WA0101001129
B1729584032433N00726589WA0100901128
B1729594032427N00726589WA0100801126
B1730004032421N00726586WA0100801126
B1730014032416N00726580WA0100801126
B1730024032412N00726572WA0100801127
B1730034032410N00726563WA0100901127
B1730044032409N00726555WA0100901127
B1730054032410N00726546WA0100901128
B1730064032413N00726539WA0101001129
B1730074032416N00726533WA0101001129
B1730084032421N00726530WA0101101129
B1730094032425N00726528WA0101101129
B1730104032429N00726527WA0101101129
B1730114032433N00726529WA0101101130
B1730124032435N00726532WA0101101129
B1730134032437N00726535WA0101101130
B1730144032437N00726539WA0101201130
B1730154032437N00726543WA0101201131
B1730164032435N00726546WA0101201131
B1730174032432N00726548WA0101101130
B1730184032427N00726549WA0101001129
B1730194032422N00726549WA0100901128
B1730204032417N00726549WA0100901128
B1730214032412N00726550WA0100901128
B1730224032409N00726552WA0100901128
B1730234032406N00726555WA0101001129
B1730244032404N00726559WA0101101129
B1730254032403N00726562WA0101101130
B1730264032401N00726566WA0101201131
B1730274032399N00726569WA0101301131
B1730284032398N00726572WA0101401132
B1730294032397N00726576WA0101401133
B1730304032396N00726580WA0101601134
B1730314032396N00726583WA0101601135
B1730324032395N00726587WA0101701136
B1730334032394N00726591WA0101801137
B1730344032393N00726595WA0101901138
B1730354032392N00726599WA0102101139
B1730364032392N00726603WA0102201141
B1730374032394N00726606WA0102301142
B1730384032397N00726608WA0102401143
B1730394032400N00726609WA0102501144
B1730404032404N00726609WA0102601145
B1730414032408N00726606WA0102601145
B1730424032412N00726601WA0102601145
B1730434032416N00726594WA0102601145
B1730444032417N00726584WA0102601145
B1730454032416N00726575WA0102601145
B1730464032413N00726567WA0102601144
B1730474032408N00726560WA0102601144
B1730484032403N00726557WA0102601144
B1730494032397N00726556WA0102601145
B1730504032393N00726557WA0102601145
B1730514032389N00726561WA0102701145
B1730524032386N00726565WA0102801146
B1730534032384N00726568WA0102901148
B1730544032382N00726571WA0103101150
B1730554032380N00726574WA0103201151
B1730564032379N00726577WA0103301152
B1730574032378N00726580WA0103201151
B1730584032379N00726583WA0103201151
B1730594032380N00726586WA0103101150
B1731004032383N00726589WA0103101150
B1731014032387N00726590WA0103201151
B1731024032392N00726589WA0103301151
B1731034032396N00726585WA0103301152
B1731044032399N00726579WA0103201151
B1731054032402N00726571WA0103101150
B1731064032403N00726562WA0103201151
B1731074032402N00726552WA0103201151
B1731084032398N00726544WA0103201151
B1731094032394N00726538WA0103301151
B1731104032388N00726535WA0103301152
B1731114032382N00726534WA0103401152
B1731124032377N00726536WA0103401153
B1731134032374N00726538WA0103601155
B1731144032371N00726540WA0103601155
B1731154032369N00726541WA0103601155
B1731164032367N00726543WA0103501154
B1731174032365N00726545WA0103401153
B1731184032364N00726549WA0103201151
B1731194032364N00726554WA0103101150
B1731204032364N00726558WA0103101150
B1731214032365N00726562WA0103201151
B1731224032365N00726565WA0103201151
B1731234032366N00726569WA0103301152
B1731244032367N00726573WA0103301152
B1731254032368N00726576WA0103301152
B1731264032368N00726580WA0103301152
B1731274032369N00726584WA0103401153
B1731284032369N00726588WA0103501154
B1731294032369N00726592WA0103501154
B1731304032369N00726594WA0103601155
B1731314032369N00726597WA0103601155
B1731324032369N00726600WA0103701156
B1731334032369N00726603WA0103801157
B1731344032371N00726605WA0103801157
B1731354032374N00726607WA0103801157
B1731364032379N00726607WA0103701156
B1731374032383N00726605WA0103701156
B1731384032387N00726600WA0103701156
B1731394032391N00726593WA0103701156
B1731404032393N00726584WA0103801157
B1731414032393N00726574WA0103901158
B1731424032391N00726565WA0103901158
B1731434032387N00726558WA0104001158
B1731444032382N00726552WA0104001159
B1731454032378N00726548WA0104001159
B1731464032372N00726547WA0103901158
B1731474032368N00726549WA0103801157
B1731484032364N00726552WA0103901158
B1731494032362N00726556WA0104001159
B1731504032360N00726560WA0104201160
B1731514032360N00726563WA0104201161
B1731524032359N00726567WA0104301162
B1731534032358N00726570WA0104301162
B1731544032358N00726574WA0104301162
B1731554032358N00726577WA0104301162
B1731564032358N00726580WA0104401163
B1731574032359N00726583WA0104401162
B1731584032359N00726586WA0104301162
B1731594032359N00726589WA0104301162
B1732004032358N00726593WA0104201161
B1732014032358N00726597WA0104101160
B1732024032359N00726600WA0104001159
B1732034032361N00726604WA0103801157
B1732044032364N00726609WA0103701156
B1732054032367N00726614WA0103801157
B1732064032369N00726618WA0104001159
B1732074032371N00726621WA0104201160
B1732084032373N00726624WA0104301161
B1732094032375N00726627WA0104301162
B1732104032377N00726630WA0104401162
B1732114032379N00726634WA0104401163
B1732124032381N00726638WA0104501164
B1732134032384N00726641WA0104701166
B1732144032386N00726644WA0104801167
B1732154032388N00726647WA0104901168
B1732164032390N00726649WA0104901168
B1732174032390N00726652WA0105001168
B1732184032389N00726656WA0104901168
B1732194032387N00726660WA0105001168
B1732204032384N00726664WA0105001169
B1732214032379N00726665WA0105101170
B1732224032374N00726664WA0105101170
B1732234032368N00726660WA0105101170
B1732244032363N00726654WA0105201171
B1732254032359N00726647WA0105201171
B1732264032357N00726639WA0105301171
B1732274032356N00726631WA0105201171
B1732284032357N00726621WA0105101170
B1732294032359N00726612WA0105101170
B1732304032363N00726605WA0105201171
B1732314032368N00726600WA0105401173
B1732324032372N00726598WA0105501174
B1732334032377N00726597WA0105701176
B1732344032380N00726597WA0105701177
B1732354032384N00726599WA0105701177
B1732364032386N00726600WA0105701176
B1732374032388N00726603WA0105801177
B1732384032390N00726607WA0105801178
B1732394032390N00726611WA0105901178
B1732404032389N00726615WA0105901179
B1732414032387N00726619WA0106001179
B1732424032384N00726621WA0106001179
B1732434032380N00726623WA0106001180
B1732444032375N00726623WA0106101180
B1732454032370N00726623WA0106101181
B1732464032364N00726620WA0106101181
B1732474032359N00726614WA0106101180
B1732484032355N00726606WA0106101180
B1732494032352N00726598WA0106101181
B1732504032352N00726589WA0106101180
B1732514032353N00726580WA0106001180
B1732524032355N00726572WA0106001180
B1732534032358N00726566WA0106001180
B1732544032363N00726561WA0106001180
B1732554032368N00726559WA0106001180
B1732564032372N00726560WA0106101180
B1732574032376N00726562WA0106101181
B1732584032379N00726565WA0106201181
B1732594032381N00726567WA0106201182
B1733004032383N00726569WA0106201182
B1733014032385N00726572WA0106201182
B1733024032388N00726576WA0106301183
B1733034032390N00726580WA0106401184
B1733044032390N00726585WA0106501185
B1733054032389N00726589WA0106601187
B1733064032387N00726593WA0106701187
B1733074032384N00726595WA0106701187
B1733084032380N00726597WA0106601186
B1733094032377N00726598WA0106601186
B1733104032372N00726599WA0106601186
B1733114032367N00726599WA0106601186
B1733124032363N00726600WA0106601187
B1733134032360N00726603WA0106601187
B1733144032359N00726606WA0106601186
B1733154032359N00726610WA0106601186
B1733164032359N00726613WA0106601187
B1733174032361N00726617WA0106701187
B1733184032363N00726619WA0106701187
B1733194032367N00726619WA0106701187
B1733204032370N00726619WA0106601186
B1733214032375N00726617WA0106501186
B1733224032380N00726614WA0106501185
B1733234032384N00726608WA0106401185
B1733244032387N00726600WA0106301184
B1733254032388N00726591WA0106301183
B1733264032387N00726582WA0106201183
B1733274032384N00726574WA0106201183
B1733284032380N00726567WA0106201183
B1733294032375N00726561WA0106201182
B1733304032370N00726558WA0106101182
B1733314032365N00726557WA0106101182
B1733324032360N00726556WA0106101181
B1733334032356N00726558WA0106001181
B1733344032352N00726560WA0106001181
B1733354032350N00726564WA0106001181
B1733364032348N00726568WA0105901180
B1733374032347N00726572WA0105901180
B1733384032347N00726576WA0105901180
B1733394032346N00726580WA0105801179
B1733404032346N00726584WA0105801179
B1733414032345N00726588WA0105701178
B1733424032343N00726591WA0105601177
B1733434032339N00726594WA0105601177
B1733444032335N00726596WA0105601177
B1733454032331N00726597WA0105601177
B1733464032326N00726598WA0105501176
B1733474032322N00726599WA0105501176
B1733484032317N00726600WA0105401175
B1733494032311N00726600WA0105401175
B1733504032306N00726602WA0105501176
B1733514032301N00726603WA0105601177
B1733524032297N00726604WA0105601177
B1733534032292N00726604WA0105601177
B1733544032287N00726604WA0105501177
B1733554032282N00726605WA0105501176
B1733564032276N00726606WA0105501176
B1733574032271N00726608WA0105501177
B1733584032266N00726609WA0105601177
B1733594032262N00726610WA0105701178
B1734004032257N00726612WA0105701179
B1734014032253N00726613WA0105701179
B1734024032248N00726614WA0105601178
B1734034032243N00726615WA0105501177
B1734044032238N00726616WA0105501177
B1734054032233N00726617WA0105601177
B1734064032227N00726618WA0105501177
B1734074032223N00726619WA0105401176
B1734084032219N00726620WA0105201174
B1734094032214N00726621WA0105001171
B1734104032208N00726622WA0104701169
B1734114032203N00726625WA0104601168
B1734124032197N00726627WA0104601168
B1734134032192N00726629WA0104601168
B1734144032187N00726631WA0104701169
B1734154032183N00726632WA0104701169
B1734164032179N00726633WA0104701169
B1734174032174N00726634WA0104601168
B1734184032169N00726636WA0104501167
B1734194032164N00726637WA0104401166
B1734204032160N00726639WA0104401166
B1734214032155N00726640WA0104401166
B1734224032151N00726642WA0104401166
B1734234032147N00726644WA0104301165
B1734244032143N00726645WA0104201165
B1734254032138N00726647WA0104101164
B1734264032134N00726649WA0104101163
B1734274032130N00726650WA0104001162
B1734284032125N00726652WA0103901162
B1734294032120N00726654WA0103901161
B1734304032116N00726656WA0103801160
B1734314032111N00726658WA0103701160
B1734324032107N00726660WA0103701160
B1734334032102N00726662WA0103701159
B1734344032098N00726664WA0103601159
B1734354032093N00726666WA0103601159
B1734364032089N00726668WA0103601159
B1734374032084N00726671WA0103601159
B1734384032080N00726674WA0103601159
B1734394032076N00726677WA0103601158
B1734404032072N00726680WA0103601158
B1734414032068N00726682WA0103601158
B1734424032064N00726685WA0103601159
B1734434032059N00726687WA0103601159
B1734444032055N00726689WA0103601159
B1734454032051N00726691WA0103501158
B1734464032047N00726693WA0103501157
B1734474032043N00726695WA0103401157
B1734484032039N00726698WA0103401156
B1734494032035N00726702WA0103301155
B1734504032032N00726705WA0103301155
B1734514032028N00726709WA0103201155
B1734524032026N00726713WA0103201154
B1734534032023N00726718WA0103101154
B1734544032021N00726722WA0103101153
B1734554032018N00726727WA0103101153
B1734564032016N00726731WA0103101153
B1734574032013N00726736WA0103101153
B1734584032011N00726741WA0103201154
B1734594032008N00726745WA0103301155
B1735004032005N00726749WA0103301156
B1735014032002N00726753WA0103401156
B1735024032000N00726756WA0103501157
B1735034031997N00726760WA0103601159
B1735044031993N00726762WA0103701159
B1735054031990N00726764WA0103701160
B1735064031987N00726765WA0103601159
B1735074031983N00726768WA0103501158
B1735084031979N00726771WA0103501158
B1735094031976N00726774WA0103601158
B1735104031972N00726777WA0103701159
B1735114031968N00726779WA0103901161
B1735124031964N00726780WA0104001162
B1735134031961N00726780WA0103901162
B1735144031958N00726781WA0103801160
B1735154031955N00726783WA0103601158
B1735164031953N00726786WA0103501157
B1735174031951N00726790WA0103401156
B1735184031948N00726793WA0103401156
B1735194031947N00726797WA0103401156
B1735204031947N00726801WA0103401156
B1735214031947N00726805WA0103401156
B1735224031947N00726809WA0103501157
B1735234031946N00726812WA0103501157
B1735244031945N00726815WA0103501157
B1735254031945N00726819WA0103401156
B1735264031944N00726822WA0103401156
B1735274031944N00726826WA0103401156
B1735284031945N00726829WA0103501157
B1735294031945N00726832WA0103501157
B1735304031946N00726835WA0103501157
B1735314031948N00726837WA0103501157
B1735324031950N00726839WA0103401156
B1735334031954N00726840WA0103301154
B1735344031958N00726840WA0103201154
B1735354031962N00726838WA0103201154
B1735364031966N00726837WA0103201154
B1735374031969N00726835WA0103101153
B1735384031973N00726833WA0103001152
B1735394031977N00726832WA0102901151
B1735404031981N00726831WA0102801150
B1735414031986N00726831WA0102801149
B1735424031990N00726830WA0102701149
B1735434031994N00726830WA0102701149
B1735444031999N00726830WA0102701149
B1735454032003N00726829WA0102601148
B1735464032008N00726827WA0102601147
B1735474032012N00726825WA0102601147
B1735484032017N00726822WA0102501146
B1735494032021N00726818WA0102501146
B1735504032026N00726814WA0102401146
B1735514032030N00726811WA0102401145
B1735524032035N00726809WA0102301144
B1735534032040N00726807WA0102301144
B1735544032045N00726804WA0102301144
B1735554032049N00726800WA0102301144
B1735564032054N00726796WA0102301144
B1735574032058N00726793WA0102301144
B1735584032061N00726791WA0102201143
B1735594032065N00726789WA0102101142
B1736004032070N00726787WA0101901140
B1736014032074N00726785WA0101601137
B1736024032079N00726782WA0101501136
B1736034032085N00726780WA0101501136
B1736044032090N00726778WA0101601137
B1736054032095N00726775WA0101601137
B1736064032098N00726773WA0101601137
B1736074032103N00726771WA0101401135
B1736084032107N00726769WA0101301134
B1736094032112N00726767WA0101201133
B1736104032118N00726764WA0101101132
B1736114032123N00726761WA0101201132
B1736124032129N00726758WA0101301133
B1736134032134N00726756WA0101401135
B1736144032139N00726753WA0101601137
B1736154032143N00726751WA0101701138
B1736164032147N00726748WA0101701137
B1736174032151N00726747WA0101501136
B1736184032156N00726745WA0101301133
B1736194032161N00726742WA0101101131
B1736204032166N00726739WA0100901129
B1736214032172N00726736WA0100801128
B1736224032178N00726734WA0100701127
B1736234032183N00726732WA0100601127
B1736244032189N00726729WA0100601126
B1736254032194N00726726WA0100501125
B1736264032200N00726724WA0100401125
B1736274032206N00726723WA0100401124
B1736284032212N00726721WA0100501125
B1736294032217N00726719WA0100501126
B1736304032222N00726718WA0100501126
B1736314032227N00726717WA0100601126
B1736324032232N00726715WA0100501125
B1736334032237N00726714WA0100401124
B1736344032243N00726714WA0100401124
B1736354032249N00726713WA0100401124
B1736364032255N00726712WA0100501125
B1736374032261N00726711WA0100701127
B1736384032265N00726710WA0100801128
B1736394032270N00726709WA0101001130
B1736404032274N00726708WA0101001130
B1736414032279N00726707WA0100901129
B1736424032284N00726706WA0100901129
B1736434032289N00726704WA0100901129
B1736444032295N00726703WA0100901128
B1736454032300N00726702WA0100801128
B1736464032305N00726702WA0100801127
B1736474032310N00726701WA0100701127
B1736484032316N00726700WA0100701127
B1736494032321N00726700WA0100601126
B1736504032326N00726699WA0100501125
B1736514032332N00726700WA0100601125
B1736524032337N00726700WA0100701126
B1736534032341N00726701WA0100801127
B1736544032344N00726702WA0100801127
B1736554032348N00726703WA0100601126
B1736564032351N00726704WA0100501124
B1736574032355N00726706WA0100301123
B1736584032360N00726708WA0100301122
B1736594032363N00726711WA0100201122
B1737004032367N00726714WA0100201122
B1737014032370N00726717WA0100201122
B1737024032373N00726720WA0100301122
B1737034032376N00726723WA0100301122
B1737044032380N00726725WA0100301122
B1737054032384N00726726WA0100201122
B1737064032387N00726727WA0100201121
B1737074032392N00726728WA0100101120
B1737084032397N00726727WA0100001119
B1737094032402N00726724WA0099901119
B1737104032407N00726720WA0099901118
B1737114032412N00726715WA0099801117
B1737124032416N00726708WA0099701116
B1737134032418N00726701WA0099601115
B1737144032420N00726692WA0099501114
B1737154032420N00726683WA0099401113
B1737164032418N00726674WA0099301112
B1737174032416N00726667WA0099201111
B1737184032412N00726661WA0099101110
B1737194032407N00726656WA0099001109
B1737204032402N00726654WA0098901108
B1737214032398N00726652WA0098901108
B1737224032394N00726652WA0098801107
B1737234032390N00726653WA0098801107
B1737244032386N00726655WA0098701106
B1737254032382N00726657WA0098701105
B1737264032379N00726659WA0098601105
B1737274032375N00726662WA0098601105
B1737284032372N00726665WA0098601105
B1737294032370N00726668WA0098601105
B1737304032368N00726672WA0098601105
B1737314032365N00726676WA0098601105
B1737324032363N00726679WA0098601105
B1737334032361N00726683WA0098701105
B1737344032360N00726687WA0098701105
B1737354032359N00726690WA0098701105
B1737364032358N00726694WA0098601105
B1737374032357N00726697WA0098601104
B1737384032357N00726701WA0098601104
B1737394032357N00726705WA0098501103
B1737404032357N00726709WA0098401103
B1737414032359N00726713WA0098401102
B1737424032360N00726717WA0098301101
B1737434032361N00726721WA0098201100
B1737444032362N00726725WA0098101099
B1737454032363N00726730WA0098001098
B1737464032364N00726734WA0097901097
B1737474032365N00726738WA0097801096
B1737484032366N00726743WA0097701095
B1737494032367N00726747WA0097701095
B1737504032368N00726752WA0097501093
B1737514032368N00726757WA0097401092
B1737524032369N00726762WA0097401092
B1737534032369N00726767WA0097301091
B1737544032370N00726772WA0097301091
B1737554032370N00726776WA0097201090
B1737564032372N00726782WA0097201090
B1737574032372N00726785WA0097201089
B1737584032373N00726790WA0097101089
B1737594032373N00726794WA0097101088
B1738004032373N00726799WA0097001088
B1738014032373N00726803WA0096901087
B1738024032372N00726808WA0096901087
B1738034032370N00726812WA0096901087
B1738044032369N00726816WA0096901087
B1738054032367N00726819WA0096901087
B1738064032363N00726821WA0096801086
B1738074032360N00726823WA0096801085
B1738084032355N00726824WA0096701084
B1738094032350N00726824WA0096701084
B1738104032345N00726822WA0096601084
B1738114032340N00726818WA0096601084
B1738124032336N00726814WA0096601083
B1738134032332N00726809WA0096501083
B1738144032328N00726804WA0096501082
B1738154032324N00726797WA0096401082
B1738164032320N00726790WA0096401082
B1738174032317N00726782WA0096501082
B1738184032315N00726774WA0096501082
B1738194032313N00726767WA0096601083
B1738204032310N00726759WA0096601084
B1738214032308N00726752WA0096601083
B1738224032305N00726745WA0096601083
B1738234032302N00726737WA0096501082
B1738244032299N00726729WA0096501082
B1738254032295N00726722WA0096501082
B1738264032291N00726716WA0096501082
B1738274032287N00726710WA0096501082
B1738284032282N00726706WA0096501082
B1738294032277N00726703WA0096401081
B1738304032272N00726702WA0096401081
B1738314032268N00726703WA0096401081
B1738324032264N00726705WA0096501082
B1738334032261N00726709WA0096501082
B1738344032259N00726714WA0096601083
B1738354032259N00726718WA0096801084
B1738364032260N00726723WA0096901086
B1738374032260N00726725WA0097001087
B1738384032261N00726728WA0097001087
B1738394032261N00726730WA0097001087
B1738404032262N00726733WA0097001087
B1738414032264N00726736WA0097001087
B1738424032265N00726739WA0097001087
B1738434032268N00726741WA0097001086
B1738444032272N00726743WA0096901086
B1738454032276N00726743WA0096801085
B1738464032281N00726743WA0096801085
B1738474032287N00726740WA0096801085
B1738484032292N00726736WA0096801085
B1738494032295N00726730WA0096801084
B1738504032299N00726722WA0096701083
B1738514032300N00726713WA0096701083
B1738524032301N00726704WA0096701084
B1738534032300N00726696WA0096701084
B1738544032298N00726690WA0096701083
B1738554032295N00726684WA0096601082
B1738564032289N00726679WA0096501081
B1738574032284N00726676WA0096501081
B1738584032279N00726676WA0096501081
B1738594032275N00726679WA0096501081
B1739004032273N00726682WA0096601082
B1739014032273N00726686WA0096701083
B1739024032274N00726690WA0096801084
B1739034032274N00726694WA0096901085
B1739044032274N00726698WA0096901085
B1739054032273N00726701WA0096801084
B1739064032271N00726705WA0096801085
B1739074032269N00726710WA0096901085
B1739084032269N00726714WA0097001086
B1739094032270N00726718WA0097001087
B1739104032271N00726721WA0097001086
B1739114032274N00726724WA0096901085
B1739124032277N00726726WA0096701083
B1739134032281N00726727WA0096601082
B1739144032286N00726727WA0096601082
B1739154032291N00726725WA0096601082
B1739164032296N00726722WA0096601082
B1739174032300N00726716WA0096601082
B1739184032302N00726708WA0096501081
B1739194032303N00726698WA0096401080
B1739204032301N00726689WA0096301079
B1739214032297N00726682WA0096201078
B1739224032292N00726677WA0096101077
B1739234032287N00726676WA0096001076
B1739244032283N00726677WA0096001075
B1739254032280N00726679WA0095901075
B1739264032277N00726682WA0095801074
B1739274032275N00726685WA0095701073
B1739284032272N00726688WA0095601072
B1739294032269N00726691WA0095501070
B1739304032267N00726695WA0095401069
B1739314032266N00726699WA0095301069
B1739324032265N00726704WA0095401070
B1739334032265N00726709WA0095501071
B1739344032266N00726714WA0095601072
B1739354032267N00726718WA0095701073
B1739364032268N00726722WA0095701073
B1739374032270N00726727WA0095801074
B1739384032271N00726731WA0095901075
B1739394032272N00726735WA0095901075
B1739404032274N00726739WA0095901074
B1739414032275N00726742WA0095801073
B1739424032276N00726746WA0095601072
B1739434032276N00726751WA0095501070
B1739444032278N00726755WA0095301069
B1739454032279N00726760WA0095201067
B1739464032280N00726766WA0095101067
B1739474032281N00726770WA0095101067
B1739484032282N00726775WA0095101067
B1739494032283N00726779WA0095101067
B1739504032284N00726783WA0095001066
B1739514032286N00726787WA0095001066
B1739524032287N00726792WA0095001065
B1739534032289N00726796WA0094901065
B1739544032290N00726801WA0094901065
B1739554032292N00726805WA0094901064
B1739564032293N00726810WA0094801064
B1739574032294N00726814WA0094801064
B1739584032295N00726819WA0094701063
B1739594032296N00726824WA0094701063
B1740004032297N00726828WA0094601062
B1740014032298N00726833WA0094601061
B1740024032298N00726838WA0094601061
B1740034032299N00726843WA0094501061
B1740044032300N00726848WA0094501061
B1740054032301N00726852WA0094401059
B1740064032302N00726856WA0094301059
B1740074032303N00726861WA0094201058
B1740084032305N00726865WA0094101056
B1740094032307N00726869WA0093901055
B1740104032310N00726873WA0093901055
B1740114032314N00726877WA0094101056
B1740124032316N00726881WA0094101057
B1740134032317N00726885WA0094101057
B1740144032319N00726889WA0094001056
B1740154032320N00726893WA0094001056
B1740164032323N00726897WA0093901055
B1740174032325N00726902WA0093901055
B1740184032327N00726907WA0093901055
B1740194032328N00726912WA0093901055
B1740204032328N00726917WA0093901055
B1740214032329N00726921WA0093901055
B1740224032330N00726925WA0093901055
B1740234032331N00726929WA0093901054
B1740244032332N00726933WA0093801053
B1740254032333N00726938WA0093701053
B1740264032334N00726943WA0093701053
B1740274032335N00726948WA0093701052
B1740284032336N00726953WA0093701052
B1740294032337N00726957WA0093701052
B1740304032338N00726961WA0093701052
B1740314032338N00726966WA0093601052
B1740324032338N00726970WA0093601051
B1740334032338N00726975WA0093501050
B1740344032339N00726979WA0093401049
B1740354032340N00726984WA0093301049
B1740364032341N00726989WA0093301048
B1740374032343N00726995WA0093301048
B1740384032344N00727000WA0093401049
B1740394032345N00727005WA0093501050
B1740404032346N00727009WA0093601052
B1740414032346N00727013WA0093701052
B1740424032347N00727017WA0093801053
B1740434032349N00727021WA0093901054
B1740444032351N00727024WA0093901054
B1740454032354N00727026WA0093901054
B1740464032357N00727027WA0093801054
B1740474032362N00727028WA0093801053
B1740484032367N00727027WA0093801053
B1740494032372N00727024WA0093701052
B1740504032377N00727021WA0093701052
B1740514032381N00727015WA0093601051
B1740524032384N00727009WA0093601051
B1740534032387N00727001WA0093601051
B1740544032388N00726993WA0093701052
B1740554032387N00726985WA0093801053
B1740564032384N00726979WA0093901054
B1740574032382N00726974WA0093901054
B1740584032378N00726970WA0093901053
B1740594032373N00726967WA0093801053
B1741004032368N00726965WA0093701052
B1741014032364N00726964WA0093701052
B1741024032360N00726966WA0093601051
B1741034032356N00726970WA0093501050
B1741044032353N00726973WA0093501050
B1741054032350N00726977WA0093501050
B1741064032348N00726981WA0093501050
B1741074032344N00726984WA0093501050
B1741084032342N00726987WA0093501050
B1741094032339N00726990WA0093501049
B1741104032337N00726994WA0093401048
B1741114032336N00726998WA0093301048
B1741124032335N00727002WA0093301047
B1741134032335N00727006WA0093201046
B1741144032336N00727011WA0093101046
B1741154032337N00727015WA0093101046
B1741164032338N00727020WA0093201046
B1741174032339N00727024WA0093201046
B1741184032340N00727029WA0093301047
B1741194032340N00727032WA0093201047
B1741204032341N00727036WA0093101046
B1741214032342N00727039WA0093001044
B1741224032343N00727043WA0092801042
B1741234032344N00727048WA0092601041
B1741244032346N00727053WA0092601040
B1741254032346N00727059WA0092501039
B1741264032347N00727064WA0092501039
B1741274032348N00727069WA0092501039
B1741284032348N00727074WA0092501039
B1741294032349N00727079WA0092501039
B1741304032349N00727084WA0092401038
B1741314032351N00727088WA0092301037
B1741324032352N00727093WA0092201036
B1741334032353N00727097WA0092001034
B1741344032354N00727102WA0091901033
B1741354032354N00727107WA0091801032
B1741364032355N00727112WA0091701031
B1741374032355N00727116WA0091701031
B1741384032356N00727121WA0091601030
B1741394032356N00727126WA0091501029
B1741404032357N00727131WA0091501028
B1741414032357N00727136WA0091401028
B1741424032358N00727140WA0091301027
B1741434032359N00727145WA0091201026
B1741444032359N00727149WA0091101024
B1741454032360N00727154WA0091001023
B1741464032361N00727159WA0090901022
B1741474032362N00727164WA0090701021
B1741484032363N00727169WA0090701020
B1741494032363N00727173WA0090601019
B1741504032363N00727178WA0090401018
B1741514032364N00727182WA0090301016
B1741524032365N00727187WA0090101014
B1741534032366N00727192WA0089901013
B1741544032367N00727197WA0089901012
B1741554032368N00727202WA0089901012
B1741564032369N00727207WA0089901012
B1741574032370N00727211WA0089901012
B1741584032370N00727215WA0089901012
B1741594032371N00727219WA0089801011
B1742004032371N00727223WA0089601009
B1742014032372N00727227WA0089501008
B1742024032373N00727232WA0089301006
B1742034032374N00727237WA0089201005
B1742044032375N00727241WA0089101005
B1742054032375N00727245WA0089101004
B1742064032376N00727249WA0088901002
B1742074032377N00727253WA0088701000
B1742084032379N00727257WA0088500998
B1742094032379N00727262WA0088300996
B1742104032380N00727268WA0088200995
B1742114032381N00727273WA0088100994
B1742124032382N00727278WA0088000993
B1742134032383N00727283WA0087900992
B1742144032384N00727288WA0087900992
B1742154032385N00727293WA0087800991
B1742164032386N00727298WA0087700990
B1742174032387N00727303WA0087600988
B1742184032388N00727308WA0087500988
B1742194032389N00727313WA0087500988
B1742204032390N00727318WA0087500988
B1742214032390N00727322WA0087500988
B1742224032391N00727326WA0087400987
B1742234032391N00727330WA0087300986
B1742244032391N00727335WA0087200984
B1742254032392N00727340WA0087100983
B1742264032393N00727345WA0087000982
B1742274032394N00727350WA0086900981
B1742284032395N00727355WA0086800981
B1742294032397N00727360WA0086700980
B1742304032398N00727365WA0086600979
B1742314032399N00727371WA0086500978
B1742324032399N00727376WA0086400977
B1742334032401N00727381WA0086300976
B1742344032401N00727386WA0086300975
B1742354032401N00727391WA0086200975
B1742364032401N00727396WA0086200974
B1742374032401N00727401WA0086000973
B1742384032401N00727406WA0086000972
B1742394032402N00727411WA0085900971
B1742404032403N00727416WA0085700969
B1742414032403N00727422WA0085600968
B1742424032403N00727427WA0085600968
B1742434032403N00727432WA0085500967
B1742444032404N00727436WA0085500967
B1742454032405N00727440WA0085400965
B1742464032407N00727445WA0085200964
B1742474032408N00727450WA0085100963
B1742484032409N00727456WA0085100963
B1742494032409N00727460WA0085100962
B1742504032410N00727465WA0085000962
B1742514032412N00727469WA0084900961
B1742524032413N00727473WA0084700959
B1742534032414N00727478WA0084600957
B1742544032415N00727483WA0084400956
B1742554032416N00727488WA0084300955
B1742564032417N00727493WA0084200954
B1742574032418N00727497WA0084100953
B1742584032419N00727502WA0084000952
B1742594032420N00727507WA0084000951
B1743004032422N00727512WA0083900950
B1743014032423N00727516WA0083800950
B1743024032425N00727521WA0083800949
B1743034032426N00727525WA0083700948
B1743044032427N00727529WA0083600948
B1743054032428N00727534WA0083500947
B1743064032429N00727539WA0083500946
B1743074032429N00727543WA0083400945
B1743084032430N00727548WA0083300944
B1743094032431N00727551WA0083200943
B1743104032433N00727556WA0083100942
B1743114032435N00727560WA0083000941
B1743124032436N00727564WA0082900940
B1743134032436N00727567WA0082800939
B1743144032437N00727572WA0082700938
B1743154032438N00727577WA0082700938
B1743164032439N00727581WA0082700938
B1743174032440N00727585WA0082800939
B1743184032440N00727589WA0082800939
B1743194032441N00727593WA0082800939
B1743204032441N00727598WA0082900940
B1743214032441N00727603WA0082900940
B1743224032441N00727607WA0083000941
B1743234032441N00727612WA0083100942
B1743244032440N00727616WA0083200942
B1743254032440N00727620WA0083200943
B1743264032439N00727624WA0083200943
B1743274032440N00727629WA0083300943
B1743284032441N00727633WA0083300943
B1743294032444N00727637WA0083300943
B1743304032448N00727638WA0083300944
B1743314032452N00727639WA0083300944
B1743324032456N00727637WA0083300943
B1743334032461N00727634WA0083200943
B1743344032466N00727628WA0083200942
B1743354032469N00727621WA0083100942
B1743364032472N00727613WA0083100941
B1743374032473N00727605WA0083000940
B1743384032473N00727596WA0082900940
B1743394032470N00727588WA0082900939
B1743404032466N00727582WA0082900939
B1743414032461N00727578WA0082900939
B1743424032456N00727576WA0082900939
B1743434032452N00727575WA0082900939
B1743444032447N00727577WA0082800938
B1743454032443N00727579WA0082800938
B1743464032440N00727583WA0082800939
B1743474032437N00727587WA0082900940
B1743484032436N00727592WA0083000940
B1743494032435N00727595WA0083100942
B1743504032434N00727599WA0083200942
B1743514032433N00727603WA0083200943
B1743524032432N00727606WA0083200943
B1743534032431N00727610WA0083200943
B1743544032431N00727613WA0083200943
B1743554032432N00727617WA0083200943
B1743564032434N00727620WA0083200942
B1743574032436N00727622WA0083100942
B1743584032440N00727624WA0083100941
B1743594032444N00727624WA0083000941
B1744004032449N00727622WA0083000940
B1744014032454N00727619WA0083000940
B1744024032458N00727614WA0082900939
B1744034032462N00727607WA0082900940
B1744044032465N00727600WA0082900939
B1744054032466N00727592WA0082900939
B1744064032468N00727583WA0082800938
B1744074032468N00727574WA0082800938
B1744084032467N00727565WA0082800938
B1744094032464N00727558WA0082700937
B1744104032461N00727551WA0082700937
B1744114032456N00727545WA0082600936
B1744124032452N00727541WA0082500935
B1744134032446N00727538WA0082500935
B1744144032441N00727536WA0082600936
B1744154032436N00727535WA0082700937
B1744164032433N00727535WA0082800937
B1744174032429N00727537WA0082700937
B1744184032425N00727539WA0082700937
B1744194032422N00727542WA0082800938
B1744204032419N00727546WA0082900938
B1744214032417N00727550WA0082900939
B1744224032415N00727553WA0083000940
B1744234032414N00727556WA0083000940
B1744244032412N00727560WA0083000939
B1744254032411N00727564WA0082900938
B1744264032411N00727567WA0082800938
B1744274032412N00727571WA0082700937
B1744284032414N00727575WA0082600936
B1744294032417N00727579WA0082600936
B1744304032420N00727581WA0082600936
B1744314032424N00727583WA0082600936
B1744324032427N00727584WA0082600936
B1744334032431N00727583WA0082600935
B1744344032436N00727582WA0082400934
B1744354032441N00727579WA0082300932
B1744364032446N00727576WA0082200931
B1744374032450N00727573WA0082100931
B1744384032455N00727570WA0082100930
B1744394032460N00727566WA0082000930
B1744404032465N00727561WA0082000930
B1744414032468N00727555WA0082000929
B1744424032471N00727548WA0081900928
B1744434032473N00727540WA0081800927
B1744444032474N00727532WA0081700926
B1744454032475N00727523WA0081600925
B1744464032473N00727514WA0081500924
B1744474032470N00727506WA0081400923
B1744484032465N00727500WA0081400923
B1744494032460N00727496WA0081500924
B1744504032455N00727494WA0081600925
B1744514032451N00727493WA0081600925
B1744524032447N00727492WA0081600925
B1744534032444N00727494WA0081600925
B1744544032440N00727496WA0081500924
B1744554032436N00727500WA0081500924
B1744564032433N00727504WA0081600925
B1744574032430N00727508WA0081700926
B1744584032427N00727511WA0081700926
B1744594032425N00727516WA0081700926
B1745004032423N00727520WA0081600925
B1745014032421N00727525WA0081600925
B1745024032419N00727530WA0081600925
B1745034032418N00727535WA0081600925
B1745044032417N00727540WA0081600925
B1745054032417N00727545WA0081700926
B1745064032418N00727549WA0081800927
B1745074032418N00727553WA0081900928
B1745084032419N00727557WA0081900928
B1745094032419N00727560WA0081800927
B1745104032419N00727564WA0081700926
B1745114032420N00727569WA0081700925
B1745124032421N00727574WA0081700926
B1745134032422N00727580WA0081800927
B1745144032422N00727584WA0082000928
B1745154032421N00727589WA0082000929
B1745164032421N00727593WA0082100930
B1745174032421N00727597WA0082100930
B1745184032421N00727600WA0082100930
B1745194032421N00727603WA0082100930
B1745204032422N00727606WA0082000929
B1745214032425N00727609WA0081900928
B1745224032428N00727612WA0081800927
B1745234032432N00727613WA0081800926
B1745244032437N00727614WA0081800927
B1745254032443N00727612WA0081800927
B1745264032448N00727608WA0081900927
B1745274032452N00727602WA0081900928
B1745284032454N00727594WA0081900928
B1745294032455N00727585WA0081900927
B1745304032456N00727576WA0081900927
B1745314032454N00727567WA0082000928
B1745324032451N00727559WA0082000928
B1745334032447N00727554WA0082000929
B1745344032443N00727549WA0082000929
B1745354032438N00727547WA0082000929
B1745364032433N00727546WA0082000928
B1745374032429N00727547WA0081900928
B1745384032425N00727551WA0081900928
B1745394032423N00727556WA0081900928
B1745404032421N00727560WA0082000929
B1745414032420N00727563WA0082000929
B1745424032419N00727566WA0082000929
B1745434032418N00727569WA0081900927
B1745444032417N00727573WA0081700926
B1745454032416N00727578WA0081600924
B1745464032416N00727584WA0081500924
B1745474032415N00727589WA0081600924
B1745484032415N00727594WA0081700925
B1745494032415N00727599WA0081700926
B1745504032416N00727603WA0081700926
B1745514032416N00727608WA0081700925
B1745524032416N00727613WA0081700926
B1745534032416N00727618WA0081800927
B1745544032415N00727622WA0081800927
B1745554032415N00727627WA0081800926
B1745564032415N00727631WA0081800926
B1745574032414N00727636WA0081800927
B1745584032413N00727642WA0081900927
B1745594032412N00727647WA0082000928
B1746004032411N00727652WA0082100929
B1746014032410N00727656WA0082200930
B1746024032409N00727660WA0082300931
B1746034032409N00727663WA0082300932
B1746044032410N00727665WA0082200931
B1746054032412N00727668WA0082100930
B1746064032416N00727670WA0082100929
B1746074032420N00727671WA0082100930
B1746084032424N00727669WA0082100930
B1746094032428N00727666WA0082100930
B1746104032432N00727661WA0082100929
B1746114032435N00727654WA0082000928
B1746124032437N00727646WA0081900928
B1746134032438N00727636WA0081900927
B1746144032436N00727627WA0081900927
B1746154032433N00727619WA0081900927
B1746164032429N00727612WA0082000928
B1746174032425N00727607WA0082000928
B1746184032421N00727603WA0082100929
B1746194032416N00727601WA0082100929
B1746204032412N00727599WA0082000929
B1746214032406N00727599WA0081900927
B1746224032402N00727602WA0081800927
B1746234032398N00727605WA0081900927
B1746244032395N00727609WA0081900927
B1746254032393N00727613WA0081900928
B1746264032390N00727616WA0082000928
B1746274032387N00727618WA0082000928
B1746284032384N00727622WA0081900928
B1746294032383N00727626WA0081900927
B1746304032382N00727630WA0081900928
B1746314032382N00727635WA0081900928
B1746324032382N00727639WA0081900928
B1746334032381N00727643WA0081900928
B1746344032381N00727646WA0081900927
B1746354032381N00727650WA0081800927
B1746364032381N00727654WA0081700926
B1746374032381N00727659WA0081700925
B1746384032381N00727663WA0081600925
B1746394032382N00727668WA0081600924
B1746404032383N00727672WA0081500924
B1746414032384N00727677WA0081500923
B1746424032385N00727681WA0081500923
B1746434032387N00727685WA0081500923
B1746444032391N00727688WA0081500923
B1746454032394N00727690WA0081500924
B1746464032398N00727691WA0081500923
B1746474032403N00727693WA0081500923
B1746484032407N00727694WA0081500924
B1746494032411N00727695WA0081500924
B1746504032415N00727695WA0081500923
B1746514032419N00727695WA0081500923
B1746524032424N00727694WA0081400922
B1746534032429N00727693WA0081300922
B1746544032435N00727689WA0081400922
B1746554032440N00727684WA0081400922
B1746564032444N00727678WA0081500923
B1746574032449N00727673WA0081500923
B1746584032453N00727668WA0081500923
B1746594032458N00727663WA0081400922
B1747004032463N00727657WA0081300921
B1747014032469N00727652WA0081200921
B1747024032474N00727647WA0081200920
B1747034032479N00727641WA0081100919
B1747044032484N00727636WA0081000918
B1747054032490N00727629WA0080900917
B1747064032495N00727623WA0080800916
B1747074032500N00727618WA0080800916
B1747084032506N00727612WA0080700915
B1747094032511N00727606WA0080700915
B1747104032516N00727600WA0080700915
B1747114032521N00727593WA0080600914
B1747124032526N00727588WA0080500913
B1747134032531N00727582WA0080400912
B1747144032537N00727576WA0080300910
B1747154032543N00727570WA0080200910
B1747164032548N00727563WA0080200910
B1747174032553N00727557WA0080200910
B1747184032557N00727551WA0080200910
B1747194032563N00727543WA0080100909
B1747204032566N00727538WA0080100908
B1747214032571N00727532WA0080000908
B1747224032576N00727526WA0079900907
B1747234032580N00727519WA0079800906
B1747244032585N00727513WA0079800905
B1747254032590N00727507WA0079700905
B1747264032595N00727501WA0079600904
B1747274032600N00727495WA0079500903
B1747284032604N00727489WA0079500902
B1747294032609N00727483WA0079400902
B1747304032614N00727478WA0079400901
B1747314032618N00727472WA0079400901
B1747324032623N00727466WA0079300901
B1747334032627N00727460WA0079200900
B1747344032632N00727454WA0079100899
B1747354032637N00727448WA0079000898
B1747364032642N00727442WA0078900897
B1747374032647N00727437WA0078900896
B1747384032652N00727431WA0078800895
B1747394032656N00727426WA0078700894
B1747404032662N00727421WA0078600893
B1747414032667N00727415WA0078500892
B1747424032672N00727409WA0078400891
B1747434032677N00727404WA0078300891
B1747444032682N00727399WA0078300890
B1747454032688N00727394WA0078200889
B1747464032693N00727388WA0078100888
B1747474032698N00727383WA0078000888
B1747484032704N00727378WA0078000887
B1747494032709N00727373WA0077900886
B1747504032714N00727368WA0077800886
B1747514032720N00727363WA0077800885
B1747524032725N00727358WA0077800885
B1747534032730N00727353WA0077700884
B1747544032736N00727348WA0077600883
B1747554032741N00727343WA0077500883
B1747564032747N00727338WA0077400882
B1747574032752N00727333WA0077400881
B1747584032758N00727328WA0077300880
B1747594032763N00727322WA0077200879
B1748004032769N00727317WA0077100878
B1748014032774N00727311WA0077000877
B1748024032779N00727306WA0076900876
B1748034032785N00727300WA0076900876
B1748044032791N00727296WA0076800875
B1748054032796N00727293WA0076800875
B1748064032802N00727290WA0076700874
B1748074032807N00727288WA0076600873
B1748084032813N00727285WA0076500871
B1748094032819N00727282WA0076400870
B1748104032825N00727280WA0076300869
B1748114032830N00727279WA0076200868
B1748124032836N00727278WA0076100868
B1748134032841N00727278WA0076000867
B1748144032846N00727278WA0076000866
B1748154032851N00727278WA0075900865
B1748164032856N00727279WA0075800864
B1748174032860N00727280WA0075700863
B1748184032865N00727282WA0075600863
B1748194032869N00727283WA0075500862
B1748204032873N00727285WA0075400861
B1748214032876N00727288WA0075300860
B1748224032879N00727291WA0075200858
B1748234032882N00727294WA0075100857
B1748244032885N00727298WA0075000856
B1748254032887N00727302WA0074900855
B1748264032889N00727305WA0074800854
B1748274032891N00727309WA0074600852
B1748284032893N00727313WA0074400850
B1748294032894N00727316WA0074300849
B1748304032896N00727321WA0074100848
B1748314032897N00727325WA0074100847
B1748324032899N00727329WA0074000846
B1748334032900N00727333WA0073900845
B1748344032902N00727337WA0073800844
B1748354032903N00727341WA0073700843
B1748364032904N00727345WA0073500841
B1748374032906N00727350WA0073400840
B1748384032908N00727354WA0073300839
B1748394032910N00727358WA0073200838
B1748404032911N00727362WA0073200838
B1748414032913N00727366WA0073100837
B1748424032913N00727370WA0073000836
B1748434032914N00727374WA0072900834
B1748444032915N00727379WA0072800833
B1748454032917N00727383WA0072700833
B1748464032918N00727387WA0072600831
B1748474032919N00727392WA0072500831
B1748484032920N00727396WA0072500831
B1748494032920N00727400WA0072500831
B1748504032920N00727404WA0072400830
B1748514032920N00727408WA0072300829
B1748524032921N00727412WA0072200828
B1748534032921N00727417WA0072100827
B1748544032922N00727421WA0072100826
B1748554032922N00727426WA0072000826
B1748564032922N00727431WA0072000826
B1748574032922N00727435WA0072000825
B1748584032922N00727439WA0072000825
B1748594032922N00727442WA0071900825
B1749004032923N00727446WA0071800824
B1749014032924N00727449WA0071700823
B1749024032925N00727453WA0071600822
B1749034032926N00727457WA0071500820
B1749044032926N00727461WA0071400819
B1749054032926N00727464WA0071300818
B1749064032926N00727468WA0071200817
B1749074032926N00727472WA0071100816
B1749084032926N00727475WA0070900814
B1749094032928N00727479WA0070800813
B1749104032929N00727483WA0070700812
B1749114032932N00727486WA0070600811
B1749124032934N00727489WA0070600811
B1749134032936N00727492WA0070500810
B1749144032940N00727495WA0070500810
B1749154032943N00727497WA0070300808
B1749164032947N00727499WA0070300808
B1749174032951N00727501WA0070200807
B1749184032954N00727502WA0070200807
B1749194032958N00727503WA0070200807
B1749204032962N00727504WA0070200807
B1749214032965N00727505WA0070200806
B1749224032969N00727506WA0070100806
B1749234032973N00727507WA0070000805
B1749244032977N00727508WA0069900804
B1749254032981N00727509WA0069800803
B1749264032984N00727511WA0069700802
B1749274032989N00727512WA0069600801
B1749284032994N00727512WA0069600800
B1749294032999N00727511WA0069500800
B1749304033003N00727510WA0069400799
B1749314033008N00727509WA0069300798
B1749324033012N00727509WA0069200796
B1749334033016N00727509WA0069000795
B1749344033021N00727508WA0068800793
B1749354033026N00727506WA0068600791
B1749364033032N00727505WA0068600790
B1749374033037N00727503WA0068600791
B1749384033041N00727502WA0068600790
B1749394033046N00727501WA0068500789
B1749404033050N00727500WA0068400788
B1749414033055N00727498WA0068300787
B1749424033060N00727495WA0068300787
B1749434033065N00727491WA0068300787
B1749444033070N00727486WA0068300787
B1749454033075N00727482WA0068300787
B1749464033078N00727479WA0068200786
B1749474033083N00727475WA0068100785
B1749484033088N00727470WA0068000784
B1749494033092N00727465WA0067900783
B1749504033096N00727459WA0067800782
B1749514033100N00727452WA0067700781
B1749524033103N00727445WA0067500779
B1749534033106N00727436WA0067400778
B1749544033108N00727428WA0067200776
B1749554033109N00727419WA0067100775
B1749564033109N00727410WA0067000774
B1749574033109N00727401WA0066900773
B1749584033108N00727391WA0066800772
B1749594033107N00727385WA0066700771
B1750004033106N00727376WA0066500769
B1750014033104N00727367WA0066400768
B1750024033102N00727359WA0066400767
B1750034033100N00727351WA0066300767
B1750044033098N00727343WA0066200766
B1750054033096N00727336WA0066200765
B1750064033093N00727328WA0066100764
B1750074033090N00727321WA0066000764
B1750084033087N00727314WA0066000764
B1750094033083N00727307WA0066000764
B1750104033080N00727301WA0066000764
B1750114033077N00727294WA0066000763
B1750124033073N00727288WA0065800762
B1750134033070N00727283WA0065700760
B1750144033065N00727277WA0065500759
B1750154033062N00727273WA0065500758
B1750164033057N00727269WA0065400757
B1750174033053N00727267WA0065300756
B1750184033049N00727266WA0065200755
B1750194033046N00727266WA0065100754
B1750204033042N00727267WA0065000754
B1750214033038N00727267WA0065000753
B1750224033035N00727267WA0064900752
B1750234033031N00727267WA0064800751
B1750244033027N00727267WA0064600749
B1750254033024N00727268WA0064600749
B1750264033021N00727269WA0064500748
B1750274033018N00727271WA0064500748
B1750284033016N00727274WA0064400747
B1750294033014N00727275WA0064400747
B1750304033011N00727277WA0064300746
B1750314033008N00727277WA0064200745
B1750324033004N00727278WA0064200745
B1750334033001N00727278WA0064200745
B1750344032999N00727278WA0064100744
B1750354032995N00727278WA0064000743
B1750364032992N00727279WA0063800741
B1750374032989N00727280WA0063700740
B1750384032986N00727282WA0063600739
B1750394032984N00727284WA0063600738
B1750404032982N00727285WA0063500737
B1750414032978N00727287WA0063400736
B1750424032975N00727288WA0063300736
B1750434032972N00727288WA0063300736
B1750444032970N00727289WA0063300735
B1750454032968N00727291WA0063100733
B1750464032968N00727294WA0062900732
B1750474032968N00727297WA0062800731
B1750484032970N00727300WA0062700729
B1750494032973N00727302WA0062600728
B1750504032977N00727304WA0062500727
B1750514032980N00727304WA0062400726
B1750524032983N00727306WA0062300725
B1750534032986N00727307WA0062200724
B1750544032989N00727309WA0062000722
B1750554032993N00727310WA0061900721
B1750564032996N00727312WA0061800720
B1750574033000N00727313WA0061700719
B1750584033003N00727315WA0061700719
B1750594033006N00727317WA0061600718
B1751004033008N00727320WA0061500717
B1751014033009N00727323WA0061300715
B1751024033008N00727328WA0061100713
B1751034033007N00727332WA0061100713
B1751044033004N00727336WA0061000712
B1751054033002N00727338WA0061000712
B1751064033001N00727340WA0060900711
B1751074032999N00727342WA0060700709
B1751084032999N00727346WA0060500707
B1751094032998N00727350WA0060200704
B1751104032999N00727356WA0060000702
B1751114033000N00727361WA0059900701
B1751124033001N00727365WA0059900700
B1751134033002N00727368WA0059800700
B1751144033003N00727371WA0059700698
B1751154033004N00727375WA0059500696
B1751164033005N00727378WA0059300694
B1751174033006N00727383WA0059100693
B1751184033007N00727387WA0059100692
B1751194033008N00727390WA0059100692
B1751204033008N00727393WA0058900691
B1751214033009N00727396WA0058700689
B1751224033010N00727398WA0058700689
B1751234033010N00727400WA0058800689
B1751244033011N00727401WA0058800689
B1751254033012N00727402WA0058800689
B1751264033012N00727402WA0058700689
B1751274033012N00727403WA0058700689
B1751284033013N00727405WA0058700689
B1751294033013N00727406WA0058700689
B1751304033013N00727407WA0058700688
B1751314033013N00727408WA0058700688
B1751324033014N00727409WA0058700688
B1751334033014N00727410WA0058800689
B1751344033014N00727411WA0058700688
B1751354033014N00727412WA0058700688
B1751364033015N00727412WA0058700688
B1751374033015N00727413WA0058700688
B1751384033015N00727413WA0058700688
B1751394033015N00727413WA0058700688
B1751404033015N00727413WA0058700688
B1751414033015N00727413WA0058700688
B1751424033015N00727413WA0058700688
B1751434033015N00727413WA0058700688
B1751444033015N00727413WA0058700688
B1751454033015N00727413WA0058700688
B1751464033015N00727413WA0058700688
B1751474033015N00727413WA0058700688
B1751484033015N00727412WA0058700688
B1751494033015N00727412WA0058700688
B1751504033015N00727411WA0058700688
B1751514033015N00727410WA0058700688
B1751524033015N00727410WA0058700688
B1751534033015N00727410WA0058700688
B1751544033014N00727410WA0058700688
B1751554033014N00727410WA0058700688
B1751564033013N00727410WA0058700688
B1751574033013N00727410WA0058700688
B1751584033013N00727410WA0058700688
B1751594033013N00727410WA0058700688
B1752004033013N00727410WA0058700688
B1752014033013N00727410WA0058700688
B1752024033013N00727410WA0058700688
B1752034033013N00727410WA0058700688
B1752044033013N00727410WA0058700688
B1752054033013N00727410WA0058700688
B1752064033013N00727410WA0058700688
B1752074033013N00727410WA0058700688
B1752084033013N00727410WA0058700688
B1752094033013N00727410WA0058700687
B1752104033013N00727410WA0058700687
B1752114033013N00727410WA0058700687
B1752124033013N00727410WA0058700688
B1752134033014N00727411WA0058700687
B1752144033014N00727411WA0058700687
B1752154033014N00727411WA0058700687
B1752164033015N00727412WA0058700687
B1752174033015N00727412WA0058700687
B1752184033016N00727413WA0058700687
B1752194033016N00727413WA0058700687
B1752204033016N00727413WA0058700687
B1752214033016N00727413WA0058700687
B1752224033016N00727413WA0058700687
B1752234033015N00727412WA0058700687
B1752244033015N00727412WA0058700687
B1752254033015N00727411WA0058700687
B1752264033015N00727411WA0058700687
B1752274033015N00727410WA0058700687
B1752284033014N00727410WA0058700687
B1752294033014N00727410WA0058700687
B1752304033014N00727410WA0058700687
B1752314033014N00727410WA0058700687
B1752324033014N00727410WA0058700687
B1752334033014N00727410WA0058700687
B1752344033014N00727411WA0058700687
B1752354033014N00727412WA0058700687
B1752364033015N00727412WA0058700686
B1752374033015N00727413WA0058700686
B1752384033015N00727414WA0058700686
B1752394033015N00727415WA0058700686
B1752404033015N00727415WA0058700686
B1752414033016N00727416WA0058700686
B1752424033016N00727417WA0058700686
B1752434033016N00727418WA0058700686
B1752444033016N00727419WA0058700686
B1752454033017N00727419WA0058700686
B1752464033018N00727420WA0058700686
B1752474033018N00727421WA0058700686
B1752484033018N00727421WA0058700686
B1752494033018N00727422WA0058700686
B1752504033018N00727423WA0058700686
B1752514033019N00727423WA0058700685
B1752524033020N00727424WA0058700686
B1752534033020N00727425WA0058700685
B1752544033021N00727425WA0058600685
B1752554033021N00727426WA0058700685
B1752564033021N00727427WA0058600685
B1752574033021N00727427WA0058600685
B1752584033022N00727428WA0058600685
B1752594033023N00727428WA0058700685
B1753004033023N00727429WA0058600685
B1753014033023N00727430WA0058600685
B1753024033024N00727430WA0058600685
B1753034033024N00727430WA0058600685
B1753044033024N00727430WA0058600685
B1753054033024N00727430WA0058600685
B1753064033024N00727430WA0058600685
B1753074033024N00727431WA0058600685
B1753084033024N00727431WA0058600685
B1753094033024N00727431WA0058600685
B1753104033023N00727432WA0058600685
B1753114033023N00727432WA0058600685
B1753124033023N00727432WA0058600685
B1753134033023N00727432WA0058600685
B1753144033023N00727432WA0058600685
B1753154033023N00727432WA0058600685
LXSX;C1;GM:1.2
LXSX;S1;TS:1748452933;TL:1748454795;AS:1160;AL:685;AT:1187;AB:685
LXSX;S1;XS:0;XD:5.00;SP:45.7;MC:0.9;MS:-1.5;NB:1864
LXSX;S1;FL:14.3;TG:107;TC:0.3;AG:341;GM:1.2
LXSX;S1;X0:40.53300,-7.44572
LXSX;S1;X1:40.54203,-7.44435
LXSX;S1;X2:40.53242,-7.44698
LXSX;S1;X3:40.54005,-7.46155
LXSX;S1;X4:40.55160,-7.45560
G7C36C89435AD51C69ED2F2C1B3767A0A
