AXSX006 SKYTRAXX
HFPLTPILOT:Sepp
HFGTYGLIDERTYPE:Advance Sigma 11
HFDTM100GPSDATUM:WGS-84
HFRFWFIRMWAREVERSION:202509251429
HFRHWHARDWAREVERSION:5.0
HFTZNTIMEZONE:+1.00
HFSITSITE:Greicheralp_Riederalp
HFDTE081125
LXSX;I1;OAB:20251107;OOB:20251106
LXSX;I1;ID:115785
LXSX;I1;AC:1;CAT:C
LXSX;RAT:LTE M1;GSM:3
B1130074622629N00801829EA0191001917
B1130084622629N00801829EA0191001917
B1130094622629N00801829EA0191001917
B1130104622629N00801829EA0191001917
B1130114622629N00801829EA0191001917
B1130124622629N00801829EA0191001917
B1130134622629N00801829EA0191001917
B1130144622628N00801829EA0191001916
B1130154622627N00801830EA0190901916
B1130164622627N00801830EA0190901916
B1130174622627N00801830EA0190901916
B1130184622626N00801830EA0190801915
B1130194622626N00801830EA0190801915
B1130204622625N00801830EA0190801915
B1130214622624N00801829EA0190701914
B1130224622623N00801829EA0190701913
B1130234622622N00801829EA0190501912
B1130244622620N00801829EA0190301910
B1130254622618N00801830EA0190201909
B1130264622615N00801831EA0190101908
B1130274622612N00801832EA0189901906
B1130284622609N00801833EA0189901906
B1130294622606N00801836EA0189701904
B1130304622602N00801839EA0189501901
B1130314622598N00801842EA0189301900
B1130324622593N00801844EA0189301900
B1130334622589N00801847EA0189201899
B1130344622585N00801850EA0189401900
B1130354622582N00801855EA0189601902
B1130364622580N00801859EA0189701903
B1130374622578N00801863EA0189601903
B1130384622576N00801868EA0189601902
B1130394622574N00801875EA0189601902
B1130404622573N00801882EA0189701904
B1130414622572N00801890EA0189801905
B1130424622573N00801896EA0189901905
B1130434622575N00801902EA0189901905
B1130444622578N00801907EA0189701904
B1130454622581N00801913EA0189601902
B1130464622585N00801919EA0189501901
B1130474622588N00801926EA0189501901
B1130484622591N00801933EA0189501901
B1130494622592N00801939EA0189401901
B1130504622593N00801946EA0189401900
B1130514622592N00801954EA0189401900
B1130524622592N00801960EA0189401900
B1130534622591N00801965EA0189401900
B1130544622590N00801970EA0189301899
B1130554622588N00801975EA0189101897
B1130564622587N00801981EA0189001896
B1130574622585N00801987EA0188801894
B1130584622583N00801993EA0188701893
B1130594622581N00801999EA0188601892
B1131004622579N00802004EA0188501891
B1131014622576N00802009EA0188401890
B1131024622573N00802013EA0188401890
B1131034622570N00802017EA0188301889
B1131044622567N00802021EA0188301889
B1131054622565N00802026EA0188301888
B1131064622563N00802032EA0188201888
B1131074622561N00802038EA0188301888
B1131084622559N00802043EA0188401889
B1131094622558N00802049EA0188401890
B1131104622556N00802054EA0188501891
B1131114622555N00802058EA0188601891
B1131124622553N00802063EA0188601891
B1131134622551N00802068EA0188501891
B1131144622549N00802073EA0188501891
B1131154622546N00802079EA0188501891
B1131164622544N00802084EA0188501890
B1131174622541N00802087EA0188501890
B1131184622537N00802088EA0188401890
B1131194622534N00802088EA0188401889
B1131204622530N00802087EA0188301889
B1131214622527N00802084EA0188301888
B1131224622524N00802078EA0188201887
B1131234622522N00802072EA0188201887
B1131244622522N00802065EA0188101886
B1131254622524N00802058EA0188001885
B1131264622527N00802052EA0187901884
B1131274622531N00802048EA0187801883
B1131284622537N00802047EA0187701882
B1131294622542N00802049EA0187401879
B1131304622547N00802055EA0187201877
B1131314622550N00802063EA0187101876
B1131324622551N00802071EA0187101876
B1131334622551N00802079EA0187201877
B1131344622552N00802086EA0187301878
B1131354622554N00802092EA0187301878
B1131364622556N00802097EA0187301877
B1131374622557N00802103EA0187101876
B1131384622559N00802109EA0187001875
B1131394622561N00802116EA0187001875
B1131404622564N00802122EA0186901874
B1131414622568N00802128EA0186701872
B1131424622572N00802133EA0186601870
B1131434622576N00802137EA0186401869
B1131444622581N00802140EA0186301867
B1131454622586N00802143EA0186101865
B1131464622591N00802145EA0186001864
B1131474622596N00802149EA0186001864
B1131484622601N00802152EA0186001865
B1131494622606N00802156EA0186201867
B1131504622610N00802159EA0186401869
B1131514622614N00802162EA0186501870
B1131524622617N00802166EA0186601870
B1131534622620N00802170EA0186501869
B1131544622623N00802175EA0186301867
B1131554622624N00802181EA0186101865
B1131564622625N00802188EA0185901863
B1131574622624N00802196EA0185801862
B1131584622624N00802203EA0185701861
B1131594622624N00802211EA0185601860
B1132004622624N00802218EA0185401858
B1132014622624N00802226EA0185201857
B1132024622623N00802234EA0185101855
B1132034622623N00802243EA0185001854
B1132044622622N00802251EA0185001854
B1132054622622N00802258EA0185001854
B1132064622622N00802265EA0184901853
B1132074622621N00802272EA0184701851
B1132084622621N00802279EA0184601850
B1132094622620N00802286EA0184401848
B1132104622619N00802294EA0184301847
B1132114622618N00802302EA0184201846
B1132124622618N00802309EA0184101845
B1132134622617N00802316EA0184101844
B1132144622616N00802323EA0184001843
B1132154622616N00802331EA0183901842
B1132164622616N00802338EA0183801841
B1132174622615N00802346EA0183701840
B1132184622615N00802353EA0183601839
B1132194622615N00802361EA0183501839
B1132204622615N00802368EA0183501838
B1132214622615N00802375EA0183401837
B1132224622615N00802382EA0183201836
B1132234622614N00802390EA0183101834
B1132244622614N00802397EA0182901832
B1132254622614N00802405EA0182801831
B1132264622614N00802413EA0182701831
B1132274622614N00802420EA0182701830
B1132284622615N00802427EA0182601829
B1132294622616N00802434EA0182401828
B1132304622616N00802441EA0182301827
B1132314622615N00802449EA0182201825
B1132324622614N00802456EA0182201825
B1132334622614N00802463EA0182101824
B1132344622614N00802471EA0182101824
B1132354622613N00802478EA0182101824
B1132364622613N00802486EA0182201825
B1132374622613N00802493EA0182301826
B1132384622614N00802500EA0182401827
B1132394622614N00802508EA0182501828
B1132404622615N00802516EA0182601829
B1132414622614N00802524EA0182801831
B1132424622613N00802531EA0183001833
B1132434622610N00802537EA0183001833
B1132444622607N00802542EA0183201835
B1132454622604N00802544EA0183201834
B1132464622601N00802544EA0182901832
B1132474622598N00802541EA0182601829
B1132484622595N00802537EA0182301826
B1132494622593N00802530EA0182101824
B1132504622594N00802523EA0182101824
B1132514622597N00802516EA0182001823
B1132524622600N00802511EA0182101824
B1132534622605N00802506EA0182501828
B1132544622608N00802503EA0182801831
B1132554622612N00802500EA0182901832
B1132564622617N00802498EA0182901832
B1132574622622N00802495EA0182801830
B1132584622627N00802491EA0182801830
B1132594622630N00802486EA0182801831
B1133004622632N00802480EA0182901831
B1133014622632N00802473EA0182801831
B1133024622630N00802468EA0182701830
B1133034622627N00802463EA0182701829
B1133044622623N00802461EA0182701830
B1133054622618N00802462EA0182601828
B1133064622614N00802466EA0182501827
B1133074622612N00802472EA0182401826
B1133084622610N00802479EA0182601828
B1133094622610N00802487EA0182801830
B1133104622611N00802494EA0183001833
B1133114622612N00802500EA0183301835
B1133124622613N00802507EA0183501837
B1133134622613N00802514EA0183801840
B1133144622611N00802520EA0183901842
B1133154622608N00802524EA0184001842
B1133164622605N00802527EA0184001842
B1133174622602N00802527EA0184001842
B1133184622599N00802526EA0183901841
B1133194622595N00802522EA0183801840
B1133204622593N00802516EA0183601838
B1133214622592N00802509EA0183401836
B1133224622595N00802502EA0183401836
B1133234622599N00802496EA0183401836
B1133244622605N00802494EA0183501837
B1133254622610N00802494EA0183601838
B1133264622615N00802498EA0183701838
B1133274622619N00802505EA0183801840
B1133284622620N00802512EA0183901840
B1133294622619N00802520EA0183901841
B1133304622616N00802525EA0183901841
B1133314622612N00802528EA0184001842
B1133324622609N00802529EA0184101843
B1133334622606N00802529EA0184201843
B1133344622603N00802528EA0184101842
B1133354622600N00802525EA0184001841
B1133364622598N00802520EA0183801840
B1133374622597N00802514EA0183601838
B1133384622598N00802507EA0183401835
B1133394622600N00802499EA0183201833
B1133404622606N00802492EA0183101833
B1133414622611N00802487EA0183301834
B1133424622617N00802484EA0183601837
B1133434622622N00802482EA0184001841
B1133444622626N00802480EA0184201844
B1133454622629N00802477EA0184401845
B1133464622632N00802473EA0184501847
B1133474622634N00802466EA0184701848
B1133484622634N00802460EA0184801849
B1133494622632N00802454EA0184901850
B1133504622629N00802450EA0184801850
B1133514622624N00802450EA0184801850
B1133524622620N00802451EA0184801849
B1133534622617N00802456EA0184801849
B1133544622615N00802462EA0184601847
B1133554622616N00802470EA0184401845
B1133564622619N00802479EA0184401845
B1133574622623N00802485EA0184401846
B1133584622626N00802491EA0184701848
B1133594622629N00802495EA0184901850
B1134004622632N00802501EA0185001851
B1134014622634N00802507EA0185101852
B1134024622635N00802514EA0185101852
B1134034622633N00802521EA0185201853
B1134044622629N00802526EA0185301854
B1134054622624N00802526EA0185401854
B1134064622619N00802522EA0185501856
B1134074622617N00802518EA0185701858
B1134084622616N00802512EA0185701858
B1134094622617N00802507EA0185501856
B1134104622617N00802500EA0185401855
B1134114622619N00802492EA0185401855
B1134124622622N00802484EA0185401855
B1134134622627N00802480EA0185501856
B1134144622632N00802477EA0185601856
B1134154622637N00802476EA0185501856
B1134164622642N00802475EA0185401855
B1134174622646N00802471EA0185301854
B1134184622650N00802466EA0185101852
B1134194622653N00802459EA0185101852
B1134204622655N00802450EA0185201853
B1134214622654N00802442EA0185501856
B1134224622651N00802436EA0185701857
B1134234622647N00802433EA0185701858
B1134244622643N00802432EA0185701858
B1134254622638N00802433EA0185601857
B1134264622635N00802435EA0185501856
B1134274622631N00802439EA0185301854
B1134284622629N00802445EA0185201852
B1134294622627N00802452EA0185101851
B1134304622627N00802459EA0184901850
B1134314622628N00802467EA0184801849
B1134324622631N00802474EA0184801848
B1134334622633N00802480EA0184801848
B1134344622635N00802487EA0184801849
B1134354622637N00802495EA0184901850
B1134364622639N00802503EA0185101851
B1134374622641N00802511EA0185301853
B1134384622643N00802517EA0185401855
B1134394622645N00802523EA0185501855
B1134404622646N00802529EA0185501855
B1134414622646N00802535EA0185301854
B1134424622644N00802541EA0185201853
B1134434622641N00802545EA0185201852
B1134444622637N00802545EA0185001851
B1134454622634N00802542EA0184901850
B1134464622631N00802537EA0184801848
B1134474622630N00802531EA0184701848
B1134484622631N00802524EA0184701848
B1134494622633N00802518EA0184801848
B1134504622634N00802512EA0184801849
B1134514622636N00802506EA0185001851
B1134524622638N00802499EA0185301853
B1134534622640N00802492EA0185501856
B1134544622640N00802487EA0185801858
B1134554622639N00802482EA0185701858
B1134564622637N00802480EA0185701858
B1134574622633N00802478EA0185701858
B1134584622630N00802479EA0185801859
B1134594622627N00802482EA0185901860
B1135004622624N00802488EA0185901860
B1135014622623N00802495EA0186001861
B1135024622624N00802502EA0186201862
B1135034622626N00802509EA0186301864
B1135044622630N00802514EA0186501865
B1135054622635N00802519EA0186601866
B1135064622639N00802524EA0186601867
B1135074622642N00802530EA0186501865
B1135084622643N00802537EA0186301863
B1135094622643N00802545EA0186101861
B1135104622642N00802552EA0186001860
B1135114622638N00802556EA0185801859
B1135124622634N00802558EA0185701857
B1135134622630N00802556EA0185401855
B1135144622627N00802551EA0185301853
B1135154622624N00802545EA0185101852
B1135164622624N00802539EA0185001851
B1135174622626N00802532EA0185001850
B1135184622628N00802526EA0185001851
B1135194622631N00802521EA0185101851
B1135204622633N00802516EA0185201852
B1135214622635N00802511EA0185301854
B1135224622637N00802506EA0185501856
B1135234622640N00802500EA0185601857
B1135244622642N00802495EA0185701858
B1135254622644N00802490EA0185801859
B1135264622645N00802484EA0185801859
B1135274622645N00802477EA0185701858
B1135284622644N00802471EA0185601857
B1135294622641N00802466EA0185501856
B1135304622637N00802464EA0185301854
B1135314622634N00802466EA0185101852
B1135324622632N00802471EA0184801849
B1135334622633N00802479EA0184601847
B1135344622635N00802487EA0184701847
B1135354622637N00802494EA0184701848
B1135364622638N00802500EA0184801849
B1135374622639N00802506EA0184901849
B1135384622640N00802514EA0184901850
B1135394622642N00802523EA0185101851
B1135404622644N00802531EA0185201852
B1135414622646N00802538EA0185201853
B1135424622647N00802544EA0185101852
B1135434622647N00802549EA0184901849
B1135444622645N00802554EA0184501845
B1135454622642N00802558EA0184101842
B1135464622636N00802558EA0183801838
B1135474622632N00802555EA0183601836
B1135484622629N00802550EA0183401835
B1135494622627N00802543EA0183401834
B1135504622627N00802537EA0183401834
B1135514622626N00802530EA0183601836
B1135524622627N00802524EA0183701837
B1135534622627N00802518EA0183901839
B1135544622629N00802513EA0184001841
B1135554622631N00802509EA0184101842
B1135564622634N00802505EA0184001840
B1135574622635N00802501EA0183901839
B1135584622636N00802495EA0183801838
B1135594622635N00802489EA0183701837
B1136004622632N00802485EA0183601836
B1136014622628N00802484EA0183601836
B1136024622624N00802486EA0183601836
B1136034622620N00802490EA0183801838
B1136044622617N00802495EA0184101841
B1136054622615N00802500EA0184301843
B1136064622614N00802506EA0184501845
B1136074622614N00802513EA0184501845
B1136084622612N00802521EA0184601846
B1136094622609N00802528EA0184801848
B1136104622606N00802534EA0184901849
B1136114622602N00802538EA0184801848
B1136124622598N00802538EA0184701848
B1136134622595N00802537EA0184701847
B1136144622593N00802534EA0184601846
B1136154622592N00802529EA0184301843
B1136164622593N00802522EA0183901839
B1136174622597N00802516EA0183801838
B1136184622603N00802514EA0183701836
B1136194622609N00802515EA0183601836
B1136204622615N00802518EA0183801838
B1136214622619N00802521EA0184001840
B1136224622622N00802525EA0184201842
B1136234622625N00802532EA0184201842
B1136244622625N00802540EA0184101841
B1136254622623N00802546EA0183901839
B1136264622619N00802551EA0183801838
B1136274622615N00802553EA0183701837
B1136284622611N00802552EA0183701837
B1136294622608N00802549EA0183501835
B1136304622606N00802544EA0183401834
B1136314622606N00802538EA0183301833
B1136324622607N00802532EA0183201832
B1136334622609N00802527EA0183001830
B1136344622614N00802522EA0182901829
B1136354622617N00802516EA0183001830
B1136364622619N00802510EA0183201832
B1136374622622N00802503EA0183501835
B1136384622624N00802498EA0183701837
B1136394622626N00802494EA0184001839
B1136404622627N00802490EA0184101841
B1136414622629N00802485EA0184101841
B1136424622630N00802479EA0184201842
B1136434622630N00802473EA0184201842
B1136444622627N00802468EA0184201842
B1136454622622N00802466EA0184101841
B1136464622617N00802469EA0184201842
B1136474622614N00802473EA0184501845
B1136484622612N00802479EA0184801848
B1136494622611N00802484EA0185101851
B1136504622612N00802489EA0185401854
B1136514622612N00802495EA0185601856
B1136524622612N00802501EA0185601856
B1136534622611N00802508EA0185601856
B1136544622608N00802513EA0185601856
B1136554622603N00802515EA0185301853
B1136564622598N00802514EA0185101851
B1136574622594N00802511EA0185001850
B1136584622592N00802508EA0185001850
B1136594622590N00802502EA0184901849
B1137004622590N00802496EA0184701847
B1137014622591N00802488EA0184701847
B1137024622593N00802481EA0184701847
B1137034622598N00802474EA0184901849
B1137044622604N00802471EA0185201852
B1137054622609N00802471EA0185301853
B1137064622614N00802474EA0185301853
B1137074622619N00802479EA0185401854
B1137084622624N00802485EA0185501855
B1137094622626N00802493EA0185601857
B1137104622626N00802501EA0185701857
B1137114622623N00802508EA0185801858
B1137124622618N00802513EA0186001860
B1137134622613N00802515EA0186201863
B1137144622609N00802514EA0186601867
B1137154622606N00802512EA0186801868
B1137164622603N00802510EA0186701867
B1137174622601N00802508EA0186501866
B1137184622599N00802503EA0186401864
B1137194622598N00802496EA0186201863
B1137204622599N00802487EA0186101861
B1137214622601N00802480EA0186201863
B1137224622605N00802475EA0186401864
B1137234622611N00802472EA0186501866
B1137244622617N00802472EA0186501865
B1137254622622N00802475EA0186401865
B1137264622627N00802481EA0186401864
B1137274622631N00802489EA0186401864
B1137284622632N00802498EA0186501865
B1137294622632N00802506EA0186701867
B1137304622629N00802513EA0186901870
B1137314622626N00802517EA0187201872
B1137324622622N00802520EA0187401874
B1137334622619N00802521EA0187401875
B1137344622615N00802519EA0187301873
B1137354622612N00802516EA0187001871
B1137364622610N00802510EA0186901870
B1137374622609N00802503EA0186901869
B1137384622609N00802496EA0187001871
B1137394622610N00802489EA0187101872
B1137404622613N00802484EA0187201872
B1137414622617N00802480EA0187201872
B1137424622623N00802478EA0187101871
B1137434622629N00802479EA0187101872
B1137444622635N00802482EA0187201873
B1137454622640N00802489EA0187101872
B1137464622642N00802497EA0187001871
B1137474622642N00802506EA0187001871
B1137484622640N00802514EA0187101871
B1137494622638N00802520EA0187101872
B1137504622634N00802522EA0187301874
B1137514622631N00802522EA0187201873
B1137524622628N00802520EA0187001871
B1137534622625N00802517EA0186801869
B1137544622623N00802511EA0186701868
B1137554622622N00802505EA0186701868
B1137564622621N00802498EA0186801869
B1137574622622N00802492EA0186901870
B1137584622624N00802488EA0187001871
B1137594622627N00802484EA0186901870
B1138004622631N00802481EA0186701868
B1138014622637N00802480EA0186701868
B1138024622643N00802483EA0186601867
B1138034622648N00802489EA0186501866
B1138044622650N00802497EA0186401865
B1138054622650N00802507EA0186301864
B1138064622649N00802514EA0186201864
B1138074622647N00802521EA0186301864
B1138084622645N00802525EA0186201864
B1138094622642N00802529EA0186101862
B1138104622638N00802531EA0186001861
B1138114622635N00802533EA0185901860
B1138124622632N00802534EA0185701859
B1138134622629N00802533EA0185601857
B1138144622626N00802530EA0185401856
B1138154622623N00802526EA0185401855
B1138164622620N00802521EA0185501856
B1138174622617N00802517EA0185601858
B1138184622613N00802515EA0185801860
B1138194622610N00802514EA0186001862
B1138204622608N00802513EA0186201864
B1138214622606N00802512EA0186201864
B1138224622603N00802511EA0186101863
B1138234622600N00802508EA0186001861
B1138244622597N00802504EA0185701859
B1138254622593N00802498EA0185601858
B1138264622592N00802492EA0185501856
B1138274622593N00802485EA0185401855
B1138284622597N00802479EA0185201853
B1138294622603N00802476EA0185001852
B1138304622609N00802475EA0184901850
B1138314622614N00802478EA0184701849
B1138324622619N00802483EA0184501847
B1138334622622N00802489EA0184401845
B1138344622624N00802496EA0184201844
B1138354622624N00802505EA0184301845
B1138364622624N00802513EA0184401846
B1138374622622N00802520EA0184601848
B1138384622619N00802526EA0184801849
B1138394622616N00802531EA0184901851
B1138404622614N00802535EA0185001852
B1138414622613N00802538EA0184901850
B1138424622610N00802540EA0184601847
B1138434622607N00802540EA0184201843
B1138444622602N00802538EA0183901840
B1138454622599N00802532EA0183701838
B1138464622598N00802524EA0183601838
B1138474622599N00802517EA0183601838
B1138484622601N00802510EA0183801840
B1138494622604N00802506EA0184001842
B1138504622608N00802503EA0184001842
B1138514622612N00802501EA0184101843
B1138524622617N00802500EA0184201844
B1138534622621N00802498EA0184301845
B1138544622624N00802496EA0184301844
B1138554622627N00802492EA0184101843
B1138564622630N00802486EA0183801840
B1138574622632N00802479EA0183601838
B1138584622633N00802471EA0183501837
B1138594622632N00802464EA0183401836
B1139004622629N00802459EA0183401836
B1139014622624N00802457EA0183401835
B1139024622620N00802458EA0183301835
B1139034622617N00802463EA0183301835
B1139044622614N00802468EA0183301834
B1139054622611N00802474EA0183101833
B1139064622610N00802480EA0182901831
B1139074622608N00802487EA0182801829
B1139084622608N00802495EA0182701828
B1139094622609N00802503EA0182601828
B1139104622611N00802510EA0182601828
B1139114622612N00802518EA0182601828
B1139124622613N00802525EA0182601828
B1139134622613N00802532EA0182601828
B1139144622612N00802539EA0182501827
B1139154622611N00802546EA0182601828
B1139164622609N00802552EA0182701829
B1139174622606N00802556EA0182701829
B1139184622602N00802557EA0182601828
B1139194622598N00802556EA0182401826
B1139204622594N00802553EA0182301824
B1139214622592N00802548EA0182101823
B1139224622591N00802541EA0182001822
B1139234622592N00802534EA0181901821
B1139244622593N00802528EA0181801820
B1139254622596N00802522EA0181801820
B1139264622599N00802516EA0181701819
B1139274622603N00802511EA0181601818
B1139284622605N00802506EA0181501817
B1139294622608N00802500EA0181501817
B1139304622609N00802494EA0181501817
B1139314622612N00802489EA0181401816
B1139324622615N00802484EA0181401816
B1139334622618N00802479EA0181301815
B1139344622619N00802473EA0181101813
B1139354622620N00802467EA0181001812
B1139364622618N00802460EA0180901811
B1139374622615N00802453EA0180801810
B1139384622611N00802449EA0180801810
B1139394622606N00802448EA0181001812
B1139404622601N00802451EA0181001812
B1139414622597N00802457EA0180901811
B1139424622595N00802462EA0180801810
B1139434622593N00802470EA0180801810
B1139444622593N00802477EA0180901811
B1139454622593N00802485EA0181001812
B1139464622593N00802491EA0181201814
B1139474622593N00802497EA0181301816
B1139484622594N00802503EA0181501817
B1139494622593N00802510EA0181601818
B1139504622592N00802517EA0181601819
B1139514622588N00802523EA0181601818
B1139524622584N00802528EA0181601818
B1139534622580N00802529EA0181401816
B1139544622576N00802527EA0181201814
B1139554622573N00802522EA0181101813
B1139564622571N00802516EA0181001812
B1139574622570N00802510EA0181001812
B1139584622570N00802505EA0181001812
B1139594622570N00802499EA0180901811
B1140004622570N00802494EA0180801810
B1140014622573N00802488EA0180601808
B1140024622576N00802483EA0180401806
B1140034622581N00802479EA0180201805
B1140044622587N00802477EA0180301805
B1140054622592N00802475EA0180401806
B1140064622595N00802472EA0180501807
B1140074622599N00802467EA0180601808
B1140084622602N00802461EA0180701809
B1140094622605N00802454EA0180901811
B1140104622606N00802447EA0181101813
B1140114622606N00802440EA0181101813
B1140124622604N00802435EA0181001813
B1140134622601N00802431EA0180901811
B1140144622597N00802428EA0180801810
B1140154622592N00802428EA0180801810
B1140164622588N00802432EA0180701809
B1140174622586N00802438EA0180501808
B1140184622584N00802445EA0180501807
B1140194622584N00802453EA0180401806
B1140204622585N00802459EA0180401806
B1140214622587N00802466EA0180401806
B1140224622589N00802473EA0180301805
B1140234622589N00802480EA0180201804
B1140244622589N00802488EA0180101803
B1140254622589N00802495EA0180001802
B1140264622589N00802503EA0179801800
B1140274622588N00802511EA0179701799
B1140284622587N00802518EA0179601798
B1140294622587N00802525EA0179601798
B1140304622587N00802532EA0179601799
B1140314622588N00802539EA0179601798
B1140324622588N00802545EA0179401796
B1140334622588N00802553EA0179201794
B1140344622588N00802561EA0179101793
B1140354622589N00802569EA0179001792
B1140364622589N00802576EA0178901791
B1140374622590N00802584EA0178901791
B1140384622591N00802592EA0178801791
B1140394622592N00802600EA0178901792
B1140404622594N00802608EA0179101793
B1140414622596N00802615EA0179201794
B1140424622599N00802622EA0179201794
B1140434622601N00802629EA0179101794
B1140444622602N00802636EA0179101793
B1140454622603N00802643EA0179001793
B1140464622603N00802651EA0179001792
B1140474622603N00802659EA0179001792
B1140484622603N00802667EA0179101794
B1140494622603N00802674EA0179201795
B1140504622604N00802681EA0179301795
B1140514622604N00802688EA0179301795
B1140524622604N00802695EA0179201795
B1140534622605N00802703EA0179101793
B1140544622605N00802711EA0178901791
B1140554622606N00802718EA0178701789
B1140564622606N00802726EA0178601789
B1140574622605N00802734EA0178501788
B1140584622604N00802741EA0178601788
B1140594622604N00802749EA0178601789
B1141004622604N00802757EA0178701789
B1141014622605N00802765EA0178701790
B1141024622606N00802773EA0178901791
B1141034622606N00802780EA0179001792
B1141044622605N00802785EA0178901792
B1141054622604N00802791EA0178701790
B1141064622603N00802796EA0178501787
B1141074622602N00802804EA0178201784
B1141084622601N00802813EA0177801781
B1141094622601N00802823EA0177801781
B1141104622602N00802833EA0177901782
B1141114622603N00802841EA0178101783
B1141124622603N00802848EA0177901782
B1141134622604N00802855EA0177701779
B1141144622604N00802863EA0177401776
B1141154622605N00802871EA0177101774
B1141164622606N00802880EA0176901772
B1141174622608N00802889EA0176801770
B1141184622609N00802897EA0176701769
B1141194622610N00802905EA0176501767
B1141204622611N00802913EA0176401767
B1141214622611N00802922EA0176301766
B1141224622611N00802931EA0176201764
B1141234622613N00802939EA0176101764
B1141244622614N00802947EA0176001763
B1141254622616N00802955EA0176001762
B1141264622618N00802964EA0175901761
B1141274622620N00802972EA0175701759
B1141284622622N00802981EA0175601759
B1141294622623N00802990EA0175601758
B1141304622624N00802999EA0175501757
B1141314622626N00803008EA0175501757
B1141324622628N00803017EA0175601758
B1141334622631N00803025EA0175701759
B1141344622633N00803031EA0175701759
B1141354622636N00803036EA0175501758
B1141364622639N00803043EA0175401757
B1141374622642N00803050EA0175401756
B1141384622645N00803058EA0175501757
B1141394622649N00803065EA0175601758
B1141404622654N00803069EA0175801760
B1141414622657N00803073EA0175701760
B1141424622660N00803078EA0175601759
B1141434622663N00803083EA0175401757
B1141444622667N00803089EA0175201755
B1141454622673N00803096EA0175301755
B1141464622678N00803103EA0175501758
B1141474622682N00803108EA0175801760
B1141484622686N00803111EA0175901762
B1141494622690N00803115EA0175901762
B1141504622694N00803119EA0175901761
B1141514622699N00803123EA0175901761
B1141524622705N00803128EA0175901762
B1141534622710N00803132EA0176101763
B1141544622715N00803136EA0176201765
B1141554622719N00803140EA0176401767
B1141564622725N00803143EA0176501768
B1141574622730N00803146EA0176701770
B1141584622735N00803149EA0176801771
B1141594622739N00803153EA0176801771
B1142004622744N00803157EA0176801770
B1142014622749N00803161EA0176701769
B1142024622755N00803165EA0176601769
B1142034622760N00803169EA0176601769
B1142044622764N00803174EA0176601769
B1142054622768N00803179EA0176601769
B1142064622771N00803183EA0176601769
B1142074622774N00803188EA0176601769
B1142084622776N00803193EA0176601769
B1142094622780N00803199EA0176701769
B1142104622783N00803205EA0176701770
B1142114622786N00803210EA0176801770
B1142124622790N00803214EA0176701770
B1142134622794N00803217EA0176701770
B1142144622798N00803221EA0176601769
B1142154622802N00803226EA0176601768
B1142164622807N00803231EA0176501768
B1142174622812N00803236EA0176501768
B1142184622816N00803241EA0176501768
B1142194622819N00803246EA0176501767
B1142204622822N00803252EA0176301766
B1142214622825N00803258EA0176201765
B1142224622827N00803266EA0176101764
B1142234622829N00803273EA0176001763
B1142244622831N00803280EA0175801761
B1142254622833N00803288EA0175701760
B1142264622834N00803295EA0175601759
B1142274622835N00803303EA0175501758
B1142284622836N00803311EA0175301756
B1142294622837N00803320EA0175201755
B1142304622838N00803328EA0175001753
B1142314622839N00803337EA0174901752
B1142324622840N00803346EA0174701750
B1142334622841N00803355EA0174601749
B1142344622843N00803363EA0174501748
B1142354622844N00803372EA0174501748
B1142364622844N00803380EA0174401747
B1142374622846N00803388EA0174201746
B1142384622847N00803396EA0174101744
B1142394622849N00803405EA0173901742
B1142404622850N00803413EA0173601740
B1142414622851N00803422EA0173501738
B1142424622852N00803431EA0173301737
B1142434622853N00803440EA0173201736
B1142444622855N00803448EA0173101735
B1142454622856N00803456EA0172901733
B1142464622857N00803464EA0172801731
B1142474622858N00803473EA0172601729
B1142484622859N00803482EA0172501728
B1142494622860N00803491EA0172301727
B1142504622861N00803500EA0172201726
B1142514622862N00803509EA0172101725
B1142524622863N00803517EA0172101724
B1142534622864N00803526EA0172001724
B1142544622865N00803535EA0171901723
B1142554622866N00803543EA0171801722
B1142564622867N00803552EA0171801722
B1142574622867N00803561EA0171701721
B1142584622868N00803570EA0171701720
B1142594622868N00803578EA0171601720
B1143004622869N00803587EA0171601720
B1143014622870N00803596EA0171601720
B1143024622871N00803606EA0171701721
B1143034622871N00803613EA0171701721
B1143044622872N00803620EA0171701721
B1143054622872N00803627EA0171601720
B1143064622873N00803635EA0171401719
B1143074622873N00803643EA0171301717
B1143084622874N00803652EA0171101715
B1143094622876N00803660EA0171001714
B1143104622877N00803669EA0170801713
B1143114622878N00803677EA0170801712
B1143124622879N00803686EA0170701711
B1143134622880N00803694EA0170601711
B1143144622881N00803703EA0170601710
B1143154622883N00803711EA0170501709
B1143164622885N00803719EA0170401708
B1143174622886N00803727EA0170201707
B1143184622888N00803736EA0170101705
B1143194622890N00803744EA0169901703
B1143204622892N00803753EA0169801702
B1143214622894N00803761EA0169601701
B1143224622896N00803769EA0169501700
B1143234622897N00803778EA0169301698
B1143244622899N00803786EA0169201696
B1143254622901N00803794EA0169001694
B1143264622903N00803803EA0168801693
B1143274622904N00803812EA0168701692
B1143284622906N00803820EA0168601691
B1143294622907N00803829EA0168501689
B1143304622909N00803837EA0168301688
B1143314622910N00803846EA0168201687
B1143324622912N00803855EA0168101686
B1143334622913N00803864EA0168001685
B1143344622915N00803873EA0168001685
B1143354622916N00803882EA0167901684
B1143364622917N00803890EA0167801683
B1143374622918N00803899EA0167701682
B1143384622920N00803908EA0167601681
B1143394622921N00803917EA0167501680
B1143404622923N00803926EA0167401679
B1143414622925N00803934EA0167301678
B1143424622926N00803945EA0167201677
B1143434622928N00803953EA0167101676
B1143444622929N00803960EA0167001675
B1143454622930N00803968EA0166901674
B1143464622931N00803977EA0166901674
B1143474622933N00803984EA0166701673
B1143484622934N00803993EA0166601671
B1143494622935N00804001EA0166501671
B1143504622937N00804010EA0166601671
B1143514622939N00804018EA0166701672
B1143524622941N00804024EA0166701673
B1143534622944N00804030EA0166701673
B1143544622946N00804036EA0166701672
B1143554622948N00804043EA0166601672
B1143564622950N00804050EA0166601671
B1143574622952N00804057EA0166601671
B1143584622954N00804064EA0166601671
B1143594622955N00804070EA0166401670
B1144004622956N00804077EA0166201667
B1144014622955N00804085EA0166001665
B1144024622955N00804094EA0165701663
B1144034622955N00804103EA0165601661
B1144044622955N00804111EA0165401660
B1144054622956N00804120EA0165301658
B1144064622956N00804129EA0165101656
B1144074622956N00804138EA0165001655
B1144084622957N00804148EA0164801653
B1144094622957N00804157EA0164601652
B1144104622958N00804167EA0164501651
B1144114622958N00804176EA0164501650
B1144124622959N00804185EA0164401650
B1144134622960N00804193EA0164401649
B1144144622961N00804201EA0164301649
B1144154622962N00804209EA0164201647
B1144164622962N00804216EA0164001646
B1144174622962N00804225EA0163901644
B1144184622962N00804234EA0163901644
B1144194622962N00804242EA0163801643
B1144204622962N00804250EA0163601642
B1144214622962N00804258EA0163501640
B1144224622962N00804266EA0163301638
B1144234622962N00804274EA0163101636
B1144244622963N00804283EA0162901634
B1144254622963N00804293EA0162801633
B1144264622964N00804301EA0162701632
B1144274622965N00804310EA0162601631
B1144284622966N00804319EA0162501630
B1144294622966N00804328EA0162401629
B1144304622966N00804337EA0162201627
B1144314622966N00804346EA0162201627
B1144324622967N00804355EA0162101626
B1144334622968N00804364EA0162001625
B1144344622969N00804373EA0161801623
B1144354622969N00804382EA0161701622
B1144364622970N00804391EA0161601621
B1144374622971N00804400EA0161501620
B1144384622971N00804409EA0161301618
B1144394622972N00804417EA0161201617
B1144404622973N00804427EA0161101616
B1144414622973N00804436EA0161001614
B1144424622973N00804445EA0160901614
B1144434622974N00804455EA0160801613
B1144444622974N00804464EA0160701612
B1144454622974N00804473EA0160701612
B1144464622973N00804482EA0160601611
B1144474622973N00804491EA0160601611
B1144484622973N00804499EA0160501610
B1144494622973N00804509EA0160301608
B1144504622973N00804519EA0160201606
B1144514622973N00804529EA0160101606
B1144524622974N00804538EA0160001605
B1144534622974N00804548EA0159901604
B1144544622976N00804558EA0159801603
B1144554622977N00804567EA0159701602
B1144564622978N00804576EA0159501600
B1144574622978N00804586EA0159401599
B1144584622980N00804595EA0159201597
B1144594622981N00804605EA0159001595
B1145004622982N00804615EA0158901594
B1145014622983N00804625EA0158801593
B1145024622984N00804637EA0158701592
B1145034622985N00804644EA0158601591
B1145044622986N00804654EA0158501590
B1145054622988N00804663EA0158301588
B1145064622990N00804673EA0158201587
B1145074622991N00804683EA0158101586
B1145084622993N00804692EA0158001585
B1145094622994N00804702EA0158001585
B1145104622996N00804711EA0157901584
B1145114622998N00804720EA0157801583
B1145124622999N00804729EA0157601582
B1145134623000N00804738EA0157501580
B1145144623002N00804748EA0157401579
B1145154623003N00804757EA0157301578
B1145164623004N00804766EA0157201578
B1145174623006N00804776EA0157201577
B1145184623007N00804785EA0157101576
B1145194623008N00804795EA0157001576
B1145204623009N00804803EA0157001576
B1145214623011N00804812EA0156901575
B1145224623012N00804820EA0156901574
B1145234623014N00804828EA0156801573
B1145244623014N00804837EA0156601572
B1145254623015N00804845EA0156501571
B1145264623015N00804854EA0156401569
B1145274623016N00804863EA0156301569
B1145284623018N00804872EA0156301569
B1145294623020N00804880EA0156501570
B1145304623023N00804887EA0156701572
B1145314623025N00804893EA0156801574
B1145324623028N00804898EA0156901575
B1145334623031N00804904EA0156901575
B1145344623034N00804911EA0156901575
B1145354623034N00804919EA0156901575
B1145364623034N00804927EA0157001576
B1145374623033N00804935EA0157101576
B1145384623030N00804940EA0157201577
B1145394623027N00804945EA0157201577
B1145404623025N00804949EA0157201577
B1145414623021N00804953EA0157201577
B1145424623017N00804954EA0157201577
B1145434623014N00804952EA0157101576
B1145444623012N00804949EA0157001576
B1145454623011N00804944EA0157001576
B1145464623012N00804939EA0157101576
B1145474623015N00804935EA0157101577
B1145484623018N00804931EA0157101576
B1145494623023N00804929EA0157101576
B1145504623028N00804928EA0157001576
B1145514623034N00804930EA0156901575
B1145524623040N00804935EA0157001575
B1145534623045N00804941EA0157101576
B1145544623049N00804948EA0157101577
B1145554623050N00804956EA0157301578
B1145564623050N00804962EA0157301578
B1145574623050N00804968EA0157301578
B1145584623050N00804975EA0157201578
B1145594623048N00804981EA0157101576
B1146004623045N00804987EA0157001575
B1146014623041N00804990EA0156901575
B1146024623037N00804990EA0156901574
B1146034623034N00804990EA0156901574
B1146044623031N00804987EA0157001575
B1146054623030N00804983EA0156901574
B1146064623030N00804977EA0156901574
B1146074623031N00804971EA0157001575
B1146084623035N00804966EA0157001575
B1146094623040N00804963EA0157101575
B1146104623045N00804963EA0157101576
B1146114623051N00804966EA0157101576
B1146124623056N00804970EA0157101576
B1146134623060N00804977EA0157101576
B1146144623062N00804985EA0157001575
B1146154623061N00804993EA0157001575
B1146164623058N00804999EA0157001574
B1146174623054N00805002EA0156901574
B1146184623050N00805002EA0156901574
B1146194623046N00805002EA0157101575
B1146204623044N00805001EA0157201576
B1146214623042N00804998EA0157201576
B1146224623041N00804994EA0157101576
B1146234623041N00804989EA0157001575
B1146244623043N00804984EA0156901574
B1146254623048N00804980EA0156801572
B1146264623053N00804979EA0156801572
B1146274623059N00804980EA0156801572
B1146284623065N00804983EA0156801573
B1146294623070N00804988EA0156901573
B1146304623074N00804995EA0157001574
B1146314623077N00805002EA0157001574
B1146324623077N00805010EA0157001574
B1146334623077N00805017EA0157001574
B1146344623078N00805024EA0157001574
B1146354623078N00805032EA0156901573
B1146364623078N00805041EA0156801572
B1146374623078N00805050EA0156701571
B1146384623078N00805058EA0156701571
B1146394623077N00805067EA0156701571
B1146404623077N00805076EA0156601570
B1146414623077N00805084EA0156601570
B1146424623077N00805093EA0156401568
B1146434623077N00805102EA0156301567
B1146444623077N00805110EA0156201566
B1146454623077N00805120EA0156101565
B1146464623077N00805129EA0155901563
B1146474623078N00805139EA0155701561
B1146484623078N00805148EA0155601560
B1146494623077N00805157EA0155501559
B1146504623077N00805166EA0155401558
B1146514623077N00805176EA0155301557
B1146524623077N00805185EA0155201556
B1146534623076N00805194EA0155101555
B1146544623076N00805202EA0155001554
B1146554623075N00805211EA0154801552
B1146564623075N00805219EA0154601550
B1146574623074N00805228EA0154401548
B1146584623073N00805238EA0154401548
B1146594623073N00805246EA0154401548
B1147004623073N00805254EA0154401548
B1147014623073N00805262EA0154401548
B1147024623072N00805269EA0154201546
B1147034623071N00805277EA0154101545
B1147044623069N00805285EA0154001544
B1147054623069N00805293EA0154001544
B1147064623068N00805301EA0154001544
B1147074623067N00805309EA0153901543
B1147084623066N00805316EA0153901543
B1147094623065N00805324EA0153701541
B1147104623064N00805332EA0153401538
B1147114623062N00805341EA0153201536
B1147124623061N00805350EA0153101535
B1147134623060N00805360EA0153001534
B1147144623061N00805369EA0152801532
B1147154623061N00805378EA0152701531
B1147164623061N00805386EA0152601530
B1147174623061N00805395EA0152501529
B1147184623060N00805404EA0152401528
B1147194623059N00805413EA0152301527
B1147204623060N00805422EA0152301527
B1147214623061N00805431EA0152201526
B1147224623061N00805440EA0152001524
B1147234623061N00805449EA0151901523
B1147244623061N00805458EA0151701521
B1147254623061N00805467EA0151501519
B1147264623061N00805476EA0151301517
B1147274623061N00805485EA0151101515
B1147284623061N00805495EA0150901513
B1147294623061N00805504EA0150701511
B1147304623062N00805514EA0150601510
B1147314623063N00805523EA0150401508
B1147324623063N00805533EA0150301507
B1147334623064N00805542EA0150101505
B1147344623064N00805552EA0150001504
B1147354623066N00805562EA0150001504
B1147364623067N00805572EA0149901503
B1147374623068N00805581EA0149901503
B1147384623069N00805590EA0149901503
B1147394623071N00805598EA0149901503
B1147404623072N00805605EA0149801502
B1147414623074N00805613EA0149601500
B1147424623075N00805622EA0149401498
B1147434623077N00805630EA0149301497
B1147444623079N00805638EA0149201496
B1147454623081N00805647EA0149101495
B1147464623082N00805655EA0148901494
B1147474623083N00805664EA0148801492
B1147484623085N00805674EA0148601490
B1147494623086N00805683EA0148501489
B1147504623088N00805692EA0148401489
B1147514623090N00805700EA0148401488
B1147524623092N00805708EA0148301487
B1147534623094N00805716EA0148201486
B1147544623096N00805724EA0148001485
B1147554623097N00805733EA0147901483
B1147564623099N00805742EA0147701482
B1147574623102N00805750EA0147701481
B1147584623104N00805759EA0147601481
B1147594623106N00805767EA0147501479
B1148004623108N00805776EA0147401478
B1148014623111N00805784EA0147301477
B1148024623114N00805793EA0147201476
B1148034623116N00805801EA0147101476
B1148044623118N00805810EA0147001474
B1148054623120N00805818EA0146801473
B1148064623123N00805827EA0146601471
B1148074623125N00805836EA0146501469
B1148084623128N00805846EA0146401469
B1148094623131N00805856EA0146401469
B1148104623134N00805864EA0146501470
B1148114623137N00805872EA0146601471
B1148124623138N00805880EA0146501470
B1148134623140N00805887EA0146301469
B1148144623142N00805895EA0146201467
B1148154623144N00805903EA0146001465
B1148164623147N00805911EA0145801463
B1148174623149N00805920EA0145701462
B1148184623151N00805928EA0145501460
B1148194623154N00805936EA0145401459
B1148204623156N00805945EA0145201457
B1148214623159N00805953EA0145001455
B1148224623162N00805961EA0144801453
B1148234623165N00805970EA0144601452
B1148244623169N00805978EA0144501451
B1148254623171N00805987EA0144401450
B1148264623174N00805994EA0144301448
B1148274623177N00806002EA0144101447
B1148284623180N00806010EA0144001445
B1148294623184N00806019EA0143801443
B1148304623188N00806028EA0143601442
B1148314623191N00806038EA0143601441
B1148324623195N00806046EA0143501441
B1148334623198N00806055EA0143501440
B1148344623201N00806064EA0143401439
B1148354623203N00806072EA0143201438
B1148364623205N00806081EA0143001436
B1148374623208N00806090EA0142901435
B1148384623210N00806099EA0142801433
B1148394623213N00806108EA0142701432
B1148404623216N00806117EA0142601432
B1148414623219N00806126EA0142501431
B1148424623222N00806134EA0142401430
B1148434623226N00806143EA0142301429
B1148444623229N00806152EA0142201428
B1148454623234N00806160EA0142201428
B1148464623237N00806168EA0142201428
B1148474623242N00806175EA0142201428
B1148484623245N00806183EA0142101427
B1148494623249N00806190EA0142001426
B1148504623254N00806198EA0142001426
B1148514623258N00806205EA0141901425
B1148524623262N00806212EA0142001426
B1148534623266N00806218EA0142001426
B1148544623270N00806223EA0142001426
B1148554623275N00806229EA0141901426
B1148564623279N00806234EA0141901425
B1148574623284N00806240EA0141901425
B1148584623288N00806246EA0141901425
B1148594623292N00806252EA0141801424
B1149004623297N00806258EA0141701423
B1149014623301N00806265EA0141601422
B1149024623305N00806272EA0141501421
B1149034623309N00806279EA0141501421
B1149044623313N00806285EA0141601422
B1149054623317N00806291EA0141501421
B1149064623321N00806298EA0141401420
B1149074623325N00806305EA0141401420
B1149084623329N00806312EA0141501421
B1149094623332N00806319EA0141501421
B1149104623336N00806326EA0141501421
B1149114623339N00806333EA0141301418
B1149124623342N00806340EA0141001416
B1149134623345N00806348EA0140901415
B1149144623348N00806355EA0140801414
B1149154623352N00806361EA0140801414
B1149164623355N00806366EA0140801414
B1149174623358N00806371EA0140701413
B1149184623361N00806377EA0140601412
B1149194623364N00806383EA0140501410
B1149204623367N00806388EA0140401409
B1149214623371N00806394EA0140201408
B1149224623374N00806400EA0140201407
B1149234623377N00806405EA0140001406
B1149244623380N00806410EA0139901404
B1149254623383N00806415EA0139701403
B1149264623386N00806421EA0139501400
B1149274623389N00806426EA0139301398
B1149284623393N00806431EA0139001395
B1149294623396N00806436EA0138801393
B1149304623400N00806442EA0138701392
B1149314623403N00806447EA0138601392
B1149324623407N00806452EA0138601391
B1149334623410N00806456EA0138501390
B1149344623413N00806461EA0138301388
B1149354623417N00806465EA0138101386
B1149364623420N00806470EA0138001385
B1149374623424N00806476EA0137901384
B1149384623427N00806481EA0137901384
B1149394623431N00806486EA0137801383
B1149404623434N00806490EA0137701382
B1149414623438N00806496EA0137601381
B1149424623442N00806501EA0137501380
B1149434623445N00806507EA0137501379
B1149444623448N00806513EA0137401379
B1149454623452N00806518EA0137301378
B1149464623456N00806523EA0137201377
B1149474623459N00806529EA0137101376
B1149484623463N00806535EA0137001375
B1149494623466N00806541EA0136901374
B1149504623470N00806547EA0136801373
B1149514623473N00806553EA0136701372
B1149524623477N00806559EA0136601371
B1149534623481N00806566EA0136601371
B1149544623484N00806572EA0136501370
B1149554623489N00806578EA0136501370
B1149564623492N00806584EA0136601371
B1149574623496N00806590EA0136601371
B1149584623500N00806596EA0136601371
B1149594623504N00806602EA0136601371
B1150004623508N00806608EA0136701372
B1150014623513N00806614EA0136701372
B1150024623517N00806619EA0136701372
B1150034623522N00806623EA0136701372
B1150044623526N00806628EA0136601371
B1150054623531N00806634EA0136501370
B1150064623535N00806640EA0136501370
B1150074623539N00806646EA0136501370
B1150084623543N00806652EA0136501370
B1150094623547N00806658EA0136501370
B1150104623550N00806665EA0136401369
B1150114623554N00806671EA0136301368
B1150124623557N00806677EA0136201367
B1150134623561N00806684EA0136001365
B1150144623565N00806692EA0136001365
B1150154623568N00806699EA0135901364
B1150164623571N00806706EA0135801363
B1150174623575N00806713EA0135801363
B1150184623579N00806720EA0135801363
B1150194623583N00806726EA0135701362
B1150204623587N00806732EA0135701362
B1150214623592N00806737EA0135701362
B1150224623595N00806743EA0135701362
B1150234623600N00806748EA0135501361
B1150244623604N00806753EA0135401359
B1150254623608N00806759EA0135301358
B1150264623613N00806766EA0135101356
B1150274623618N00806772EA0135001355
B1150284623621N00806779EA0134901354
B1150294623625N00806785EA0134801353
B1150304623629N00806791EA0134701353
B1150314623633N00806797EA0134601352
B1150324623636N00806803EA0134501350
B1150334623639N00806810EA0134401350
B1150344623642N00806817EA0134301348
B1150354623646N00806823EA0134201347
B1150364623650N00806829EA0134101346
B1150374623654N00806836EA0134101346
B1150384623658N00806842EA0134001345
B1150394623662N00806848EA0134001345
B1150404623665N00806854EA0133901344
B1150414623669N00806860EA0133801343
B1150424623673N00806866EA0133701342
B1150434623676N00806872EA0133601341
B1150444623681N00806878EA0133501340
B1150454623684N00806884EA0133401340
B1150464623688N00806891EA0133401339
B1150474623692N00806897EA0133301338
B1150484623695N00806903EA0133201337
B1150494623699N00806909EA0133001335
B1150504623703N00806916EA0132901334
B1150514623707N00806923EA0132801333
B1150524623710N00806930EA0132801333
B1150534623714N00806937EA0132801333
B1150544623717N00806943EA0132701333
B1150554623720N00806949EA0132701332
B1150564623724N00806956EA0132501330
B1150574623727N00806962EA0132301329
B1150584623730N00806969EA0132101327
B1150594623733N00806976EA0131901325
B1151004623737N00806983EA0131801323
B1151014623740N00806990EA0131701322
B1151024623744N00806997EA0131601321
B1151034623748N00807004EA0131501320
B1151044623751N00807011EA0131401320
B1151054623755N00807018EA0131401320
B1151064623758N00807024EA0131401319
B1151074623762N00807029EA0131401319
B1151084623764N00807035EA0131301318
B1151094623768N00807042EA0131201318
B1151104623771N00807049EA0131201317
B1151114623774N00807056EA0131101317
B1151124623777N00807062EA0131101317
B1151134623780N00807069EA0131001316
B1151144623783N00807076EA0130901314
B1151154623787N00807084EA0130701313
B1151164623790N00807091EA0130601311
B1151174623794N00807098EA0130501310
B1151184623797N00807105EA0130301309
B1151194623800N00807112EA0130201308
B1151204623803N00807119EA0130101307
B1151214623806N00807126EA0130001306
B1151224623809N00807133EA0129901305
B1151234623812N00807139EA0129801304
B1151244623816N00807145EA0129701302
B1151254623819N00807151EA0129501301
B1151264623822N00807157EA0129301299
B1151274623826N00807164EA0129201298
B1151284623830N00807170EA0129001296
B1151294623833N00807176EA0128901295
B1151304623836N00807183EA0128801294
B1151314623839N00807189EA0128601292
B1151324623843N00807196EA0128501290
B1151334623846N00807203EA0128301289
B1151344623849N00807210EA0128201288
B1151354623852N00807217EA0128101287
B1151364623856N00807223EA0128001286
B1151374623859N00807230EA0127901285
B1151384623863N00807236EA0127801284
B1151394623866N00807243EA0127701283
B1151404623870N00807249EA0127601282
B1151414623874N00807255EA0127501281
B1151424623877N00807262EA0127401280
B1151434623881N00807268EA0127301279
B1151444623885N00807276EA0127201278
B1151454623887N00807282EA0127201278
B1151464623890N00807288EA0127001277
B1151474623894N00807296EA0127001276
B1151484623897N00807303EA0126901276
B1151494623901N00807310EA0126901275
B1151504623905N00807317EA0126901276
B1151514623908N00807323EA0127101277
B1151524623912N00807329EA0127201279
B1151534623916N00807334EA0127301280
B1151544623920N00807339EA0127401280
B1151554623924N00807343EA0127301280
B1151564623927N00807349EA0127201279
B1151574623930N00807356EA0127101278
B1151584623934N00807362EA0127101278
B1151594623938N00807368EA0127101278
B1152004623941N00807373EA0127201279
B1152014623945N00807379EA0127201279
B1152024623948N00807384EA0127201279
B1152034623952N00807389EA0127201278
B1152044623955N00807394EA0127101277
B1152054623958N00807400EA0127001276
B1152064623962N00807406EA0126901276
B1152074623966N00807412EA0127001276
B1152084623971N00807417EA0127001276
B1152094623974N00807423EA0127001276
B1152104623978N00807428EA0126901275
B1152114623981N00807433EA0126701274
B1152124623984N00807440EA0126501272
B1152134623987N00807446EA0126401270
B1152144623991N00807452EA0126301269
B1152154623995N00807459EA0126201268
B1152164623999N00807465EA0126101267
B1152174624003N00807471EA0126001266
B1152184624007N00807477EA0125901265
B1152194624010N00807483EA0125701264
B1152204624014N00807490EA0125601262
B1152214624018N00807496EA0125401261
B1152224624022N00807503EA0125301260
B1152234624026N00807509EA0125301260
B1152244624031N00807516EA0125401261
B1152254624035N00807523EA0125501262
B1152264624039N00807530EA0125601263
B1152274624042N00807537EA0125801264
B1152284624046N00807543EA0125801265
B1152294624050N00807548EA0125901266
B1152304624053N00807553EA0125801265
B1152314624058N00807558EA0125601263
B1152324624063N00807565EA0125501262
B1152334624067N00807572EA0125401261
B1152344624072N00807579EA0125501262
B1152354624076N00807584EA0125601263
B1152364624081N00807590EA0125701264
B1152374624085N00807595EA0125701264
B1152384624089N00807601EA0125701264
B1152394624094N00807606EA0125701264
B1152404624099N00807612EA0125601262
B1152414624104N00807617EA0125501261
B1152424624109N00807623EA0125301260
B1152434624113N00807629EA0125301260
B1152444624118N00807635EA0125301259
B1152454624123N00807641EA0125301260
B1152464624127N00807647EA0125401261
B1152474624132N00807652EA0125501262
B1152484624136N00807657EA0125501262
B1152494624139N00807662EA0125501262
B1152504624144N00807667EA0125501262
B1152514624149N00807671EA0125501262
B1152524624154N00807676EA0125601262
B1152534624159N00807682EA0125601262
B1152544624164N00807687EA0125501262
B1152554624169N00807693EA0125401261
B1152564624173N00807699EA0125201259
B1152574624177N00807705EA0125001256
B1152584624182N00807712EA0124701253
B1152594624187N00807718EA0124601252
B1153004624192N00807726EA0124501251
B1153014624197N00807733EA0124401250
B1153024624201N00807739EA0124301249
B1153034624205N00807745EA0124201248
B1153044624211N00807753EA0124001246
B1153054624215N00807758EA0123901245
B1153064624219N00807764EA0123801244
B1153074624224N00807770EA0123701243
B1153084624229N00807775EA0123501241
B1153094624235N00807781EA0123301239
B1153104624241N00807788EA0123201238
B1153114624245N00807794EA0123101237
B1153124624251N00807801EA0123101237
B1153134624256N00807807EA0123101237
B1153144624261N00807814EA0123001236
B1153154624266N00807821EA0122901235
B1153164624270N00807827EA0122801233
B1153174624275N00807833EA0122601231
B1153184624280N00807840EA0122401230
B1153194624285N00807847EA0122301228
B1153204624289N00807854EA0122201227
B1153214624294N00807860EA0122101227
B1153224624299N00807866EA0122101226
B1153234624304N00807872EA0122001226
B1153244624307N00807878EA0121901225
B1153254624311N00807884EA0121901225
B1153264624315N00807890EA0121801224
B1153274624319N00807895EA0121601221
B1153284624324N00807901EA0121401219
B1153294624329N00807908EA0121201217
B1153304624333N00807914EA0121001216
B1153314624338N00807920EA0120901215
B1153324624342N00807927EA0120801214
B1153334624346N00807932EA0120701213
B1153344624350N00807938EA0120601211
B1153354624354N00807943EA0120401210
B1153364624359N00807948EA0120201208
B1153374624363N00807954EA0120101206
B1153384624368N00807960EA0119901205
B1153394624373N00807965EA0119901204
B1153404624378N00807971EA0119801204
B1153414624382N00807977EA0119701203
B1153424624387N00807983EA0119601201
B1153434624391N00807988EA0119401199
B1153444624398N00807994EA0119201197
B1153454624402N00807999EA0119101196
B1153464624408N00808005EA0119001195
B1153474624412N00808010EA0118901194
B1153484624417N00808015EA0118801193
B1153494624422N00808020EA0118701192
B1153504624427N00808026EA0118501190
B1153514624432N00808031EA0118501189
B1153524624436N00808037EA0118401189
B1153534624442N00808041EA0118401189
B1153544624447N00808045EA0118401189
B1153554624451N00808049EA0118201187
B1153564624456N00808053EA0118001185
B1153574624462N00808058EA0117901184
B1153584624467N00808062EA0117801183
B1153594624473N00808066EA0117801183
B1154004624477N00808070EA0117801182
B1154014624483N00808073EA0117601181
B1154024624487N00808077EA0117501179
B1154034624493N00808081EA0117301178
B1154044624498N00808085EA0117101176
B1154054624503N00808089EA0117001175
B1154064624508N00808093EA0116901174
B1154074624512N00808097EA0116801172
B1154084624517N00808101EA0116601170
B1154094624521N00808106EA0116401169
B1154104624526N00808110EA0116201167
B1154114624531N00808115EA0116101166
B1154124624535N00808118EA0116101165
B1154134624540N00808122EA0116001164
B1154144624546N00808126EA0115901163
B1154154624551N00808129EA0115801162
B1154164624556N00808133EA0115701162
B1154174624561N00808136EA0115701161
B1154184624566N00808139EA0115601160
B1154194624572N00808143EA0115501159
B1154204624577N00808147EA0115501159
B1154214624583N00808150EA0115401159
B1154224624588N00808154EA0115501159
B1154234624594N00808157EA0115501159
B1154244624599N00808160EA0115401158
B1154254624604N00808164EA0115301158
B1154264624609N00808168EA0115201156
B1154274624614N00808173EA0115301157
B1154284624619N00808178EA0115301157
B1154294624623N00808182EA0115401158
B1154304624627N00808185EA0115301156
B1154314624631N00808188EA0115001154
B1154324624636N00808192EA0114801151
B1154334624641N00808197EA0114601149
B1154344624645N00808203EA0114401148
B1154354624649N00808210EA0114301147
B1154364624652N00808216EA0114201146
B1154374624655N00808221EA0114101144
B1154384624658N00808227EA0113901143
B1154394624661N00808233EA0113801142
B1154404624663N00808240EA0113701140
B1154414624665N00808246EA0113601139
B1154424624666N00808252EA0113401138
B1154434624666N00808258EA0113301137
B1154444624665N00808263EA0113201135
B1154454624663N00808268EA0113101134
B1154464624661N00808272EA0112901133
B1154474624660N00808277EA0112801132
B1154484624658N00808281EA0112601130
B1154494624656N00808286EA0112501129
B1154504624654N00808291EA0112401127
B1154514624653N00808296EA0112301126
B1154524624651N00808301EA0112201125
B1154534624649N00808306EA0112001124
B1154544624648N00808312EA0111901123
B1154554624646N00808318EA0111801122
B1154564624646N00808324EA0111701121
B1154574624645N00808329EA0111601119
B1154584624643N00808334EA0111401118
B1154594624641N00808338EA0111301117
B1155004624640N00808342EA0111201116
B1155014624638N00808347EA0111101115
B1155024624636N00808350EA0110901113
B1155034624633N00808351EA0110701111
B1155044624630N00808350EA0110501109
B1155054624627N00808346EA0110301107
B1155064624625N00808341EA0110201106
B1155074624624N00808335EA0110001104
B1155084624624N00808329EA0110001103
B1155094624624N00808324EA0109801102
B1155104624623N00808318EA0109701101
B1155114624623N00808312EA0109501099
B1155124624623N00808306EA0109401098
B1155134624623N00808299EA0109301097
B1155144624624N00808293EA0109201096
B1155154624624N00808287EA0109101095
B1155164624624N00808281EA0109001094
B1155174624624N00808275EA0108901093
B1155184624623N00808270EA0108701091
B1155194624622N00808265EA0108601090
B1155204624619N00808261EA0108501090
B1155214624616N00808259EA0108501089
B1155224624613N00808259EA0108401088
B1155234624610N00808259EA0108301087
B1155244624607N00808261EA0108201086
B1155254624605N00808263EA0108001084
B1155264624602N00808264EA0107901083
B1155274624599N00808262EA0107701081
B1155284624596N00808259EA0107501079
B1155294624593N00808255EA0107301078
B1155304624590N00808252EA0107201077
B1155314624588N00808250EA0107201076
B1155324624585N00808248EA0107101075
B1155334624583N00808245EA0106901074
B1155344624581N00808243EA0106701072
B1155354624579N00808240EA0106601071
B1155364624576N00808238EA0106501069
B1155374624573N00808237EA0106501069
B1155384624571N00808236EA0106401069
B1155394624570N00808235EA0106501069
B1155404624569N00808234EA0106501069
B1155414624568N00808233EA0106501069
B1155424624567N00808233EA0106501070
B1155434624567N00808233EA0106501069
B1155444624566N00808233EA0106401069
B1155454624565N00808232EA0106401069
B1155464624564N00808232EA0106401069
B1155474624563N00808232EA0106401069
B1155484624562N00808231EA0106401069
B1155494624562N00808231EA0106401069
B1155504624561N00808230EA0106401069
B1155514624561N00808230EA0106401069
B1155524624560N00808229EA0106401069
B1155534624559N00808229EA0106401069
B1155544624559N00808228EA0106401069
B1155554624558N00808228EA0106401069
B1155564624558N00808227EA0106501069
B1155574624558N00808227EA0106501069
B1155584624558N00808227EA0106501070
B1155594624558N00808227EA0106501070
B1156004624558N00808227EA0106501070
B1156014624558N00808227EA0106501070
B1156024624558N00808227EA0106501070
B1156034624558N00808226EA0106501069
B1156044624558N00808226EA0106501069
B1156054624558N00808226EA0106501070
B1156064624558N00808226EA0106501070
B1156074624558N00808226EA0106501069
B1156084624558N00808226EA0106401069
B1156094624558N00808226EA0106501069
B1156104624558N00808226EA0106501069
B1156114624558N00808226EA0106501069
B1156124624558N00808226EA0106501069
B1156134624558N00808226EA0106501070
B1156144624558N00808225EA0106501070
B1156154624559N00808225EA0106501069
B1156164624559N00808224EA0106501070
B1156174624559N00808224EA0106501069
B1156184624559N00808224EA0106501069
B1156194624559N00808224EA0106501069
B1156204624559N00808224EA0106501069
B1156214624559N00808224EA0106501069
B1156224624559N00808223EA0106501069
B1156234624559N00808223EA0106501069
B1156244624559N00808223EA0106501069
B1156254624560N00808223EA0106501069
B1156264624560N00808223EA0106501069
B1156274624560N00808223EA0106501069
B1156284624560N00808222EA0106501069
B1156294624560N00808222EA0106501069
B1156304624560N00808222EA0106501069
B1156314624560N00808222EA0106501069
B1156324624560N00808222EA0106501069
B1156334624560N00808222EA0106501069
B1156344624560N00808222EA0106501069
B1156354624560N00808222EA0106501069
B1156364624560N00808222EA0106401069
B1156374624560N00808221EA0106501069
B1156384624560N00808221EA0106501069
B1156394624560N00808221EA0106501069
B1156404624560N00808220EA0106501069
B1156414624560N00808220EA0106501069
B1156424624560N00808220EA0106501069
B1156434624560N00808220EA0106501069
B1156444624560N00808220EA0106501069
B1156454624559N00808220EA0106501069
B1156464624559N00808220EA0106501069
B1156474624559N00808220EA0106501069
B1156484624559N00808219EA0106501069
B1156494624559N00808218EA0106501069
B1156504624559N00808217EA0106501069
B1156514624559N00808216EA0106501069
B1156524624559N00808216EA0106401069
B1156534624559N00808215EA0106401069
B1156544624559N00808215EA0106401069
B1156554624560N00808214EA0106401069
B1156564624560N00808214EA0106401070
B1156574624560N00808213EA0106401069
B1156584624560N00808213EA0106501070
B1156594624560N00808213EA0106501070
B1157004624560N00808213EA0106401070
B1157014624560N00808213EA0106401070
B1157024624560N00808213EA0106401070
B1157034624560N00808213EA0106401070
B1157044624560N00808213EA0106401070
B1157054624560N00808213EA0106401070
B1157064624560N00808213EA0106401070
B1157074624560N00808213EA0106401070
B1157084624560N00808213EA0106401070
B1157094624560N00808213EA0106401070
B1157104624560N00808213EA0106401070
B1157114624560N00808213EA0106401070
B1157124624560N00808213EA0106401070
B1157134624560N00808213EA0106401070
B1157144624561N00808213EA0106401070
B1157154624561N00808213EA0106401070
B1157164624561N00808213EA0106401070
B1157174624561N00808214EA0106401070
B1157184624561N00808214EA0106401070
B1157194624561N00808214EA0106401070
B1157204624561N00808214EA0106401070
B1157214624561N00808214EA0106401070
B1157224624561N00808214EA0106401070
B1157234624561N00808214EA0106401070
B1157244624561N00808213EA0106401070
B1157254624561N00808213EA0106401070
B1157264624561N00808213EA0106401070
B1157274624561N00808213EA0106401070
B1157284624561N00808213EA0106401070
B1157294624561N00808213EA0106401070
B1157304624561N00808213EA0106401070
B1157314624561N00808213EA0106401070
B1157324624561N00808213EA0106401070
B1157334624561N00808212EA0106401070
B1157344624561N00808212EA0106401070
B1157354624561N00808212EA0106401071
B1157364624560N00808212EA0106401070
B1157374624560N00808212EA0106401071
B1157384624560N00808212EA0106401071
B1157394624560N00808211EA0106401071
B1157404624559N00808212EA0106401071
B1157414624559N00808212EA0106401071
B1157424624560N00808212EA0106401071
B1157434624560N00808212EA0106401071
B1157444624560N00808212EA0106401071
LXSX;C1;GM:1.3
LXSX;S1;TS:1762601407;TL:1762603064;AS:1917;AL:1071;AT:1917;AB:1069
LXSX;S1;XS:0;XD:9.82;SP:45.9;MC:1.5;MS:-1.6;NB:1659
LXSX;S1;FL:15.0;TG:0;TC:0.0;AG:384;GM:1.3
LXSX;S1;X0:46.37687,8.03053
LXSX;S1;X1:46.37720,8.04258
LXSX;S1;X2:46.37643,8.04063
LXSX;S1;X3:46.38807,8.10400
LXSX;S1;X4:46.41075,8.13882
GA6248F06A1E027F0754B25F15E974C84
