AXSX006 SKYTRAXX
HFPLTPILOT:Sepp
HFGTYGLIDERTYPE:Advance Sigma 12
HFDTM100GPSDATUM:WGS-84
HFRFWFIRMWAREVERSION:202504281601
HFRHWHARDWAREVERSION:5.0
HFTZNTIMEZONE:+1.00
HFSITSITE:Praia da Gralha_S
HFDTE290525
LXSX;I1;OAB:20250527;OOB:20250501
LXSX;I1;ID:115785
LXSX;I1;AC:1;CAT:C
LXSX;RAT:LTE M1;GSM:3
B1227593931357N00907901WA0002500081
B1228003931357N00907901WA0002500081
B1228013931357N00907901WA0002500082
B1228023931357N00907901WA0002500081
B1228033931357N00907901WA0002500081
B1228043931357N00907901WA0002500081
B1228053931357N00907901WA0002500081
B1228063931357N00907901WA0002500081
B1228073931356N00907900WA0002500081
B1228083931356N00907901WA0002400081
B1228093931356N00907902WA0002400080
B1228103931357N00907903WA0002400080
B1228113931357N00907904WA0002400080
B1228123931358N00907904WA0002400081
B1228133931359N00907904WA0002400080
B1228143931360N00907905WA0002200079
B1228153931363N00907906WA0002100077
B1228163931365N00907905WA0002100077
B1228173931367N00907903WA0002000077
B1228183931370N00907899WA0002000077
B1228193931373N00907896WA0002000077
B1228203931375N00907894WA0002000077
B1228213931377N00907892WA0002000077
B1228223931380N00907890WA0002000077
B1228233931383N00907887WA0002000077
B1228243931386N00907884WA0002000076
B1228253931388N00907881WA0001900076
B1228263931392N00907879WA0001900075
B1228273931395N00907875WA0001800075
B1228283931397N00907872WA0001900075
B1228293931400N00907869WA0001900075
B1228303931403N00907867WA0001800075
B1228313931406N00907865WA0001800074
B1228323931409N00907863WA0001700073
B1228333931412N00907861WA0001600073
B1228343931415N00907858WA0001600072
B1228353931418N00907856WA0001600072
B1228363931421N00907854WA0001600072
B1228373931423N00907851WA0001600072
B1228383931426N00907849WA0001500072
B1228393931429N00907847WA0001600073
B1228403931432N00907844WA0001700073
B1228413931433N00907841WA0001600073
B1228423931435N00907839WA0001500072
B1228433931438N00907836WA0001500071
B1228443931441N00907834WA0001400071
B1228453931444N00907832WA0001400070
B1228463931446N00907829WA0001300070
B1228473931449N00907827WA0001300070
B1228483931452N00907825WA0001300070
B1228493931454N00907823WA0001200069
B1228503931457N00907821WA0001200068
B1228513931460N00907819WA0001100068
B1228523931463N00907816WA0001100068
B1228533931466N00907814WA0001100068
B1228543931468N00907812WA0001100068
B1228553931471N00907809WA0001100068
B1228563931473N00907806WA0001100068
B1228573931476N00907803WA0001100068
B1228583931479N00907800WA0001100068
B1228593931481N00907797WA0001200068
B1229003931484N00907794WA0001200068
B1229013931486N00907792WA0001200068
B1229023931489N00907789WA0001200068
B1229033931492N00907786WA0001200068
B1229043931494N00907784WA0001200069
B1229053931497N00907781WA0001200069
B1229063931499N00907778WA0001200069
B1229073931502N00907775WA0001200068
B1229083931504N00907772WA0001200068
B1229093931507N00907770WA0001100068
B1229103931510N00907767WA0001100068
B1229113931512N00907764WA0001200068
B1229123931515N00907761WA0001200068
B1229133931517N00907758WA0001200069
B1229143931520N00907756WA0001200069
B1229153931522N00907754WA0001200069
B1229163931525N00907752WA0001200069
B1229173931528N00907749WA0001300069
B1229183931531N00907747WA0001300070
B1229193931533N00907745WA0001300069
B1229203931536N00907742WA0001200069
B1229213931539N00907739WA0001200069
B1229223931541N00907735WA0001200069
B1229233931544N00907732WA0001200069
B1229243931546N00907728WA0001300069
B1229253931549N00907725WA0001300070
B1229263931551N00907721WA0001300069
B1229273931553N00907718WA0001200069
B1229283931556N00907715WA0001200069
B1229293931558N00907712WA0001200069
B1229303931561N00907710WA0001300069
B1229313931565N00907707WA0001300070
B1229323931567N00907704WA0001400070
B1229333931569N00907702WA0001400071
B1229343931572N00907699WA0001400071
B1229353931575N00907697WA0001400071
B1229363931577N00907695WA0001500071
B1229373931580N00907693WA0001500072
B1229383931582N00907691WA0001600072
B1229393931585N00907688WA0001600073
B1229403931587N00907685WA0001600073
B1229413931590N00907682WA0001700073
B1229423931592N00907679WA0001700074
B1229433931595N00907675WA0001800074
B1229443931598N00907672WA0001800075
B1229453931600N00907668WA0002000076
B1229463931602N00907666WA0002100077
B1229473931604N00907663WA0002200078
B1229483931607N00907661WA0002200078
B1229493931609N00907659WA0002200079
B1229503931611N00907658WA0002200079
B1229513931614N00907658WA0002200079
B1229523931616N00907660WA0002200078
B1229533931618N00907663WA0002200079
B1229543931618N00907666WA0002200079
B1229553931617N00907671WA0002200079
B1229563931615N00907675WA0002200078
B1229573931611N00907679WA0002200078
B1229583931608N00907682WA0002200078
B1229593931603N00907685WA0002200078
B1230003931598N00907687WA0002200078
B1230013931593N00907689WA0002100078
B1230023931588N00907692WA0002100078
B1230033931582N00907696WA0002200078
B1230043931578N00907699WA0002200079
B1230053931573N00907703WA0002300080
B1230063931569N00907705WA0002300080
B1230073931564N00907708WA0002300080
B1230083931560N00907712WA0002300080
B1230093931555N00907716WA0002300080
B1230103931552N00907720WA0002300080
B1230113931547N00907723WA0002300080
B1230123931543N00907727WA0002300080
B1230133931539N00907730WA0002300080
B1230143931535N00907733WA0002300080
B1230153931530N00907736WA0002300080
B1230163931525N00907740WA0002400081
B1230173931521N00907743WA0002400081
B1230183931517N00907747WA0002400081
B1230193931513N00907751WA0002400081
B1230203931511N00907755WA0002400081
B1230213931510N00907760WA0002300080
B1230223931511N00907764WA0002300080
B1230233931512N00907768WA0002200079
B1230243931515N00907770WA0002200079
B1230253931517N00907770WA0002100078
B1230263931521N00907768WA0002000077
B1230273931524N00907765WA0002000077
B1230283931527N00907761WA0001900076
B1230293931529N00907757WA0001900077
B1230303931531N00907752WA0002000077
B1230313931533N00907747WA0002000077
B1230323931534N00907743WA0002000077
B1230333931536N00907739WA0001900076
B1230343931539N00907734WA0001900076
B1230353931541N00907730WA0001900076
B1230363931544N00907726WA0001900076
B1230373931547N00907723WA0001900076
B1230383931549N00907720WA0001900076
B1230393931552N00907717WA0001900076
B1230403931554N00907714WA0001900076
B1230413931558N00907710WA0001900076
B1230423931560N00907707WA0001900077
B1230433931563N00907704WA0002000077
B1230443931566N00907701WA0002000077
B1230453931568N00907699WA0002000078
B1230463931571N00907696WA0002000078
B1230473931573N00907694WA0002000078
B1230483931576N00907691WA0002100078
B1230493931578N00907688WA0002100078
B1230503931581N00907685WA0002100078
B1230513931583N00907682WA0002100079
B1230523931585N00907679WA0002100079
B1230533931588N00907676WA0002200079
B1230543931591N00907673WA0002200079
B1230553931593N00907670WA0002200080
B1230563931596N00907666WA0002300080
B1230573931598N00907663WA0002400081
B1230583931600N00907658WA0002400082
B1230593931602N00907653WA0002500082
B1231003931604N00907648WA0002500083
B1231013931607N00907645WA0002600083
B1231023931610N00907644WA0002500083
B1231033931613N00907644WA0002500082
B1231043931615N00907646WA0002400082
B1231053931616N00907649WA0002400082
B1231063931616N00907653WA0002400081
B1231073931615N00907656WA0002400081
B1231083931612N00907660WA0002300081
B1231093931608N00907663WA0002300080
B1231103931604N00907666WA0002300080
B1231113931599N00907668WA0002300080
B1231123931595N00907671WA0002300080
B1231133931591N00907674WA0002300081
B1231143931587N00907677WA0002400081
B1231153931583N00907680WA0002400082
B1231163931579N00907683WA0002400082
B1231173931575N00907686WA0002400082
B1231183931571N00907689WA0002400082
B1231193931567N00907693WA0002400082
B1231203931563N00907697WA0002400082
B1231213931559N00907701WA0002500082
B1231223931555N00907704WA0002600083
B1231233931551N00907708WA0002600084
B1231243931548N00907712WA0002600084
B1231253931547N00907716WA0002600083
B1231263931546N00907721WA0002500082
B1231273931547N00907725WA0002400082
B1231283931550N00907727WA0002400081
B1231293931553N00907728WA0002400081
B1231303931556N00907725WA0002300081
B1231313931558N00907721WA0002300080
B1231323931560N00907716WA0002300081
B1231333931562N00907711WA0002300081
B1231343931563N00907707WA0002300081
B1231353931565N00907703WA0002300080
B1231363931568N00907700WA0002200080
B1231373931571N00907697WA0002200080
B1231383931574N00907693WA0002200080
B1231393931577N00907690WA0002300081
B1231403931579N00907687WA0002300081
B1231413931581N00907683WA0002400082
B1231423931583N00907680WA0002400082
B1231433931586N00907677WA0002400082
B1231443931589N00907673WA0002400082
B1231453931591N00907669WA0002500083
B1231463931594N00907665WA0002600084
B1231473931596N00907660WA0002700085
B1231483931598N00907656WA0002800086
B1231493931599N00907650WA0002800086
B1231503931601N00907645WA0002800086
B1231513931603N00907641WA0002900087
B1231523931606N00907638WA0002900087
B1231533931608N00907635WA0002900087
B1231543931611N00907635WA0002900087
B1231553931613N00907636WA0002900087
B1231563931615N00907638WA0002900087
B1231573931615N00907642WA0002900087
B1231583931613N00907645WA0002900087
B1231593931611N00907649WA0003000088
B1232003931609N00907652WA0003000088
B1232013931606N00907655WA0003000088
B1232023931601N00907658WA0003000088
B1232033931597N00907660WA0003000088
B1232043931593N00907663WA0003000088
B1232053931589N00907666WA0003100089
B1232063931585N00907669WA0003100089
B1232073931581N00907672WA0003200090
B1232083931577N00907675WA0003300091
B1232093931574N00907678WA0003400092
B1232103931572N00907682WA0003400092
B1232113931570N00907686WA0003300091
B1232123931570N00907690WA0003300091
B1232133931571N00907693WA0003200090
B1232143931574N00907695WA0003100090
B1232153931577N00907695WA0003100089
B1232163931580N00907692WA0003100089
B1232173931583N00907687WA0003100090
B1232183931584N00907682WA0003200090
B1232193931586N00907677WA0003300091
B1232203931587N00907673WA0003200091
B1232213931589N00907667WA0003200090
B1232223931591N00907663WA0003200090
B1232233931593N00907658WA0003200091
B1232243931596N00907653WA0003400092
B1232253931598N00907648WA0003400093
B1232263931600N00907643WA0003500093
B1232273931602N00907639WA0003500094
B1232283931604N00907636WA0003500094
B1232293931606N00907634WA0003500093
B1232303931609N00907633WA0003500093
B1232313931611N00907633WA0003500094
B1232323931613N00907635WA0003500094
B1232333931613N00907638WA0003500094
B1232343931613N00907641WA0003500093
B1232353931612N00907645WA0003500094
B1232363931610N00907649WA0003500094
B1232373931607N00907652WA0003600094
B1232383931603N00907655WA0003600094
B1232393931599N00907658WA0003600094
B1232403931595N00907660WA0003600094
B1232413931590N00907663WA0003600094
B1232423931586N00907666WA0003600095
B1232433931582N00907668WA0003700095
B1232443931578N00907671WA0003700095
B1232453931574N00907674WA0003700095
B1232463931570N00907677WA0003700096
B1232473931566N00907680WA0003700096
B1232483931563N00907683WA0003700095
B1232493931558N00907686WA0003700095
B1232503931554N00907689WA0003600095
B1232513931551N00907692WA0003600094
B1232523931547N00907696WA0003600094
B1232533931542N00907699WA0003600095
B1232543931539N00907703WA0003600095
B1232553931534N00907706WA0003600094
B1232563931530N00907710WA0003600094
B1232573931527N00907714WA0003600094
B1232583931524N00907718WA0003600094
B1232593931522N00907722WA0003600094
B1233003931521N00907726WA0003500094
B1233013931522N00907731WA0003500093
B1233023931523N00907733WA0003400093
B1233033931526N00907733WA0003400092
B1233043931529N00907732WA0003300091
B1233053931532N00907729WA0003300091
B1233063931534N00907726WA0003300091
B1233073931537N00907722WA0003200091
B1233083931540N00907718WA0003200090
B1233093931543N00907714WA0003200091
B1233103931546N00907711WA0003300092
B1233113931549N00907707WA0003400093
B1233123931551N00907703WA0003500093
B1233133931553N00907700WA0003500094
B1233143931555N00907696WA0003500094
B1233153931558N00907693WA0003500093
B1233163931560N00907690WA0003500093
B1233173931563N00907687WA0003400093
B1233183931566N00907684WA0003400093
B1233193931569N00907681WA0003500093
B1233203931572N00907678WA0003600094
B1233213931574N00907675WA0003700095
B1233223931576N00907671WA0003700096
B1233233931578N00907667WA0003800096
B1233243931580N00907663WA0003800096
B1233253931582N00907659WA0003800096
B1233263931585N00907655WA0003800097
B1233273931587N00907651WA0003800097
B1233283931589N00907647WA0003800097
B1233293931591N00907643WA0003800097
B1233303931593N00907641WA0003800097
B1233313931596N00907639WA0003800097
B1233323931599N00907639WA0003800096
B1233333931600N00907641WA0003800096
B1233343931601N00907643WA0003700096
B1233353931601N00907646WA0003700096
B1233363931600N00907650WA0003700095
B1233373931598N00907654WA0003700095
B1233383931595N00907657WA0003700095
B1233393931591N00907660WA0003700096
B1233403931587N00907662WA0003700096
B1233413931582N00907665WA0003800096
B1233423931578N00907667WA0003800096
B1233433931574N00907670WA0003800096
B1233443931569N00907673WA0003800096
B1233453931565N00907675WA0003800097
B1233463931561N00907678WA0003900098
B1233473931556N00907680WA0003900098
B1233483931552N00907683WA0003900097
B1233493931548N00907686WA0003900097
B1233503931544N00907689WA0003900097
B1233513931541N00907693WA0003900097
B1233523931538N00907696WA0003900098
B1233533931536N00907700WA0003900098
B1233543931535N00907704WA0003900097
B1233553931535N00907708WA0003800097
B1233563931537N00907710WA0003700096
B1233573931540N00907711WA0003600095
B1233583931543N00907710WA0003600095
B1233593931545N00907707WA0003600095
B1234003931548N00907704WA0003700096
B1234013931550N00907701WA0003700096
B1234023931552N00907698WA0003700096
B1234033931555N00907695WA0003700095
B1234043931558N00907692WA0003600095
B1234053931561N00907689WA0003600095
B1234063931563N00907686WA0003600095
B1234073931566N00907683WA0003700096
B1234083931569N00907680WA0003800097
B1234093931571N00907677WA0003800097
B1234103931572N00907674WA0003800097
B1234113931574N00907671WA0003800097
B1234123931577N00907667WA0003900097
B1234133931579N00907663WA0003900098
B1234143931581N00907658WA0004000099
B1234153931583N00907654WA0004100099
B1234163931585N00907651WA0004000099
B1234173931587N00907649WA0004000099
B1234183931589N00907648WA0003900098
B1234193931592N00907648WA0003900098
B1234203931593N00907650WA0003800097
B1234213931594N00907653WA0003800097
B1234223931594N00907656WA0003800097
B1234233931592N00907661WA0003700096
B1234243931589N00907664WA0003700096
B1234253931585N00907668WA0003700096
B1234263931581N00907671WA0003700096
B1234273931577N00907673WA0003700096
B1234283931572N00907676WA0003700096
B1234293931566N00907679WA0003700096
B1234303931561N00907682WA0003700096
B1234313931556N00907685WA0003700096
B1234323931552N00907688WA0003800097
B1234333931547N00907691WA0003800097
B1234343931543N00907694WA0003800097
B1234353931539N00907697WA0003800097
B1234363931534N00907700WA0003800097
B1234373931530N00907703WA0003700096
B1234383931526N00907707WA0003700096
B1234393931523N00907711WA0003700096
B1234403931520N00907715WA0003800097
B1234413931517N00907720WA0003800097
B1234423931517N00907724WA0003800097
B1234433931517N00907727WA0003700096
B1234443931519N00907730WA0003600095
B1234453931522N00907730WA0003600095
B1234463931525N00907729WA0003500094
B1234473931528N00907726WA0003500094
B1234483931530N00907723WA0003500094
B1234493931533N00907720WA0003500094
B1234503931535N00907717WA0003500094
B1234513931538N00907713WA0003500093
B1234523931541N00907710WA0003400093
B1234533931544N00907707WA0003400093
B1234543931546N00907704WA0003400093
B1234553931549N00907701WA0003400093
B1234563931552N00907698WA0003400093
B1234573931554N00907696WA0003300092
B1234583931557N00907693WA0003300092
B1234593931560N00907689WA0003300092
B1235003931563N00907686WA0003300092
B1235013931566N00907683WA0003300092
B1235023931568N00907680WA0003400093
B1235033931571N00907677WA0003400093
B1235043931573N00907674WA0003400093
B1235053931575N00907670WA0003500094
B1235063931578N00907667WA0003500094
B1235073931580N00907663WA0003500094
B1235083931582N00907658WA0003600095
B1235093931584N00907654WA0003600095
B1235103931587N00907651WA0003500094
B1235113931589N00907648WA0003600095
B1235123931592N00907646WA0003600095
B1235133931595N00907645WA0003600095
B1235143931596N00907646WA0003600095
B1235153931598N00907648WA0003500094
B1235163931598N00907650WA0003500094
B1235173931598N00907654WA0003500093
B1235183931596N00907659WA0003400093
B1235193931594N00907663WA0003500094
B1235203931591N00907666WA0003500094
B1235213931589N00907670WA0003500094
B1235223931588N00907674WA0003600094
B1235233931586N00907677WA0003600094
B1235243931584N00907681WA0003500094
B1235253931581N00907685WA0003500094
B1235263931577N00907688WA0003500093
B1235273931572N00907691WA0003400093
B1235283931567N00907694WA0003400093
B1235293931563N00907696WA0003400093
B1235303931558N00907698WA0003400092
B1235313931553N00907701WA0003300092
B1235323931549N00907703WA0003300091
B1235333931544N00907706WA0003200091
B1235343931539N00907709WA0003200090
B1235353931534N00907712WA0003200090
B1235363931529N00907715WA0003200091
B1235373931525N00907719WA0003300091
B1235383931520N00907722WA0003300092
B1235393931516N00907726WA0003300092
B1235403931512N00907729WA0003400092
B1235413931509N00907733WA0003300092
B1235423931504N00907737WA0003300092
B1235433931502N00907740WA0003300092
B1235443931499N00907745WA0003300091
B1235453931496N00907749WA0003300091
B1235463931493N00907753WA0003200091
B1235473931490N00907757WA0003200091
B1235483931487N00907761WA0003200091
B1235493931484N00907765WA0003200091
B1235503931481N00907769WA0003200091
B1235513931479N00907774WA0003200091
B1235523931476N00907778WA0003200091
B1235533931473N00907782WA0003200091
B1235543931470N00907786WA0003200091
B1235553931467N00907790WA0003200090
B1235563931465N00907794WA0003200090
B1235573931464N00907799WA0003100090
B1235583931463N00907803WA0003100089
B1235593931464N00907807WA0003000089
B1236003931466N00907810WA0002900088
B1236013931468N00907811WA0002900087
B1236023931471N00907810WA0002800087
B1236033931474N00907808WA0002700086
B1236043931476N00907803WA0002700085
B1236053931478N00907798WA0002700085
B1236063931479N00907793WA0002700085
B1236073931481N00907789WA0002700085
B1236083931483N00907784WA0002700085
B1236093931485N00907780WA0002700086
B1236103931488N00907776WA0002700086
B1236113931490N00907772WA0002700086
B1236123931492N00907769WA0002700085
B1236133931494N00907765WA0002600085
B1236143931497N00907761WA0002600084
B1236153931500N00907757WA0002600085
B1236163931502N00907754WA0002700085
B1236173931504N00907751WA0002700085
B1236183931507N00907749WA0002700085
B1236193931509N00907746WA0002700085
B1236203931512N00907744WA0002600085
B1236213931515N00907741WA0002600085
B1236223931517N00907737WA0002600085
B1236233931520N00907735WA0002700085
B1236243931522N00907732WA0002700085
B1236253931524N00907728WA0002800086
B1236263931526N00907725WA0002900088
B1236273931528N00907721WA0002900088
B1236283931529N00907716WA0003000088
B1236293931531N00907712WA0003000089
B1236303931532N00907708WA0003000088
B1236313931534N00907705WA0003000088
B1236323931537N00907703WA0003000088
B1236333931540N00907702WA0002900088
B1236343931543N00907703WA0002900087
B1236353931545N00907705WA0002900087
B1236363931545N00907709WA0002900087
B1236373931545N00907714WA0002900087
B1236383931543N00907719WA0002900087
B1236393931540N00907723WA0002900087
B1236403931536N00907726WA0002900087
B1236413931531N00907728WA0002800087
B1236423931526N00907731WA0002800086
B1236433931521N00907734WA0002800086
B1236443931517N00907737WA0002800086
B1236453931513N00907741WA0002800086
B1236463931508N00907745WA0002800086
B1236473931504N00907749WA0002800086
B1236483931500N00907753WA0002900087
B1236493931495N00907756WA0002900087
B1236503931492N00907759WA0002900087
B1236513931488N00907762WA0002900087
B1236523931486N00907766WA0002900087
B1236533931485N00907771WA0002700086
B1236543931485N00907775WA0002700085
B1236553931487N00907779WA0002700085
B1236563931489N00907780WA0002600084
B1236573931492N00907781WA0002600084
B1236583931494N00907779WA0002600084
B1236593931497N00907776WA0002500083
B1237003931499N00907771WA0002500083
B1237013931500N00907766WA0002400083
B1237023931502N00907761WA0002400083
B1237033931504N00907756WA0002400082
B1237043931506N00907753WA0002400082
B1237053931509N00907749WA0002400082
B1237063931512N00907747WA0002500083
B1237073931514N00907744WA0002500083
B1237083931517N00907741WA0002400082
B1237093931520N00907738WA0002400082
B1237103931522N00907735WA0002400082
B1237113931525N00907732WA0002500083
B1237123931527N00907728WA0002600084
B1237133931529N00907724WA0002700085
B1237143931531N00907721WA0002700085
B1237153931533N00907718WA0002600084
B1237163931536N00907714WA0002600084
B1237173931539N00907711WA0002600084
B1237183931542N00907709WA0002600084
B1237193931545N00907707WA0002700085
B1237203931547N00907705WA0002700085
B1237213931550N00907702WA0002700085
B1237223931552N00907700WA0002700085
B1237233931554N00907698WA0002700085
B1237243931558N00907696WA0002700085
B1237253931561N00907693WA0002700085
B1237263931563N00907690WA0002800086
B1237273931566N00907688WA0002900087
B1237283931568N00907685WA0003000088
B1237293931571N00907683WA0003000088
B1237303931573N00907680WA0003000088
B1237313931575N00907677WA0003000088
B1237323931578N00907674WA0003000088
B1237333931581N00907671WA0003000088
B1237343931583N00907668WA0003100089
B1237353931586N00907665WA0003200090
B1237363931588N00907661WA0003300091
B1237373931589N00907656WA0003300091
B1237383931591N00907652WA0003300091
B1237393931593N00907649WA0003200090
B1237403931596N00907648WA0003200090
B1237413931599N00907647WA0003200090
B1237423931602N00907648WA0003300091
B1237433931603N00907650WA0003400092
B1237443931603N00907654WA0003400092
B1237453931602N00907659WA0003400092
B1237463931600N00907663WA0003500093
B1237473931597N00907667WA0003600094
B1237483931593N00907669WA0003600094
B1237493931589N00907672WA0003700094
B1237503931585N00907674WA0003700094
B1237513931580N00907676WA0003700094
B1237523931575N00907679WA0003700095
B1237533931570N00907681WA0003700095
B1237543931566N00907684WA0003700095
B1237553931561N00907687WA0003700095
B1237563931556N00907690WA0003700094
B1237573931552N00907693WA0003600094
B1237583931548N00907696WA0003600094
B1237593931544N00907699WA0003600094
B1238003931540N00907702WA0003600094
B1238013931536N00907705WA0003600094
B1238023931532N00907709WA0003600094
B1238033931527N00907712WA0003600094
B1238043931523N00907715WA0003700095
B1238053931519N00907718WA0003700095
B1238063931515N00907722WA0003700095
B1238073931513N00907725WA0003700095
B1238083931511N00907729WA0003700094
B1238093931511N00907733WA0003600094
B1238103931512N00907736WA0003500093
B1238113931514N00907738WA0003400092
B1238123931517N00907737WA0003400091
B1238133931520N00907735WA0003300091
B1238143931522N00907731WA0003300091
B1238153931524N00907727WA0003300091
B1238163931526N00907722WA0003300091
B1238173931528N00907718WA0003400092
B1238183931530N00907714WA0003500092
B1238193931532N00907711WA0003500093
B1238203931535N00907709WA0003500093
B1238213931537N00907706WA0003500093
B1238223931540N00907704WA0003500093
B1238233931542N00907701WA0003400092
B1238243931545N00907698WA0003400092
B1238253931548N00907696WA0003400091
B1238263931551N00907694WA0003300091
B1238273931554N00907692WA0003300091
B1238283931557N00907689WA0003400092
B1238293931560N00907687WA0003400092
B1238303931562N00907684WA0003400092
B1238313931565N00907682WA0003400092
B1238323931568N00907679WA0003400092
B1238333931571N00907676WA0003500093
B1238343931574N00907673WA0003500093
B1238353931576N00907669WA0003600094
B1238363931578N00907666WA0003700095
B1238373931580N00907661WA0003800096
B1238383931582N00907657WA0003700095
B1238393931584N00907653WA0003700095
B1238403931587N00907650WA0003700095
B1238413931590N00907648WA0003700095
B1238423931593N00907646WA0003700095
B1238433931595N00907645WA0003700095
B1238443931597N00907647WA0003600094
B1238453931598N00907649WA0003500093
B1238463931599N00907652WA0003600093
B1238473931599N00907656WA0003600094
B1238483931597N00907660WA0003600094
B1238493931595N00907664WA0003600094
B1238503931592N00907667WA0003600094
B1238513931588N00907671WA0003600094
B1238523931584N00907674WA0003600094
B1238533931580N00907677WA0003600094
B1238543931577N00907680WA0003600095
B1238553931573N00907684WA0003700095
B1238563931570N00907687WA0003700095
B1238573931567N00907691WA0003600095
B1238583931564N00907695WA0003600094
B1238593931561N00907698WA0003600094
B1239003931557N00907702WA0003600094
B1239013931553N00907705WA0003600094
B1239023931549N00907708WA0003600094
B1239033931544N00907710WA0003600094
B1239043931539N00907712WA0003600094
B1239053931534N00907714WA0003600094
B1239063931530N00907716WA0003600094
B1239073931525N00907719WA0003500094
B1239083931521N00907722WA0003500094
B1239093931516N00907725WA0003500094
B1239103931512N00907728WA0003500093
B1239113931508N00907732WA0003500093
B1239123931504N00907735WA0003400093
B1239133931501N00907739WA0003400093
B1239143931497N00907742WA0003400093
B1239153931495N00907746WA0003400092
B1239163931492N00907750WA0003300092
B1239173931488N00907754WA0003300092
B1239183931485N00907758WA0003300092
B1239193931483N00907762WA0003300092
B1239203931480N00907766WA0003400092
B1239213931479N00907770WA0003300092
B1239223931479N00907774WA0003300092
B1239233931480N00907777WA0003200091
B1239243931483N00907779WA0003100090
B1239253931486N00907779WA0003100090
B1239263931489N00907777WA0003000089
B1239273931492N00907773WA0003000089
B1239283931494N00907769WA0003100090
B1239293931497N00907764WA0003100090
B1239303931499N00907760WA0003200091
B1239313931501N00907756WA0003200091
B1239323931503N00907753WA0003100090
B1239333931506N00907750WA0003000089
B1239343931509N00907747WA0003000089
B1239353931512N00907744WA0003000089
B1239363931515N00907740WA0003000089
B1239373931517N00907736WA0003100090
B1239383931519N00907733WA0003100090
B1239393931521N00907729WA0003100090
B1239403931523N00907725WA0003100090
B1239413931525N00907722WA0003100090
B1239423931527N00907718WA0003100090
B1239433931530N00907714WA0003100090
B1239443931532N00907711WA0003100090
B1239453931535N00907709WA0003100091
B1239463931537N00907706WA0003200091
B1239473931540N00907703WA0003200091
B1239483931542N00907700WA0003100090
B1239493931544N00907698WA0003100090
B1239503931547N00907695WA0003000089
B1239513931551N00907693WA0003000089
B1239523931554N00907692WA0003100090
B1239533931556N00907690WA0003100090
B1239543931559N00907687WA0003200091
B1239553931561N00907685WA0003200091
B1239563931564N00907682WA0003200091
B1239573931566N00907679WA0003200091
B1239583931570N00907677WA0003100090
B1239593931573N00907674WA0003200091
B1240003931575N00907672WA0003300092
B1240013931578N00907669WA0003400093
B1240023931580N00907666WA0003500094
B1240033931582N00907663WA0003500094
B1240043931585N00907660WA0003500094
B1240053931588N00907659WA0003400093
B1240063931591N00907658WA0003400093
B1240073931593N00907660WA0003400092
B1240083931594N00907663WA0003400092
B1240093931595N00907666WA0003400093
B1240103931594N00907671WA0003400093
B1240113931592N00907674WA0003400092
B1240123931589N00907678WA0003400092
B1240133931585N00907681WA0003300092
B1240143931581N00907684WA0003300092
B1240153931577N00907687WA0003300092
B1240163931573N00907691WA0003300092
B1240173931569N00907695WA0003300091
B1240183931566N00907698WA0003200091
B1240193931562N00907702WA0003200091
B1240203931558N00907706WA0003200091
B1240213931554N00907709WA0003200091
B1240223931551N00907713WA0003200091
B1240233931547N00907716WA0003200091
B1240243931543N00907719WA0003200091
B1240253931539N00907722WA0003100090
B1240263931534N00907725WA0003200091
B1240273931529N00907727WA0003200091
B1240283931524N00907730WA0003200091
B1240293931520N00907732WA0003200091
B1240303931515N00907734WA0003200091
B1240313931511N00907737WA0003100090
B1240323931507N00907741WA0003100090
B1240333931503N00907745WA0003100090
B1240343931499N00907749WA0003200091
B1240353931496N00907752WA0003200092
B1240363931493N00907755WA0003200091
B1240373931492N00907759WA0003200091
B1240383931491N00907763WA0003000090
B1240393931492N00907767WA0003000089
B1240403931494N00907770WA0002900088
B1240413931497N00907771WA0002800088
B1240423931500N00907770WA0002800087
B1240433931503N00907767WA0002800087
B1240443931506N00907764WA0002800088
B1240453931508N00907760WA0002800087
B1240463931510N00907756WA0002700087
B1240473931512N00907752WA0002700086
B1240483931515N00907749WA0002600085
B1240493931518N00907745WA0002500085
B1240503931521N00907741WA0002500085
B1240513931523N00907737WA0002500085
B1240523931526N00907733WA0002600085
B1240533931528N00907729WA0002600085
B1240543931530N00907726WA0002600086
B1240553931533N00907723WA0002600086
B1240563931535N00907720WA0002600086
B1240573931538N00907717WA0002600086
B1240583931540N00907715WA0002600085
B1240593931542N00907712WA0002600085
B1241003931545N00907708WA0002500084
B1241013931548N00907704WA0002500084
B1241023931551N00907700WA0002500084
B1241033931553N00907696WA0002500084
B1241043931556N00907694WA0002500084
B1241053931558N00907692WA0002500084
B1241063931562N00907691WA0002400084
B1241073931565N00907689WA0002400084
B1241083931568N00907687WA0002500084
B1241093931571N00907684WA0002500084
B1241103931573N00907682WA0002500084
B1241113931576N00907680WA0002500084
B1241123931579N00907677WA0002500084
B1241133931581N00907675WA0002600085
B1241143931584N00907672WA0002700086
B1241153931587N00907669WA0002700086
B1241163931589N00907665WA0002800087
B1241173931591N00907661WA0002900087
B1241183931594N00907657WA0002900088
B1241193931596N00907654WA0002900088
B1241203931598N00907650WA0003000089
B1241213931600N00907647WA0003000089
B1241223931603N00907645WA0003000089
B1241233931606N00907644WA0003000088
B1241243931608N00907645WA0002900088
B1241253931610N00907648WA0002800087
B1241263931611N00907651WA0002800086
B1241273931610N00907655WA0002700086
B1241283931609N00907659WA0002700086
B1241293931606N00907663WA0002700086
B1241303931603N00907666WA0002700086
B1241313931600N00907669WA0002700086
B1241323931597N00907672WA0002700085
B1241333931593N00907675WA0002700085
B1241343931589N00907678WA0002600085
B1241353931584N00907682WA0002600085
B1241363931579N00907684WA0002600085
B1241373931574N00907687WA0002600084
B1241383931569N00907690WA0002600084
B1241393931563N00907692WA0002600084
B1241403931558N00907694WA0002600084
B1241413931553N00907696WA0002600084
B1241423931550N00907700WA0002500084
B1241433931546N00907703WA0002500084
B1241443931542N00907707WA0002500084
B1241453931539N00907711WA0002500084
B1241463931535N00907715WA0002600084
B1241473931531N00907719WA0002600085
B1241483931528N00907723WA0002700085
B1241493931523N00907726WA0002700085
B1241503931519N00907729WA0002800086
B1241513931515N00907732WA0002800086
B1241523931512N00907736WA0002800086
B1241533931509N00907741WA0002700086
B1241543931509N00907746WA0002700085
B1241553931509N00907750WA0002700085
B1241563931511N00907753WA0002600085
B1241573931514N00907754WA0002600084
B1241583931517N00907753WA0002500083
B1241593931520N00907749WA0002400082
B1242003931522N00907745WA0002400082
B1242013931524N00907740WA0002400083
B1242023931526N00907737WA0002400083
B1242033931528N00907733WA0002400082
B1242043931530N00907730WA0002400082
B1242053931532N00907725WA0002400082
B1242063931534N00907721WA0002500083
B1242073931536N00907717WA0002600084
B1242083931539N00907713WA0002600084
B1242093931541N00907710WA0002600084
B1242103931543N00907706WA0002500084
B1242113931546N00907704WA0002500083
B1242123931549N00907701WA0002400083
B1242133931552N00907699WA0002400082
B1242143931555N00907697WA0002400082
B1242153931558N00907695WA0002400082
B1242163931562N00907693WA0002400083
B1242173931565N00907690WA0002500083
B1242183931568N00907688WA0002500084
B1242193931570N00907686WA0002600084
B1242203931573N00907683WA0002600084
B1242213931576N00907680WA0002600084
B1242223931579N00907677WA0002600084
B1242233931582N00907675WA0002600084
B1242243931585N00907672WA0002600084
B1242253931587N00907669WA0002700085
B1242263931590N00907666WA0002800086
B1242273931592N00907662WA0002800086
B1242283931594N00907658WA0002800086
B1242293931596N00907653WA0002800086
B1242303931599N00907649WA0002900086
B1242313931602N00907645WA0002900087
B1242323931604N00907642WA0002900087
B1242333931607N00907641WA0002900087
B1242343931610N00907641WA0002900086
B1242353931612N00907643WA0002800085
B1242363931613N00907646WA0002700085
B1242373931613N00907650WA0002700085
B1242383931612N00907654WA0002700084
B1242393931610N00907657WA0002600084
B1242403931607N00907661WA0002500083
B1242413931603N00907664WA0002500082
B1242423931600N00907668WA0002500082
B1242433931597N00907671WA0002500082
B1242443931593N00907675WA0002500083
B1242453931590N00907678WA0002500083
B1242463931586N00907681WA0002600083
B1242473931582N00907685WA0002600083
B1242483931577N00907687WA0002600083
B1242493931572N00907690WA0002600083
B1242503931568N00907692WA0002500083
B1242513931563N00907695WA0002500083
B1242523931558N00907698WA0002500083
B1242533931554N00907702WA0002600083
B1242543931549N00907705WA0002600084
B1242553931545N00907708WA0002700084
B1242563931541N00907711WA0002700084
B1242573931537N00907714WA0002600084
B1242583931534N00907717WA0002600083
B1242593931530N00907721WA0002600083
B1243003931526N00907725WA0002600084
B1243013931523N00907729WA0002700084
B1243023931519N00907733WA0002800085
B1243033931515N00907736WA0002800086
B1243043931513N00907740WA0002800085
B1243053931512N00907744WA0002700085
B1243063931512N00907748WA0002600084
B1243073931514N00907751WA0002600083
B1243083931516N00907753WA0002500082
B1243093931520N00907752WA0002400082
B1243103931522N00907749WA0002400081
B1243113931525N00907745WA0002300081
B1243123931527N00907741WA0002300081
B1243133931528N00907737WA0002300080
B1243143931530N00907732WA0002200080
B1243153931533N00907728WA0002200079
B1243163931535N00907724WA0002200080
B1243173931538N00907721WA0002300080
B1243183931540N00907718WA0002400081
B1243193931542N00907714WA0002400081
B1243203931544N00907711WA0002300081
B1243213931547N00907708WA0002300080
B1243223931550N00907705WA0002200079
B1243233931553N00907702WA0002200079
B1243243931556N00907700WA0002100079
B1243253931559N00907698WA0002100079
B1243263931562N00907696WA0002200079
B1243273931565N00907694WA0002200079
B1243283931568N00907692WA0002300080
B1243293931571N00907690WA0002300081
B1243303931573N00907688WA0002300081
B1243313931576N00907686WA0002300081
B1243323931579N00907684WA0002300081
B1243333931582N00907681WA0002400081
B1243343931585N00907678WA0002400082
B1243353931588N00907675WA0002500082
B1243363931590N00907671WA0002600083
B1243373931592N00907667WA0002600083
B1243383931594N00907663WA0002600084
B1243393931596N00907659WA0002700084
B1243403931599N00907655WA0002600083
B1243413931601N00907651WA0002600083
B1243423931604N00907648WA0002600083
B1243433931607N00907645WA0002600083
B1243443931610N00907643WA0002700084
B1243453931613N00907643WA0002700084
B1243463931615N00907643WA0002700084
B1243473931618N00907645WA0002700084
B1243483931619N00907648WA0002600083
B1243493931619N00907652WA0002600083
B1243503931618N00907656WA0002600083
B1243513931616N00907660WA0002600083
B1243523931614N00907664WA0002600082
B1243533931610N00907667WA0002500082
B1243543931607N00907669WA0002500082
B1243553931602N00907671WA0002400081
B1243563931597N00907673WA0002400080
B1243573931592N00907676WA0002400080
B1243583931587N00907678WA0002400081
B1243593931582N00907681WA0002500081
B1244003931577N00907684WA0002500082
B1244013931572N00907687WA0002500082
B1244023931568N00907690WA0002500081
B1244033931564N00907693WA0002500081
B1244043931560N00907697WA0002400081
B1244053931556N00907701WA0002400081
B1244063931553N00907705WA0002500082
B1244073931549N00907709WA0002600083
B1244083931546N00907713WA0002700084
B1244093931543N00907715WA0002700084
B1244103931541N00907719WA0002700084
B1244113931539N00907723WA0002700083
B1244123931540N00907728WA0002600083
B1244133931542N00907731WA0002500082
B1244143931546N00907732WA0002400080
B1244153931549N00907730WA0002400080
B1244163931552N00907726WA0002400080
B1244173931554N00907722WA0002300079
B1244183931556N00907718WA0002300079
B1244193931558N00907714WA0002200079
B1244203931560N00907710WA0002200078
B1244213931563N00907706WA0002100078
B1244223931566N00907703WA0002100078
B1244233931569N00907700WA0002100077
B1244243931572N00907696WA0002100077
B1244253931575N00907693WA0002000077
B1244263931578N00907690WA0002000076
B1244273931581N00907687WA0002000077
B1244283931583N00907683WA0002100077
B1244293931586N00907680WA0002100078
B1244303931589N00907677WA0002200078
B1244313931591N00907674WA0002300079
B1244323931593N00907671WA0002300079
B1244333931596N00907667WA0002400080
B1244343931598N00907665WA0002400080
B1244353931601N00907661WA0002400080
B1244363931603N00907657WA0002400080
B1244373931606N00907652WA0002500081
B1244383931608N00907649WA0002600082
B1244393931611N00907647WA0002600082
B1244403931614N00907646WA0002600081
B1244413931616N00907647WA0002600081
B1244423931618N00907649WA0002600081
B1244433931619N00907652WA0002500081
B1244443931620N00907655WA0002500080
B1244453931619N00907659WA0002400079
B1244463931617N00907663WA0002300079
B1244473931614N00907667WA0002300078
B1244483931610N00907671WA0002300078
B1244493931606N00907673WA0002300078
B1244503931601N00907676WA0002300079
B1244513931597N00907679WA0002400079
B1244523931593N00907682WA0002400080
B1244533931589N00907685WA0002400080
B1244543931584N00907688WA0002400079
B1244553931579N00907690WA0002400079
B1244563931574N00907693WA0002400079
B1244573931570N00907696WA0002300079
B1244583931566N00907699WA0002300079
B1244593931562N00907703WA0002300079
B1245003931558N00907706WA0002300078
B1245013931553N00907709WA0002300078
B1245023931549N00907712WA0002200078
B1245033931544N00907715WA0002200077
B1245043931540N00907719WA0002200077
B1245053931536N00907723WA0002200077
B1245063931532N00907727WA0002300078
B1245073931528N00907731WA0002400079
B1245083931524N00907734WA0002400079
B1245093931520N00907737WA0002400080
B1245103931516N00907740WA0002400080
B1245113931512N00907744WA0002400079
B1245123931509N00907748WA0002300079
B1245133931506N00907753WA0002300079
B1245143931502N00907757WA0002300079
B1245153931498N00907760WA0002400079
B1245163931495N00907764WA0002400079
B1245173931493N00907768WA0002300078
B1245183931492N00907773WA0002200078
B1245193931492N00907777WA0002200078
B1245203931490N00907782WA0002300079
B1245213931489N00907786WA0002400079
B1245223931487N00907791WA0002400080
B1245233931485N00907794WA0002400080
B1245243931485N00907798WA0002300079
B1245253931486N00907803WA0002200077
B1245263931488N00907806WA0002100077
B1245273931492N00907807WA0002000076
B1245283931495N00907805WA0002000076
B1245293931497N00907802WA0002000075
B1245303931500N00907797WA0001900075
B1245313931501N00907793WA0001900075
B1245323931502N00907788WA0001900075
B1245333931504N00907783WA0001900074
B1245343931506N00907778WA0001800074
B1245353931507N00907773WA0001800073
B1245363931510N00907768WA0001800074
B1245373931512N00907763WA0001800074
B1245383931514N00907759WA0001900074
B1245393931517N00907756WA0001800074
B1245403931519N00907753WA0001800074
B1245413931522N00907749WA0001800074
B1245423931525N00907746WA0001800074
B1245433931527N00907743WA0001800074
B1245443931530N00907740WA0001800074
B1245453931532N00907737WA0001800074
B1245463931534N00907733WA0001800074
B1245473931536N00907729WA0001800074
B1245483931539N00907726WA0001800074
B1245493931541N00907723WA0001800074
B1245503931544N00907719WA0001900075
B1245513931546N00907715WA0002000076
B1245523931547N00907711WA0002000076
B1245533931549N00907708WA0002000076
B1245543931551N00907706WA0001900075
B1245553931554N00907704WA0001900074
B1245563931558N00907702WA0001800074
B1245573931561N00907700WA0001800074
B1245583931564N00907697WA0001900074
B1245593931566N00907695WA0001900075
B1246003931569N00907693WA0002000075
B1246013931572N00907691WA0002000076
B1246023931575N00907689WA0002000076
B1246033931578N00907688WA0002000076
B1246043931581N00907686WA0002000075
B1246053931583N00907684WA0002000075
B1246063931587N00907681WA0002000076
B1246073931589N00907678WA0002000076
B1246083931592N00907675WA0002000076
B1246093931594N00907672WA0002100076
B1246103931597N00907669WA0002000076
B1246113931599N00907665WA0002100076
B1246123931602N00907662WA0002100077
B1246133931604N00907658WA0002200078
B1246143931607N00907655WA0002300078
B1246153931609N00907651WA0002300078
B1246163931611N00907649WA0002300078
B1246173931613N00907648WA0002200077
B1246183931616N00907649WA0002100077
B1246193931619N00907651WA0002100077
B1246203931620N00907655WA0002100076
B1246213931620N00907660WA0002100076
B1246223931618N00907666WA0002000076
B1246233931615N00907670WA0002000076
B1246243931610N00907673WA0002000075
B1246253931606N00907676WA0002000075
B1246263931601N00907679WA0002000075
B1246273931596N00907682WA0002000075
B1246283931591N00907685WA0002000075
B1246293931587N00907688WA0002000075
B1246303931582N00907691WA0002000076
B1246313931577N00907695WA0002100076
B1246323931572N00907698WA0002100077
B1246333931568N00907701WA0002100077
B1246343931564N00907705WA0002100077
B1246353931560N00907709WA0002100077
B1246363931556N00907713WA0002100076
B1246373931553N00907716WA0002000076
B1246383931549N00907720WA0002000076
B1246393931545N00907724WA0002000076
B1246403931541N00907727WA0002000076
B1246413931537N00907731WA0002000076
B1246423931533N00907735WA0002000076
B1246433931528N00907739WA0002100076
B1246443931525N00907743WA0002100077
B1246453931521N00907747WA0002100077
B1246463931517N00907750WA0002100077
B1246473931513N00907754WA0002100077
B1246483931509N00907758WA0002100077
B1246493931506N00907762WA0002000077
B1246503931502N00907766WA0002100077
B1246513931498N00907770WA0002200078
B1246523931494N00907773WA0002200078
B1246533931491N00907777WA0002200079
B1246543931489N00907781WA0002200078
B1246553931487N00907786WA0002100077
B1246563931487N00907790WA0002100077
B1246573931488N00907795WA0002100077
B1246583931491N00907797WA0002100077
B1246593931494N00907798WA0002000077
B1247003931497N00907797WA0002000076
B1247013931500N00907794WA0001900075
B1247023931502N00907790WA0001900075
B1247033931504N00907785WA0001900075
B1247043931506N00907781WA0001800075
B1247053931507N00907775WA0001800075
B1247063931509N00907771WA0001800074
B1247073931511N00907766WA0001700074
B1247083931514N00907762WA0001700074
B1247093931517N00907758WA0001800074
B1247103931519N00907754WA0001800075
B1247113931522N00907751WA0001800075
B1247123931525N00907748WA0001800075
B1247133931527N00907745WA0001800074
B1247143931530N00907742WA0001700074
B1247153931533N00907738WA0001700074
B1247163931535N00907734WA0001700074
B1247173931538N00907730WA0001700073
B1247183931540N00907727WA0001700074
B1247193931542N00907724WA0001700074
B1247203931545N00907721WA0001800075
B1247213931547N00907718WA0001800075
B1247223931549N00907715WA0001900075
B1247233931552N00907712WA0001900076
B1247243931554N00907709WA0001900076
B1247253931556N00907706WA0001900076
B1247263931559N00907704WA0001900076
B1247273931561N00907702WA0001900075
B1247283931564N00907700WA0001800075
B1247293931567N00907698WA0001800074
B1247303931570N00907696WA0001700074
B1247313931573N00907695WA0001800074
B1247323931576N00907693WA0001900075
B1247333931578N00907692WA0001900075
B1247343931581N00907690WA0001900075
B1247353931583N00907688WA0001800075
B1247363931585N00907685WA0001800074
B1247373931588N00907681WA0001800074
B1247383931591N00907680WA0001800074
B1247393931594N00907678WA0001800074
B1247403931597N00907677WA0001800074
B1247413931600N00907676WA0001800075
B1247423931603N00907676WA0001800075
B1247433931606N00907679WA0001800075
B1247443931607N00907683WA0001700074
B1247453931608N00907687WA0001700073
B1247463931607N00907692WA0001600073
B1247473931605N00907697WA0001600072
B1247483931602N00907702WA0001400071
B1247493931599N00907707WA0001300070
B1247503931594N00907711WA0001300069
B1247513931590N00907715WA0001200069
B1247523931586N00907720WA0001200068
B1247533931582N00907725WA0001100067
B1247543931577N00907730WA0001100067
B1247553931573N00907734WA0001100067
B1247563931569N00907738WA0001100067
B1247573931564N00907742WA0001100067
B1247583931560N00907746WA0001000067
B1247593931555N00907750WA0001000066
B1248003931551N00907754WA0000900066
B1248013931547N00907759WA0000900065
B1248023931542N00907763WA0000900065
B1248033931537N00907767WA0000900066
B1248043931533N00907771WA0000900065
B1248053931529N00907775WA0000800065
B1248063931525N00907779WA0000700064
B1248073931521N00907784WA0000700064
B1248083931517N00907789WA0000700064
B1248093931513N00907793WA0000800064
B1248103931509N00907797WA0000800065
B1248113931505N00907800WA0000700064
B1248123931501N00907804WA0000600063
B1248133931497N00907808WA0000500062
B1248143931493N00907813WA0000500062
B1248153931489N00907817WA0000500062
B1248163931485N00907821WA0000500062
B1248173931480N00907825WA0000500062
B1248183931477N00907828WA0000500062
B1248193931473N00907832WA0000500062
B1248203931469N00907836WA0000400061
B1248213931465N00907841WA0000400061
B1248223931460N00907845WA0000300061
B1248233931457N00907849WA0000300060
B1248243931454N00907853WA0000300060
B1248253931450N00907858WA0000200059
B1248263931446N00907861WA0000200060
B1248273931442N00907866WA0000200060
B1248283931439N00907870WA0000300060
B1248293931435N00907873WA0000200060
B1248303931432N00907877WA0000200059
B1248313931428N00907881WA0000100058
B1248323931425N00907885WA0000000057
B1248333931422N00907891WA0000000057
B1248343931419N00907896WA-000100056
B1248353931417N00907900WA-000100057
B1248363931415N00907905WA0000000057
B1248373931413N00907910WA0000000057
B1248383931412N00907915WA0000000057
B1248393931410N00907920WA0000000057
B1248403931407N00907925WA-000100056
B1248413931405N00907930WA-000100056
B1248423931403N00907934WA-000100056
B1248433931401N00907939WA-000200055
B1248443931400N00907944WA-000300055
B1248453931397N00907949WA-000300054
B1248463931395N00907954WA-000400053
B1248473931392N00907959WA-000400053
B1248483931389N00907964WA-000400053
B1248493931386N00907968WA-000400053
B1248503931384N00907973WA-000500052
B1248513931382N00907977WA-000500052
B1248523931379N00907982WA-000600051
B1248533931378N00907988WA-000600051
B1248543931378N00907993WA-000700050
B1248553931380N00907997WA-000800049
B1248563931382N00908001WA-000800049
B1248573931385N00908003WA-000900049
B1248583931387N00908006WA-000900048
B1248593931389N00908008WA-001000047
B1249003931391N00908010WA-001100047
B1249013931393N00908013WA-001100046
B1249023931397N00908015WA-001200045
B1249033931400N00908016WA-001300044
B1249043931403N00908016WA-001400043
B1249053931406N00908014WA-001500042
B1249063931409N00908010WA-001600041
B1249073931410N00908007WA-001700040
B1249083931411N00908001WA-001800039
B1249093931410N00907995WA-001900038
B1249103931409N00907989WA-001900038
B1249113931407N00907984WA-002000038
B1249123931408N00907979WA-002000037
B1249133931410N00907975WA-002200035
B1249143931413N00907971WA-002300034
B1249153931417N00907970WA-002400033
B1249163931421N00907971WA-002300034
B1249173931424N00907973WA-002300034
B1249183931427N00907973WA-002400033
B1249193931429N00907973WA-002600031
B1249203931432N00907970WA-002800029
B1249213931435N00907965WA-002900028
B1249223931436N00907959WA-003000027
B1249233931436N00907954WA-003000027
B1249243931437N00907949WA-003100026
B1249253931438N00907945WA-003200025
B1249263931439N00907941WA-003300024
B1249273931440N00907936WA-003500022
B1249283931442N00907932WA-003600020
B1249293931445N00907929WA-003800019
B1249303931447N00907927WA-003900018
B1249313931450N00907925WA-003900017
B1249323931451N00907923WA-003900017
B1249333931452N00907922WA-003900017
B1249343931453N00907922WA-003900017
B1249353931453N00907922WA-003900018
B1249363931452N00907922WA-003900017
B1249373931452N00907922WA-003900018
B1249383931451N00907922WA-003900018
B1249393931451N00907922WA-003900018
B1249403931451N00907922WA-003900018
B1249413931451N00907922WA-003900018
B1249423931451N00907922WA-003900018
B1249433931450N00907922WA-003900018
B1249443931450N00907922WA-003900018
B1249453931450N00907922WA-003900018
B1249463931450N00907922WA-003800018
B1249473931450N00907922WA-003900018
B1249483931450N00907922WA-003900018
B1249493931450N00907922WA-003800018
B1249503931451N00907922WA-003800018
B1249513931450N00907922WA-003900018
B1249523931451N00907922WA-003800018
B1249533931451N00907921WA-003900018
B1249543931450N00907921WA-003800018
B1249553931450N00907921WA-003800018
B1249563931450N00907921WA-003900017
B1249573931450N00907920WA-003800017
B1249583931450N00907920WA-003800018
B1249593931451N00907920WA-003900017
B1250003931451N00907919WA-003900017
B1250013931451N00907919WA-003900017
B1250023931451N00907919WA-003900017
B1250033931451N00907918WA-003800017
B1250043931451N00907919WA-003900017
B1250053931451N00907919WA-003800017
B1250063931451N00907919WA-003900017
B1250073931451N00907918WA-003900017
B1250083931451N00907918WA-003900017
B1250093931451N00907918WA-003900017
B1250103931451N00907918WA-003900017
B1250113931451N00907918WA-003900017
B1250123931451N00907918WA-003900017
B1250133931451N00907918WA-003900017
B1250143931451N00907918WA-003900017
B1250153931451N00907918WA-003900017
B1250163931451N00907918WA-003900016
B1250173931451N00907918WA-003900017
B1250183931451N00907918WA-003900017
B1250193931451N00907919WA-003900016
B1250203931451N00907919WA-003900016
B1250213931451N00907919WA-003900016
B1250223931451N00907919WA-003900016
B1250233931451N00907919WA-003900016
B1250243931451N00907919WA-003900016
B1250253931451N00907919WA-003900017
B1250263931451N00907919WA-003900017
B1250273931451N00907919WA-003800017
B1250283931451N00907919WA-003900017
B1250293931451N00907919WA-003900016
B1250303931451N00907919WA-003900016
B1250313931450N00907919WA-003800017
B1250323931450N00907919WA-003800016
B1250333931450N00907919WA-003800016
B1250343931450N00907920WA-003800016
B1250353931450N00907920WA-003900016
B1250363931450N00907920WA-003800016
B1250373931449N00907921WA-003800016
B1250383931449N00907921WA-003800016
B1250393931448N00907921WA-003800016
B1250403931448N00907922WA-003800016
B1250413931448N00907922WA-003800016
B1250423931447N00907923WA-003800016
B1250433931447N00907923WA-003800016
B1250443931447N00907923WA-003800016
B1250453931446N00907924WA-003800016
B1250463931446N00907924WA-003800016
B1250473931446N00907925WA-003800016
B1250483931445N00907925WA-003800016
B1250493931445N00907925WA-003800016
B1250503931444N00907926WA-003800016
B1250513931444N00907926WA-003800016
B1250523931444N00907927WA-003800016
B1250533931443N00907927WA-003800016
B1250543931443N00907927WA-003800016
B1250553931442N00907928WA-003800016
B1250563931442N00907928WA-003800016
B1250573931442N00907928WA-003800016
B1250583931441N00907928WA-003800016
B1250593931440N00907928WA-003800016
B1251003931440N00907929WA-003800016
B1251013931439N00907929WA-003800016
B1251023931439N00907929WA-003800016
B1251033931438N00907928WA-003800017
B1251043931438N00907928WA-003800017
B1251053931437N00907928WA-003700017
B1251063931437N00907928WA-003700017
B1251073931436N00907927WA-003700017
B1251083931436N00907927WA-003700017
B1251093931436N00907926WA-003700017
B1251103931436N00907925WA-003700017
B1251113931436N00907925WA-003600017
B1251123931436N00907924WA-003600017
B1251133931436N00907923WA-003600018
B1251143931436N00907923WA-003600018
B1251153931437N00907922WA-003600018
B1251163931437N00907922WA-003500018
B1251173931437N00907921WA-003500018
B1251183931437N00907920WA-003500019
B1251193931437N00907920WA-003500019
B1251203931437N00907919WA-003500019
B1251213931437N00907918WA-003400019
B1251223931438N00907918WA-003400019
B1251233931438N00907917WA-003400019
B1251243931438N00907917WA-003400020
B1251253931438N00907916WA-003400020
B1251263931438N00907916WA-003400020
B1251273931438N00907915WA-003300020
B1251283931438N00907915WA-003300020
B1251293931439N00907914WA-003300020
B1251303931439N00907914WA-003300020
B1251313931439N00907913WA-003300021
B1251323931439N00907913WA-003300021
LXSX;C1;GM:1.3
LXSX;S1;TS:1748521679;TL:1748523092;AS:81;AL:21;AT:99;AB:16
LXSX;S1;XS:0;XD:1.98;SP:35.9;MC:0.6;MS:-1.2;NB:1415
LXSX;S1;FL:9.4;TG:0;TC:0.0;AG:213;GM:1.3
LXSX;S1;X0:39.52260,-9.13167
LXSX;S1;X1:39.52690,-9.12763
LXSX;S1;X2:39.52440,-9.13012
LXSX;S1;X3:39.52685,-9.12745
LXSX;S1;X4:39.52300,-9.13328
GF7DDBF73BACC125863F8EA6AD426A2E7
