AXSX006 SKYTRAXX
HFPLTPILOT:Sepp
HFGTYGLIDERTYPE:Advance Sigma 12
HFDTM100GPSDATUM:WGS-84
HFRFWFIRMWAREVERSION:202503211137
HFRHWHARDWAREVERSION:5.0
HFTZNTIMEZONE:+2.00
HFSITSITE:Santa Elisabetta_Bel
HFDTE010425
LXSX;I1;OAB:20250331;OOB:20250326
LXSX;I1;ID:115785
LXSX;I1;AC:1;CAT:C
LXSX;RAT:LTE M1 ;GSM:3
B0915344525090N00738518EA0094100947
B0915354525090N00738518EA0094100947
B0915364525090N00738518EA0094100947
B0915374525090N00738518EA0094100947
B0915384525090N00738518EA0094100947
B0915394525090N00738518EA0094100947
B0915404525090N00738518EA0094100947
B0915414525090N00738518EA0094100947
B0915424525090N00738518EA0094100947
B0915434525090N00738519EA0094100947
B0915444525090N00738519EA0094100947
B0915454525090N00738519EA0094100947
B0915464525091N00738518EA0094100947
B0915474525090N00738519EA0094000946
B0915484525089N00738519EA0094000946
B0915494525088N00738518EA0093900945
B0915504525087N00738518EA0093800944
B0915514525086N00738519EA0093700943
B0915524525084N00738519EA0093700943
B0915534525083N00738520EA0093600942
B0915544525081N00738521EA0093500941
B0915554525080N00738522EA0093400940
B0915564525077N00738523EA0093200938
B0915574525075N00738523EA0093100937
B0915584525072N00738524EA0093000936
B0915594525069N00738526EA0092800934
B0916004525066N00738529EA0092800934
B0916014525063N00738533EA0093100937
B0916024525061N00738537EA0093500941
B0916034525059N00738541EA0093800944
B0916044525058N00738544EA0094000946
B0916054525057N00738547EA0094100947
B0916064525056N00738550EA0094300949
B0916074525055N00738553EA0094300949
B0916084525055N00738557EA0094400950
B0916094525055N00738560EA0094600952
B0916104525055N00738563EA0094800954
B0916114525055N00738565EA0094900955
B0916124525055N00738568EA0094900956
B0916134525055N00738571EA0095000957
B0916144525056N00738575EA0095100958
B0916154525058N00738579EA0095200958
B0916164525058N00738582EA0095300959
B0916174525058N00738584EA0095200958
B0916184525057N00738586EA0095100957
B0916194525055N00738588EA0094900956
B0916204525053N00738590EA0094800955
B0916214525050N00738593EA0095000956
B0916224525049N00738596EA0095100958
B0916234525048N00738599EA0095300959
B0916244525049N00738603EA0095300960
B0916254525050N00738606EA0095300959
B0916264525050N00738610EA0095200958
B0916274525050N00738614EA0095100958
B0916284525048N00738617EA0095000957
B0916294525045N00738618EA0094800955
B0916304525042N00738616EA0094700954
B0916314525039N00738612EA0094700954
B0916324525037N00738604EA0094600953
B0916334525037N00738594EA0094500951
B0916344525038N00738584EA0094400951
B0916354525040N00738573EA0094600952
B0916364525042N00738564EA0094700954
B0916374525044N00738555EA0094700954
B0916384525045N00738547EA0094600953
B0916394525046N00738540EA0094500952
B0916404525046N00738530EA0094400951
B0916414525045N00738520EA0094500952
B0916424525044N00738510EA0094400951
B0916434525043N00738502EA0094400951
B0916444525040N00738494EA0094300950
B0916454525037N00738488EA0094000947
B0916464525033N00738485EA0093700944
B0916474525029N00738485EA0093400941
B0916484525026N00738486EA0093200939
B0916494525023N00738489EA0093100938
B0916504525021N00738492EA0093100938
B0916514525019N00738495EA0093200939
B0916524525019N00738499EA0093300940
B0916534525021N00738503EA0093300940
B0916544525023N00738506EA0093300940
B0916554525024N00738508EA0093100938
B0916564525023N00738510EA0092800936
B0916574525021N00738514EA0092600933
B0916584525019N00738519EA0092500932
B0916594525019N00738522EA0092500932
B0917004525018N00738525EA0092500933
B0917014525017N00738528EA0092500933
B0917024525018N00738532EA0092400932
B0917034525019N00738535EA0092400932
B0917044525017N00738539EA0092300931
B0917054525015N00738543EA0092400931
B0917064525014N00738547EA0092400931
B0917074525013N00738551EA0092400931
B0917084525013N00738555EA0092400932
B0917094525014N00738560EA0092600933
B0917104525014N00738565EA0092600934
B0917114525015N00738569EA0092600934
B0917124525016N00738572EA0092600934
B0917134525016N00738577EA0092600934
B0917144525016N00738582EA0092500933
B0917154525016N00738587EA0092500933
B0917164525017N00738592EA0092600933
B0917174525017N00738597EA0092700935
B0917184525019N00738601EA0092800936
B0917194525020N00738605EA0092900937
B0917204525021N00738609EA0093100939
B0917214525023N00738612EA0093300940
B0917224525023N00738614EA0093400942
B0917234525021N00738616EA0093500943
B0917244525019N00738615EA0093500943
B0917254525016N00738612EA0093300941
B0917264525012N00738605EA0093300941
B0917274525011N00738594EA0093200941
B0917284525012N00738583EA0093200940
B0917294525017N00738572EA0093200940
B0917304525023N00738564EA0093200940
B0917314525029N00738560EA0093200941
B0917324525035N00738560EA0093200940
B0917334525039N00738563EA0093100939
B0917344525041N00738568EA0093000938
B0917354525041N00738573EA0093100939
B0917364525041N00738577EA0093300942
B0917374525042N00738579EA0093500943
B0917384525043N00738582EA0093500943
B0917394525043N00738585EA0093400942
B0917404525043N00738589EA0093300941
B0917414525044N00738592EA0093300942
B0917424525045N00738596EA0093300942
B0917434525046N00738599EA0093300941
B0917444525047N00738603EA0093200941
B0917454525048N00738607EA0093100939
B0917464525047N00738611EA0093100939
B0917474525047N00738616EA0093200940
B0917484525047N00738620EA0093400943
B0917494525048N00738622EA0093600945
B0917504525049N00738624EA0093500944
B0917514525048N00738626EA0093300942
B0917524525047N00738629EA0093100940
B0917534525047N00738633EA0093000939
B0917544525048N00738639EA0092900938
B0917554525049N00738644EA0092900938
B0917564525049N00738649EA0093000939
B0917574525049N00738652EA0093100940
B0917584525048N00738655EA0093200941
B0917594525047N00738658EA0093200941
B0918004525047N00738659EA0093100940
B0918014525047N00738661EA0092900938
B0918024525046N00738664EA0092700936
B0918034525044N00738668EA0092600935
B0918044525043N00738672EA0092500934
B0918054525041N00738676EA0092500934
B0918064525039N00738679EA0092400934
B0918074525037N00738682EA0092400933
B0918084525036N00738685EA0092200932
B0918094525034N00738690EA0092100931
B0918104525033N00738694EA0092000930
B0918114525031N00738698EA0092000929
B0918124525029N00738701EA0091900928
B0918134525027N00738703EA0091800927
B0918144525024N00738705EA0091600926
B0918154525021N00738705EA0091600926
B0918164525018N00738703EA0091600925
B0918174525014N00738699EA0091600925
B0918184525012N00738692EA0091600925
B0918194525011N00738684EA0091500925
B0918204525010N00738674EA0091500925
B0918214525011N00738665EA0091600926
B0918224525012N00738656EA0091600926
B0918234525014N00738647EA0091600925
B0918244525015N00738638EA0091600926
B0918254525017N00738628EA0091600925
B0918264525017N00738618EA0091600925
B0918274525018N00738608EA0091500925
B0918284525017N00738599EA0091500925
B0918294525016N00738590EA0091600926
B0918304525014N00738582EA0091600926
B0918314525012N00738575EA0091600925
B0918324525010N00738568EA0091400924
B0918334525006N00738561EA0091300923
B0918344525003N00738556EA0091200922
B0918354524998N00738551EA0091100921
B0918364524994N00738548EA0091100921
B0918374524989N00738547EA0091000920
B0918384524986N00738548EA0090900919
B0918394524983N00738550EA0090900919
B0918404524980N00738553EA0090700918
B0918414524978N00738558EA0090700917
B0918424524978N00738564EA0090600916
B0918434524979N00738569EA0090600916
B0918444524981N00738573EA0090500916
B0918454524983N00738577EA0090400915
B0918464524986N00738581EA0090400914
B0918474524988N00738585EA0090200912
B0918484524991N00738589EA0090000910
B0918494524993N00738594EA0089800908
B0918504524995N00738600EA0089600906
B0918514524996N00738606EA0089400904
B0918524524998N00738612EA0089300904
B0918534525000N00738618EA0089200903
B0918544525001N00738624EA0089200903
B0918554525002N00738629EA0089300904
B0918564525003N00738634EA0089400905
B0918574525004N00738639EA0089500906
B0918584525005N00738642EA0089600907
B0918594525006N00738646EA0089600906
B0919004525009N00738651EA0089300904
B0919014525011N00738656EA0089000901
B0919024525013N00738662EA0089000901
B0919034525014N00738669EA0089100902
B0919044525014N00738675EA0089300904
B0919054525014N00738680EA0089600906
B0919064525014N00738685EA0089700908
B0919074525015N00738689EA0089800909
B0919084525015N00738694EA0090000910
B0919094525015N00738699EA0090100912
B0919104525013N00738703EA0090200913
B0919114525008N00738704EA0090100912
B0919124525003N00738703EA0090200913
B0919134524998N00738698EA0090400915
B0919144524995N00738692EA0090600917
B0919154524995N00738683EA0090700918
B0919164524996N00738675EA0090600917
B0919174524999N00738666EA0090700918
B0919184525001N00738658EA0090800920
B0919194525003N00738651EA0090900920
B0919204525005N00738643EA0090900921
B0919214525004N00738635EA0091000922
B0919224525002N00738628EA0091200924
B0919234524998N00738625EA0091300924
B0919244524993N00738625EA0091400926
B0919254524990N00738629EA0091800929
B0919264524989N00738634EA0092000932
B0919274524990N00738640EA0092400936
B0919284524993N00738644EA0092800939
B0919294524998N00738646EA0093100942
B0919304525003N00738646EA0093400945
B0919314525009N00738646EA0093700948
B0919324525014N00738645EA0093800950
B0919334525019N00738643EA0094000951
B0919344525025N00738642EA0094000952
B0919354525030N00738642EA0094100952
B0919364525035N00738643EA0094100952
B0919374525041N00738647EA0094100953
B0919384525045N00738651EA0094200953
B0919394525048N00738657EA0094200954
B0919404525049N00738664EA0094400956
B0919414525048N00738669EA0094600958
B0919424525045N00738671EA0094800960
B0919434525042N00738670EA0094900961
B0919444525039N00738668EA0095000962
B0919454525036N00738665EA0095200964
B0919464525033N00738662EA0095500967
B0919474525031N00738659EA0095700969
B0919484525028N00738656EA0096000972
B0919494525025N00738654EA0096300975
B0919504525022N00738652EA0096800980
B0919514525020N00738648EA0097300985
B0919524525019N00738643EA0097800990
B0919534525019N00738637EA0098200995
B0919544525020N00738630EA0098700999
B0919554525021N00738622EA0099201004
B0919564525025N00738614EA0099701009
B0919574525031N00738608EA0099901011
B0919584525038N00738605EA0100101014
B0919594525045N00738605EA0100401016
B0920004525051N00738607EA0100701019
B0920014525055N00738610EA0101101023
B0920024525058N00738615EA0101301025
B0920034525059N00738620EA0101301026
B0920044525059N00738626EA0101601029
B0920054525060N00738630EA0102001033
B0920064525061N00738635EA0102501037
B0920074525061N00738639EA0102901042
B0920084525061N00738642EA0103301045
B0920094525059N00738645EA0103601049
B0920104525057N00738647EA0104001053
B0920114525054N00738650EA0104301056
B0920124525052N00738652EA0104901062
B0920134525049N00738654EA0105501067
B0920144525046N00738653EA0106001072
B0920154525042N00738650EA0106501078
B0920164525039N00738646EA0106901082
B0920174525037N00738640EA0107601089
B0920184525037N00738632EA0108201094
B0920194525037N00738624EA0108701099
B0920204525040N00738616EA0109101104
B0920214525045N00738609EA0109401107
B0920224525052N00738606EA0109801111
B0920234525059N00738606EA0110401117
B0920244525064N00738609EA0110901122
B0920254525067N00738614EA0111401127
B0920264525068N00738619EA0112001133
B0920274525069N00738623EA0112501138
B0920284525069N00738626EA0112901142
B0920294525068N00738629EA0113201146
B0920304525066N00738633EA0113601149
B0920314525064N00738636EA0113801151
B0920324525059N00738636EA0114001153
B0920334525054N00738633EA0114301157
B0920344525050N00738627EA0114801161
B0920354525048N00738620EA0115401167
B0920364525047N00738613EA0115901172
B0920374525046N00738606EA0116301177
B0920384525045N00738599EA0116701181
B0920394525044N00738591EA0117101184
B0920404525046N00738581EA0117301187
B0920414525050N00738571EA0117601190
B0920424525056N00738563EA0118001193
B0920434525063N00738559EA0118301197
B0920444525069N00738556EA0118801201
B0920454525076N00738554EA0119201205
B0920464525082N00738551EA0119501209
B0920474525089N00738548EA0119801212
B0920484525096N00738546EA0120201216
B0920494525104N00738547EA0120601220
B0920504525109N00738551EA0121101224
B0920514525113N00738558EA0121301227
B0920524525115N00738565EA0121801232
B0920534525116N00738572EA0122401238
B0920544525115N00738577EA0123101245
B0920554525114N00738581EA0123501249
B0920564525112N00738583EA0123901253
B0920574525108N00738584EA0124301257
B0920584525104N00738584EA0124601260
B0920594525100N00738580EA0125001264
B0921004525096N00738573EA0125401268
B0921014525094N00738566EA0126101275
B0921024525093N00738559EA0126701281
B0921034525095N00738551EA0127201286
B0921044525099N00738544EA0127601290
B0921054525104N00738540EA0128001295
B0921064525109N00738539EA0128401298
B0921074525115N00738541EA0128701301
B0921084525120N00738544EA0129101305
B0921094525125N00738549EA0129501310
B0921104525129N00738554EA0130001315
B0921114525133N00738559EA0130601320
B0921124525136N00738564EA0131101325
B0921134525137N00738569EA0131401328
B0921144525138N00738574EA0131601331
B0921154525137N00738580EA0131701331
B0921164525134N00738584EA0131901333
B0921174525130N00738585EA0132001335
B0921184525125N00738585EA0132101335
B0921194525119N00738581EA0132301337
B0921204525116N00738576EA0132401339
B0921214525112N00738570EA0132801342
B0921224525108N00738563EA0133201347
B0921234525105N00738557EA0133701352
B0921244525103N00738551EA0134101356
B0921254525102N00738545EA0134401359
B0921264525102N00738537EA0134801363
B0921274525104N00738529EA0135201367
B0921284525109N00738523EA0135701372
B0921294525113N00738519EA0136201377
B0921304525117N00738517EA0136701382
B0921314525121N00738517EA0137101386
B0921324525126N00738518EA0137401389
B0921334525131N00738519EA0137701392
B0921344525136N00738522EA0138001395
B0921354525140N00738526EA0138401399
B0921364525144N00738530EA0138801403
B0921374525147N00738534EA0139301408
B0921384525150N00738539EA0139701412
B0921394525151N00738543EA0140001415
B0921404525151N00738547EA0140201417
B0921414525151N00738550EA0140301418
B0921424525150N00738555EA0140301418
B0921434525146N00738560EA0140301418
B0921444525141N00738564EA0140501420
B0921454525136N00738567EA0140801423
B0921464525131N00738568EA0141201428
B0921474525126N00738568EA0141501431
B0921484525122N00738567EA0141701433
B0921494525116N00738566EA0141801434
B0921504525111N00738564EA0141901434
B0921514525106N00738560EA0141901435
B0921524525100N00738554EA0142101436
B0921534525096N00738546EA0142401439
B0921544525092N00738538EA0142501440
B0921554525089N00738530EA0142701443
B0921564525087N00738521EA0142901445
B0921574525087N00738512EA0143101446
B0921584525088N00738503EA0143201447
B0921594525090N00738494EA0143301448
B0922004525094N00738486EA0143401449
B0922014525098N00738480EA0143701452
B0922024525103N00738474EA0144001455
B0922034525108N00738470EA0144201458
B0922044525113N00738467EA0144401460
B0922054525118N00738464EA0144701462
B0922064525124N00738462EA0144901464
B0922074525129N00738462EA0145201467
B0922084525134N00738463EA0145601471
B0922094525139N00738465EA0145901475
B0922104525143N00738466EA0146401479
B0922114525147N00738468EA0146801483
B0922124525148N00738472EA0147101486
B0922134525149N00738476EA0147201488
B0922144525147N00738482EA0147301489
B0922154525143N00738486EA0147401490
B0922164525138N00738489EA0147601491
B0922174525132N00738489EA0147801493
B0922184525126N00738485EA0147901495
B0922194525120N00738479EA0148101496
B0922204525116N00738471EA0148401499
B0922214525113N00738461EA0148601502
B0922224525113N00738452EA0148901504
B0922234525115N00738444EA0149001506
B0922244525119N00738437EA0149201508
B0922254525124N00738431EA0149401510
B0922264525129N00738430EA0149701512
B0922274525134N00738432EA0149801513
B0922284525137N00738437EA0150001515
B0922294525138N00738442EA0150201518
B0922304525137N00738448EA0150401520
B0922314525134N00738453EA0150501521
B0922324525129N00738456EA0150801523
B0922334525125N00738457EA0151001526
B0922344525119N00738456EA0151201527
B0922354525114N00738453EA0151201528
B0922364525108N00738448EA0151301529
B0922374525103N00738441EA0151501530
B0922384525100N00738433EA0151601531
B0922394525097N00738425EA0151701532
B0922404525096N00738414EA0151701533
B0922414525096N00738407EA0151801533
B0922424525098N00738398EA0151801533
B0922434525102N00738390EA0151901534
B0922444525108N00738385EA0152001535
B0922454525115N00738384EA0152101536
B0922464525120N00738387EA0152201537
B0922474525123N00738392EA0152501541
B0922484525124N00738397EA0152901545
B0922494525125N00738402EA0153301549
B0922504525126N00738407EA0153701552
B0922514525126N00738411EA0154001555
B0922524525126N00738415EA0154201558
B0922534525126N00738419EA0154401559
B0922544525123N00738424EA0154401560
B0922554525118N00738427EA0154501561
B0922564525112N00738427EA0154501561
B0922574525106N00738423EA0154501561
B0922584525100N00738415EA0154601561
B0922594525098N00738405EA0154601561
B0923004525098N00738395EA0154701563
B0923014525100N00738385EA0154801563
B0923024525103N00738379EA0154801563
B0923034525109N00738374EA0154901565
B0923044525115N00738370EA0155201567
B0923054525121N00738369EA0155501570
B0923064525127N00738369EA0155801573
B0923074525132N00738370EA0156201578
B0923084525137N00738373EA0156601581
B0923094525139N00738377EA0156801583
B0923104525140N00738383EA0156901584
B0923114525138N00738388EA0157001586
B0923124525134N00738392EA0157301588
B0923134525128N00738393EA0157501590
B0923144525123N00738389EA0157701592
B0923154525118N00738382EA0157801593
B0923164525116N00738374EA0157801594
B0923174525116N00738363EA0157901594
B0923184525119N00738353EA0158001595
B0923194525125N00738345EA0158001595
B0923204525132N00738341EA0158101596
B0923214525139N00738340EA0158401599
B0923224525145N00738341EA0158801603
B0923234525150N00738344EA0159201607
B0923244525153N00738347EA0159501610
B0923254525156N00738352EA0159701613
B0923264525159N00738357EA0160001615
B0923274525159N00738362EA0160301618
B0923284525158N00738366EA0160401619
B0923294525156N00738369EA0160401619
B0923304525152N00738370EA0160301618
B0923314525147N00738371EA0160201617
B0923324525140N00738370EA0160201617
B0923334525133N00738367EA0160501620
B0923344525128N00738362EA0160801623
B0923354525125N00738356EA0161101626
B0923364525121N00738350EA0161301628
B0923374525118N00738344EA0161501630
B0923384525114N00738338EA0161501630
B0923394525110N00738330EA0161601631
B0923404525108N00738320EA0161701632
B0923414525108N00738310EA0161501630
B0923424525112N00738300EA0161401629
B0923434525118N00738293EA0161501630
B0923444525123N00738288EA0161701631
B0923454525128N00738285EA0162001635
B0923464525134N00738285EA0162401638
B0923474525138N00738286EA0162601641
B0923484525140N00738289EA0162901643
B0923494525141N00738293EA0163001644
B0923504525139N00738296EA0163101645
B0923514525137N00738299EA0163201646
B0923524525133N00738301EA0163201647
B0923534525128N00738302EA0163301648
B0923544525123N00738300EA0163401649
B0923554525118N00738296EA0163601651
B0923564525113N00738291EA0163701652
B0923574525109N00738285EA0163801653
B0923584525105N00738278EA0163901653
B0923594525102N00738271EA0163801653
B0924004525100N00738263EA0163601651
B0924014525098N00738253EA0163601651
B0924024525098N00738242EA0163601651
B0924034525101N00738232EA0163701652
B0924044525105N00738225EA0163801652
B0924054525110N00738221EA0163901653
B0924064525116N00738219EA0164001655
B0924074525120N00738218EA0164401658
B0924084525124N00738217EA0164701661
B0924094525127N00738217EA0164901664
B0924104525130N00738218EA0164901664
B0924114525132N00738219EA0164901664
B0924124525135N00738222EA0165001664
B0924134525137N00738226EA0165001664
B0924144525137N00738230EA0165101665
B0924154525136N00738235EA0165101666
B0924164525134N00738238EA0165201666
B0924174525132N00738241EA0165201666
B0924184525130N00738244EA0165101666
B0924194525126N00738246EA0165001664
B0924204525123N00738250EA0165001664
B0924214525120N00738253EA0165101666
B0924224525116N00738255EA0165301667
B0924234525112N00738256EA0165401668
B0924244525109N00738256EA0165501669
B0924254525105N00738256EA0165401668
B0924264525100N00738257EA0165301667
B0924274525096N00738255EA0165301667
B0924284525091N00738251EA0165301667
B0924294525087N00738244EA0165301667
B0924304525084N00738235EA0165201666
B0924314525084N00738224EA0165101665
B0924324525085N00738214EA0165101665
B0924334525088N00738203EA0165201665
B0924344525090N00738192EA0165401668
B0924354525092N00738182EA0165701671
B0924364525094N00738174EA0165901673
B0924374525096N00738165EA0165901673
B0924384525098N00738157EA0165901673
B0924394525101N00738149EA0165901672
B0924404525106N00738141EA0165801672
B0924414525109N00738137EA0165801672
B0924424525115N00738132EA0165801672
B0924434525119N00738128EA0165801672
B0924444525123N00738125EA0165801672
B0924454525127N00738122EA0165801672
B0924464525132N00738122EA0165701671
B0924474525135N00738124EA0165601669
B0924484525138N00738128EA0165501668
B0924494525140N00738132EA0165401668
B0924504525143N00738135EA0165401668
B0924514525146N00738139EA0165401668
B0924524525148N00738143EA0165501669
B0924534525149N00738147EA0165601670
B0924544525149N00738150EA0165601670
B0924554525149N00738154EA0165501669
B0924564525148N00738157EA0165501668
B0924574525149N00738160EA0165401668
B0924584525148N00738162EA0165301666
B0924594525147N00738165EA0165001664
B0925004525144N00738169EA0165001663
B0925014525141N00738172EA0164801662
B0925024525137N00738174EA0164801662
B0925034525133N00738176EA0164801662
B0925044525129N00738178EA0164901662
B0925054525125N00738180EA0164901662
B0925064525120N00738182EA0164801662
B0925074525116N00738185EA0164701661
B0925084525111N00738187EA0164701661
B0925094525106N00738188EA0164901662
B0925104525101N00738189EA0165001664
B0925114525097N00738189EA0165001664
B0925124525093N00738190EA0164901662
B0925134525089N00738191EA0164701661
B0925144525084N00738191EA0164601660
B0925154525079N00738190EA0164601659
B0925164525074N00738188EA0164401658
B0925174525069N00738185EA0164301657
B0925184525065N00738181EA0164201655
B0925194525060N00738174EA0164001654
B0925204525055N00738167EA0164001653
B0925214525051N00738159EA0164001654
B0925224525047N00738153EA0164101654
B0925234525043N00738147EA0164101655
B0925244525039N00738140EA0164001654
B0925254525035N00738133EA0163801652
B0925264525031N00738126EA0163801651
B0925274525027N00738119EA0163701651
B0925284525022N00738111EA0163701651
B0925294525018N00738105EA0163701651
B0925304525014N00738098EA0163701650
B0925314525009N00738093EA0163701650
B0925324525005N00738087EA0163701650
B0925334525001N00738081EA0163601649
B0925344524996N00738076EA0163501648
B0925354524992N00738070EA0163401647
B0925364524988N00738065EA0163201646
B0925374524983N00738060EA0163001643
B0925384524978N00738055EA0162801642
B0925394524974N00738050EA0162801641
B0925404524970N00738045EA0162601639
B0925414524966N00738042EA0162501638
B0925424524962N00738038EA0162301636
B0925434524958N00738035EA0162101634
B0925444524955N00738031EA0161901631
B0925454524950N00738026EA0161601629
B0925464524946N00738022EA0161401627
B0925474524941N00738017EA0161301626
B0925484524938N00738013EA0161101623
B0925494524934N00738008EA0160801621
B0925504524930N00738004EA0160601618
B0925514524925N00737999EA0160301616
B0925524524921N00737995EA0160101613
B0925534524916N00737991EA0159901611
B0925544524912N00737987EA0159701609
B0925554524907N00737983EA0159401607
B0925564524903N00737979EA0159101604
B0925574524897N00737975EA0158901602
B0925584524892N00737972EA0158601599
B0925594524887N00737969EA0158501598
B0926004524882N00737966EA0158401597
B0926014524878N00737963EA0158201594
B0926024524874N00737960EA0157801591
B0926034524869N00737958EA0157401587
B0926044524863N00737955EA0157201584
B0926054524857N00737954EA0156901582
B0926064524852N00737952EA0156901581
B0926074524848N00737951EA0156701580
B0926084524844N00737949EA0156601578
B0926094524840N00737948EA0156301575
B0926104524835N00737947EA0156001573
B0926114524830N00737946EA0155801570
B0926124524825N00737945EA0155701570
B0926134524820N00737943EA0155701570
B0926144524816N00737942EA0155601569
B0926154524812N00737940EA0155601569
B0926164524808N00737938EA0155601568
B0926174524804N00737936EA0155401567
B0926184524800N00737932EA0155301566
B0926194524796N00737929EA0155201564
B0926204524792N00737925EA0155001563
B0926214524789N00737922EA0154901561
B0926224524787N00737919EA0154801561
B0926234524784N00737915EA0154501558
B0926244524782N00737910EA0154201555
B0926254524780N00737903EA0154001552
B0926264524778N00737896EA0153701549
B0926274524776N00737889EA0153401546
B0926284524775N00737882EA0153301545
B0926294524773N00737874EA0153201545
B0926304524773N00737866EA0153101543
B0926314524772N00737858EA0152801540
B0926324524771N00737851EA0152701539
B0926334524770N00737843EA0152501538
B0926344524770N00737835EA0152301536
B0926354524769N00737827EA0152201534
B0926364524769N00737819EA0151901532
B0926374524768N00737811EA0151701529
B0926384524766N00737804EA0151501527
B0926394524765N00737798EA0151201524
B0926404524764N00737789EA0150901521
B0926414524763N00737783EA0150701519
B0926424524762N00737775EA0150501518
B0926434524760N00737768EA0150401516
B0926444524758N00737761EA0150101514
B0926454524757N00737753EA0150001512
B0926464524756N00737745EA0149701510
B0926474524755N00737737EA0149501507
B0926484524753N00737730EA0149301506
B0926494524752N00737722EA0149101503
B0926504524750N00737715EA0148901502
B0926514524749N00737706EA0148701499
B0926524524747N00737696EA0148601498
B0926534524746N00737687EA0148601498
B0926544524744N00737679EA0148601498
B0926554524743N00737672EA0148601499
B0926564524741N00737665EA0148501498
B0926574524739N00737658EA0148301496
B0926584524737N00737650EA0148101494
B0926594524735N00737642EA0148001492
B0927004524732N00737635EA0147801491
B0927014524729N00737628EA0147701490
B0927024524726N00737621EA0147601489
B0927034524724N00737614EA0147401487
B0927044524722N00737607EA0147201485
B0927054524720N00737600EA0147001482
B0927064524718N00737594EA0146801481
B0927074524715N00737587EA0146601479
B0927084524713N00737580EA0146401477
B0927094524709N00737573EA0146301475
B0927104524706N00737566EA0146101473
B0927114524703N00737559EA0145901471
B0927124524699N00737552EA0145801471
B0927134524697N00737545EA0145801471
B0927144524695N00737537EA0145501468
B0927154524694N00737529EA0145201464
B0927164524692N00737522EA0144901462
B0927174524689N00737515EA0144701459
B0927184524685N00737508EA0144601458
B0927194524683N00737501EA0144401457
B0927204524680N00737493EA0144301456
B0927214524678N00737486EA0144201454
B0927224524675N00737480EA0144001452
B0927234524672N00737474EA0143801451
B0927244524668N00737467EA0143601448
B0927254524665N00737460EA0143301446
B0927264524662N00737453EA0143101444
B0927274524658N00737446EA0143001443
B0927284524655N00737439EA0143001442
B0927294524652N00737432EA0142801440
B0927304524649N00737425EA0142601439
B0927314524646N00737419EA0142401436
B0927324524643N00737413EA0142101433
B0927334524639N00737407EA0141801431
B0927344524635N00737402EA0141601429
B0927354524631N00737396EA0141501428
B0927364524629N00737390EA0141401426
B0927374524626N00737384EA0141201424
B0927384524624N00737376EA0140801420
B0927394524622N00737368EA0140401416
B0927404524618N00737362EA0140001413
B0927414524614N00737355EA0139701410
B0927424524609N00737348EA0139501407
B0927434524605N00737341EA0139501408
B0927444524602N00737335EA0139701409
B0927454524599N00737330EA0139801410
B0927464524596N00737327EA0139701410
B0927474524593N00737324EA0139401407
B0927484524589N00737319EA0139101404
B0927494524585N00737313EA0139001402
B0927504524580N00737306EA0138901402
B0927514524577N00737301EA0138901402
B0927524524573N00737296EA0138901401
B0927534524571N00737290EA0138701400
B0927544524568N00737285EA0138401396
B0927554524565N00737279EA0138001392
B0927564524562N00737273EA0137601389
B0927574524557N00737267EA0137501387
B0927584524554N00737260EA0137401387
B0927594524551N00737254EA0137301386
B0928004524548N00737248EA0137101384
B0928014524545N00737241EA0136801381
B0928024524542N00737235EA0136501378
B0928034524538N00737228EA0136301376
B0928044524534N00737221EA0136201375
B0928054524530N00737215EA0136301375
B0928064524527N00737209EA0136301376
B0928074524524N00737202EA0136201375
B0928084524522N00737196EA0136101374
B0928094524519N00737190EA0135901372
B0928104524516N00737185EA0135801371
B0928114524512N00737178EA0135701370
B0928124524509N00737172EA0135701371
B0928134524507N00737166EA0135801371
B0928144524504N00737160EA0135901372
B0928154524502N00737155EA0135901372
B0928164524499N00737149EA0135801371
B0928174524496N00737143EA0135701370
B0928184524493N00737137EA0135601370
B0928194524490N00737131EA0135601369
B0928204524486N00737125EA0135601369
B0928214524483N00737120EA0135601370
B0928224524480N00737115EA0135601369
B0928234524477N00737110EA0135501368
B0928244524474N00737104EA0135301367
B0928254524470N00737099EA0135201365
B0928264524467N00737094EA0135101364
B0928274524463N00737088EA0135001364
B0928284524460N00737082EA0134901362
B0928294524456N00737076EA0134701361
B0928304524452N00737070EA0134601360
B0928314524448N00737065EA0134501359
B0928324524445N00737060EA0134401357
B0928334524442N00737055EA0134201356
B0928344524439N00737050EA0134001354
B0928354524435N00737045EA0133801352
B0928364524432N00737040EA0133701351
B0928374524429N00737036EA0133601350
B0928384524426N00737032EA0133501349
B0928394524422N00737027EA0133401348
B0928404524419N00737023EA0133401348
B0928414524416N00737019EA0133301347
B0928424524413N00737016EA0133201346
B0928434524411N00737011EA0133001344
B0928444524408N00737007EA0132801342
B0928454524405N00737004EA0132601340
B0928464524402N00737000EA0132401339
B0928474524398N00736995EA0132301337
B0928484524395N00736990EA0132201337
B0928494524394N00736986EA0132101335
B0928504524391N00736981EA0131901334
B0928514524389N00736976EA0131701331
B0928524524386N00736971EA0131501329
B0928534524383N00736966EA0131301328
B0928544524380N00736963EA0131201326
B0928554524377N00736960EA0131101325
B0928564524374N00736957EA0130901323
B0928574524371N00736953EA0130701322
B0928584524367N00736949EA0130501319
B0928594524363N00736944EA0130301317
B0929004524360N00736940EA0130101315
B0929014524356N00736936EA0129901314
B0929024524353N00736932EA0129701312
B0929034524349N00736928EA0129501309
B0929044524346N00736924EA0129201306
B0929054524342N00736920EA0128901304
B0929064524339N00736916EA0128601301
B0929074524335N00736912EA0128301298
B0929084524331N00736908EA0128001295
B0929094524327N00736904EA0127701292
B0929104524324N00736900EA0127401289
B0929114524319N00736896EA0127101286
B0929124524316N00736892EA0127001284
B0929134524312N00736888EA0126801282
B0929144524309N00736884EA0126501280
B0929154524306N00736879EA0126201276
B0929164524302N00736874EA0125801272
B0929174524298N00736869EA0125401269
B0929184524294N00736865EA0125101266
B0929194524291N00736860EA0124901264
B0929204524287N00736854EA0124701262
B0929214524284N00736849EA0124601260
B0929224524280N00736844EA0124301258
B0929234524276N00736839EA0124101256
B0929244524272N00736834EA0123801253
B0929254524269N00736829EA0123601251
B0929264524265N00736825EA0123401248
B0929274524262N00736824EA0123101245
B0929284524258N00736823EA0122601241
B0929294524254N00736821EA0122201237
B0929304524250N00736818EA0121801233
B0929314524245N00736815EA0121501230
B0929324524240N00736811EA0121201227
B0929334524236N00736808EA0121001225
B0929344524232N00736806EA0120701222
B0929354524228N00736803EA0120301218
B0929364524224N00736801EA0119901214
B0929374524220N00736799EA0119501210
B0929384524216N00736798EA0119101206
B0929394524212N00736796EA0118701202
B0929404524208N00736795EA0118401199
B0929414524204N00736794EA0118001195
B0929424524200N00736793EA0117501190
B0929434524196N00736791EA0117001184
B0929444524191N00736790EA0116501180
B0929454524186N00736789EA0116201177
B0929464524182N00736787EA0116001174
B0929474524177N00736786EA0115801173
B0929484524173N00736783EA0115601171
B0929494524169N00736781EA0115301168
B0929504524165N00736780EA0115101166
B0929514524162N00736778EA0114801163
B0929524524158N00736777EA0114401159
B0929534524154N00736775EA0113801154
B0929544524149N00736774EA0113501150
B0929554524144N00736773EA0113201148
B0929564524140N00736773EA0113101147
B0929574524137N00736772EA0113001145
B0929584524134N00736772EA0112601142
B0929594524130N00736771EA0112101136
B0930004524126N00736770EA0111501130
B0930014524121N00736770EA0110901124
B0930024524116N00736770EA0110701122
B0930034524112N00736770EA0110501120
B0930044524108N00736769EA0110301119
B0930054524104N00736769EA0110101116
B0930064524101N00736769EA0109701112
B0930074524097N00736769EA0109201107
B0930084524093N00736769EA0108801103
B0930094524089N00736770EA0108501100
B0930104524084N00736770EA0108201097
B0930114524080N00736769EA0107901095
B0930124524075N00736769EA0107601091
B0930134524072N00736768EA0107401090
B0930144524068N00736768EA0107201088
B0930154524065N00736768EA0106901085
B0930164524062N00736768EA0106501081
B0930174524059N00736768EA0106201077
B0930184524055N00736768EA0105801073
B0930194524051N00736767EA0105501071
B0930204524047N00736767EA0105301068
B0930214524043N00736766EA0105001065
B0930224524040N00736766EA0104601062
B0930234524036N00736766EA0104301059
B0930244524032N00736766EA0104001056
B0930254524028N00736766EA0103701053
B0930264524025N00736766EA0103401050
B0930274524021N00736766EA0103201048
B0930284524018N00736767EA0103001045
B0930294524015N00736767EA0102701043
B0930304524012N00736768EA0102401040
B0930314524009N00736769EA0102101037
B0930324524006N00736771EA0101901035
B0930334524003N00736774EA0101701033
B0930344524001N00736777EA0101501031
B0930354524000N00736779EA0101301029
B0930364523998N00736782EA0101001026
B0930374523996N00736783EA0100901025
B0930384523993N00736785EA0100701023
B0930394523992N00736787EA0100401021
B0930404523990N00736789EA0100101018
B0930414523988N00736791EA0099801014
B0930424523986N00736793EA0099601012
B0930434523984N00736795EA0099301010
B0930444523982N00736798EA0099101007
B0930454523980N00736801EA0098901005
B0930464523978N00736804EA0098701003
B0930474523977N00736807EA0098401000
B0930484523975N00736810EA0098100997
B0930494523974N00736814EA0097900995
B0930504523974N00736817EA0097600992
B0930514523973N00736821EA0097300990
B0930524523973N00736825EA0097100987
B0930534523973N00736829EA0096800985
B0930544523973N00736833EA0096700983
B0930554523973N00736837EA0096500981
B0930564523974N00736841EA0096200978
B0930574523975N00736845EA0095900976
B0930584523976N00736849EA0095700974
B0930594523977N00736853EA0095500971
B0931004523978N00736858EA0095100968
B0931014523981N00736863EA0094800965
B0931024523984N00736868EA0094600963
B0931034523988N00736873EA0094300960
B0931044523991N00736878EA0094100958
B0931054523994N00736883EA0094000957
B0931064523998N00736888EA0093800955
B0931074524001N00736893EA0093500952
B0931084524005N00736898EA0093300950
B0931094524009N00736904EA0093100948
B0931104524012N00736909EA0092700944
B0931114524016N00736914EA0092700944
B0931124524019N00736920EA0092600943
B0931134524022N00736925EA0092300940
B0931144524024N00736931EA0092100938
B0931154524027N00736936EA0091900936
B0931164524028N00736942EA0091700934
B0931174524030N00736947EA0091500932
B0931184524031N00736953EA0091200929
B0931194524033N00736958EA0091000927
B0931204524035N00736964EA0090700924
B0931214524036N00736970EA0090500923
B0931224524038N00736976EA0090400921
B0931234524039N00736981EA0090200919
B0931244524041N00736986EA0090000917
B0931254524042N00736992EA0089800915
B0931264524044N00736998EA0089500912
B0931274524045N00737004EA0089300911
B0931284524047N00737010EA0089100908
B0931294524048N00737016EA0088900906
B0931304524051N00737022EA0088800905
B0931314524055N00737028EA0088700904
B0931324524060N00737033EA0088400902
B0931334524064N00737038EA0088200900
B0931344524069N00737044EA0088000897
B0931354524074N00737049EA0087800896
B0931364524078N00737054EA0087700895
B0931374524082N00737060EA0087400892
B0931384524085N00737067EA0087200890
B0931394524088N00737074EA0087100889
B0931404524091N00737080EA0087200890
B0931414524094N00737086EA0087400891
B0931424524097N00737092EA0087500893
B0931434524100N00737097EA0087700895
B0931444524103N00737103EA0088000898
B0931454524106N00737107EA0088100899
B0931464524108N00737111EA0088300901
B0931474524111N00737115EA0088400902
B0931484524115N00737119EA0088400902
B0931494524121N00737122EA0088200900
B0931504524128N00737126EA0087800896
B0931514524134N00737130EA0087700895
B0931524524140N00737136EA0087700895
B0931534524143N00737142EA0087600894
B0931544524144N00737148EA0087700895
B0931554524144N00737153EA0087700895
B0931564524143N00737157EA0087600894
B0931574524141N00737160EA0087600895
B0931584524138N00737163EA0087700895
B0931594524135N00737165EA0087800897
B0932004524131N00737166EA0088000898
B0932014524128N00737166EA0088200901
B0932024524125N00737165EA0088400903
B0932034524122N00737163EA0088700905
B0932044524120N00737160EA0088800906
B0932054524118N00737156EA0088700906
B0932064524116N00737149EA0088600904
B0932074524115N00737141EA0088500904
B0932084524116N00737132EA0088700906
B0932094524120N00737124EA0088600905
B0932104524127N00737119EA0088600904
B0932114524135N00737116EA0088600904
B0932124524143N00737115EA0088500904
B0932134524150N00737115EA0088600905
B0932144524156N00737118EA0088600905
B0932154524161N00737123EA0088500904
B0932164524164N00737130EA0088600905
B0932174524165N00737136EA0088900907
B0932184524164N00737141EA0089000909
B0932194524162N00737144EA0089200911
B0932204524160N00737147EA0089400912
B0932214524157N00737149EA0089400913
B0932224524154N00737149EA0089300912
B0932234524150N00737148EA0089400913
B0932244524146N00737145EA0089400913
B0932254524144N00737139EA0089500914
B0932264524142N00737132EA0089500914
B0932274524142N00737124EA0089500914
B0932284524143N00737116EA0089500914
B0932294524146N00737107EA0089600915
B0932304524151N00737099EA0089700916
B0932314524158N00737092EA0089800917
B0932324524166N00737089EA0089900919
B0932334524173N00737090EA0089900918
B0932344524180N00737093EA0089800918
B0932354524185N00737098EA0089900918
B0932364524188N00737103EA0090200921
B0932374524191N00737108EA0090300923
B0932384524192N00737113EA0090400923
B0932394524192N00737118EA0090400923
B0932404524191N00737123EA0090400924
B0932414524189N00737127EA0090400924
B0932424524187N00737129EA0090300923
B0932434524183N00737131EA0090300922
B0932444524180N00737129EA0090300922
B0932454524177N00737125EA0090100920
B0932464524175N00737119EA0090000920
B0932474524173N00737112EA0090100920
B0932484524174N00737104EA0090100921
B0932494524175N00737096EA0090100921
B0932504524179N00737089EA0090200921
B0932514524182N00737082EA0090400924
B0932524524187N00737076EA0090500925
B0932534524192N00737073EA0090400924
B0932544524199N00737073EA0090300923
B0932554524206N00737074EA0090500924
B0932564524211N00737078EA0090600925
B0932574524215N00737083EA0090500925
B0932584524217N00737088EA0090500925
B0932594524217N00737093EA0090500925
B0933004524216N00737097EA0090300923
B0933014524213N00737100EA0090300923
B0933024524211N00737102EA0090200922
B0933034524208N00737103EA0090100921
B0933044524204N00737103EA0090000920
B0933054524200N00737101EA0090000920
B0933064524196N00737097EA0090100921
B0933074524193N00737093EA0090100921
B0933084524189N00737088EA0090200922
B0933094524186N00737084EA0090300924
B0933104524184N00737080EA0090500925
B0933114524181N00737076EA0090700927
B0933124524180N00737071EA0090800928
B0933134524178N00737067EA0090900929
B0933144524175N00737063EA0090900929
B0933154524173N00737059EA0090800928
B0933164524170N00737054EA0090900929
B0933174524167N00737051EA0091100931
B0933184524163N00737051EA0091200932
B0933194524161N00737054EA0091300934
B0933204524159N00737057EA0091500936
B0933214524157N00737059EA0091600937
B0933224524156N00737060EA0091800938
B0933234524155N00737061EA0092000940
B0933244524154N00737063EA0092100941
B0933254524153N00737066EA0092100941
B0933264524152N00737070EA0092100941
B0933274524151N00737075EA0092100942
B0933284524153N00737081EA0092200943
B0933294524155N00737087EA0092300943
B0933304524159N00737093EA0092400945
B0933314524165N00737098EA0092600946
B0933324524171N00737098EA0092800948
B0933334524177N00737096EA0093000950
B0933344524183N00737092EA0093200952
B0933354524187N00737087EA0093300954
B0933364524191N00737081EA0093400955
B0933374524194N00737074EA0093600956
B0933384524197N00737065EA0093600957
B0933394524198N00737057EA0093800959
B0933404524198N00737049EA0094000961
B0933414524196N00737042EA0094200963
B0933424524194N00737036EA0094400965
B0933434524191N00737033EA0094700967
B0933444524188N00737032EA0094800969
B0933454524186N00737033EA0095000971
B0933464524185N00737034EA0095200972
B0933474524184N00737035EA0095100972
B0933484524183N00737034EA0095100971
B0933494524181N00737035EA0095100972
B0933504524180N00737038EA0095100972
B0933514524179N00737042EA0095000971
B0933524524179N00737047EA0095100971
B0933534524179N00737052EA0095300973
B0933544524181N00737056EA0095400974
B0933554524183N00737060EA0095400974
B0933564524185N00737064EA0095400974
B0933574524188N00737068EA0095500975
B0933584524192N00737073EA0095400974
B0933594524198N00737076EA0095300973
B0934004524204N00737079EA0095400974
B0934014524211N00737080EA0095400974
B0934024524218N00737080EA0095300974
B0934034524224N00737079EA0095300973
B0934044524231N00737076EA0095200972
B0934054524237N00737071EA0095000971
B0934064524243N00737063EA0095000970
B0934074524246N00737054EA0095000970
B0934084524247N00737045EA0095100971
B0934094524247N00737036EA0095300973
B0934104524247N00737028EA0095500975
B0934114524246N00737021EA0095600976
B0934124524243N00737015EA0095700977
B0934134524240N00737010EA0095700977
B0934144524237N00737005EA0095800978
B0934154524233N00737002EA0096000980
B0934164524229N00736999EA0096200982
B0934174524226N00736995EA0096400984
B0934184524225N00736992EA0096600986
B0934194524223N00736989EA0096700987
B0934204524220N00736988EA0096700987
B0934214524217N00736987EA0096600986
B0934224524213N00736986EA0096600986
B0934234524209N00736985EA0096700987
B0934244524207N00736987EA0096800988
B0934254524206N00736991EA0096900989
B0934264524206N00736995EA0097000990
B0934274524207N00737000EA0097000990
B0934284524208N00737004EA0097100991
B0934294524211N00737008EA0097000990
B0934304524215N00737012EA0097000989
B0934314524221N00737015EA0096800988
B0934324524228N00737016EA0096700987
B0934334524235N00737014EA0096700987
B0934344524241N00737010EA0096700987
B0934354524245N00737004EA0096600986
B0934364524249N00736997EA0096500985
B0934374524252N00736989EA0096500984
B0934384524255N00736980EA0096500985
B0934394524256N00736972EA0096600986
B0934404524256N00736963EA0096700987
B0934414524254N00736955EA0096700987
B0934424524252N00736949EA0096800988
B0934434524250N00736943EA0096900989
B0934444524247N00736937EA0097000990
B0934454524244N00736932EA0097100991
B0934464524242N00736927EA0097300993
B0934474524239N00736923EA0097300993
B0934484524236N00736920EA0097300993
B0934494524234N00736917EA0097200992
B0934504524231N00736915EA0097100991
B0934514524229N00736914EA0096900989
B0934524524226N00736914EA0096800987
B0934534524224N00736916EA0096600986
B0934544524223N00736918EA0096500985
B0934554524223N00736920EA0096300982
B0934564524222N00736924EA0096100981
B0934574524222N00736928EA0096000979
B0934584524224N00736932EA0095900978
B0934594524226N00736936EA0095800977
B0935004524230N00736939EA0095500975
B0935014524235N00736942EA0095300972
B0935024524241N00736944EA0095000970
B0935034524248N00736944EA0094800967
B0935044524255N00736941EA0094500965
B0935054524261N00736936EA0094300962
B0935064524267N00736929EA0094200961
B0935074524273N00736921EA0094300962
B0935084524277N00736911EA0094400963
B0935094524280N00736902EA0094600965
B0935104524282N00736893EA0094800967
B0935114524284N00736885EA0094800968
B0935124524286N00736877EA0094800968
B0935134524287N00736869EA0094600966
B0935144524287N00736861EA0094400964
B0935154524287N00736853EA0094300962
B0935164524285N00736847EA0093900959
B0935174524282N00736843EA0093600955
B0935184524278N00736844EA0093300952
B0935194524276N00736846EA0093100950
B0935204524274N00736849EA0093100950
B0935214524273N00736851EA0093100950
B0935224524272N00736853EA0093000949
B0935234524271N00736855EA0092800948
B0935244524269N00736859EA0092700946
B0935254524269N00736863EA0092600945
B0935264524267N00736868EA0092600945
B0935274524267N00736872EA0092500945
B0935284524266N00736876EA0092500945
B0935294524265N00736880EA0092500944
B0935304524264N00736884EA0092400943
B0935314524263N00736888EA0092300943
B0935324524261N00736892EA0092300943
B0935334524259N00736895EA0092300942
B0935344524258N00736899EA0092100941
B0935354524256N00736903EA0092000939
B0935364524255N00736907EA0091800938
B0935374524253N00736913EA0091700937
B0935384524251N00736917EA0091700937
B0935394524250N00736922EA0091800937
B0935404524250N00736926EA0091700937
B0935414524249N00736930EA0091600936
B0935424524248N00736934EA0091400934
B0935434524247N00736939EA0091200932
B0935444524246N00736944EA0091100930
B0935454524244N00736950EA0090900929
B0935464524243N00736956EA0090900928
B0935474524242N00736961EA0090800928
B0935484524240N00736966EA0090800928
B0935494524239N00736971EA0090700927
B0935504524238N00736976EA0090700926
B0935514524236N00736981EA0090600926
B0935524524235N00736985EA0090600925
B0935534524233N00736989EA0090400924
B0935544524231N00736994EA0090300922
B0935554524230N00736999EA0090200922
B0935564524228N00737004EA0090200922
B0935574524225N00737008EA0090100921
B0935584524222N00737012EA0090200922
B0935594524219N00737016EA0090200922
B0936004524217N00737020EA0090400923
B0936014524215N00737025EA0090500925
B0936024524213N00737028EA0090600926
B0936034524211N00737032EA0090600926
B0936044524209N00737036EA0090600926
B0936054524207N00737039EA0090500925
B0936064524204N00737043EA0090500925
B0936074524201N00737047EA0090600926
B0936084524199N00737050EA0090700927
B0936094524197N00737054EA0090700927
B0936104524195N00737056EA0090700927
B0936114524193N00737059EA0090500925
B0936124524191N00737063EA0090300923
B0936134524188N00737067EA0090200922
B0936144524186N00737070EA0090100921
B0936154524183N00737073EA0090000920
B0936164524180N00737075EA0089900920
B0936174524178N00737078EA0089800919
B0936184524175N00737080EA0089700917
B0936194524172N00737083EA0089600916
B0936204524169N00737086EA0089400915
B0936214524167N00737090EA0089400914
B0936224524165N00737094EA0089300914
B0936234524163N00737098EA0089200912
B0936244524161N00737103EA0089100911
B0936254524159N00737107EA0088900910
B0936264524156N00737110EA0088700908
B0936274524154N00737114EA0088700908
B0936284524150N00737118EA0088600907
B0936294524147N00737121EA0088600907
B0936304524144N00737124EA0088600907
B0936314524141N00737128EA0088500906
B0936324524138N00737132EA0088500905
B0936334524134N00737137EA0088400905
B0936344524130N00737142EA0088600906
B0936354524127N00737147EA0088700908
B0936364524124N00737152EA0088900910
B0936374524121N00737157EA0089000911
B0936384524119N00737162EA0089100912
B0936394524116N00737167EA0089100912
B0936404524114N00737172EA0089100912
B0936414524112N00737177EA0089100912
B0936424524108N00737182EA0089200913
B0936434524105N00737185EA0089300914
B0936444524101N00737187EA0089300914
B0936454524096N00737187EA0089400915
B0936464524092N00737186EA0089500916
B0936474524089N00737182EA0089600917
B0936484524087N00737177EA0089600917
B0936494524086N00737170EA0089600917
B0936504524087N00737163EA0089700918
B0936514524090N00737155EA0089700918
B0936524524096N00737151EA0089600917
B0936534524103N00737150EA0089600917
B0936544524109N00737152EA0089600917
B0936554524113N00737157EA0089600917
B0936564524116N00737164EA0089600917
B0936574524115N00737171EA0089600917
B0936584524113N00737177EA0089600918
B0936594524109N00737182EA0089800919
B0937004524106N00737186EA0089900921
B0937014524102N00737189EA0090100922
B0937024524099N00737191EA0090100922
B0937034524095N00737193EA0089900921
B0937044524090N00737194EA0090000921
B0937054524085N00737193EA0090000922
B0937064524081N00737190EA0090100923
B0937074524077N00737186EA0090300925
B0937084524075N00737181EA0090400926
B0937094524072N00737175EA0090500927
B0937104524071N00737167EA0090500927
B0937114524071N00737159EA0090600927
B0937124524073N00737150EA0090600928
B0937134524078N00737144EA0090600927
B0937144524085N00737140EA0090600928
B0937154524091N00737140EA0090700928
B0937164524097N00737144EA0090900930
B0937174524101N00737149EA0091000932
B0937184524102N00737155EA0091200933
B0937194524102N00737160EA0091200934
B0937204524100N00737164EA0091300934
B0937214524098N00737166EA0091200934
B0937224524094N00737168EA0091200934
B0937234524090N00737168EA0091200934
B0937244524086N00737169EA0091200934
B0937254524081N00737168EA0091200934
B0937264524077N00737166EA0091200934
B0937274524074N00737161EA0091300935
B0937284524070N00737156EA0091200934
B0937294524067N00737149EA0091300935
B0937304524064N00737140EA0091300935
B0937314524063N00737131EA0091400936
B0937324524063N00737121EA0091400936
B0937334524066N00737110EA0091500937
B0937344524070N00737101EA0091500937
B0937354524075N00737094EA0091600938
B0937364524082N00737089EA0091800940
B0937374524088N00737087EA0091900941
B0937384524093N00737088EA0092000942
B0937394524098N00737091EA0092100943
B0937404524100N00737096EA0092200944
B0937414524101N00737100EA0092300945
B0937424524099N00737104EA0092400946
B0937434524097N00737107EA0092500947
B0937444524093N00737107EA0092600948
B0937454524088N00737103EA0092600948
B0937464524085N00737097EA0092700949
B0937474524083N00737088EA0092700949
B0937484524083N00737078EA0092700949
B0937494524084N00737068EA0092800950
B0937504524087N00737058EA0092900951
B0937514524091N00737050EA0093000952
B0937524524096N00737043EA0093100953
B0937534524102N00737039EA0093100953
B0937544524109N00737038EA0093200954
B0937554524115N00737040EA0093300955
B0937564524120N00737044EA0093400956
B0937574524122N00737049EA0093600958
B0937584524122N00737054EA0093700960
B0937594524120N00737057EA0093900961
B0938004524116N00737058EA0093900962
B0938014524112N00737057EA0094000963
B0938024524108N00737052EA0094100963
B0938034524105N00737045EA0094100963
B0938044524103N00737037EA0094100964
B0938054524102N00737027EA0094200965
B0938064524104N00737016EA0094300965
B0938074524107N00737006EA0094400966
B0938084524112N00736999EA0094500967
B0938094524119N00736994EA0094500967
B0938104524126N00736992EA0094600968
B0938114524132N00736993EA0094700970
B0938124524137N00736996EA0094900971
B0938134524140N00737001EA0095000972
B0938144524140N00737006EA0095100974
B0938154524138N00737009EA0095100973
B0938164524134N00737010EA0095200975
B0938174524131N00737009EA0095300976
B0938184524127N00737006EA0095400976
B0938194524124N00737000EA0095400976
B0938204524121N00736992EA0095400977
B0938214524120N00736983EA0095500978
B0938224524120N00736972EA0095500978
B0938234524124N00736963EA0095600978
B0938244524129N00736954EA0095700979
B0938254524135N00736949EA0095700980
B0938264524142N00736947EA0095800981
B0938274524148N00736949EA0095800981
B0938284524153N00736954EA0095900982
B0938294524154N00736959EA0095900982
B0938304524152N00736963EA0096000983
B0938314524149N00736965EA0096100984
B0938324524146N00736966EA0096400987
B0938334524143N00736966EA0096500988
B0938344524141N00736967EA0096500988
B0938354524138N00736967EA0096500988
B0938364524135N00736967EA0096500988
B0938374524131N00736967EA0096500988
B0938384524127N00736964EA0096700990
B0938394524123N00736959EA0096800991
B0938404524120N00736952EA0096900992
B0938414524118N00736945EA0097000993
B0938424524118N00736936EA0097000994
B0938434524119N00736926EA0097000993
B0938444524123N00736916EA0097000993
B0938454524128N00736908EA0097000994
B0938464524135N00736903EA0097100994
B0938474524142N00736901EA0097200995
B0938484524148N00736904EA0097200995
B0938494524152N00736907EA0097400997
B0938504524153N00736912EA0097500998
B0938514524153N00736917EA0097400998
B0938524524152N00736921EA0097400997
B0938534524149N00736924EA0097400997
B0938544524147N00736927EA0097400998
B0938554524144N00736931EA0097500998
B0938564524141N00736934EA0097500998
B0938574524138N00736938EA0097701000
B0938584524136N00736941EA0097901002
B0938594524133N00736943EA0098001004
B0939004524131N00736945EA0098101004
B0939014524130N00736948EA0098101005
B0939024524128N00736951EA0098101005
B0939034524127N00736955EA0098101004
B0939044524125N00736957EA0098201005
B0939054524123N00736959EA0098201005
B0939064524120N00736959EA0098201005
B0939074524117N00736959EA0098201005
B0939084524113N00736959EA0098201005
B0939094524109N00736959EA0098201006
B0939104524106N00736957EA0098401007
B0939114524102N00736955EA0098501009
B0939124524099N00736952EA0098701010
B0939134524097N00736949EA0098701010
B0939144524094N00736947EA0098701010
B0939154524091N00736946EA0098601009
B0939164524088N00736946EA0098501008
B0939174524085N00736946EA0098601009
B0939184524081N00736947EA0098701010
B0939194524078N00736947EA0098801011
B0939204524075N00736947EA0098801011
B0939214524072N00736948EA0098601009
B0939224524069N00736948EA0098401007
B0939234524066N00736949EA0098201006
B0939244524063N00736950EA0098101004
B0939254524059N00736950EA0097901002
B0939264524055N00736950EA0097601000
B0939274524052N00736949EA0097600999
B0939284524049N00736944EA0097500998
B0939294524047N00736938EA0097100994
B0939304524046N00736930EA0096800991
B0939314524045N00736920EA0096600989
B0939324524046N00736910EA0096500988
B0939334524048N00736899EA0096300986
B0939344524054N00736889EA0096100984
B0939354524061N00736881EA0095900982
B0939364524069N00736875EA0095700980
B0939374524077N00736873EA0095600979
B0939384524084N00736874EA0095500978
B0939394524090N00736875EA0095200975
B0939404524095N00736878EA0094900972
B0939414524100N00736881EA0094600969
B0939424524104N00736885EA0094300966
B0939434524107N00736891EA0094100964
B0939444524109N00736898EA0093900962
B0939454524112N00736903EA0094200965
B0939464524116N00736906EA0094300966
B0939474524118N00736908EA0094200965
B0939484524122N00736910EA0094000963
B0939494524125N00736913EA0093500958
B0939504524128N00736918EA0093200955
B0939514524130N00736924EA0093100954
B0939524524133N00736930EA0092900952
B0939534524135N00736934EA0092800950
B0939544524138N00736938EA0092500948
B0939554524141N00736943EA0092300946
B0939564524143N00736948EA0092000943
B0939574524144N00736953EA0091700939
B0939584524145N00736958EA0091400937
B0939594524146N00736963EA0091100934
B0940004524147N00736968EA0090800931
B0940014524147N00736973EA0090700930
B0940024524147N00736979EA0090500928
B0940034524147N00736984EA0090300926
B0940044524147N00736988EA0090300926
B0940054524147N00736992EA0090200925
B0940064524146N00736995EA0090100924
B0940074524147N00736998EA0089900922
B0940084524147N00737001EA0089800921
B0940094524147N00737004EA0089600919
B0940104524145N00737008EA0089400917
B0940114524144N00737012EA0089300916
B0940124524142N00737015EA0089200914
B0940134524141N00737017EA0089100914
B0940144524139N00737020EA0088900912
B0940154524137N00737022EA0088600908
B0940164524134N00737025EA0088200905
B0940174524131N00737028EA0087900902
B0940184524129N00737032EA0087700900
B0940194524126N00737035EA0087600899
B0940204524125N00737038EA0087400897
B0940214524123N00737040EA0087200895
B0940224524122N00737043EA0086900892
B0940234524119N00737046EA0086600889
B0940244524117N00737050EA0086400887
B0940254524115N00737052EA0086300886
B0940264524112N00737055EA0086100884
B0940274524111N00737058EA0085800881
B0940284524109N00737061EA0085600879
B0940294524106N00737064EA0085300876
B0940304524104N00737067EA0085000873
B0940314524102N00737070EA0084800871
B0940324524099N00737072EA0084600869
B0940334524096N00737075EA0084500868
B0940344524094N00737078EA0084500867
B0940354524092N00737080EA0084300866
B0940364524090N00737083EA0084100864
B0940374524088N00737085EA0083900862
B0940384524085N00737088EA0083700860
B0940394524082N00737091EA0083500858
B0940404524080N00737094EA0083300856
B0940414524078N00737097EA0083000853
B0940424524075N00737099EA0082700850
B0940434524073N00737102EA0082400847
B0940444524070N00737105EA0082100844
B0940454524068N00737110EA0081800841
B0940464524068N00737115EA0081600839
B0940474524069N00737120EA0081400837
B0940484524070N00737125EA0081300836
B0940494524072N00737129EA0081200834
B0940504524074N00737133EA0080900832
B0940514524077N00737138EA0080600829
B0940524524080N00737143EA0080400827
B0940534524082N00737148EA0080200825
B0940544524084N00737153EA0080100823
B0940554524086N00737158EA0079900822
B0940564524088N00737163EA0079700820
B0940574524089N00737169EA0079400817
B0940584524090N00737174EA0079100814
B0940594524091N00737180EA0078700810
B0941004524092N00737186EA0078500807
B0941014524093N00737192EA0078300805
B0941024524094N00737198EA0078200805
B0941034524095N00737203EA0078100804
B0941044524096N00737208EA0077900802
B0941054524096N00737213EA0077600799
B0941064524097N00737219EA0077300795
B0941074524098N00737224EA0077000792
B0941084524099N00737229EA0076700790
B0941094524099N00737235EA0076500788
B0941104524099N00737240EA0076200785
B0941114524099N00737245EA0075900782
B0941124524099N00737251EA0075600779
B0941134524099N00737256EA0075400777
B0941144524098N00737262EA0075200774
B0941154524098N00737267EA0075000773
B0941164524098N00737272EA0074800771
B0941174524098N00737278EA0074600769
B0941184524098N00737283EA0074500768
B0941194524099N00737287EA0074400767
B0941204524099N00737292EA0074200765
B0941214524099N00737296EA0074100764
B0941224524099N00737301EA0073900762
B0941234524100N00737306EA0073900762
B0941244524101N00737311EA0073900763
B0941254524102N00737314EA0074000763
B0941264524103N00737318EA0074100764
B0941274524105N00737321EA0074000763
B0941284524107N00737325EA0073900763
B0941294524109N00737329EA0073800761
B0941304524111N00737334EA0073800761
B0941314524112N00737339EA0073900762
B0941324524113N00737344EA0074000764
B0941334524115N00737348EA0074100764
B0941344524116N00737352EA0074200766
B0941354524118N00737356EA0074400767
B0941364524120N00737359EA0074500768
B0941374524122N00737363EA0074600769
B0941384524123N00737366EA0074700770
B0941394524124N00737368EA0074700771
B0941404524123N00737371EA0074700771
B0941414524122N00737373EA0074600769
B0941424524118N00737375EA0074400768
B0941434524114N00737374EA0074400767
B0941444524109N00737371EA0074400767
B0941454524105N00737365EA0074300766
B0941464524102N00737356EA0074100764
B0941474524101N00737347EA0073900762
B0941484524102N00737337EA0073700760
B0941494524104N00737327EA0073500758
B0941504524109N00737318EA0073200756
B0941514524115N00737313EA0073000754
B0941524524122N00737310EA0072700751
B0941534524128N00737311EA0072600750
B0941544524133N00737315EA0072600750
B0941554524136N00737320EA0072700750
B0941564524137N00737324EA0072900753
B0941574524138N00737328EA0073000754
B0941584524140N00737331EA0073100755
B0941594524142N00737334EA0073000754
B0942004524144N00737339EA0072900753
B0942014524144N00737344EA0072900752
B0942024524145N00737349EA0072900753
B0942034524145N00737354EA0072900753
B0942044524146N00737358EA0072900753
B0942054524148N00737363EA0072800752
B0942064524148N00737368EA0072700751
B0942074524149N00737373EA0072600750
B0942084524149N00737379EA0072500749
B0942094524149N00737385EA0072500749
B0942104524150N00737391EA0072500749
B0942114524150N00737396EA0072400748
B0942124524151N00737402EA0072200746
B0942134524151N00737408EA0071900743
B0942144524152N00737414EA0071700741
B0942154524152N00737420EA0071500739
B0942164524153N00737427EA0071300737
B0942174524153N00737433EA0071100735
B0942184524153N00737440EA0070900733
B0942194524153N00737446EA0070600730
B0942204524154N00737453EA0070400728
B0942214524155N00737459EA0070200726
B0942224524155N00737466EA0070000724
B0942234524156N00737472EA0069800722
B0942244524156N00737478EA0069600721
B0942254524156N00737485EA0069400718
B0942264524156N00737491EA0069200716
B0942274524157N00737497EA0069000714
B0942284524158N00737504EA0068800712
B0942294524158N00737511EA0068600710
B0942304524159N00737517EA0068400708
B0942314524159N00737524EA0068100705
B0942324524159N00737531EA0067900703
B0942334524158N00737538EA0067600700
B0942344524156N00737545EA0067500699
B0942354524155N00737553EA0067400698
B0942364524154N00737560EA0067400698
B0942374524154N00737567EA0067300698
B0942384524153N00737574EA0067100695
B0942394524153N00737581EA0066800692
B0942404524151N00737588EA0066600690
B0942414524149N00737594EA0066600690
B0942424524148N00737600EA0066600690
B0942434524147N00737605EA0066500689
B0942444524146N00737610EA0066400688
B0942454524145N00737615EA0066200686
B0942464524144N00737621EA0065900683
B0942474524142N00737627EA0065800682
B0942484524141N00737632EA0065700681
B0942494524140N00737637EA0065700681
B0942504524140N00737642EA0065700681
B0942514524140N00737646EA0065500679
B0942524524138N00737650EA0065200676
B0942534524136N00737655EA0065000674
B0942544524134N00737660EA0064800672
B0942554524132N00737665EA0064600670
B0942564524132N00737670EA0064300668
B0942574524133N00737676EA0064100665
B0942584524134N00737682EA0063800662
B0942594524134N00737688EA0063600660
B0943004524134N00737694EA0063400658
B0943014524134N00737700EA0063200657
B0943024524135N00737706EA0063100655
B0943034524136N00737712EA0063000654
B0943044524138N00737717EA0062900653
B0943054524140N00737722EA0062700651
B0943064524141N00737727EA0062500649
B0943074524143N00737732EA0062200646
B0943084524144N00737738EA0062000644
B0943094524146N00737744EA0061800643
B0943104524148N00737750EA0061700641
B0943114524150N00737755EA0061600640
B0943124524152N00737761EA0061500639
B0943134524153N00737767EA0061400639
B0943144524155N00737773EA0061500639
B0943154524156N00737779EA0061500639
B0943164524157N00737784EA0061400638
B0943174524159N00737788EA0061200636
B0943184524161N00737793EA0060900633
B0943194524162N00737799EA0060600631
B0943204524164N00737805EA0060500629
B0943214524165N00737811EA0060400628
B0943224524166N00737816EA0060300627
B0943234524166N00737820EA0060200626
B0943244524167N00737825EA0059900623
B0943254524167N00737829EA0059500619
B0943264524167N00737835EA0059100615
B0943274524167N00737841EA0058800613
B0943284524167N00737847EA0058600611
B0943294524167N00737853EA0058500610
B0943304524168N00737858EA0058500609
B0943314524168N00737863EA0058200606
B0943324524169N00737868EA0057800602
B0943334524169N00737874EA0057500599
B0943344524170N00737881EA0057200597
B0943354524171N00737887EA0057200596
B0943364524171N00737893EA0057100596
B0943374524171N00737899EA0057100595
B0943384524170N00737904EA0057000594
B0943394524170N00737909EA0056900593
B0943404524170N00737914EA0056600591
B0943414524170N00737919EA0056400588
B0943424524169N00737925EA0056100585
B0943434524169N00737931EA0055800583
B0943444524168N00737937EA0055700581
B0943454524168N00737943EA0055600580
B0943464524167N00737949EA0055500580
B0943474524167N00737954EA0055400579
B0943484524167N00737959EA0055300577
B0943494524167N00737964EA0055000575
B0943504524166N00737969EA0054800572
B0943514524166N00737976EA0054500570
B0943524524166N00737982EA0054300568
B0943534524166N00737988EA0054200566
B0943544524166N00737993EA0054000564
B0943554524166N00737998EA0053800562
B0943564524166N00738003EA0053400559
B0943574524166N00738009EA0053200556
B0943584524166N00738014EA0053000554
B0943594524166N00738020EA0052900554
B0944004524166N00738025EA0052800553
B0944014524166N00738029EA0052700551
B0944024524165N00738033EA0052500549
B0944034524165N00738037EA0052200547
B0944044524164N00738042EA0052000544
B0944054524163N00738047EA0051800543
B0944064524162N00738052EA0051700541
B0944074524161N00738056EA0051600540
B0944084524160N00738061EA0051400539
B0944094524159N00738065EA0051300537
B0944104524158N00738070EA0051000535
B0944114524157N00738075EA0050800533
B0944124524156N00738080EA0050700532
B0944134524156N00738084EA0050600530
B0944144524154N00738089EA0050500530
B0944154524153N00738092EA0050400528
B0944164524151N00738096EA0050200526
B0944174524150N00738100EA0050000525
B0944184524149N00738104EA0049800523
B0944194524149N00738108EA0049600521
B0944204524148N00738112EA0049400519
B0944214524148N00738117EA0049300517
B0944224524148N00738122EA0049200516
B0944234524148N00738127EA0049000515
B0944244524147N00738132EA0048800513
B0944254524146N00738136EA0048600511
B0944264524145N00738140EA0048500510
B0944274524144N00738144EA0048300507
B0944284524143N00738148EA0048100505
B0944294524143N00738153EA0047800503
B0944304524145N00738158EA0047600500
B0944314524149N00738163EA0047400498
B0944324524153N00738167EA0047200497
B0944334524159N00738169EA0047200496
B0944344524165N00738168EA0047100495
B0944354524171N00738166EA0046900493
B0944364524177N00738163EA0046600491
B0944374524183N00738160EA0046400489
B0944384524190N00738157EA0046200486
B0944394524196N00738154EA0046000485
B0944404524203N00738150EA0045800483
B0944414524209N00738143EA0045600480
B0944424524213N00738138EA0045400478
B0944434524219N00738130EA0045200476
B0944444524223N00738122EA0045000474
B0944454524226N00738113EA0044900473
B0944464524228N00738103EA0044800472
B0944474524230N00738094EA0044800472
B0944484524231N00738086EA0044700471
B0944494524231N00738078EA0044500469
B0944504524231N00738070EA0044300467
B0944514524230N00738063EA0044100465
B0944524524228N00738056EA0044000464
B0944534524225N00738049EA0043900462
B0944544524222N00738044EA0043800461
B0944554524219N00738040EA0043700460
B0944564524216N00738036EA0043500459
B0944574524213N00738032EA0043400457
B0944584524210N00738028EA0043200456
B0944594524206N00738024EA0043200456
B0945004524203N00738020EA0043200456
B0945014524199N00738016EA0043200455
B0945024524197N00738011EA0043100455
B0945034524194N00738007EA0043000453
B0945044524191N00738003EA0042800452
B0945054524187N00737999EA0042700451
B0945064524184N00737996EA0042600450
B0945074524180N00737995EA0042500449
B0945084524178N00737995EA0042400448
B0945094524175N00737996EA0042300446
B0945104524175N00738000EA0042300446
B0945114524175N00738004EA0042200446
B0945124524178N00738008EA0042100444
B0945134524180N00738013EA0042000443
B0945144524184N00738017EA0041800442
B0945154524187N00738020EA0041700441
B0945164524191N00738024EA0041500439
B0945174524193N00738028EA0041300436
B0945184524193N00738033EA0041000434
B0945194524193N00738039EA0040900432
B0945204524191N00738042EA0040800432
B0945214524188N00738044EA0040800431
B0945224524185N00738046EA0040700430
B0945234524183N00738046EA0040600430
B0945244524179N00738046EA0040400428
B0945254524176N00738047EA0040300426
B0945264524173N00738050EA0040200425
B0945274524172N00738054EA0040000424
B0945284524171N00738059EA0039900422
B0945294524171N00738064EA0039800421
B0945304524172N00738069EA0039700420
B0945314524171N00738074EA0039600419
B0945324524170N00738077EA0039500418
B0945334524169N00738081EA0039400417
B0945344524167N00738085EA0039300416
B0945354524165N00738088EA0039200416
B0945364524165N00738092EA0039300417
B0945374524165N00738095EA0039300416
B0945384524165N00738098EA0039200415
B0945394524165N00738100EA0038900413
B0945404524165N00738103EA0038600409
B0945414524163N00738106EA0038300406
B0945424524163N00738109EA0038400408
B0945434524162N00738109EA0038600409
B0945444524162N00738109EA0038600410
B0945454524162N00738109EA0038600409
B0945464524161N00738109EA0038600409
B0945474524161N00738109EA0038600409
B0945484524162N00738109EA0038600409
B0945494524162N00738109EA0038600409
B0945504524162N00738109EA0038600409
B0945514524162N00738109EA0038600409
B0945524524162N00738109EA0038600409
B0945534524162N00738109EA0038600409
B0945544524162N00738109EA0038600409
B0945554524162N00738109EA0038600409
B0945564524162N00738109EA0038600409
B0945574524162N00738109EA0038600409
B0945584524162N00738109EA0038600409
B0945594524162N00738109EA0038600409
B0946004524162N00738109EA0038600409
B0946014524162N00738109EA0038600409
B0946024524162N00738109EA0038600409
B0946034524162N00738109EA0038600409
B0946044524162N00738109EA0038600409
B0946054524162N00738109EA0038600409
B0946064524162N00738109EA0038600409
B0946074524162N00738108EA0038600409
B0946084524162N00738108EA0038600409
B0946094524162N00738108EA0038600409
B0946104524162N00738108EA0038600409
B0946114524163N00738108EA0038600409
B0946124524163N00738108EA0038600409
B0946134524162N00738108EA0038600409
B0946144524163N00738108EA0038600409
B0946154524163N00738108EA0038600409
B0946164524163N00738108EA0038600409
B0946174524163N00738108EA0038600409
B0946184524163N00738107EA0038600409
B0946194524163N00738107EA0038600409
B0946204524164N00738107EA0038600409
B0946214524164N00738106EA0038600409
B0946224524164N00738106EA0038600409
B0946234524164N00738106EA0038600409
B0946244524165N00738106EA0038600409
B0946254524165N00738106EA0038600409
B0946264524165N00738106EA0038600409
B0946274524165N00738106EA0038600409
B0946284524165N00738106EA0038600409
B0946294524165N00738106EA0038600409
B0946304524165N00738106EA0038600409
B0946314524165N00738106EA0038600409
B0946324524165N00738106EA0038600409
B0946334524164N00738106EA0038600409
B0946344524164N00738106EA0038500408
B0946354524163N00738107EA0038500408
B0946364524163N00738108EA0038500409
B0946374524162N00738108EA0038500409
B0946384524162N00738109EA0038500408
B0946394524161N00738110EA0038500409
B0946404524161N00738111EA0038500409
B0946414524161N00738112EA0038500409
B0946424524160N00738113EA0038500409
B0946434524160N00738113EA0038500409
B0946444524159N00738114EA0038500409
B0946454524159N00738115EA0038500409
B0946464524159N00738116EA0038500409
B0946474524158N00738117EA0038500409
B0946484524158N00738118EA0038600409
B0946494524158N00738119EA0038600409
B0946504524158N00738120EA0038600409
B0946514524157N00738121EA0038600409
B0946524524157N00738122EA0038500409
B0946534524157N00738123EA0038500409
B0946544524157N00738124EA0038500408
B0946554524157N00738125EA0038500409
B0946564524157N00738126EA0038600409
B0946574524157N00738126EA0038600409
B0946584524157N00738126EA0038500409
B0946594524157N00738126EA0038500409
B0947004524157N00738126EA0038500409
B0947014524157N00738126EA0038500409
B0947024524156N00738126EA0038500409
B0947034524157N00738126EA0038500409
B0947044524156N00738126EA0038500409
B0947054524157N00738126EA0038500409
B0947064524157N00738126EA0038500409
B0947074524157N00738127EA0038500408
B0947084524156N00738127EA0038500409
B0947094524156N00738126EA0038500409
B0947104524156N00738126EA0038500409
B0947114524156N00738127EA0038500409
B0947124524156N00738127EA0038500409
B0947134524156N00738127EA0038500409
B0947144524156N00738127EA0038500409
B0947154524156N00738127EA0038500409
B0947164524156N00738127EA0038500409
B0947174524156N00738127EA0038500409
B0947184524156N00738127EA0038500409
B0947194524156N00738127EA0038600409
B0947204524156N00738127EA0038600409
B0947214524156N00738127EA0038600409
B0947224524156N00738127EA0038600409
B0947234524156N00738127EA0038600409
B0947244524156N00738127EA0038600409
B0947254524156N00738127EA0038500409
B0947264524156N00738127EA0038600409
LXSX;C1;GM:1.2
LXSX;S1;TS:1743498934;TL:1743500846;AS:947;AL:409;AT:1673;AB:406
LXSX;S1;XS:0;XD:5.90;SP:42.8;MC:4.9;MS:-4.0;NB:1914
LXSX;S1;FL:15.2;TG:767;TC:2.3;AG:1184;GM:1.2
LXSX;S1;X0:45.41895,7.64300
LXSX;S1;X1:45.39997,7.61303
LXSX;S1;X2:45.40200,7.61933
LXSX;S1;X3:45.40453,7.61422
LXSX;S1;X4:45.40255,7.63612
G51908668FAB0E3EE0C2FA07BC9AFF726
