AXSX006 SKYTRAXX
HFPLTPILOT:Sepp
HFGTYGLIDERTYPE:Advance Sigma 11
HFDTM100GPSDATUM:WGS-84
HFRFWFIRMWAREVERSION:202509251429
HFRHWHARDWAREVERSION:5.0
HFTZNTIMEZONE:+1.00
HFSITSITE:Fiesch Kühboden 1 (
HFDTE121125
LXSX;I1;OAB:20251111;OOB:20251106
LXSX;I1;ID:115785
LXSX;I1;AC:1;CAT:C
LXSX;RAT:LTE M1;GSM:3
B1114274624855N00806462EA0207602157
B1114284624855N00806462EA0207602157
B1114294624855N00806462EA0207602157
B1114304624855N00806462EA0207602157
B1114314624855N00806462EA0207602157
B1114324624855N00806462EA0207602157
B1114334624855N00806462EA0207602157
B1114344624855N00806462EA0207602157
B1114354624855N00806462EA0207602157
B1114364624855N00806462EA0207602157
B1114374624855N00806462EA0207602157
B1114384624854N00806463EA0207502156
B1114394624853N00806464EA0207302154
B1114404624852N00806464EA0207302154
B1114414624851N00806465EA0207202154
B1114424624849N00806466EA0207002151
B1114434624847N00806468EA0206802150
B1114444624845N00806470EA0206802149
B1114454624842N00806472EA0206402146
B1114464624839N00806475EA0206102142
B1114474624835N00806478EA0205702139
B1114484624830N00806482EA0205802139
B1114494624826N00806484EA0206202144
B1114504624822N00806485EA0206302144
B1114514624818N00806487EA0206102142
B1114524624814N00806489EA0205902140
B1114534624809N00806492EA0205702138
B1114544624805N00806495EA0205602137
B1114554624800N00806499EA0205502136
B1114564624795N00806502EA0205502137
B1114574624791N00806506EA0205702138
B1114584624788N00806510EA0205802139
B1114594624785N00806514EA0205802140
B1115004624782N00806520EA0205902141
B1115014624779N00806526EA0206002141
B1115024624777N00806532EA0206202143
B1115034624777N00806539EA0206402145
B1115044624778N00806545EA0206602147
B1115054624781N00806551EA0206702148
B1115064624786N00806556EA0206702148
B1115074624791N00806558EA0206702148
B1115084624796N00806557EA0206602147
B1115094624801N00806553EA0206402145
B1115104624804N00806547EA0206302144
B1115114624806N00806539EA0206102142
B1115124624805N00806531EA0205902140
B1115134624803N00806523EA0205802139
B1115144624799N00806518EA0205602137
B1115154624794N00806515EA0205602137
B1115164624789N00806514EA0205602136
B1115174624783N00806515EA0205702138
B1115184624778N00806517EA0206002141
B1115194624774N00806520EA0206402144
B1115204624772N00806521EA0206502146
B1115214624769N00806522EA0206602147
B1115224624766N00806524EA0206702147
B1115234624763N00806527EA0206602147
B1115244624760N00806532EA0206602147
B1115254624759N00806538EA0206702148
B1115264624760N00806544EA0206902149
B1115274624761N00806550EA0207002151
B1115284624764N00806555EA0207102151
B1115294624769N00806558EA0207202152
B1115304624775N00806559EA0207302153
B1115314624781N00806557EA0207302154
B1115324624787N00806552EA0207402155
B1115334624790N00806545EA0207502156
B1115344624792N00806537EA0207602157
B1115354624792N00806528EA0207802158
B1115364624790N00806522EA0207902159
B1115374624785N00806519EA0207902159
B1115384624779N00806519EA0208002161
B1115394624775N00806519EA0208402164
B1115404624771N00806519EA0208602167
B1115414624768N00806519EA0208802168
B1115424624766N00806520EA0208802169
B1115434624764N00806524EA0208802169
B1115444624762N00806531EA0208802168
B1115454624764N00806539EA0208902170
B1115464624768N00806545EA0209002171
B1115474624773N00806547EA0209202172
B1115484624779N00806547EA0209402174
B1115494624784N00806545EA0209602176
B1115504624789N00806540EA0209702178
B1115514624793N00806534EA0209802179
B1115524624795N00806526EA0209902180
B1115534624795N00806517EA0210102182
B1115544624794N00806511EA0210302183
B1115554624792N00806506EA0210402185
B1115564624789N00806502EA0210602186
B1115574624785N00806500EA0210602186
B1115584624781N00806498EA0210602187
B1115594624776N00806499EA0210702187
B1116004624773N00806503EA0210702187
B1116014624771N00806508EA0210502186
B1116024624771N00806514EA0210502186
B1116034624771N00806521EA0210702187
B1116044624774N00806528EA0210902189
B1116054624776N00806534EA0211102192
B1116064624780N00806538EA0211402194
B1116074624784N00806541EA0211502196
B1116084624789N00806544EA0211802198
B1116094624793N00806546EA0212002200
B1116104624798N00806544EA0212102201
B1116114624803N00806540EA0212002200
B1116124624806N00806532EA0211802199
B1116134624806N00806523EA0211802199
B1116144624806N00806514EA0211902200
B1116154624803N00806507EA0212102202
B1116164624800N00806503EA0212402205
B1116174624797N00806502EA0212602206
B1116184624795N00806500EA0212702208
B1116194624791N00806498EA0212802208
B1116204624787N00806497EA0212802209
B1116214624782N00806499EA0212902210
B1116224624779N00806502EA0213102212
B1116234624776N00806507EA0213102212
B1116244624772N00806512EA0213302213
B1116254624771N00806517EA0213502215
B1116264624770N00806523EA0213602217
B1116274624771N00806529EA0213602217
B1116284624774N00806534EA0213502216
B1116294624779N00806538EA0213402215
B1116304624786N00806539EA0213502216
B1116314624792N00806536EA0213702218
B1116324624796N00806529EA0213902220
B1116334624799N00806521EA0214002221
B1116344624799N00806512EA0214202223
B1116354624797N00806504EA0214302223
B1116364624793N00806498EA0214402225
B1116374624788N00806496EA0214602227
B1116384624783N00806498EA0214702228
B1116394624779N00806503EA0214902230
B1116404624777N00806509EA0215002231
B1116414624777N00806515EA0215202233
B1116424624778N00806520EA0215302234
B1116434624780N00806525EA0215202233
B1116444624783N00806531EA0215202233
B1116454624787N00806536EA0215302234
B1116464624793N00806538EA0215302234
B1116474624799N00806536EA0215402235
B1116484624804N00806532EA0215602237
B1116494624808N00806524EA0215902240
B1116504624809N00806516EA0216002241
B1116514624809N00806508EA0216102242
B1116524624806N00806501EA0216202243
B1116534624800N00806498EA0216402245
B1116544624795N00806498EA0216602247
B1116554624790N00806503EA0216702248
B1116564624788N00806509EA0216902251
B1116574624788N00806516EA0217102252
B1116584624789N00806522EA0217102252
B1116594624792N00806528EA0217002252
B1117004624797N00806531EA0217102252
B1117014624803N00806532EA0217102253
B1117024624810N00806530EA0217202254
B1117034624815N00806525EA0217402256
B1117044624819N00806517EA0217702258
B1117054624821N00806508EA0217902260
B1117064624821N00806500EA0218002262
B1117074624817N00806493EA0218202264
B1117084624813N00806489EA0218402265
B1117094624808N00806487EA0218502267
B1117104624803N00806488EA0218802269
B1117114624799N00806492EA0219002271
B1117124624796N00806498EA0219102273
B1117134624795N00806505EA0219202274
B1117144624796N00806512EA0219302274
B1117154624799N00806518EA0219202274
B1117164624802N00806522EA0219202274
B1117174624806N00806526EA0219302275
B1117184624812N00806528EA0219402276
B1117194624818N00806527EA0219502276
B1117204624823N00806523EA0219602278
B1117214624828N00806517EA0219702279
B1117224624832N00806509EA0219902281
B1117234624834N00806502EA0220002282
B1117244624835N00806492EA0220102283
B1117254624835N00806485EA0220202284
B1117264624833N00806477EA0220402286
B1117274624831N00806470EA0220502287
B1117284624828N00806466EA0220602288
B1117294624824N00806462EA0220702289
B1117304624819N00806461EA0220702289
B1117314624814N00806461EA0220802290
B1117324624809N00806464EA0221002292
B1117334624807N00806470EA0221202294
B1117344624806N00806477EA0221102293
B1117354624809N00806484EA0221102293
B1117364624813N00806489EA0221202294
B1117374624819N00806491EA0221302295
B1117384624825N00806489EA0221302295
B1117394624831N00806482EA0221502297
B1117404624834N00806474EA0221602298
B1117414624834N00806466EA0221802300
B1117424624832N00806460EA0221902301
B1117434624828N00806456EA0222002302
B1117444624823N00806453EA0222002302
B1117454624818N00806452EA0222102303
B1117464624813N00806456EA0222202304
B1117474624810N00806462EA0222302305
B1117484624809N00806469EA0222402306
B1117494624809N00806476EA0222502307
B1117504624810N00806482EA0222602308
B1117514624814N00806488EA0222702309
B1117524624819N00806492EA0222802310
B1117534624826N00806491EA0222802311
B1117544624832N00806485EA0222902311
B1117554624836N00806477EA0223002312
B1117564624836N00806468EA0223102313
B1117574624834N00806461EA0223202314
B1117584624831N00806455EA0223202314
B1117594624827N00806451EA0223102314
B1118004624822N00806447EA0223302315
B1118014624817N00806446EA0223502318
B1118024624813N00806447EA0223602318
B1118034624809N00806450EA0223602319
B1118044624806N00806456EA0223602319
B1118054624806N00806463EA0223702319
B1118064624807N00806470EA0223902321
B1118074624811N00806476EA0224002323
B1118084624815N00806479EA0224202325
B1118094624820N00806479EA0224302326
B1118104624825N00806476EA0224302326
B1118114624830N00806472EA0224502327
B1118124624834N00806466EA0224602329
B1118134624836N00806458EA0224702330
B1118144624836N00806450EA0224602329
B1118154624833N00806443EA0224502328
B1118164624829N00806436EA0224502328
B1118174624824N00806432EA0224702330
B1118184624819N00806430EA0224902331
B1118194624815N00806432EA0224802331
B1118204624811N00806437EA0224802331
B1118214624809N00806443EA0224802331
B1118224624808N00806449EA0224802331
B1118234624808N00806456EA0225002332
B1118244624811N00806463EA0225102333
B1118254624814N00806468EA0225102334
B1118264624819N00806472EA0225202335
B1118274624822N00806474EA0225302336
B1118284624827N00806475EA0225402337
B1118294624832N00806475EA0225502337
B1118304624837N00806471EA0225402337
B1118314624841N00806464EA0225302336
B1118324624844N00806456EA0225402337
B1118334624845N00806447EA0225502338
B1118344624843N00806440EA0225602339
B1118354624838N00806435EA0225602339
B1118364624833N00806433EA0225602339
B1118374624827N00806435EA0225602339
B1118384624823N00806441EA0225602339
B1118394624821N00806447EA0225502338
B1118404624821N00806455EA0225602339
B1118414624822N00806462EA0225702340
B1118424624825N00806468EA0225802341
B1118434624828N00806472EA0225902342
B1118444624832N00806475EA0225902342
B1118454624836N00806477EA0225802341
B1118464624841N00806479EA0225802341
B1118474624847N00806478EA0225802342
B1118484624853N00806475EA0225802341
B1118494624858N00806470EA0225902342
B1118504624862N00806464EA0225902342
B1118514624864N00806456EA0225902342
B1118524624866N00806449EA0225902342
B1118534624866N00806443EA0225902343
B1118544624864N00806437EA0225802341
B1118554624861N00806432EA0225502339
B1118564624857N00806428EA0225402337
B1118574624852N00806427EA0225502338
B1118584624845N00806428EA0225402337
B1118594624840N00806432EA0225602339
B1119004624836N00806435EA0225902342
B1119014624833N00806437EA0226102345
B1119024624829N00806438EA0226202345
B1119034624825N00806439EA0226202345
B1119044624821N00806442EA0226102345
B1119054624817N00806445EA0226202345
B1119064624813N00806450EA0226202345
B1119074624811N00806456EA0226102344
B1119084624810N00806463EA0226002344
B1119094624811N00806470EA0226102344
B1119104624813N00806477EA0226202346
B1119114624817N00806482EA0226302347
B1119124624821N00806484EA0226302347
B1119134624826N00806483EA0226202345
B1119144624831N00806481EA0226002344
B1119154624836N00806476EA0226002343
B1119164624838N00806468EA0225902342
B1119174624839N00806460EA0225802341
B1119184624838N00806452EA0225702340
B1119194624835N00806444EA0225602340
B1119204624831N00806440EA0225602340
B1119214624826N00806438EA0225602339
B1119224624821N00806439EA0225502338
B1119234624815N00806441EA0225502338
B1119244624811N00806445EA0225502338
B1119254624808N00806450EA0225502338
B1119264624805N00806454EA0225502338
B1119274624803N00806460EA0225402337
B1119284624802N00806467EA0225402337
B1119294624800N00806474EA0225502338
B1119304624800N00806481EA0225602339
B1119314624800N00806486EA0225702340
B1119324624800N00806491EA0225802341
B1119334624800N00806496EA0225702340
B1119344624802N00806502EA0225502338
B1119354624804N00806508EA0225302336
B1119364624808N00806514EA0225102334
B1119374624813N00806519EA0224902332
B1119384624818N00806524EA0224802332
B1119394624822N00806528EA0224802332
B1119404624827N00806532EA0224802331
B1119414624831N00806536EA0224702330
B1119424624836N00806539EA0224602329
B1119434624841N00806542EA0224502328
B1119444624846N00806545EA0224402327
B1119454624851N00806548EA0224302326
B1119464624855N00806551EA0224202325
B1119474624860N00806555EA0224102324
B1119484624865N00806559EA0223902322
B1119494624870N00806562EA0223802321
B1119504624875N00806566EA0223702320
B1119514624879N00806570EA0223602319
B1119524624884N00806574EA0223502318
B1119534624888N00806578EA0223402317
B1119544624893N00806582EA0223202315
B1119554624897N00806587EA0223102314
B1119564624902N00806591EA0223002313
B1119574624906N00806595EA0222902312
B1119584624912N00806599EA0222802311
B1119594624917N00806602EA0222702310
B1120004624922N00806604EA0222502308
B1120014624928N00806607EA0222402307
B1120024624934N00806610EA0222302306
B1120034624939N00806613EA0222202306
B1120044624944N00806615EA0222202305
B1120054624950N00806617EA0222002303
B1120064624955N00806619EA0221902302
B1120074624960N00806622EA0221802301
B1120084624966N00806625EA0221602299
B1120094624971N00806627EA0221502298
B1120104624977N00806630EA0221302296
B1120114624982N00806632EA0221202295
B1120124624988N00806634EA0221002293
B1120134624993N00806637EA0220902291
B1120144624999N00806641EA0220702290
B1120154625004N00806644EA0220602289
B1120164625009N00806646EA0220402287
B1120174625015N00806649EA0220202285
B1120184625021N00806652EA0220002283
B1120194625027N00806655EA0219902282
B1120204625033N00806658EA0219802281
B1120214625038N00806661EA0219702280
B1120224625044N00806664EA0219602278
B1120234625049N00806668EA0219502277
B1120244625055N00806671EA0219302276
B1120254625060N00806674EA0219202274
B1120264625066N00806677EA0219202274
B1120274625071N00806680EA0219102274
B1120284625076N00806684EA0219002273
B1120294625081N00806687EA0218902271
B1120304625086N00806690EA0218702269
B1120314625091N00806693EA0218502267
B1120324625096N00806697EA0218302266
B1120334625102N00806701EA0218302265
B1120344625107N00806705EA0218202265
B1120354625112N00806709EA0218202264
B1120364625117N00806712EA0218102263
B1120374625122N00806716EA0217902261
B1120384625127N00806720EA0217802260
B1120394625133N00806724EA0217702259
B1120404625138N00806728EA0217702259
B1120414625143N00806732EA0217602258
B1120424625148N00806735EA0217502257
B1120434625153N00806739EA0217302255
B1120444625157N00806743EA0217202253
B1120454625162N00806747EA0217002252
B1120464625167N00806751EA0216902251
B1120474625173N00806755EA0216802249
B1120484625178N00806759EA0216702249
B1120494625182N00806763EA0216702249
B1120504625187N00806768EA0216702249
B1120514625191N00806771EA0216602248
B1120524625195N00806775EA0216402246
B1120534625200N00806779EA0216202244
B1120544625206N00806784EA0216102243
B1120554625211N00806788EA0216002242
B1120564625217N00806792EA0216002242
B1120574625222N00806796EA0216002242
B1120584625225N00806800EA0216002241
B1120594625229N00806804EA0215802240
B1121004625234N00806807EA0215602238
B1121014625239N00806811EA0215402236
B1121024625245N00806816EA0215402235
B1121034625250N00806821EA0215502236
B1121044625254N00806825EA0215502237
B1121054625258N00806828EA0215402236
B1121064625263N00806832EA0215302234
B1121074625267N00806836EA0215102232
B1121084625273N00806841EA0215002231
B1121094625278N00806846EA0215002231
B1121104625283N00806851EA0215002232
B1121114625288N00806854EA0215002232
B1121124625292N00806858EA0214902230
B1121134625296N00806862EA0214602227
B1121144625301N00806866EA0214402225
B1121154625306N00806871EA0214302225
B1121164625311N00806876EA0214402225
B1121174625315N00806879EA0214402225
B1121184625320N00806883EA0214302224
B1121194625323N00806886EA0214202223
B1121204625327N00806890EA0214002221
B1121214625332N00806895EA0213802219
B1121224625337N00806899EA0213702218
B1121234625342N00806903EA0213602217
B1121244625346N00806907EA0213502216
B1121254625351N00806910EA0213302214
B1121264625355N00806914EA0213202213
B1121274625360N00806917EA0213002211
B1121284625365N00806920EA0212802209
B1121294625370N00806924EA0212702208
B1121304625375N00806927EA0212502206
B1121314625379N00806931EA0212402205
B1121324625382N00806934EA0212302204
B1121334625387N00806937EA0212002201
B1121344625391N00806941EA0211802198
B1121354625395N00806945EA0211502196
B1121364625399N00806950EA0211202192
B1121374625404N00806955EA0210902190
B1121384625408N00806959EA0210702188
B1121394625414N00806964EA0210702187
B1121404625419N00806967EA0210702188
B1121414625423N00806969EA0210902189
B1121424625427N00806971EA0210902189
B1121434625430N00806973EA0210802188
B1121444625434N00806977EA0210702187
B1121454625437N00806981EA0210602187
B1121464625442N00806986EA0210602187
B1121474625448N00806989EA0210702187
B1121484625453N00806991EA0210802188
B1121494625457N00806993EA0210802189
B1121504625462N00806995EA0210802189
B1121514625467N00806997EA0210802188
B1121524625471N00807000EA0210802188
B1121534625475N00807004EA0210702188
B1121544625479N00807008EA0210602186
B1121554625483N00807012EA0210402184
B1121564625486N00807016EA0210102182
B1121574625490N00807021EA0209902179
B1121584625494N00807026EA0209602176
B1121594625497N00807032EA0209402174
B1122004625498N00807040EA0209102171
B1122014625498N00807048EA0209002170
B1122024625495N00807055EA0208902169
B1122034625491N00807059EA0208802168
B1122044625487N00807062EA0208602166
B1122054625483N00807066EA0208502165
B1122064625479N00807069EA0208302163
B1122074625474N00807072EA0208102161
B1122084625469N00807073EA0207902159
B1122094625464N00807071EA0207702157
B1122104625460N00807069EA0207402154
B1122114625456N00807065EA0207202151
B1122124625453N00807059EA0206902149
B1122134625450N00807054EA0206702146
B1122144625447N00807048EA0206402144
B1122154625445N00807041EA0206302143
B1122164625443N00807034EA0206202142
B1122174625443N00807026EA0206102141
B1122184625444N00807019EA0206002140
B1122194625448N00807013EA0205902139
B1122204625453N00807011EA0205702136
B1122214625459N00807012EA0205402134
B1122224625464N00807016EA0205302132
B1122234625468N00807021EA0205302133
B1122244625472N00807027EA0205502134
B1122254625474N00807032EA0205702137
B1122264625476N00807037EA0205902138
B1122274625478N00807041EA0205902138
B1122284625480N00807045EA0205702136
B1122294625483N00807049EA0205502134
B1122304625487N00807056EA0205202132
B1122314625489N00807064EA0205102131
B1122324625491N00807073EA0205102130
B1122334625491N00807081EA0205002130
B1122344625490N00807087EA0205202131
B1122354625490N00807093EA0205202131
B1122364625491N00807099EA0205202131
B1122374625491N00807106EA0205102130
B1122384625490N00807113EA0205102130
B1122394625489N00807119EA0205202131
B1122404625486N00807126EA0205302132
B1122414625484N00807132EA0205502134
B1122424625482N00807138EA0205802137
B1122434625480N00807142EA0206002139
B1122444625477N00807145EA0206102140
B1122454625473N00807146EA0206102140
B1122464625468N00807144EA0206002139
B1122474625466N00807141EA0206002139
B1122484625463N00807135EA0205902138
B1122494625462N00807128EA0205802137
B1122504625462N00807120EA0205802136
B1122514625464N00807113EA0205702136
B1122524625468N00807107EA0205602135
B1122534625473N00807102EA0205402133
B1122544625478N00807100EA0205402133
B1122554625483N00807099EA0205302132
B1122564625488N00807102EA0205302131
B1122574625492N00807108EA0205202131
B1122584625496N00807115EA0205302132
B1122594625498N00807122EA0205502134
B1123004625499N00807129EA0205702135
B1123014625500N00807135EA0205902137
B1123024625501N00807140EA0206002139
B1123034625501N00807145EA0206102140
B1123044625500N00807150EA0206202140
B1123054625498N00807154EA0206102140
B1123064625495N00807159EA0206102140
B1123074625492N00807164EA0206202140
B1123084625489N00807166EA0206302141
B1123094625485N00807166EA0206302142
B1123104625481N00807163EA0206302141
B1123114625479N00807158EA0206302141
B1123124625477N00807152EA0206302142
B1123134625477N00807145EA0206302141
B1123144625480N00807139EA0206302142
B1123154625484N00807133EA0206402142
B1123164625490N00807131EA0206502143
B1123174625495N00807132EA0206602144
B1123184625501N00807136EA0206602144
B1123194625504N00807142EA0206602144
B1123204625507N00807148EA0206602145
B1123214625508N00807155EA0206702145
B1123224625507N00807162EA0206702145
B1123234625505N00807167EA0206702145
B1123244625502N00807172EA0206702145
B1123254625498N00807175EA0206602144
B1123264625494N00807176EA0206502143
B1123274625489N00807174EA0206502143
B1123284625485N00807172EA0206702145
B1123294625482N00807168EA0206802146
B1123304625480N00807164EA0206902146
B1123314625478N00807159EA0206702145
B1123324625477N00807153EA0206502143
B1123334625477N00807146EA0206502143
B1123344625477N00807138EA0206502142
B1123354625480N00807130EA0206502143
B1123364625485N00807125EA0206602143
B1123374625491N00807123EA0206702144
B1123384625496N00807124EA0206702145
B1123394625500N00807128EA0206802145
B1123404625503N00807134EA0206902146
B1123414625504N00807141EA0206902147
B1123424625502N00807147EA0206902147
B1123434625500N00807152EA0206802146
B1123444625496N00807156EA0206802146
B1123454625492N00807158EA0206902146
B1123464625488N00807157EA0206802146
B1123474625485N00807153EA0206702144
B1123484625482N00807149EA0206602143
B1123494625480N00807142EA0206602143
B1123504625479N00807135EA0206602144
B1123514625480N00807128EA0206702144
B1123524625483N00807122EA0206702145
B1123534625488N00807117EA0206602144
B1123544625493N00807115EA0206602144
B1123554625499N00807115EA0206702144
B1123564625504N00807119EA0206802145
B1123574625507N00807124EA0206802146
B1123584625509N00807130EA0206902146
B1123594625508N00807136EA0206802146
B1124004625507N00807141EA0206702145
B1124014625504N00807145EA0206602144
B1124024625500N00807148EA0206502142
B1124034625495N00807149EA0206402141
B1124044625491N00807148EA0206402141
B1124054625487N00807147EA0206302141
B1124064625482N00807143EA0206402141
B1124074625478N00807138EA0206402141
B1124084625475N00807133EA0206502143
B1124094625472N00807129EA0206702144
B1124104625471N00807124EA0206702144
B1124114625471N00807119EA0206602143
B1124124625471N00807112EA0206502142
B1124134625472N00807105EA0206402141
B1124144625475N00807098EA0206302140
B1124154625480N00807093EA0206102139
B1124164625486N00807090EA0206202139
B1124174625491N00807088EA0206302140
B1124184625496N00807091EA0206302140
B1124194625499N00807096EA0206302140
B1124204625500N00807104EA0206202139
B1124214625499N00807111EA0206202140
B1124224625498N00807118EA0206502142
B1124234625497N00807123EA0206602143
B1124244625495N00807128EA0206702144
B1124254625493N00807133EA0206702144
B1124264625491N00807138EA0206702144
B1124274625489N00807143EA0206602143
B1124284625487N00807149EA0206502142
B1124294625484N00807154EA0206502142
B1124304625480N00807158EA0206502142
B1124314625477N00807160EA0206502142
B1124324625473N00807161EA0206402141
B1124334625469N00807159EA0206302140
B1124344625465N00807156EA0206202139
B1124354625461N00807150EA0206102138
B1124364625459N00807143EA0206202139
B1124374625458N00807135EA0206302140
B1124384625459N00807128EA0206202139
B1124394625461N00807122EA0206102138
B1124404625463N00807117EA0206002137
B1124414625467N00807112EA0205902136
B1124424625470N00807109EA0205902136
B1124434625475N00807107EA0205802135
B1124444625481N00807108EA0205702134
B1124454625485N00807113EA0205502132
B1124464625488N00807120EA0205402131
B1124474625490N00807127EA0205302130
B1124484625490N00807135EA0205302130
B1124494625489N00807141EA0205402131
B1124504625489N00807146EA0205402131
B1124514625487N00807151EA0205302130
B1124524625485N00807155EA0205202129
B1124534625482N00807159EA0205002127
B1124544625478N00807163EA0204902126
B1124554625474N00807167EA0204802125
B1124564625469N00807169EA0204802125
B1124574625465N00807172EA0204802125
B1124584625461N00807174EA0204702124
B1124594625456N00807176EA0204702124
B1125004625451N00807177EA0204602123
B1125014625447N00807179EA0204602123
B1125024625443N00807181EA0204602123
B1125034625439N00807184EA0204602122
B1125044625436N00807189EA0204502122
B1125054625432N00807193EA0204502122
B1125064625429N00807198EA0204602123
B1125074625425N00807202EA0204702124
B1125084625421N00807206EA0204802125
B1125094625418N00807210EA0204802125
B1125104625414N00807214EA0204802124
B1125114625411N00807218EA0204702124
B1125124625406N00807221EA0204702124
B1125134625402N00807223EA0204802124
B1125144625398N00807222EA0204602123
B1125154625394N00807217EA0204502122
B1125164625390N00807211EA0204502122
B1125174625388N00807204EA0204502122
B1125184625389N00807197EA0204402121
B1125194625391N00807191EA0204202118
B1125204625395N00807185EA0204002117
B1125214625401N00807182EA0204002117
B1125224625407N00807181EA0204102117
B1125234625412N00807183EA0204102117
B1125244625416N00807187EA0204102118
B1125254625418N00807193EA0204202118
B1125264625420N00807199EA0204202118
B1125274625421N00807205EA0204202119
B1125284625422N00807213EA0204402120
B1125294625422N00807218EA0204502121
B1125304625421N00807224EA0204502122
B1125314625420N00807230EA0204602123
B1125324625417N00807235EA0204702124
B1125334625414N00807239EA0204602123
B1125344625410N00807241EA0204402121
B1125354625405N00807239EA0204202119
B1125364625400N00807234EA0204002117
B1125374625397N00807228EA0203902116
B1125384625395N00807221EA0203902116
B1125394625394N00807214EA0204002116
B1125404625395N00807207EA0203902116
B1125414625398N00807201EA0203802114
B1125424625401N00807195EA0203802114
B1125434625406N00807192EA0203702113
B1125444625412N00807192EA0203602113
B1125454625417N00807195EA0203602113
B1125464625422N00807201EA0203602113
B1125474625425N00807207EA0203702114
B1125484625428N00807214EA0203802115
B1125494625431N00807220EA0203802115
B1125504625434N00807227EA0203902116
B1125514625437N00807234EA0204002117
B1125524625440N00807241EA0204202118
B1125534625441N00807248EA0204302120
B1125544625441N00807254EA0204402121
B1125554625440N00807260EA0204402121
B1125564625437N00807265EA0204302120
B1125574625434N00807268EA0204202118
B1125584625429N00807269EA0204102118
B1125594625425N00807267EA0204102118
B1126004625421N00807262EA0204102118
B1126014625419N00807256EA0204102118
B1126024625418N00807250EA0204102118
B1126034625418N00807243EA0204202118
B1126044625421N00807236EA0204202119
B1126054625425N00807230EA0204202119
B1126064625430N00807228EA0204202118
B1126074625436N00807229EA0204202118
B1126084625442N00807232EA0204202118
B1126094625447N00807237EA0204302119
B1126104625451N00807244EA0204302120
B1126114625453N00807251EA0204502121
B1126124625454N00807258EA0204502122
B1126134625453N00807265EA0204502122
B1126144625451N00807271EA0204402121
B1126154625448N00807275EA0204202119
B1126164625443N00807277EA0204102117
B1126174625438N00807278EA0204002117
B1126184625434N00807275EA0204102117
B1126194625430N00807270EA0204202119
B1126204625429N00807264EA0204402121
B1126214625430N00807257EA0204502122
B1126224625432N00807252EA0204602122
B1126234625437N00807247EA0204602123
B1126244625444N00807245EA0204702124
B1126254625450N00807246EA0204802124
B1126264625456N00807251EA0204702123
B1126274625460N00807258EA0204602123
B1126284625462N00807267EA0204602122
B1126294625462N00807275EA0204602123
B1126304625460N00807282EA0204502122
B1126314625457N00807287EA0204402121
B1126324625453N00807290EA0204202119
B1126334625449N00807292EA0204102118
B1126344625445N00807293EA0204102117
B1126354625440N00807292EA0204102117
B1126364625437N00807288EA0204002116
B1126374625434N00807283EA0203902116
B1126384625434N00807276EA0203802114
B1126394625435N00807268EA0203702113
B1126404625437N00807261EA0203702113
B1126414625440N00807254EA0203702113
B1126424625445N00807248EA0203702113
B1126434625449N00807244EA0203702113
B1126444625456N00807241EA0203802114
B1126454625462N00807240EA0203902115
B1126464625468N00807240EA0204002116
B1126474625474N00807241EA0204102118
B1126484625479N00807243EA0204302119
B1126494625483N00807246EA0204302120
B1126504625486N00807252EA0204302119
B1126514625488N00807259EA0204102118
B1126524625489N00807267EA0204002116
B1126534625488N00807274EA0203902115
B1126544625485N00807280EA0203702114
B1126554625481N00807284EA0203602113
B1126564625477N00807286EA0203602112
B1126574625472N00807286EA0203602112
B1126584625468N00807284EA0203602112
B1126594625465N00807281EA0203702113
B1127004625463N00807277EA0203702113
B1127014625461N00807273EA0203602113
B1127024625459N00807267EA0203502112
B1127034625458N00807261EA0203402110
B1127044625458N00807253EA0203302109
B1127054625459N00807245EA0203302110
B1127064625460N00807237EA0203402111
B1127074625462N00807230EA0203502112
B1127084625464N00807224EA0203602112
B1127094625468N00807219EA0203602112
B1127104625473N00807214EA0203502112
B1127114625479N00807211EA0203502111
B1127124625486N00807210EA0203502112
B1127134625492N00807212EA0203502112
B1127144625497N00807219EA0203502111
B1127154625499N00807227EA0203402110
B1127164625500N00807235EA0203502111
B1127174625498N00807241EA0203402111
B1127184625495N00807246EA0203402110
B1127194625491N00807248EA0203302109
B1127204625486N00807248EA0203202109
B1127214625482N00807246EA0203202108
B1127224625478N00807241EA0203102108
B1127234625476N00807235EA0203102107
B1127244625475N00807227EA0203102107
B1127254625475N00807219EA0203102107
B1127264625477N00807212EA0203102107
B1127274625480N00807205EA0203102108
B1127284625484N00807199EA0203202108
B1127294625488N00807194EA0203202108
B1127304625493N00807190EA0203302109
B1127314625499N00807188EA0203302109
B1127324625505N00807189EA0203202108
B1127334625510N00807193EA0203102107
B1127344625514N00807199EA0203002106
B1127354625517N00807205EA0203002106
B1127364625517N00807212EA0202902105
B1127374625517N00807218EA0202702103
B1127384625514N00807224EA0202602102
B1127394625510N00807228EA0202502101
B1127404625505N00807230EA0202502101
B1127414625501N00807233EA0202502101
B1127424625497N00807236EA0202502101
B1127434625494N00807239EA0202402100
B1127444625490N00807242EA0202302099
B1127454625486N00807246EA0202202098
B1127464625482N00807250EA0202202098
B1127474625477N00807254EA0202202098
B1127484625473N00807257EA0202302099
B1127494625470N00807260EA0202402100
B1127504625466N00807263EA0202502101
B1127514625463N00807267EA0202502101
B1127524625459N00807270EA0202602102
B1127534625455N00807274EA0202602102
B1127544625452N00807278EA0202602102
B1127554625448N00807282EA0202602102
B1127564625445N00807284EA0202702103
B1127574625440N00807286EA0202802104
B1127584625436N00807287EA0202902105
B1127594625432N00807287EA0203002106
B1128004625428N00807286EA0203102107
B1128014625424N00807284EA0203202108
B1128024625422N00807281EA0203202108
B1128034625419N00807276EA0203102107
B1128044625419N00807270EA0203002106
B1128054625419N00807262EA0203002106
B1128064625421N00807255EA0202902105
B1128074625425N00807249EA0202802104
B1128084625431N00807245EA0202802104
B1128094625438N00807246EA0202702103
B1128104625443N00807249EA0202702103
B1128114625447N00807255EA0202802104
B1128124625450N00807263EA0202802104
B1128134625451N00807270EA0203002106
B1128144625451N00807277EA0203102107
B1128154625451N00807284EA0203102107
B1128164625451N00807290EA0203202109
B1128174625449N00807295EA0203302109
B1128184625447N00807300EA0203202108
B1128194625444N00807303EA0203002106
B1128204625440N00807304EA0202902105
B1128214625435N00807304EA0202702103
B1128224625431N00807302EA0202602102
B1128234625427N00807298EA0202602102
B1128244625424N00807293EA0202602102
B1128254625422N00807287EA0202602102
B1128264625420N00807281EA0202602102
B1128274625420N00807275EA0202602103
B1128284625421N00807268EA0202702103
B1128294625424N00807262EA0202702103
B1128304625428N00807257EA0202802104
B1128314625433N00807253EA0203002106
B1128324625438N00807251EA0203002107
B1128334625443N00807252EA0203002106
B1128344625448N00807253EA0203002106
B1128354625454N00807256EA0203002106
B1128364625460N00807260EA0203202108
B1128374625464N00807266EA0203202109
B1128384625465N00807273EA0203202108
B1128394625464N00807280EA0203002106
B1128404625461N00807286EA0203002106
B1128414625457N00807289EA0202802105
B1128424625453N00807289EA0202802104
B1128434625449N00807288EA0202702103
B1128444625445N00807286EA0202602102
B1128454625441N00807282EA0202602102
B1128464625437N00807278EA0202402101
B1128474625434N00807272EA0202402100
B1128484625432N00807265EA0202502101
B1128494625431N00807258EA0202702103
B1128504625431N00807250EA0202802105
B1128514625432N00807243EA0203002107
B1128524625435N00807238EA0203002106
B1128534625439N00807234EA0202902105
B1128544625445N00807232EA0202702103
B1128554625451N00807232EA0202602102
B1128564625457N00807236EA0202602102
B1128574625462N00807242EA0202702103
B1128584625464N00807249EA0202702103
B1128594625464N00807255EA0202702103
B1129004625463N00807260EA0202702103
B1129014625460N00807264EA0202702103
B1129024625456N00807265EA0202502101
B1129034625452N00807266EA0202402101
B1129044625447N00807265EA0202502101
B1129054625443N00807263EA0202502101
B1129064625440N00807259EA0202602103
B1129074625437N00807254EA0202702104
B1129084625434N00807250EA0202902105
B1129094625432N00807245EA0203002107
B1129104625430N00807239EA0203102108
B1129114625431N00807233EA0203102107
B1129124625433N00807226EA0202902106
B1129134625436N00807220EA0202802105
B1129144625441N00807215EA0202702103
B1129154625447N00807214EA0202602102
B1129164625453N00807216EA0202502101
B1129174625459N00807220EA0202502101
B1129184625462N00807227EA0202502101
B1129194625464N00807234EA0202502101
B1129204625464N00807242EA0202502101
B1129214625464N00807249EA0202502101
B1129224625462N00807255EA0202502101
B1129234625458N00807258EA0202302100
B1129244625453N00807260EA0202302099
B1129254625448N00807260EA0202302099
B1129264625444N00807258EA0202302100
B1129274625439N00807256EA0202402100
B1129284625435N00807253EA0202602102
B1129294625430N00807250EA0202702104
B1129304625426N00807247EA0202802105
B1129314625422N00807244EA0202902105
B1129324625418N00807240EA0203002106
B1129334625414N00807236EA0203102107
B1129344625413N00807230EA0203002107
B1129354625412N00807224EA0202902106
B1129364625414N00807217EA0202902105
B1129374625416N00807211EA0202902105
B1129384625420N00807206EA0202902105
B1129394625424N00807202EA0202802104
B1129404625430N00807199EA0202802104
B1129414625435N00807199EA0202702104
B1129424625441N00807202EA0202602102
B1129434625445N00807208EA0202402100
B1129444625448N00807217EA0202302099
B1129454625447N00807225EA0202302099
B1129464625445N00807232EA0202302099
B1129474625441N00807237EA0202302100
B1129484625437N00807242EA0202502101
B1129494625434N00807247EA0202702103
B1129504625431N00807250EA0202902105
B1129514625428N00807253EA0202902106
B1129524625424N00807254EA0203002106
B1129534625420N00807255EA0203002106
B1129544625416N00807256EA0203002107
B1129554625412N00807255EA0203102107
B1129564625408N00807253EA0203102107
B1129574625404N00807248EA0203102107
B1129584625402N00807242EA0203002107
B1129594625400N00807236EA0203002106
B1130004625399N00807230EA0203002106
B1130014625399N00807224EA0202802105
B1130024625402N00807218EA0202602102
B1130034625405N00807212EA0202302099
B1130044625410N00807208EA0202002096
B1130054625416N00807207EA0201802094
B1130064625421N00807209EA0201602092
B1130074625425N00807215EA0201402090
B1130084625427N00807224EA0201402090
B1130094625427N00807233EA0201502091
B1130104625426N00807243EA0201802094
B1130114625426N00807249EA0202002096
B1130124625426N00807255EA0202302099
B1130134625426N00807260EA0202402100
B1130144625426N00807265EA0202402100
B1130154625425N00807271EA0202302099
B1130164625422N00807276EA0202102097
B1130174625418N00807280EA0202002096
B1130184625414N00807282EA0201902095
B1130194625409N00807281EA0201902095
B1130204625406N00807278EA0201802094
B1130214625403N00807274EA0201802094
B1130224625402N00807267EA0201702093
B1130234625403N00807260EA0201702093
B1130244625405N00807253EA0201602092
B1130254625410N00807248EA0201702093
B1130264625415N00807244EA0201702093
B1130274625421N00807243EA0201802093
B1130284625427N00807245EA0201802094
B1130294625432N00807250EA0201902095
B1130304625435N00807257EA0202002096
B1130314625437N00807264EA0202102097
B1130324625436N00807270EA0202002096
B1130334625433N00807275EA0201802094
B1130344625429N00807279EA0201702092
B1130354625424N00807280EA0201602091
B1130364625419N00807278EA0201502090
B1130374625415N00807274EA0201502090
B1130384625412N00807268EA0201402090
B1130394625411N00807261EA0201402090
B1130404625411N00807253EA0201502091
B1130414625413N00807246EA0201602092
B1130424625417N00807240EA0201702092
B1130434625421N00807235EA0201802093
B1130444625426N00807231EA0201902095
B1130454625431N00807228EA0202002096
B1130464625436N00807228EA0202002096
B1130474625441N00807230EA0201902095
B1130484625446N00807234EA0201802094
B1130494625450N00807241EA0201702093
B1130504625451N00807248EA0201802094
B1130514625451N00807255EA0201802094
B1130524625448N00807261EA0201702093
B1130534625445N00807265EA0201602092
B1130544625440N00807267EA0201502091
B1130554625435N00807267EA0201402090
B1130564625430N00807266EA0201302089
B1130574625425N00807263EA0201402090
B1130584625421N00807258EA0201402090
B1130594625418N00807253EA0201402090
B1131004625416N00807247EA0201402090
B1131014625414N00807239EA0201402090
B1131024625414N00807231EA0201502090
B1131034625414N00807223EA0201602092
B1131044625416N00807215EA0201802093
B1131054625418N00807208EA0201902095
B1131064625421N00807203EA0202102097
B1131074625424N00807198EA0202202097
B1131084625429N00807194EA0202102097
B1131094625434N00807193EA0202002096
B1131104625439N00807194EA0202002096
B1131114625445N00807197EA0202102097
B1131124625448N00807203EA0202202098
B1131134625450N00807209EA0202202098
B1131144625449N00807215EA0202102097
B1131154625446N00807221EA0202002096
B1131164625442N00807225EA0201902094
B1131174625437N00807227EA0201802094
B1131184625431N00807225EA0201902094
B1131194625426N00807221EA0202002096
B1131204625423N00807216EA0202102097
B1131214625421N00807209EA0202202098
B1131224625420N00807202EA0202302098
B1131234625419N00807195EA0202302099
B1131244625420N00807187EA0202402100
B1131254625422N00807180EA0202402099
B1131264625425N00807174EA0202302099
B1131274625430N00807170EA0202202098
B1131284625435N00807169EA0202202098
B1131294625441N00807172EA0202202097
B1131304625445N00807177EA0202102097
B1131314625448N00807185EA0202102097
B1131324625448N00807192EA0202202098
B1131334625447N00807199EA0202302099
B1131344625444N00807203EA0202402100
B1131354625440N00807204EA0202502101
B1131364625436N00807204EA0202502101
B1131374625431N00807202EA0202502101
B1131384625427N00807198EA0202602101
B1131394625423N00807192EA0202702103
B1131404625421N00807184EA0202702102
B1131414625420N00807176EA0202702102
B1131424625422N00807168EA0202602101
B1131434625425N00807162EA0202402100
B1131444625430N00807157EA0202202098
B1131454625436N00807155EA0202102096
B1131464625442N00807157EA0201902095
B1131474625447N00807162EA0201902095
B1131484625451N00807168EA0202002096
B1131494625453N00807173EA0202202098
B1131504625455N00807178EA0202502100
B1131514625455N00807183EA0202602102
B1131524625455N00807189EA0202602102
B1131534625455N00807194EA0202702102
B1131544625454N00807200EA0202602102
B1131554625453N00807206EA0202602101
B1131564625450N00807210EA0202502101
B1131574625445N00807212EA0202402100
B1131584625441N00807212EA0202302099
B1131594625436N00807209EA0202302099
B1132004625432N00807203EA0202402099
B1132014625429N00807197EA0202502101
B1132024625428N00807189EA0202702103
B1132034625428N00807181EA0202902105
B1132044625430N00807174EA0203002105
B1132054625434N00807169EA0203002105
B1132064625439N00807167EA0203002105
B1132074625445N00807167EA0202902105
B1132084625450N00807170EA0202902105
B1132094625453N00807177EA0202902105
B1132104625454N00807185EA0202902105
B1132114625453N00807191EA0202902105
B1132124625450N00807196EA0203002106
B1132134625446N00807199EA0203102106
B1132144625442N00807199EA0203002105
B1132154625437N00807197EA0203002105
B1132164625432N00807193EA0203002106
B1132174625429N00807188EA0203202108
B1132184625427N00807182EA0203402110
B1132194625426N00807175EA0203602112
B1132204625428N00807168EA0203602112
B1132214625432N00807163EA0203602112
B1132224625437N00807160EA0203502111
B1132234625443N00807160EA0203402110
B1132244625449N00807163EA0203402110
B1132254625453N00807168EA0203502111
B1132264625455N00807175EA0203602112
B1132274625454N00807181EA0203602112
B1132284625451N00807186EA0203502111
B1132294625447N00807189EA0203502111
B1132304625443N00807190EA0203602112
B1132314625438N00807189EA0203702113
B1132324625434N00807184EA0203702113
B1132334625432N00807177EA0203702113
B1132344625432N00807169EA0203802114
B1132354625433N00807162EA0203902115
B1132364625437N00807156EA0203902115
B1132374625442N00807152EA0203902115
B1132384625448N00807151EA0203902114
B1132394625453N00807152EA0203902115
B1132404625458N00807155EA0204002116
B1132414625461N00807161EA0203902115
B1132424625462N00807167EA0203802114
B1132434625462N00807173EA0203702113
B1132444625461N00807180EA0203702112
B1132454625459N00807186EA0203702113
B1132464625456N00807190EA0203702112
B1132474625452N00807192EA0203502111
B1132484625447N00807193EA0203302109
B1132494625442N00807192EA0203302108
B1132504625437N00807190EA0203302108
B1132514625433N00807185EA0203302109
B1132524625430N00807180EA0203402109
B1132534625427N00807174EA0203402109
B1132544625425N00807167EA0203402110
B1132554625424N00807160EA0203502111
B1132564625424N00807153EA0203702112
B1132574625425N00807145EA0203802114
B1132584625428N00807138EA0203802114
B1132594625431N00807132EA0203902115
B1133004625435N00807127EA0204002116
B1133014625441N00807124EA0204102117
B1133024625447N00807125EA0204202117
B1133034625452N00807129EA0204102117
B1133044625455N00807136EA0204202118
B1133054625454N00807144EA0204202118
B1133064625451N00807149EA0204102117
B1133074625446N00807151EA0204102117
B1133084625441N00807149EA0204302118
B1133094625436N00807146EA0204502120
B1133104625433N00807140EA0204602122
B1133114625432N00807133EA0204802124
B1133124625432N00807125EA0204902124
B1133134625435N00807117EA0204902125
B1133144625439N00807111EA0205002125
B1133154625445N00807108EA0205002126
B1133164625450N00807108EA0205002126
B1133174625455N00807110EA0205002126
B1133184625460N00807115EA0205102126
B1133194625463N00807121EA0205202127
B1133204625464N00807127EA0205202128
B1133214625463N00807133EA0205102126
B1133224625459N00807137EA0205002126
B1133234625454N00807140EA0205002126
B1133244625449N00807139EA0205102126
B1133254625445N00807136EA0205102127
B1133264625441N00807131EA0205302128
B1133274625439N00807124EA0205402130
B1133284625438N00807116EA0205602131
B1133294625439N00807108EA0205702132
B1133304625443N00807102EA0205702133
B1133314625448N00807097EA0205702133
B1133324625455N00807097EA0205602132
B1133334625461N00807101EA0205602132
B1133344625465N00807107EA0205802133
B1133354625467N00807113EA0205802134
B1133364625466N00807120EA0205802134
B1133374625463N00807124EA0205702133
B1133384625459N00807127EA0205602132
B1133394625455N00807129EA0205702133
B1133404625450N00807128EA0205702133
B1133414625446N00807125EA0205702132
B1133424625442N00807119EA0205602132
B1133434625440N00807111EA0205602132
B1133444625439N00807102EA0205702133
B1133454625440N00807094EA0205802133
B1133464625443N00807087EA0205802134
B1133474625448N00807082EA0205902135
B1133484625454N00807080EA0205902135
B1133494625460N00807081EA0206102136
B1133504625464N00807085EA0206102137
B1133514625467N00807091EA0206202138
B1133524625467N00807098EA0206102137
B1133534625464N00807103EA0206102137
B1133544625461N00807107EA0206102137
B1133554625456N00807108EA0206202137
B1133564625451N00807106EA0206002136
B1133574625447N00807102EA0206002136
B1133584625443N00807096EA0206102137
B1133594625441N00807089EA0206202138
B1134004625440N00807080EA0206302139
B1134014625441N00807071EA0206302139
B1134024625445N00807064EA0206402139
B1134034625450N00807059EA0206402140
B1134044625456N00807058EA0206402140
B1134054625461N00807060EA0206502140
B1134064625465N00807064EA0206502141
B1134074625467N00807070EA0206602141
B1134084625466N00807076EA0206502141
B1134094625463N00807081EA0206402140
B1134104625458N00807084EA0206402140
B1134114625453N00807085EA0206402139
B1134124625448N00807083EA0206402140
B1134134625444N00807080EA0206402140
B1134144625440N00807075EA0206502141
B1134154625436N00807068EA0206602142
B1134164625435N00807059EA0206702142
B1134174625436N00807050EA0206602142
B1134184625441N00807043EA0206502141
B1134194625446N00807039EA0206502141
B1134204625452N00807038EA0206502141
B1134214625457N00807040EA0206502141
B1134224625462N00807044EA0206602141
B1134234625464N00807050EA0206702142
B1134244625465N00807057EA0206702143
B1134254625464N00807063EA0206802143
B1134264625461N00807067EA0206702143
B1134274625458N00807070EA0206602142
B1134284625453N00807072EA0206602141
B1134294625448N00807072EA0206602142
B1134304625443N00807069EA0206702142
B1134314625439N00807064EA0206602142
B1134324625436N00807057EA0206702143
B1134334625436N00807049EA0206802144
B1134344625437N00807042EA0206802144
B1134354625440N00807036EA0206802144
B1134364625445N00807032EA0206802143
B1134374625451N00807030EA0206602142
B1134384625456N00807031EA0206502140
B1134394625462N00807036EA0206402139
B1134404625466N00807043EA0206402140
B1134414625467N00807050EA0206402140
B1134424625466N00807057EA0206402140
B1134434625463N00807062EA0206402140
B1134444625460N00807065EA0206402140
B1134454625456N00807067EA0206402139
B1134464625451N00807068EA0206302139
B1134474625446N00807068EA0206202138
B1134484625442N00807066EA0206202137
B1134494625438N00807062EA0206002136
B1134504625435N00807055EA0205802133
B1134514625434N00807046EA0205702133
B1134524625435N00807037EA0205902134
B1134534625437N00807029EA0206002136
B1134544625441N00807023EA0206102137
B1134554625446N00807020EA0206202137
B1134564625451N00807019EA0206202138
B1134574625456N00807019EA0206202138
B1134584625461N00807021EA0206202137
B1134594625465N00807025EA0206202138
B1135004625469N00807029EA0206202137
B1135014625474N00807033EA0206202138
B1135024625478N00807036EA0206202138
B1135034625482N00807040EA0206102137
B1135044625485N00807045EA0206102137
B1135054625488N00807052EA0206102137
B1135064625488N00807059EA0206202138
B1135074625487N00807066EA0206302139
B1135084625484N00807071EA0206202138
B1135094625480N00807074EA0206202138
B1135104625475N00807075EA0206102137
B1135114625470N00807073EA0206002136
B1135124625465N00807069EA0205902135
B1135134625462N00807063EA0205802134
B1135144625461N00807054EA0205702132
B1135154625462N00807045EA0205502131
B1135164625465N00807037EA0205402130
B1135174625470N00807030EA0205502131
B1135184625473N00807023EA0205602132
B1135194625475N00807016EA0205502131
B1135204625476N00807008EA0205402130
B1135214625476N00807000EA0205302129
B1135224625475N00806991EA0205402130
B1135234625472N00806983EA0205402130
B1135244625468N00806978EA0205402130
B1135254625464N00806976EA0205302129
B1135264625459N00806975EA0205202128
B1135274625455N00806977EA0205302128
B1135284625451N00806981EA0205302129
B1135294625448N00806988EA0205302129
B1135304625448N00806994EA0205402130
B1135314625448N00807002EA0205402129
B1135324625449N00807006EA0205402130
B1135334625450N00807012EA0205402130
B1135344625451N00807017EA0205402130
B1135354625453N00807022EA0205302129
B1135364625456N00807027EA0205302128
B1135374625460N00807032EA0205102127
B1135384625463N00807038EA0205102126
B1135394625466N00807044EA0205002126
B1135404625468N00807050EA0205002126
B1135414625470N00807057EA0204802124
B1135424625471N00807063EA0204602122
B1135434625472N00807070EA0204402120
B1135444625471N00807077EA0204202118
B1135454625471N00807084EA0204002116
B1135464625471N00807091EA0203902115
B1135474625470N00807098EA0203802114
B1135484625470N00807105EA0203702113
B1135494625470N00807112EA0203502111
B1135504625470N00807119EA0203402109
B1135514625470N00807127EA0203302108
B1135524625470N00807135EA0203202108
B1135534625470N00807143EA0203302109
B1135544625470N00807150EA0203402110
B1135554625470N00807157EA0203502110
B1135564625471N00807164EA0203502110
B1135574625472N00807170EA0203502110
B1135584625472N00807177EA0203502110
B1135594625473N00807184EA0203502111
B1136004625474N00807191EA0203502111
B1136014625475N00807198EA0203602112
B1136024625477N00807205EA0203702112
B1136034625479N00807211EA0203702112
B1136044625481N00807217EA0203602111
B1136054625481N00807223EA0203402110
B1136064625481N00807230EA0203302108
B1136074625481N00807238EA0203102107
B1136084625481N00807245EA0202902105
B1136094625481N00807253EA0202702103
B1136104625482N00807262EA0202602101
B1136114625483N00807273EA0202402100
B1136124625483N00807279EA0202402099
B1136134625483N00807288EA0202302098
B1136144625483N00807296EA0202202097
B1136154625484N00807304EA0202102096
B1136164625485N00807312EA0201902095
B1136174625486N00807321EA0201802093
B1136184625486N00807330EA0201702093
B1136194625487N00807338EA0201702092
B1136204625487N00807345EA0201602092
B1136214625488N00807352EA0201502090
B1136224625489N00807360EA0201302088
B1136234625489N00807368EA0201102086
B1136244625489N00807377EA0200902084
B1136254625490N00807386EA0200802084
B1136264625491N00807395EA0201102086
B1136274625491N00807403EA0201402090
B1136284625492N00807409EA0201702092
B1136294625492N00807414EA0201802093
B1136304625492N00807418EA0201702092
B1136314625491N00807423EA0201502090
B1136324625489N00807429EA0201402089
B1136334625486N00807436EA0201302088
B1136344625481N00807440EA0201202087
B1136354625477N00807442EA0201002085
B1136364625471N00807439EA0200902084
B1136374625467N00807435EA0200902084
B1136384625464N00807428EA0200902084
B1136394625462N00807421EA0200902085
B1136404625461N00807414EA0200902085
B1136414625462N00807408EA0200902084
B1136424625463N00807401EA0200802083
B1136434625466N00807394EA0200702082
B1136444625470N00807388EA0200702082
B1136454625474N00807384EA0200602081
B1136464625479N00807382EA0200602081
B1136474625483N00807382EA0200502080
B1136484625489N00807383EA0200402080
B1136494625493N00807386EA0200402079
B1136504625498N00807391EA0200302078
B1136514625501N00807397EA0200202078
B1136524625504N00807405EA0200202077
B1136534625506N00807413EA0200202078
B1136544625509N00807420EA0200302078
B1136554625511N00807426EA0200302079
B1136564625513N00807432EA0200302078
B1136574625515N00807439EA0200102076
B1136584625517N00807446EA0199902074
B1136594625519N00807455EA0199702072
B1137004625521N00807463EA0199602071
B1137014625523N00807471EA0199502071
B1137024625525N00807479EA0199402070
B1137034625527N00807486EA0199302068
B1137044625529N00807494EA0199202067
B1137054625531N00807502EA0199002065
B1137064625533N00807511EA0198802063
B1137074625536N00807519EA0198702062
B1137084625538N00807527EA0198602061
B1137094625540N00807535EA0198302058
B1137104625541N00807543EA0198202057
B1137114625542N00807551EA0198002056
B1137124625543N00807559EA0197902054
B1137134625543N00807567EA0197902054
B1137144625544N00807576EA0198002056
B1137154625544N00807584EA0198002055
B1137164625546N00807592EA0197802054
B1137174625548N00807599EA0197702053
B1137184625550N00807607EA0197502051
B1137194625553N00807615EA0197402049
B1137204625554N00807623EA0197302048
B1137214625556N00807631EA0197202047
B1137224625559N00807638EA0197102047
B1137234625562N00807645EA0197002045
B1137244625565N00807651EA0196902044
B1137254625568N00807659EA0196702042
B1137264625570N00807666EA0196602041
B1137274625573N00807674EA0196502040
B1137284625576N00807681EA0196402039
B1137294625579N00807687EA0196302039
B1137304625582N00807694EA0196202037
B1137314625585N00807701EA0196102036
B1137324625587N00807708EA0196002035
B1137334625590N00807715EA0195902034
B1137344625592N00807722EA0195802034
B1137354625595N00807729EA0195702032
B1137364625598N00807736EA0195602031
B1137374625600N00807744EA0195502030
B1137384625602N00807751EA0195402029
B1137394625605N00807759EA0195202027
B1137404625607N00807766EA0195102027
B1137414625610N00807773EA0195102026
B1137424625612N00807780EA0194902024
B1137434625614N00807788EA0194802023
B1137444625616N00807795EA0194802023
B1137454625618N00807802EA0194702022
B1137464625621N00807810EA0194502020
B1137474625623N00807817EA0194402019
B1137484625624N00807825EA0194302018
B1137494625626N00807833EA0194202016
B1137504625628N00807840EA0194102016
B1137514625630N00807847EA0194002014
B1137524625632N00807855EA0193802013
B1137534625635N00807862EA0193702012
B1137544625637N00807869EA0193602010
B1137554625639N00807877EA0193402009
B1137564625640N00807884EA0193302008
B1137574625643N00807891EA0193102006
B1137584625646N00807898EA0193002005
B1137594625648N00807906EA0192902004
B1138004625651N00807912EA0192802003
B1138014625653N00807919EA0192702002
B1138024625655N00807926EA0192502000
B1138034625658N00807933EA0192401998
B1138044625660N00807940EA0192201997
B1138054625663N00807947EA0192101995
B1138064625665N00807955EA0192001995
B1138074625667N00807962EA0191901993
B1138084625670N00807968EA0191801992
B1138094625673N00807975EA0191601991
B1138104625675N00807982EA0191401989
B1138114625677N00807990EA0191301988
B1138124625680N00807997EA0191201987
B1138134625682N00808005EA0191101986
B1138144625684N00808012EA0191101985
B1138154625686N00808019EA0191001984
B1138164625688N00808026EA0190901983
B1138174625690N00808034EA0190701982
B1138184625692N00808041EA0190601980
B1138194625695N00808049EA0190501979
B1138204625697N00808056EA0190401979
B1138214625699N00808063EA0190301978
B1138224625701N00808070EA0190201977
B1138234625703N00808077EA0190101976
B1138244625705N00808084EA0190001974
B1138254625708N00808091EA0189901973
B1138264625710N00808098EA0189801972
B1138274625712N00808106EA0189701971
B1138284625714N00808113EA0189601970
B1138294625716N00808120EA0189501970
B1138304625718N00808127EA0189401969
B1138314625720N00808134EA0189301968
B1138324625722N00808141EA0189201967
B1138334625724N00808148EA0189101966
B1138344625727N00808156EA0189001965
B1138354625729N00808163EA0189001964
B1138364625732N00808169EA0188901963
B1138374625734N00808176EA0188801962
B1138384625737N00808183EA0188701961
B1138394625739N00808190EA0188601960
B1138404625742N00808196EA0188501959
B1138414625744N00808203EA0188401958
B1138424625747N00808210EA0188301957
B1138434625750N00808216EA0188201956
B1138444625752N00808223EA0188101956
B1138454625755N00808230EA0188101955
B1138464625757N00808236EA0188001954
B1138474625760N00808243EA0187901953
B1138484625763N00808250EA0187801952
B1138494625766N00808256EA0187701951
B1138504625768N00808263EA0187601950
B1138514625771N00808270EA0187501949
B1138524625774N00808276EA0187501949
B1138534625778N00808282EA0187401948
B1138544625781N00808289EA0187301947
B1138554625783N00808295EA0187201946
B1138564625786N00808301EA0187101945
B1138574625789N00808307EA0187001944
B1138584625792N00808314EA0186901943
B1138594625796N00808320EA0186801942
B1139004625799N00808326EA0186701941
B1139014625802N00808333EA0186601940
B1139024625805N00808339EA0186501939
B1139034625808N00808346EA0186401938
B1139044625811N00808352EA0186301937
B1139054625815N00808359EA0186201936
B1139064625817N00808365EA0186201935
B1139074625820N00808371EA0186001934
B1139084625823N00808377EA0185901932
B1139094625826N00808384EA0185701931
B1139104625830N00808391EA0185601929
B1139114625833N00808397EA0185501928
B1139124625835N00808404EA0185401928
B1139134625838N00808410EA0185401927
B1139144625841N00808417EA0185301926
B1139154625844N00808423EA0185101924
B1139164625847N00808429EA0185001923
B1139174625849N00808435EA0184801922
B1139184625853N00808442EA0184701921
B1139194625855N00808448EA0184601919
B1139204625858N00808454EA0184501919
B1139214625861N00808461EA0184401918
B1139224625863N00808467EA0184301916
B1139234625866N00808473EA0184201915
B1139244625869N00808479EA0184001913
B1139254625872N00808486EA0183901912
B1139264625875N00808492EA0183801911
B1139274625878N00808498EA0183701910
B1139284625880N00808505EA0183601908
B1139294625883N00808511EA0183401907
B1139304625885N00808517EA0183301906
B1139314625888N00808524EA0183201904
B1139324625891N00808530EA0183101903
B1139334625894N00808537EA0183001902
B1139344625896N00808543EA0182801901
B1139354625899N00808549EA0182701900
B1139364625901N00808556EA0182501898
B1139374625904N00808562EA0182401897
B1139384625907N00808569EA0182301895
B1139394625909N00808576EA0182201894
B1139404625912N00808582EA0182001893
B1139414625915N00808589EA0181901892
B1139424625917N00808595EA0181801890
B1139434625920N00808602EA0181601888
B1139444625923N00808608EA0181501887
B1139454625926N00808615EA0181301886
B1139464625928N00808621EA0181201885
B1139474625931N00808628EA0181101883
B1139484625934N00808635EA0181001882
B1139494625936N00808641EA0180901881
B1139504625938N00808648EA0180801880
B1139514625941N00808654EA0180601878
B1139524625943N00808661EA0180501877
B1139534625946N00808668EA0180401876
B1139544625948N00808675EA0180201875
B1139554625950N00808681EA0180101873
B1139564625953N00808688EA0180001872
B1139574625955N00808694EA0179901871
B1139584625958N00808701EA0179701870
B1139594625961N00808707EA0179601868
B1140004625964N00808713EA0179501867
B1140014625967N00808720EA0179401866
B1140024625970N00808726EA0179201864
B1140034625973N00808732EA0179101863
B1140044625975N00808738EA0179001862
B1140054625979N00808744EA0178801860
B1140064625982N00808751EA0178701859
B1140074625984N00808757EA0178601857
B1140084625987N00808763EA0178401856
B1140094625991N00808769EA0178301855
B1140104625994N00808776EA0178201853
B1140114625997N00808782EA0178001852
B1140124626000N00808789EA0177901851
B1140134626002N00808795EA0177801850
B1140144626005N00808801EA0177701848
B1140154626008N00808807EA0177501847
B1140164626011N00808814EA0177401846
B1140174626014N00808820EA0177301844
B1140184626016N00808826EA0177101843
B1140194626019N00808833EA0177001841
B1140204626022N00808839EA0176801840
B1140214626025N00808845EA0176701839
B1140224626027N00808852EA0176601837
B1140234626030N00808859EA0176401836
B1140244626032N00808865EA0176301834
B1140254626035N00808872EA0176201833
B1140264626038N00808878EA0176001831
B1140274626040N00808885EA0175901830
B1140284626043N00808892EA0175701829
B1140294626046N00808898EA0175601827
B1140304626048N00808905EA0175501826
B1140314626051N00808912EA0175301824
B1140324626053N00808919EA0175201823
B1140334626056N00808925EA0175001821
B1140344626059N00808932EA0174901820
B1140354626061N00808939EA0174701818
B1140364626064N00808945EA0174601817
B1140374626066N00808952EA0174501816
B1140384626069N00808959EA0174401815
B1140394626072N00808965EA0174301814
B1140404626074N00808972EA0174201813
B1140414626077N00808978EA0174001811
B1140424626079N00808985EA0173901810
B1140434626082N00808992EA0173801809
B1140444626085N00808998EA0173601807
B1140454626088N00809005EA0173501806
B1140464626090N00809012EA0173401804
B1140474626094N00809018EA0173201803
B1140484626097N00809025EA0173101802
B1140494626100N00809031EA0173001800
B1140504626103N00809037EA0172801799
B1140514626106N00809044EA0172701798
B1140524626110N00809051EA0172601796
B1140534626113N00809057EA0172501795
B1140544626116N00809063EA0172401794
B1140554626119N00809069EA0172201793
B1140564626123N00809075EA0172101792
B1140574626126N00809082EA0172001790
B1140584626129N00809088EA0171901789
B1140594626133N00809095EA0171701787
B1141004626136N00809101EA0171601786
B1141014626139N00809108EA0171401785
B1141024626142N00809115EA0171401784
B1141034626144N00809122EA0171201783
B1141044626145N00809130EA0171101781
B1141054626145N00809138EA0171001780
B1141064626146N00809146EA0170901779
B1141074626145N00809154EA0170801778
B1141084626144N00809162EA0170601776
B1141094626143N00809170EA0170501775
B1141104626142N00809178EA0170401774
B1141114626140N00809185EA0170301773
B1141124626137N00809192EA0170201772
B1141134626135N00809200EA0170001771
B1141144626133N00809207EA0169901769
B1141154626129N00809213EA0169801768
B1141164626126N00809220EA0169701767
B1141174626123N00809226EA0169701767
B1141184626120N00809233EA0169601766
B1141194626117N00809239EA0169501765
B1141204626114N00809247EA0169401764
B1141214626110N00809253EA0169301763
B1141224626106N00809260EA0169201762
B1141234626103N00809267EA0169201762
B1141244626100N00809273EA0169101761
B1141254626096N00809278EA0169001759
B1141264626093N00809284EA0168801757
B1141274626089N00809290EA0168601756
B1141284626085N00809297EA0168401754
B1141294626081N00809304EA0168201752
B1141304626077N00809311EA0168201752
B1141314626073N00809318EA0168101751
B1141324626068N00809323EA0168001749
B1141334626064N00809327EA0167901749
B1141344626060N00809332EA0167801747
B1141354626056N00809336EA0167701746
B1141364626051N00809341EA0167601745
B1141374626047N00809346EA0167401744
B1141384626041N00809352EA0167301742
B1141394626037N00809357EA0167201741
B1141404626032N00809363EA0167101741
B1141414626027N00809368EA0167101740
B1141424626023N00809372EA0167101740
B1141434626019N00809376EA0167001739
B1141444626014N00809380EA0166901738
B1141454626009N00809384EA0166701737
B1141464626005N00809388EA0166601735
B1141474626000N00809393EA0166501734
B1141484625995N00809396EA0166301732
B1141494625990N00809398EA0166101730
B1141504625984N00809401EA0166001729
B1141514625979N00809404EA0165901728
B1141524625974N00809407EA0165901728
B1141534625968N00809409EA0165801727
B1141544625963N00809410EA0165701725
B1141554625957N00809412EA0165501724
B1141564625952N00809414EA0165301722
B1141574625946N00809417EA0165201721
B1141584625940N00809420EA0165101720
B1141594625934N00809423EA0165001719
B1142004625928N00809424EA0165001719
B1142014625922N00809425EA0165001719
B1142024625917N00809426EA0164901718
B1142034625912N00809427EA0164801717
B1142044625907N00809428EA0164601715
B1142054625901N00809430EA0164401713
B1142064625896N00809431EA0164301711
B1142074625890N00809433EA0164101709
B1142084625884N00809435EA0164001708
B1142094625878N00809438EA0163901707
B1142104625873N00809440EA0163801707
B1142114625867N00809443EA0163801706
B1142124625862N00809444EA0163801706
B1142134625856N00809445EA0163701705
B1142144625850N00809446EA0163701705
B1142154625845N00809447EA0163601704
B1142164625840N00809447EA0163501704
B1142174625835N00809447EA0163401702
B1142184625829N00809446EA0163301701
B1142194625823N00809447EA0163101700
B1142204625818N00809448EA0163101699
B1142214625812N00809450EA0162901698
B1142224625807N00809451EA0162801696
B1142234625802N00809452EA0162701695
B1142244625796N00809453EA0162501693
B1142254625791N00809455EA0162401692
B1142264625785N00809456EA0162301691
B1142274625779N00809457EA0162201690
B1142284625774N00809459EA0162101689
B1142294625768N00809460EA0162001688
B1142304625762N00809461EA0161901687
B1142314625757N00809462EA0161801686
B1142324625752N00809463EA0161701685
B1142334625746N00809464EA0161701685
B1142344625741N00809465EA0161601684
B1142354625736N00809466EA0161501682
B1142364625731N00809467EA0161401681
B1142374625726N00809468EA0161301681
B1142384625721N00809469EA0161201680
B1142394625715N00809470EA0161201679
B1142404625710N00809471EA0161101679
B1142414625705N00809471EA0161001677
B1142424625700N00809473EA0160901676
B1142434625695N00809474EA0160701675
B1142444625690N00809475EA0160601674
B1142454625685N00809475EA0160501673
B1142464625680N00809476EA0160501673
B1142474625675N00809476EA0160401672
B1142484625670N00809477EA0160301671
B1142494625665N00809478EA0160201669
B1142504625660N00809478EA0160101668
B1142514625655N00809478EA0160001667
B1142524625650N00809479EA0159901666
B1142534625645N00809480EA0159701664
B1142544625640N00809480EA0159501662
B1142554625634N00809480EA0159301661
B1142564625629N00809480EA0159201659
B1142574625623N00809481EA0159101659
B1142584625618N00809482EA0159101658
B1142594625612N00809481EA0159001657
B1143004625607N00809481EA0158901656
B1143014625602N00809481EA0158801655
B1143024625597N00809482EA0158601653
B1143034625592N00809482EA0158501652
B1143044625586N00809482EA0158301650
B1143054625581N00809482EA0158301650
B1143064625575N00809483EA0158201649
B1143074625570N00809484EA0158101648
B1143084625565N00809485EA0158001647
B1143094625560N00809485EA0157901646
B1143104625554N00809485EA0157701644
B1143114625550N00809485EA0157601643
B1143124625545N00809485EA0157401641
B1143134625540N00809486EA0157201639
B1143144625535N00809486EA0157001637
B1143154625529N00809486EA0156801635
B1143164625524N00809487EA0156701633
B1143174625518N00809488EA0156601632
B1143184625513N00809488EA0156501632
B1143194625508N00809489EA0156501631
B1143204625502N00809489EA0156301629
B1143214625497N00809489EA0156201628
B1143224625491N00809489EA0156101627
B1143234625486N00809489EA0155901625
B1143244625480N00809489EA0155801625
B1143254625474N00809488EA0155801624
B1143264625469N00809487EA0155701624
B1143274625464N00809485EA0155701623
B1143284625459N00809485EA0155701623
B1143294625454N00809484EA0155601622
B1143304625449N00809483EA0155501621
B1143314625445N00809482EA0155301620
B1143324625439N00809480EA0155101618
B1143334625435N00809479EA0155001616
B1143344625430N00809477EA0154901615
B1143354625424N00809476EA0154701613
B1143364625419N00809476EA0154601612
B1143374625414N00809475EA0154501611
B1143384625409N00809473EA0154301609
B1143394625404N00809471EA0154201608
B1143404625399N00809469EA0154001606
B1143414625394N00809467EA0153901604
B1143424625388N00809464EA0153701603
B1143434625383N00809461EA0153501601
B1143444625378N00809457EA0153401600
B1143454625373N00809453EA0153201598
B1143464625368N00809449EA0153101597
B1143474625363N00809446EA0153001595
B1143484625357N00809442EA0152801594
B1143494625353N00809438EA0152701593
B1143504625348N00809434EA0152601592
B1143514625343N00809430EA0152601591
B1143524625338N00809426EA0152501591
B1143534625334N00809422EA0152401590
B1143544625330N00809418EA0152301589
B1143554625325N00809415EA0152201587
B1143564625321N00809411EA0152001585
B1143574625315N00809408EA0151801584
B1143584625310N00809405EA0151701583
B1143594625305N00809403EA0151601581
B1144004625300N00809400EA0151501580
B1144014625295N00809397EA0151301579
B1144024625290N00809394EA0151201577
B1144034625285N00809392EA0151101576
B1144044625280N00809389EA0151001575
B1144054625275N00809386EA0150901574
B1144064625270N00809383EA0150801573
B1144074625264N00809381EA0150701573
B1144084625260N00809378EA0150701572
B1144094625255N00809376EA0150601572
B1144104625250N00809373EA0150601571
B1144114625245N00809370EA0150601571
B1144124625240N00809369EA0150601571
B1144134625236N00809368EA0150601571
B1144144625231N00809368EA0150601571
B1144154625226N00809368EA0150501570
B1144164625222N00809368EA0150401569
B1144174625216N00809368EA0150301568
B1144184625211N00809367EA0150201567
B1144194625206N00809366EA0150201567
B1144204625201N00809365EA0150201566
B1144214625197N00809363EA0150101566
B1144224625193N00809360EA0150101566
B1144234625188N00809357EA0150101566
B1144244625184N00809354EA0150101566
B1144254625180N00809350EA0150101566
B1144264625176N00809346EA0150001565
B1144274625172N00809343EA0150001565
B1144284625166N00809339EA0150001565
B1144294625162N00809335EA0150001565
B1144304625158N00809331EA0150101565
B1144314625154N00809327EA0150101565
B1144324625150N00809323EA0150001565
B1144334625146N00809319EA0150001564
B1144344625141N00809315EA0149901564
B1144354625136N00809311EA0150001564
B1144364625132N00809307EA0150001564
B1144374625128N00809304EA0149901564
B1144384625124N00809300EA0149901563
B1144394625120N00809296EA0149801562
B1144404625116N00809293EA0149701561
B1144414625112N00809289EA0149601560
B1144424625108N00809284EA0149501559
B1144434625104N00809278EA0149501559
B1144444625100N00809273EA0149501559
B1144454625097N00809269EA0149401558
B1144464625094N00809264EA0149201556
B1144474625090N00809260EA0148901553
B1144484625085N00809254EA0148701551
B1144494625081N00809248EA0148601550
B1144504625077N00809241EA0148701550
B1144514625073N00809236EA0148701551
B1144524625070N00809232EA0148801552
B1144534625067N00809228EA0148701551
B1144544625064N00809224EA0148401548
B1144554625060N00809219EA0148101545
B1144564625056N00809214EA0147901543
B1144574625051N00809208EA0147701540
B1144584625047N00809202EA0147501539
B1144594625042N00809197EA0147501539
B1145004625038N00809191EA0147501539
B1145014625034N00809186EA0147401537
B1145024625030N00809181EA0147301536
B1145034625025N00809176EA0147101535
B1145044625021N00809170EA0146901532
B1145054625016N00809164EA0146801531
B1145064625011N00809158EA0146701531
B1145074625007N00809152EA0146701531
B1145084625003N00809147EA0146701531
B1145094624999N00809143EA0146601529
B1145104624995N00809138EA0146401527
B1145114624990N00809133EA0146201525
B1145124624985N00809128EA0146001524
B1145134624980N00809123EA0146001523
B1145144624976N00809119EA0146001523
B1145154624971N00809114EA0146001523
B1145164624967N00809109EA0145801521
B1145174624963N00809105EA0145701520
B1145184624958N00809100EA0145501518
B1145194624953N00809095EA0145401517
B1145204624948N00809090EA0145301516
B1145214624944N00809085EA0145201515
B1145224624939N00809080EA0145101514
B1145234624934N00809075EA0144901512
B1145244624930N00809070EA0144801511
B1145254624925N00809065EA0144701510
B1145264624920N00809060EA0144601508
B1145274624915N00809055EA0144501508
B1145284624911N00809050EA0144301506
B1145294624906N00809046EA0144301505
B1145304624901N00809041EA0144201505
B1145314624896N00809037EA0144001503
B1145324624892N00809032EA0143901502
B1145334624887N00809028EA0143801501
B1145344624882N00809024EA0143701500
B1145354624877N00809019EA0143501498
B1145364624871N00809015EA0143401497
B1145374624866N00809011EA0143301495
B1145384624862N00809006EA0143201494
B1145394624856N00809002EA0143101493
B1145404624851N00808998EA0143001492
B1145414624846N00808994EA0142901491
B1145424624841N00808990EA0142801490
B1145434624836N00808986EA0142701489
B1145444624830N00808982EA0142601488
B1145454624825N00808978EA0142501487
B1145464624820N00808974EA0142401486
B1145474624815N00808970EA0142301485
B1145484624810N00808966EA0142201484
B1145494624805N00808961EA0142101483
B1145504624800N00808957EA0142001482
B1145514624795N00808953EA0141901481
B1145524624790N00808949EA0141801480
B1145534624784N00808944EA0141701479
B1145544624779N00808940EA0141601478
B1145554624774N00808936EA0141501477
B1145564624769N00808932EA0141401476
B1145574624764N00808928EA0141301475
B1145584624759N00808923EA0141201474
B1145594624754N00808919EA0141101473
B1146004624749N00808915EA0141001472
B1146014624744N00808911EA0140901471
B1146024624739N00808907EA0140801470
B1146034624734N00808902EA0140701469
B1146044624729N00808898EA0140601468
B1146054624724N00808893EA0140501467
B1146064624719N00808889EA0140401466
B1146074624714N00808884EA0140301465
B1146084624709N00808880EA0140201464
B1146094624704N00808876EA0140101463
B1146104624699N00808871EA0140001462
B1146114624694N00808867EA0139901461
B1146124624689N00808863EA0139801460
B1146134624684N00808859EA0139701459
B1146144624678N00808855EA0139601458
B1146154624673N00808851EA0139501457
B1146164624668N00808847EA0139401456
B1146174624663N00808843EA0139301455
B1146184624658N00808839EA0139301454
B1146194624653N00808835EA0139201453
B1146204624648N00808831EA0139101452
B1146214624643N00808827EA0139001451
B1146224624638N00808823EA0138901450
B1146234624633N00808819EA0138801450
B1146244624628N00808815EA0138701449
B1146254624623N00808811EA0138701448
B1146264624618N00808806EA0138601447
B1146274624613N00808802EA0138501446
B1146284624608N00808798EA0138401445
B1146294624603N00808793EA0138301444
B1146304624598N00808789EA0138201443
B1146314624593N00808785EA0138101443
B1146324624588N00808780EA0138001442
B1146334624583N00808776EA0137901441
B1146344624578N00808772EA0137801439
B1146354624573N00808767EA0137701438
B1146364624568N00808762EA0137701438
B1146374624563N00808758EA0137601437
B1146384624558N00808754EA0137501436
B1146394624553N00808749EA0137401435
B1146404624549N00808744EA0137301434
B1146414624544N00808740EA0137201433
B1146424624539N00808735EA0137101432
B1146434624534N00808730EA0137001431
B1146444624529N00808726EA0136901430
B1146454624525N00808721EA0136801428
B1146464624520N00808716EA0136701427
B1146474624515N00808711EA0136601426
B1146484624510N00808706EA0136501425
B1146494624505N00808700EA0136401424
B1146504624501N00808695EA0136201423
B1146514624496N00808690EA0136201422
B1146524624492N00808685EA0136001421
B1146534624487N00808679EA0135901420
B1146544624483N00808674EA0135801419
B1146554624478N00808669EA0135701418
B1146564624473N00808663EA0135601417
B1146574624468N00808658EA0135501416
B1146584624464N00808653EA0135401415
B1146594624459N00808647EA0135301414
B1147004624454N00808642EA0135201413
B1147014624450N00808637EA0135101411
B1147024624445N00808631EA0135001411
B1147034624440N00808626EA0134901410
B1147044624436N00808621EA0134801409
B1147054624431N00808616EA0134701407
B1147064624427N00808611EA0134601406
B1147074624422N00808606EA0134501405
B1147084624417N00808601EA0134401404
B1147094624413N00808595EA0134301403
B1147104624408N00808590EA0134201402
B1147114624404N00808585EA0134101401
B1147124624399N00808580EA0133901399
B1147134624394N00808575EA0133801398
B1147144624389N00808570EA0133701397
B1147154624384N00808565EA0133601396
B1147164624380N00808560EA0133501395
B1147174624375N00808555EA0133401394
B1147184624370N00808551EA0133301393
B1147194624366N00808546EA0133201392
B1147204624361N00808541EA0133101390
B1147214624356N00808536EA0133001389
B1147224624351N00808531EA0132901388
B1147234624347N00808527EA0132701387
B1147244624342N00808522EA0132601386
B1147254624337N00808518EA0132501385
B1147264624332N00808513EA0132501384
B1147274624327N00808509EA0132401383
B1147284624323N00808504EA0132301382
B1147294624318N00808500EA0132201381
B1147304624313N00808495EA0132101380
B1147314624308N00808491EA0132001379
B1147324624303N00808486EA0131901378
B1147334624298N00808481EA0131801378
B1147344624294N00808477EA0131701377
B1147354624289N00808472EA0131601376
B1147364624284N00808467EA0131501375
B1147374624280N00808463EA0131401374
B1147384624275N00808458EA0131301373
B1147394624270N00808454EA0131201372
B1147404624265N00808449EA0131201371
B1147414624261N00808445EA0131201371
B1147424624256N00808441EA0131101370
B1147434624252N00808437EA0130901368
B1147444624247N00808433EA0130701366
B1147454624242N00808429EA0130601365
B1147464624237N00808425EA0130501364
B1147474624232N00808421EA0130401363
B1147484624228N00808417EA0130201361
B1147494624224N00808412EA0130001359
B1147504624220N00808406EA0129901358
B1147514624217N00808399EA0129801357
B1147524624215N00808392EA0129701356
B1147534624213N00808384EA0129601355
B1147544624213N00808376EA0129501354
B1147554624214N00808369EA0129401353
B1147564624215N00808361EA0129201351
B1147574624218N00808354EA0129101350
B1147584624221N00808348EA0129001349
B1147594624224N00808343EA0128901348
B1148004624228N00808338EA0128801347
B1148014624232N00808335EA0128701346
B1148024624237N00808333EA0128601345
B1148034624242N00808332EA0128501344
B1148044624247N00808331EA0128301342
B1148054624252N00808331EA0128201341
B1148064624257N00808330EA0128001339
B1148074624262N00808329EA0127901338
B1148084624268N00808328EA0127801337
B1148094624273N00808326EA0127701336
B1148104624279N00808325EA0127601335
B1148114624284N00808324EA0127501334
B1148124624290N00808321EA0127501334
B1148134624294N00808318EA0127401333
B1148144624300N00808316EA0127301332
B1148154624305N00808313EA0127301331
B1148164624310N00808311EA0127201330
B1148174624316N00808309EA0127101330
B1148184624321N00808307EA0127001329
B1148194624326N00808305EA0126901328
B1148204624331N00808302EA0126801327
B1148214624336N00808300EA0126701326
B1148224624341N00808297EA0126601324
B1148234624346N00808293EA0126501323
B1148244624351N00808290EA0126401322
B1148254624356N00808287EA0126301321
B1148264624361N00808285EA0126201320
B1148274624366N00808283EA0126001319
B1148284624371N00808280EA0126001318
B1148294624376N00808277EA0125801317
B1148304624380N00808273EA0125701315
B1148314624384N00808267EA0125601314
B1148324624387N00808261EA0125501313
B1148334624389N00808254EA0125301311
B1148344624391N00808246EA0125201310
B1148354624391N00808239EA0125101309
B1148364624391N00808231EA0125001308
B1148374624389N00808223EA0124801306
B1148384624385N00808216EA0124701305
B1148394624381N00808211EA0124601304
B1148404624377N00808207EA0124501302
B1148414624372N00808205EA0124301301
B1148424624366N00808204EA0124201300
B1148434624361N00808205EA0124001298
B1148444624356N00808208EA0123901297
B1148454624351N00808212EA0123801296
B1148464624348N00808218EA0123701294
B1148474624346N00808224EA0123501293
B1148484624345N00808231EA0123401292
B1148494624344N00808238EA0123301290
B1148504624346N00808245EA0123101289
B1148514624348N00808251EA0123001287
B1148524624352N00808256EA0122801286
B1148534624356N00808260EA0122701284
B1148544624361N00808262EA0122601284
B1148554624366N00808262EA0122501282
B1148564624371N00808260EA0122401281
B1148574624375N00808256EA0122201280
B1148584624379N00808252EA0122101278
B1148594624383N00808246EA0121901277
B1149004624386N00808239EA0121801275
B1149014624387N00808231EA0121701274
B1149024624387N00808223EA0121501272
B1149034624386N00808215EA0121301271
B1149044624385N00808207EA0121201269
B1149054624382N00808201EA0121101268
B1149064624378N00808195EA0121001267
B1149074624373N00808190EA0120801265
B1149084624369N00808187EA0120701264
B1149094624363N00808186EA0120601263
B1149104624358N00808186EA0120401262
B1149114624353N00808188EA0120301260
B1149124624348N00808192EA0120201259
B1149134624345N00808196EA0120101258
B1149144624342N00808203EA0119901256
B1149154624341N00808209EA0119801255
B1149164624340N00808216EA0119701254
B1149174624341N00808223EA0119501252
B1149184624342N00808229EA0119401251
B1149194624345N00808235EA0119201249
B1149204624349N00808239EA0119101248
B1149214624354N00808242EA0119001247
B1149224624359N00808244EA0118801245
B1149234624364N00808243EA0118601243
B1149244624369N00808242EA0118501242
B1149254624373N00808239EA0118401240
B1149264624378N00808235EA0118201239
B1149274624381N00808229EA0118101237
B1149284624384N00808223EA0117901236
B1149294624387N00808216EA0117801235
B1149304624389N00808209EA0117701234
B1149314624389N00808201EA0117601232
B1149324624389N00808194EA0117401231
B1149334624389N00808185EA0117301230
B1149344624387N00808179EA0117201229
B1149354624384N00808172EA0117101227
B1149364624380N00808166EA0116901226
B1149374624375N00808162EA0116801224
B1149384624371N00808159EA0116701223
B1149394624366N00808157EA0116501222
B1149404624360N00808156EA0116401220
B1149414624355N00808157EA0116301219
B1149424624350N00808159EA0116201218
B1149434624345N00808162EA0116001216
B1149444624341N00808167EA0115901215
B1149454624339N00808173EA0115801214
B1149464624336N00808180EA0115601212
B1149474624335N00808188EA0115501211
B1149484624335N00808195EA0115401210
B1149494624336N00808202EA0115301209
B1149504624339N00808208EA0115101207
B1149514624341N00808214EA0115001206
B1149524624345N00808220EA0114801204
B1149534624349N00808224EA0114701203
B1149544624353N00808229EA0114501201
B1149554624357N00808233EA0114401199
B1149564624361N00808238EA0114201198
B1149574624365N00808243EA0114101197
B1149584624369N00808248EA0114001196
B1149594624373N00808252EA0114001195
B1150004624377N00808257EA0113901194
B1150014624380N00808261EA0113701193
B1150024624383N00808265EA0113601191
B1150034624387N00808270EA0113401190
B1150044624391N00808275EA0113301188
B1150054624395N00808279EA0113201187
B1150064624398N00808284EA0113101186
B1150074624402N00808289EA0112901185
B1150084624405N00808294EA0112801184
B1150094624408N00808299EA0112701182
B1150104624412N00808304EA0112501181
B1150114624415N00808309EA0112501180
B1150124624418N00808313EA0112401179
B1150134624422N00808319EA0112201178
B1150144624425N00808322EA0112101176
B1150154624429N00808326EA0111901175
B1150164624432N00808331EA0111801173
B1150174624436N00808335EA0111701172
B1150184624440N00808339EA0111601171
B1150194624443N00808343EA0111501170
B1150204624447N00808347EA0111301168
B1150214624451N00808351EA0111201167
B1150224624454N00808355EA0111001166
B1150234624459N00808359EA0110901164
B1150244624462N00808363EA0110801163
B1150254624467N00808367EA0110601161
B1150264624470N00808371EA0110501160
B1150274624474N00808375EA0110301158
B1150284624479N00808379EA0110201157
B1150294624483N00808382EA0110101156
B1150304624487N00808385EA0110001155
B1150314624491N00808389EA0109901154
B1150324624495N00808392EA0109801153
B1150334624499N00808396EA0109701151
B1150344624504N00808400EA0109601150
B1150354624508N00808403EA0109501149
B1150364624513N00808407EA0109301148
B1150374624517N00808410EA0109201147
B1150384624521N00808413EA0109101146
B1150394624525N00808416EA0109001145
B1150404624529N00808419EA0108901144
B1150414624534N00808422EA0108801143
B1150424624538N00808425EA0108701141
B1150434624543N00808428EA0108601140
B1150444624547N00808431EA0108401139
B1150454624551N00808433EA0108301137
B1150464624557N00808435EA0108201136
B1150474624561N00808436EA0108101135
B1150484624566N00808437EA0108001135
B1150494624571N00808437EA0107901133
B1150504624576N00808437EA0107801132
B1150514624580N00808435EA0107701131
B1150524624585N00808434EA0107601130
B1150534624591N00808431EA0107401129
B1150544624595N00808429EA0107301128
B1150554624600N00808426EA0107201127
B1150564624604N00808423EA0107101126
B1150574624609N00808420EA0107001124
B1150584624614N00808417EA0107001124
B1150594624618N00808414EA0106801122
B1151004624622N00808411EA0106701121
B1151014624627N00808407EA0106601120
B1151024624630N00808404EA0106501119
B1151034624635N00808400EA0106401118
B1151044624639N00808396EA0106301117
B1151054624643N00808392EA0106201116
B1151064624647N00808388EA0106101115
B1151074624651N00808383EA0106001114
B1151084624655N00808378EA0105801112
B1151094624658N00808373EA0105701111
B1151104624661N00808368EA0105701111
B1151114624664N00808362EA0105601109
B1151124624667N00808356EA0105501108
B1151134624669N00808349EA0105301107
B1151144624670N00808342EA0105201106
B1151154624670N00808334EA0105101105
B1151164624670N00808327EA0105001104
B1151174624669N00808320EA0104901103
B1151184624668N00808314EA0104801102
B1151194624664N00808309EA0104601100
B1151204624660N00808306EA0104401098
B1151214624655N00808305EA0104301097
B1151224624650N00808306EA0104201096
B1151234624646N00808309EA0104201095
B1151244624642N00808312EA0104101095
B1151254624639N00808314EA0104001094
B1151264624635N00808315EA0103901092
B1151274624630N00808316EA0103701091
B1151284624626N00808316EA0103601089
B1151294624621N00808314EA0103401087
B1151304624618N00808308EA0103101084
B1151314624616N00808300EA0103001083
B1151324624616N00808292EA0103001083
B1151334624616N00808285EA0103001083
B1151344624616N00808279EA0103001083
B1151354624616N00808274EA0102901082
B1151364624614N00808268EA0102701080
B1151374624612N00808261EA0102501078
B1151384624609N00808256EA0102401077
B1151394624605N00808253EA0102201075
B1151404624600N00808251EA0102101074
B1151414624596N00808251EA0102001073
B1151424624592N00808249EA0102001073
B1151434624589N00808246EA0101801071
B1151444624586N00808242EA0101601069
B1151454624581N00808239EA0101301066
B1151464624576N00808237EA0101001063
B1151474624572N00808236EA0101101064
B1151484624568N00808234EA0101101064
B1151494624565N00808233EA0101101064
B1151504624562N00808231EA0101101064
B1151514624561N00808230EA0101201065
B1151524624560N00808229EA0101201065
B1151534624559N00808228EA0101201065
B1151544624559N00808228EA0101201065
B1151554624559N00808229EA0101201065
B1151564624560N00808228EA0101201065
B1151574624560N00808228EA0101201065
B1151584624561N00808228EA0101201065
B1151594624561N00808227EA0101201065
B1152004624561N00808227EA0101201065
B1152014624561N00808227EA0101201065
B1152024624561N00808227EA0101201065
B1152034624561N00808227EA0101201065
B1152044624561N00808227EA0101201065
B1152054624561N00808227EA0101201065
B1152064624561N00808226EA0101201065
B1152074624561N00808226EA0101201065
B1152084624561N00808226EA0101201065
B1152094624561N00808226EA0101201065
B1152104624561N00808226EA0101201065
B1152114624561N00808226EA0101201065
B1152124624561N00808226EA0101201065
B1152134624561N00808226EA0101201065
B1152144624561N00808226EA0101201065
B1152154624561N00808226EA0101201065
B1152164624561N00808226EA0101201065
B1152174624561N00808226EA0101201065
B1152184624561N00808226EA0101201065
B1152194624561N00808226EA0101201065
B1152204624561N00808226EA0101201065
B1152214624561N00808225EA0101201065
B1152224624561N00808225EA0101201065
B1152234624561N00808225EA0101201065
B1152244624561N00808225EA0101201065
B1152254624561N00808225EA0101201065
B1152264624561N00808225EA0101201065
B1152274624561N00808225EA0101201065
B1152284624561N00808225EA0101201065
B1152294624561N00808225EA0101201065
B1152304624561N00808225EA0101201065
B1152314624561N00808225EA0101201065
B1152324624561N00808225EA0101201065
B1152334624561N00808225EA0101201065
B1152344624561N00808225EA0101201065
B1152354624561N00808225EA0101201065
B1152364624561N00808225EA0101201065
B1152374624561N00808224EA0101201065
B1152384624561N00808224EA0101201065
B1152394624561N00808224EA0101201065
B1152404624561N00808224EA0101201065
B1152414624561N00808224EA0101201065
B1152424624561N00808224EA0101201065
B1152434624561N00808224EA0101201065
B1152444624561N00808224EA0101201065
B1152454624561N00808224EA0101201065
B1152464624561N00808224EA0101201065
B1152474624561N00808224EA0101201065
B1152484624561N00808224EA0101201065
B1152494624561N00808224EA0101201065
B1152504624561N00808224EA0101201065
B1152514624561N00808224EA0101201065
B1152524624561N00808224EA0101201065
B1152534624560N00808223EA0101201065
B1152544624560N00808223EA0101201065
LXSX;C1;GM:1.3
LXSX;S1;TS:1762946067;TL:1762948374;AS:2157;AL:1065;AT:2347;AB:1063
LXSX;S1;XS:2;XD:7.80;SP:41.0;MC:1.7;MS:-2.1;NB:2309
LXSX;S1;FL:21.6;TG:211;TC:0.9;AG:581;GM:1.3
LXSX;S1;X0:46.42370,8.12127
LXSX;S1;X1:46.42418,8.11635
LXSX;S1;X2:46.43447,8.15538
LXSX;S1;X3:46.40373,8.14020
LXSX;S1;X4:46.41115,8.13867
GF6F263B10F47CC9DD51C4EDE05A6AA43
