AXSX006 SKYTRAXX
HFPLTPILOT:Sepp
HFGTYGLIDERTYPE:Niviuk Artik R 2
HFDTM100GPSDATUM:WGS-84
HFRFWFIRMWAREVERSION:202603201607
HFRHWHARDWAREVERSION:5.0
HFTZNTIMEZONE:+2.00
HFSITSITE:Fiesch Kühboden 1 (
HFDTE270726
LXSX;I1;OAB:20260724;OOB:20260713
LXSX;I1;ID:115785
LXSX;I1;AC:1;CAT:C
LXSX;RAT:LTE M1;GSM:3
B0920414624855N00806463EA0205202159
B0920424624855N00806464EA0205202159
B0920434624855N00806464EA0205202159
B0920444624855N00806464EA0205202159
B0920454624855N00806464EA0205102159
B0920464624855N00806464EA0205102159
B0920474624855N00806464EA0205102159
B0920484624855N00806463EA0205102159
B0920494624855N00806463EA0205102158
B0920504624855N00806463EA0205102158
B0920514624855N00806464EA0205102158
B0920524624855N00806464EA0205102158
B0920534624854N00806465EA0205002157
B0920544624853N00806465EA0205002157
B0920554624853N00806466EA0204902156
B0920564624852N00806466EA0204802155
B0920574624850N00806467EA0204602153
B0920584624848N00806469EA0204502152
B0920594624845N00806472EA0204102148
B0921004624842N00806475EA0203802145
B0921014624839N00806480EA0203802145
B0921024624835N00806484EA0204102148
B0921034624831N00806489EA0204002147
B0921044624828N00806494EA0203902146
B0921054624825N00806500EA0203802145
B0921064624823N00806507EA0203902146
B0921074624822N00806514EA0203902146
B0921084624822N00806521EA0203902146
B0921094624822N00806528EA0203902146
B0921104624823N00806535EA0203802145
B0921114624825N00806542EA0203702144
B0921124624825N00806550EA0203702144
B0921134624827N00806558EA0203702143
B0921144624828N00806567EA0203702143
B0921154624830N00806575EA0203602143
B0921164624832N00806582EA0203602143
B0921174624834N00806589EA0203502142
B0921184624836N00806596EA0203402140
B0921194624837N00806602EA0203302139
B0921204624839N00806609EA0203202138
B0921214624841N00806617EA0203202138
B0921224624843N00806624EA0203102138
B0921234624844N00806631EA0203102138
B0921244624845N00806638EA0203002137
B0921254624845N00806644EA0202702134
B0921264624846N00806651EA0202402131
B0921274624847N00806659EA0202302129
B0921284624849N00806667EA0202102127
B0921294624850N00806674EA0202002127
B0921304624850N00806681EA0202002126
B0921314624851N00806688EA0201902126
B0921324624852N00806696EA0201802124
B0921334624853N00806704EA0201702123
B0921344624855N00806712EA0201602123
B0921354624856N00806719EA0201502121
B0921364624857N00806727EA0201502121
B0921374624858N00806733EA0201402120
B0921384624860N00806740EA0201202118
B0921394624862N00806746EA0201002116
B0921404624864N00806753EA0200902115
B0921414624866N00806759EA0200802114
B0921424624868N00806765EA0200702113
B0921434624870N00806772EA0200602112
B0921444624871N00806778EA0200602112
B0921454624872N00806784EA0200602112
B0921464624873N00806791EA0200502111
B0921474624873N00806798EA0200502111
B0921484624874N00806805EA0200502111
B0921494624875N00806812EA0200502111
B0921504624876N00806820EA0200502111
B0921514624878N00806827EA0200502111
B0921524624879N00806833EA0200402110
B0921534624881N00806840EA0200302109
B0921544624882N00806847EA0200202108
B0921554624882N00806856EA0200302109
B0921564624884N00806864EA0200702112
B0921574624886N00806870EA0201002116
B0921584624887N00806873EA0201302118
B0921594624889N00806875EA0201302119
B0922004624890N00806879EA0201202118
B0922014624892N00806884EA0201102117
B0922024624894N00806891EA0201202118
B0922034624895N00806899EA0201302119
B0922044624895N00806905EA0201602122
B0922054624894N00806909EA0201802124
B0922064624892N00806911EA0201802124
B0922074624889N00806912EA0201902124
B0922084624885N00806912EA0202002125
B0922094624881N00806910EA0201902125
B0922104624877N00806906EA0201902125
B0922114624876N00806899EA0201902125
B0922124624876N00806891EA0201802123
B0922134624877N00806884EA0201802123
B0922144624880N00806878EA0201702123
B0922154624884N00806872EA0201702123
B0922164624888N00806866EA0201802123
B0922174624893N00806861EA0201702123
B0922184624900N00806860EA0201702122
B0922194624907N00806862EA0201602121
B0922204624912N00806869EA0201702122
B0922214624916N00806875EA0202002125
B0922224624918N00806880EA0202402129
B0922234624921N00806883EA0202602131
B0922244624923N00806886EA0202602132
B0922254624925N00806889EA0202602131
B0922264624928N00806894EA0202502130
B0922274624932N00806899EA0202502130
B0922284624934N00806906EA0202502131
B0922294624936N00806912EA0202602132
B0922304624937N00806917EA0202702132
B0922314624938N00806922EA0202702132
B0922324624940N00806928EA0202502131
B0922334624941N00806934EA0202402129
B0922344624942N00806941EA0202302128
B0922354624943N00806947EA0202002125
B0922364624944N00806954EA0201802123
B0922374624944N00806961EA0201502121
B0922384624944N00806968EA0201302118
B0922394624944N00806976EA0201002115
B0922404624943N00806983EA0200802113
B0922414624941N00806989EA0200502110
B0922424624939N00806995EA0200102106
B0922434624934N00807001EA0199802103
B0922444624930N00807006EA0199702102
B0922454624927N00807009EA0199602101
B0922464624922N00807011EA0199502100
B0922474624918N00807012EA0199402099
B0922484624913N00807011EA0199302098
B0922494624908N00807010EA0199302097
B0922504624903N00807008EA0199402099
B0922514624898N00807005EA0199702102
B0922524624893N00807003EA0199902104
B0922534624890N00807001EA0200002105
B0922544624887N00806999EA0200002105
B0922554624884N00806997EA0199902104
B0922564624880N00806992EA0199902104
B0922574624877N00806986EA0199802103
B0922584624875N00806978EA0199702102
B0922594624875N00806969EA0199702102
B0923004624877N00806961EA0199602100
B0923014624880N00806953EA0199402099
B0923024624885N00806947EA0199302098
B0923034624891N00806943EA0199202097
B0923044624898N00806941EA0199102096
B0923054624905N00806943EA0199002095
B0923064624912N00806947EA0199002095
B0923074624916N00806953EA0199102095
B0923084624921N00806960EA0199102096
B0923094624925N00806965EA0199202097
B0923104624929N00806969EA0199302098
B0923114624932N00806973EA0199302097
B0923124624936N00806978EA0199202096
B0923134624941N00806983EA0199102096
B0923144624947N00806989EA0199102096
B0923154624952N00806993EA0199102096
B0923164624957N00806998EA0199002095
B0923174624961N00807002EA0198902093
B0923184624966N00807007EA0198702091
B0923194624971N00807013EA0198402089
B0923204624977N00807020EA0198402088
B0923214624984N00807026EA0198602090
B0923224624991N00807031EA0198902093
B0923234624997N00807036EA0199202097
B0923244625003N00807040EA0199502099
B0923254625008N00807045EA0199702101
B0923264625013N00807051EA0199702102
B0923274625017N00807059EA0199802102
B0923284625018N00807068EA0200002104
B0923294625017N00807077EA0200102106
B0923304625013N00807080EA0200402108
B0923314625008N00807079EA0200602111
B0923324625005N00807074EA0200802112
B0923334625003N00807066EA0201002114
B0923344625004N00807057EA0201202116
B0923354625007N00807050EA0201402119
B0923364625013N00807044EA0201602120
B0923374625020N00807042EA0201702121
B0923384625027N00807042EA0201902124
B0923394625033N00807047EA0202102126
B0923404625037N00807055EA0202202127
B0923414625036N00807063EA0202502129
B0923424625033N00807068EA0202702132
B0923434625028N00807069EA0202902134
B0923444625024N00807066EA0203202136
B0923454625020N00807061EA0203502139
B0923464625017N00807054EA0203902144
B0923474625017N00807047EA0204202147
B0923484625018N00807039EA0204402149
B0923494625022N00807031EA0204702151
B0923504625028N00807025EA0205002154
B0923514625036N00807023EA0205002155
B0923524625044N00807024EA0205202157
B0923534625051N00807029EA0205502160
B0923544625055N00807036EA0206002164
B0923554625057N00807044EA0206202167
B0923564625056N00807050EA0206402168
B0923574625052N00807054EA0206602171
B0923584625049N00807057EA0207002175
B0923594625044N00807057EA0207402179
B0924004625040N00807053EA0207702182
B0924014625037N00807046EA0208002184
B0924024625038N00807037EA0208102186
B0924034625042N00807029EA0208302188
B0924044625048N00807023EA0208502190
B0924054625056N00807022EA0208902193
B0924064625063N00807027EA0209202197
B0924074625066N00807032EA0209502200
B0924084625066N00807040EA0209602201
B0924094625063N00807047EA0209802202
B0924104625058N00807049EA0210202207
B0924114625053N00807047EA0210502210
B0924124625050N00807042EA0211002215
B0924134625050N00807035EA0211202217
B0924144625052N00807027EA0211402219
B0924154625058N00807021EA0211602221
B0924164625065N00807018EA0211802224
B0924174625072N00807018EA0212102226
B0924184625077N00807021EA0212402229
B0924194625080N00807025EA0212702232
B0924204625082N00807031EA0213102236
B0924214625084N00807036EA0213402239
B0924224625085N00807041EA0213702242
B0924234625085N00807047EA0213902244
B0924244625082N00807052EA0214002245
B0924254625078N00807054EA0214202247
B0924264625073N00807051EA0214402250
B0924274625070N00807045EA0214802253
B0924284625071N00807036EA0215102257
B0924294625075N00807028EA0215402260
B0924304625081N00807023EA0215802264
B0924314625087N00807021EA0216102267
B0924324625093N00807021EA0216402269
B0924334625099N00807022EA0216702273
B0924344625104N00807023EA0217002276
B0924354625109N00807027EA0217302278
B0924364625112N00807033EA0217502281
B0924374625114N00807040EA0217702283
B0924384625117N00807048EA0217902284
B0924394625118N00807055EA0218302288
B0924404625119N00807062EA0218602292
B0924414625118N00807068EA0218802294
B0924424625116N00807073EA0219202298
B0924434625112N00807076EA0219602302
B0924444625107N00807075EA0219902305
B0924454625104N00807070EA0220102307
B0924464625103N00807063EA0220202308
B0924474625107N00807054EA0220302309
B0924484625113N00807048EA0220302309
B0924494625121N00807048EA0220502311
B0924504625128N00807053EA0220802314
B0924514625133N00807060EA0221202318
B0924524625135N00807069EA0221602322
B0924534625136N00807076EA0222202328
B0924544625137N00807082EA0222702333
B0924554625139N00807089EA0223102337
B0924564625141N00807095EA0223302339
B0924574625143N00807102EA0223402340
B0924584625146N00807109EA0223602343
B0924594625148N00807118EA0223902345
B0925004625150N00807124EA0224202348
B0925014625152N00807130EA0224302349
B0925024625154N00807136EA0224302350
B0925034625157N00807142EA0224302349
B0925044625160N00807150EA0224302349
B0925054625164N00807159EA0224502351
B0925064625168N00807167EA0224702354
B0925074625170N00807172EA0225002356
B0925084625173N00807178EA0225202358
B0925094625175N00807183EA0225202359
B0925104625179N00807190EA0225202358
B0925114625183N00807199EA0225202358
B0925124625188N00807208EA0225402360
B0925134625193N00807217EA0225702363
B0925144625197N00807225EA0226002367
B0925154625201N00807231EA0226302370
B0925164625205N00807237EA0226702374
B0925174625209N00807241EA0227002377
B0925184625212N00807245EA0227002377
B0925194625215N00807249EA0226902376
B0925204625219N00807255EA0226802375
B0925214625223N00807261EA0226702374
B0925224625228N00807268EA0226702374
B0925234625233N00807275EA0226802375
B0925244625238N00807281EA0226902376
B0925254625242N00807287EA0227002377
B0925264625246N00807293EA0226902376
B0925274625250N00807299EA0226902376
B0925284625254N00807305EA0226802375
B0925294625259N00807311EA0226602373
B0925304625263N00807317EA0226402371
B0925314625267N00807323EA0226202369
B0925324625272N00807329EA0225902366
B0925334625276N00807335EA0225602363
B0925344625280N00807342EA0225202360
B0925354625284N00807349EA0225002358
B0925364625288N00807355EA0224902356
B0925374625292N00807362EA0224802355
B0925384625294N00807368EA0224702354
B0925394625297N00807375EA0224502352
B0925404625300N00807383EA0224302350
B0925414625303N00807390EA0224002347
B0925424625307N00807397EA0223702345
B0925434625311N00807405EA0223502343
B0925444625314N00807413EA0223302341
B0925454625317N00807421EA0223202339
B0925464625320N00807428EA0223002338
B0925474625323N00807435EA0222802336
B0925484625326N00807443EA0222602333
B0925494625329N00807451EA0222502332
B0925504625332N00807458EA0222302330
B0925514625335N00807466EA0222002328
B0925524625339N00807473EA0221802326
B0925534625342N00807480EA0221602324
B0925544625346N00807487EA0221402322
B0925554625349N00807495EA0221202320
B0925564625352N00807503EA0221102319
B0925574625356N00807511EA0221102319
B0925584625358N00807519EA0221002318
B0925594625361N00807527EA0221002317
B0926004625364N00807534EA0220902316
B0926014625367N00807541EA0220802315
B0926024625371N00807548EA0220702315
B0926034625374N00807556EA0220602314
B0926044625377N00807563EA0220502313
B0926054625381N00807569EA0220402312
B0926064625385N00807576EA0220202310
B0926074625389N00807584EA0219902307
B0926084625392N00807589EA0219702305
B0926094625394N00807598EA0219502302
B0926104625396N00807606EA0219502303
B0926114625398N00807615EA0219602304
B0926124625401N00807623EA0219502303
B0926134625403N00807631EA0219402302
B0926144625406N00807639EA0219302301
B0926154625408N00807647EA0219102299
B0926164625411N00807655EA0219002298
B0926174625413N00807663EA0218802296
B0926184625416N00807670EA0218702295
B0926194625419N00807678EA0218602294
B0926204625422N00807686EA0218402293
B0926214625425N00807693EA0218302291
B0926224625427N00807701EA0218202290
B0926234625430N00807708EA0218002288
B0926244625433N00807716EA0217902287
B0926254625436N00807724EA0217802286
B0926264625440N00807732EA0217702285
B0926274625442N00807740EA0217602284
B0926284625445N00807747EA0217502283
B0926294625448N00807755EA0217302281
B0926304625450N00807762EA0217102279
B0926314625453N00807770EA0216902278
B0926324625456N00807779EA0216802276
B0926334625459N00807787EA0216702276
B0926344625462N00807796EA0216602275
B0926354625464N00807804EA0216502274
B0926364625467N00807812EA0216402272
B0926374625469N00807821EA0216202271
B0926384625472N00807829EA0216102269
B0926394625475N00807839EA0215902267
B0926404625477N00807849EA0215802266
B0926414625479N00807858EA0215702265
B0926424625480N00807867EA0215602265
B0926434625482N00807876EA0215502263
B0926444625484N00807884EA0215302262
B0926454625486N00807893EA0215302261
B0926464625488N00807902EA0215302262
B0926474625490N00807910EA0215302262
B0926484625492N00807917EA0215302261
B0926494625495N00807923EA0215202260
B0926504625497N00807930EA0214902257
B0926514625499N00807936EA0214502254
B0926524625502N00807944EA0214302251
B0926534625505N00807952EA0214002249
B0926544625509N00807959EA0213702246
B0926554625512N00807966EA0213502243
B0926564625515N00807974EA0213302241
B0926574625518N00807982EA0213002239
B0926584625522N00807990EA0212802237
B0926594625525N00807998EA0212602234
B0927004625528N00808005EA0212302231
B0927014625532N00808013EA0212002228
B0927024625535N00808021EA0211702225
B0927034625538N00808029EA0211502223
B0927044625542N00808037EA0211302221
B0927054625544N00808046EA0211102219
B0927064625548N00808054EA0210902218
B0927074625551N00808062EA0210802216
B0927084625554N00808070EA0210602214
B0927094625558N00808077EA0210402213
B0927104625561N00808085EA0210302211
B0927114625564N00808093EA0210102210
B0927124625567N00808101EA0210002208
B0927134625570N00808109EA0209802207
B0927144625573N00808117EA0209702205
B0927154625577N00808125EA0209502204
B0927164625580N00808133EA0209402203
B0927174625583N00808141EA0209302201
B0927184625586N00808149EA0209202200
B0927194625590N00808157EA0209002198
B0927204625593N00808165EA0208802197
B0927214625597N00808173EA0208702195
B0927224625600N00808181EA0208502193
B0927234625603N00808190EA0208302191
B0927244625606N00808198EA0208202190
B0927254625609N00808206EA0208102189
B0927264625612N00808214EA0208002188
B0927274625615N00808222EA0207902187
B0927284625618N00808230EA0207802187
B0927294625621N00808237EA0207702185
B0927304625624N00808244EA0207602184
B0927314625628N00808252EA0207402183
B0927324625631N00808260EA0207302181
B0927334625634N00808269EA0207202180
B0927344625637N00808277EA0207102179
B0927354625640N00808284EA0207002179
B0927364625644N00808292EA0207002178
B0927374625646N00808300EA0206902177
B0927384625649N00808308EA0206802176
B0927394625652N00808316EA0206702175
B0927404625655N00808324EA0206602174
B0927414625659N00808332EA0206502173
B0927424625662N00808341EA0206402172
B0927434625665N00808349EA0206202170
B0927444625668N00808357EA0206102169
B0927454625671N00808365EA0206002168
B0927464625674N00808374EA0205902167
B0927474625677N00808382EA0205802166
B0927484625680N00808391EA0205702165
B0927494625684N00808399EA0205702165
B0927504625687N00808407EA0205702164
B0927514625689N00808415EA0205602164
B0927524625692N00808423EA0205502163
B0927534625695N00808431EA0205402162
B0927544625698N00808439EA0205302161
B0927554625702N00808447EA0205202160
B0927564625704N00808455EA0205102158
B0927574625707N00808464EA0205002158
B0927584625710N00808472EA0204902157
B0927594625712N00808480EA0204802156
B0928004625716N00808488EA0204702154
B0928014625718N00808496EA0204502153
B0928024625722N00808505EA0204302151
B0928034625724N00808513EA0204202150
B0928044625727N00808522EA0204102149
B0928054625731N00808530EA0204102148
B0928064625734N00808538EA0204002147
B0928074625737N00808546EA0203802146
B0928084625740N00808554EA0203702144
B0928094625743N00808562EA0203502143
B0928104625746N00808571EA0203402141
B0928114625749N00808579EA0203202139
B0928124625752N00808588EA0203002138
B0928134625754N00808597EA0202902136
B0928144625757N00808606EA0202802135
B0928154625759N00808616EA0202702135
B0928164625762N00808625EA0202702134
B0928174625765N00808634EA0202602133
B0928184625767N00808642EA0202502132
B0928194625770N00808651EA0202402131
B0928204625773N00808660EA0202202129
B0928214625775N00808669EA0202102128
B0928224625778N00808677EA0202002127
B0928234625781N00808686EA0201902126
B0928244625783N00808695EA0201702124
B0928254625786N00808703EA0201602123
B0928264625789N00808712EA0201502122
B0928274625791N00808720EA0201302120
B0928284625794N00808729EA0201102118
B0928294625796N00808737EA0200902116
B0928304625799N00808746EA0200802115
B0928314625801N00808754EA0200702113
B0928324625803N00808762EA0200502111
B0928334625806N00808770EA0200302110
B0928344625809N00808778EA0200102108
B0928354625811N00808787EA0199902106
B0928364625814N00808795EA0199702104
B0928374625816N00808803EA0199502102
B0928384625819N00808811EA0199302100
B0928394625821N00808819EA0199202098
B0928404625824N00808827EA0199002096
B0928414625827N00808836EA0198802094
B0928424625830N00808844EA0198602093
B0928434625831N00808853EA0198502091
B0928444625834N00808861EA0198402090
B0928454625837N00808869EA0198202089
B0928464625839N00808877EA0198102087
B0928474625841N00808885EA0197902085
B0928484625844N00808894EA0197702083
B0928494625846N00808902EA0197602082
B0928504625848N00808910EA0197402080
B0928514625850N00808919EA0197302079
B0928524625852N00808927EA0197102078
B0928534625854N00808935EA0197102077
B0928544625857N00808943EA0196902076
B0928554625859N00808951EA0196802074
B0928564625861N00808959EA0196602072
B0928574625863N00808967EA0196502071
B0928584625866N00808975EA0196402070
B0928594625868N00808983EA0196202068
B0929004625870N00808991EA0196102067
B0929014625872N00808999EA0195902065
B0929024625875N00809006EA0195702063
B0929034625878N00809014EA0195502061
B0929044625880N00809022EA0195402059
B0929054625882N00809030EA0195202057
B0929064625885N00809038EA0195002056
B0929074625887N00809046EA0194902055
B0929084625890N00809054EA0194802054
B0929094625892N00809062EA0194702052
B0929104625895N00809069EA0194602051
B0929114625897N00809077EA0194402050
B0929124625900N00809084EA0194302048
B0929134625903N00809091EA0194102046
B0929144625905N00809099EA0193902045
B0929154625908N00809107EA0193802043
B0929164625910N00809114EA0193602042
B0929174625913N00809122EA0193502041
B0929184625915N00809129EA0193402039
B0929194625918N00809137EA0193202038
B0929204625920N00809145EA0193102037
B0929214625922N00809153EA0193002035
B0929224625925N00809161EA0192902034
B0929234625927N00809168EA0192702032
B0929244625929N00809176EA0192502031
B0929254625932N00809183EA0192402029
B0929264625934N00809191EA0192202028
B0929274625936N00809199EA0192102026
B0929284625939N00809207EA0192002025
B0929294625941N00809215EA0191902024
B0929304625944N00809223EA0191702023
B0929314625946N00809231EA0191602021
B0929324625949N00809239EA0191502020
B0929334625951N00809246EA0191302018
B0929344625954N00809254EA0191202017
B0929354625957N00809262EA0191102016
B0929364625960N00809269EA0190902014
B0929374625963N00809276EA0190802012
B0929384625966N00809284EA0190602011
B0929394625969N00809291EA0190402009
B0929404625972N00809298EA0190202007
B0929414625975N00809306EA0190102006
B0929424625978N00809314EA0190002004
B0929434625981N00809322EA0189902003
B0929444625984N00809329EA0189702002
B0929454625986N00809337EA0189602001
B0929464625989N00809345EA0189502000
B0929474625991N00809353EA0189401998
B0929484625993N00809361EA0189201997
B0929494625995N00809369EA0189101995
B0929504625996N00809377EA0189001994
B0929514625998N00809385EA0188801993
B0929524626000N00809393EA0188701991
B0929534626002N00809401EA0188501990
B0929544626003N00809410EA0188401989
B0929554626005N00809418EA0188301988
B0929564626006N00809426EA0188201986
B0929574626007N00809435EA0188101985
B0929584626008N00809442EA0188001984
B0929594626009N00809451EA0187901983
B0930004626011N00809459EA0187701981
B0930014626012N00809467EA0187501980
B0930024626013N00809475EA0187401978
B0930034626014N00809484EA0187301977
B0930044626016N00809492EA0187201976
B0930054626018N00809501EA0187101975
B0930064626019N00809509EA0187001974
B0930074626021N00809517EA0186801972
B0930084626022N00809525EA0186701971
B0930094626023N00809534EA0186601970
B0930104626025N00809542EA0186501969
B0930114626027N00809550EA0186301967
B0930124626028N00809559EA0186101965
B0930134626029N00809567EA0186001964
B0930144626030N00809576EA0185801962
B0930154626031N00809585EA0185701961
B0930164626032N00809593EA0185601960
B0930174626033N00809602EA0185501958
B0930184626033N00809611EA0185301957
B0930194626034N00809620EA0185201955
B0930204626035N00809628EA0185001954
B0930214626035N00809637EA0184801952
B0930224626036N00809646EA0184601950
B0930234626036N00809655EA0184401948
B0930244626037N00809664EA0184301947
B0930254626038N00809673EA0184101945
B0930264626038N00809682EA0184001943
B0930274626038N00809691EA0183901943
B0930284626037N00809701EA0183801942
B0930294626037N00809710EA0183701941
B0930304626036N00809718EA0183601940
B0930314626036N00809727EA0183501938
B0930324626036N00809736EA0183301936
B0930334626036N00809745EA0183101935
B0930344626036N00809753EA0183001934
B0930354626035N00809761EA0182901933
B0930364626035N00809770EA0182801931
B0930374626034N00809779EA0182701930
B0930384626033N00809788EA0182501929
B0930394626032N00809796EA0182401927
B0930404626032N00809805EA0182301926
B0930414626031N00809813EA0182201925
B0930424626031N00809822EA0182001923
B0930434626030N00809830EA0181901922
B0930444626029N00809839EA0181801921
B0930454626028N00809848EA0181601920
B0930464626027N00809856EA0181501918
B0930474626026N00809864EA0181401917
B0930484626025N00809872EA0181301916
B0930494626024N00809881EA0181101914
B0930504626023N00809889EA0180901912
B0930514626023N00809898EA0180701910
B0930524626022N00809907EA0180601908
B0930534626021N00809916EA0180401907
B0930544626019N00809926EA0180401907
B0930554626017N00809935EA0180501908
B0930564626015N00809943EA0180501908
B0930574626013N00809951EA0180501908
B0930584626012N00809960EA0180501908
B0930594626011N00809969EA0180501908
B0931004626009N00809978EA0180401906
B0931014626007N00809987EA0180301906
B0931024626006N00809996EA0180301906
B0931034626006N00810004EA0180301906
B0931044626006N00810013EA0180201905
B0931054626005N00810023EA0180101903
B0931064626004N00810032EA0180001903
B0931074626004N00810042EA0180101903
B0931084626004N00810052EA0180101903
B0931094626004N00810061EA0180101903
B0931104626004N00810070EA0180001902
B0931114626004N00810079EA0179901901
B0931124626004N00810089EA0179801900
B0931134626004N00810099EA0179701899
B0931144626004N00810108EA0179701899
B0931154626004N00810117EA0179601898
B0931164626005N00810125EA0179501897
B0931174626006N00810134EA0179401896
B0931184626007N00810143EA0179201894
B0931194626007N00810152EA0179001892
B0931204626006N00810161EA0178901891
B0931214626005N00810169EA0178901891
B0931224626003N00810178EA0178701889
B0931234626002N00810186EA0178601888
B0931244626000N00810194EA0178401886
B0931254625998N00810202EA0178201884
B0931264625995N00810210EA0178001882
B0931274625993N00810218EA0177901881
B0931284625990N00810229EA0177801880
B0931294625987N00810235EA0177701879
B0931304625984N00810243EA0177701879
B0931314625982N00810249EA0177601878
B0931324625979N00810255EA0177501877
B0931334625975N00810261EA0177401875
B0931344625971N00810267EA0177201873
B0931354625966N00810270EA0177001871
B0931364625961N00810273EA0176801869
B0931374625957N00810273EA0176601867
B0931384625952N00810273EA0176401866
B0931394625947N00810273EA0176201863
B0931404625942N00810272EA0176001862
B0931414625937N00810270EA0175901860
B0931424625932N00810268EA0175801860
B0931434625928N00810266EA0175901860
B0931444625924N00810263EA0175901861
B0931454625920N00810260EA0176001861
B0931464625916N00810257EA0176001862
B0931474625913N00810253EA0176201864
B0931484625909N00810249EA0176501866
B0931494625906N00810247EA0176701868
B0931504625903N00810245EA0176901870
B0931514625900N00810244EA0177101872
B0931524625897N00810243EA0177301874
B0931534625894N00810241EA0177501876
B0931544625892N00810237EA0177601877
B0931554625890N00810230EA0177601877
B0931564625891N00810222EA0177701878
B0931574625893N00810214EA0177901880
B0931584625898N00810208EA0178001881
B0931594625904N00810204EA0178101882
B0932004625911N00810205EA0178201883
B0932014625918N00810208EA0178401885
B0932024625922N00810215EA0178501886
B0932034625925N00810223EA0178401885
B0932044625925N00810232EA0178201883
B0932054625924N00810241EA0178101882
B0932064625920N00810248EA0178201882
B0932074625916N00810252EA0178401885
B0932084625912N00810252EA0178701888
B0932094625909N00810252EA0179101891
B0932104625907N00810253EA0179401895
B0932114625905N00810255EA0179601897
B0932124625903N00810256EA0179701898
B0932134625900N00810255EA0179801899
B0932144625897N00810251EA0180001901
B0932154625895N00810245EA0180301903
B0932164625896N00810237EA0180401905
B0932174625900N00810230EA0180801908
B0932184625906N00810226EA0181001910
B0932194625914N00810226EA0181101911
B0932204625920N00810229EA0181201913
B0932214625925N00810236EA0181201913
B0932224625928N00810244EA0181301913
B0932234625930N00810254EA0181301913
B0932244625928N00810263EA0181201913
B0932254625925N00810270EA0181501916
B0932264625922N00810273EA0181901920
B0932274625919N00810274EA0182301923
B0932284625917N00810271EA0182501926
B0932294625917N00810266EA0182701928
B0932304625918N00810259EA0182901929
B0932314625922N00810253EA0183001930
B0932324625929N00810250EA0183101931
B0932334625937N00810252EA0183101931
B0932344625944N00810257EA0183201932
B0932354625949N00810266EA0183301933
B0932364625953N00810275EA0183501935
B0932374625955N00810285EA0183601936
B0932384625955N00810295EA0183601936
B0932394625953N00810303EA0183701937
B0932404625949N00810310EA0183901939
B0932414625945N00810315EA0184201942
B0932424625941N00810317EA0184501945
B0932434625938N00810316EA0184901949
B0932444625936N00810313EA0185201952
B0932454625936N00810308EA0185301953
B0932464625939N00810301EA0185401954
B0932474625946N00810297EA0185501955
B0932484625954N00810298EA0185501955
B0932494625961N00810304EA0185601956
B0932504625966N00810314EA0185901959
B0932514625968N00810325EA0186201962
B0932524625968N00810336EA0186401964
B0932534625966N00810345EA0186701967
B0932544625963N00810353EA0187001970
B0932554625959N00810357EA0187301973
B0932564625955N00810358EA0187401974
B0932574625951N00810356EA0187601976
B0932584625948N00810351EA0187901979
B0932594625947N00810344EA0188301982
B0933004625950N00810338EA0188501985
B0933014625955N00810335EA0188801988
B0933024625961N00810335EA0189001990
B0933034625968N00810339EA0189201991
B0933044625974N00810346EA0189301993
B0933054625978N00810357EA0189401994
B0933064625978N00810369EA0189601996
B0933074625975N00810378EA0189901999
B0933084625971N00810383EA0190202002
B0933094625966N00810383EA0190502005
B0933104625962N00810381EA0190902009
B0933114625959N00810378EA0191102011
B0933124625957N00810374EA0191402014
B0933134625957N00810369EA0191502015
B0933144625959N00810364EA0191702017
B0933154625963N00810359EA0191902019
B0933164625969N00810357EA0192102021
B0933174625977N00810358EA0192202022
B0933184625984N00810364EA0192302024
B0933194625989N00810374EA0192502025
B0933204625990N00810385EA0192802028
B0933214625987N00810393EA0193002030
B0933224625982N00810398EA0193102031
B0933234625977N00810398EA0193402034
B0933244625972N00810396EA0193702037
B0933254625968N00810392EA0194002040
B0933264625966N00810386EA0194202043
B0933274625965N00810380EA0194502045
B0933284625966N00810375EA0194602047
B0933294625968N00810369EA0194902049
B0933304625973N00810363EA0195302053
B0933314625978N00810361EA0195502056
B0933324625984N00810361EA0195702058
B0933334625991N00810364EA0195902059
B0933344625998N00810368EA0196002061
B0933354626003N00810375EA0196202063
B0933364626007N00810384EA0196402065
B0933374626009N00810395EA0196602066
B0933384626007N00810405EA0196702068
B0933394626004N00810412EA0196902069
B0933404626000N00810415EA0197002071
B0933414625996N00810415EA0197102072
B0933424625993N00810413EA0197202072
B0933434625991N00810409EA0197202072
B0933444625988N00810403EA0197202073
B0933454625988N00810396EA0197302073
B0933464625990N00810388EA0197302074
B0933474625993N00810381EA0197602077
B0933484625998N00810375EA0198102082
B0933494626002N00810371EA0198502086
B0933504626006N00810368EA0198702088
B0933514626011N00810365EA0198802089
B0933524626017N00810363EA0198902090
B0933534626024N00810363EA0198902091
B0933544626032N00810367EA0199002091
B0933554626038N00810375EA0199102092
B0933564626041N00810385EA0199102093
B0933574626040N00810395EA0199302094
B0933584626038N00810403EA0199502096
B0933594626033N00810409EA0199702098
B0934004626028N00810410EA0199802099
B0934014626023N00810408EA0200002101
B0934024626020N00810404EA0200102103
B0934034626019N00810398EA0200202104
B0934044626019N00810391EA0200402105
B0934054626020N00810384EA0200602107
B0934064626021N00810377EA0200902110
B0934074626023N00810371EA0201202113
B0934084626026N00810368EA0201302115
B0934094626032N00810365EA0201302115
B0934104626039N00810365EA0201402116
B0934114626045N00810368EA0201602118
B0934124626051N00810374EA0201702119
B0934134626054N00810384EA0201702118
B0934144626053N00810394EA0201702119
B0934154626051N00810403EA0201802120
B0934164626047N00810410EA0202002122
B0934174626042N00810412EA0202102123
B0934184626038N00810411EA0202202124
B0934194626034N00810408EA0202302125
B0934204626031N00810402EA0202402126
B0934214626030N00810395EA0202502127
B0934224626032N00810388EA0202702128
B0934234626035N00810382EA0202902131
B0934244626040N00810378EA0203102133
B0934254626045N00810376EA0203202134
B0934264626052N00810377EA0203402136
B0934274626058N00810381EA0203502137
B0934284626063N00810388EA0203502137
B0934294626066N00810397EA0203502137
B0934304626067N00810407EA0203602138
B0934314626064N00810416EA0203702139
B0934324626060N00810422EA0203802140
B0934334626055N00810425EA0203902141
B0934344626050N00810424EA0204002142
B0934354626047N00810421EA0204102143
B0934364626045N00810415EA0204202144
B0934374626044N00810408EA0204302145
B0934384626046N00810402EA0204402146
B0934394626049N00810396EA0204502147
B0934404626053N00810391EA0204602148
B0934414626058N00810388EA0204702149
B0934424626064N00810386EA0204702150
B0934434626071N00810386EA0204802151
B0934444626078N00810390EA0205002152
B0934454626083N00810396EA0205102154
B0934464626087N00810405EA0205202155
B0934474626088N00810414EA0205302155
B0934484626087N00810422EA0205402157
B0934494626083N00810428EA0205402157
B0934504626078N00810432EA0205502158
B0934514626074N00810432EA0205602158
B0934524626070N00810430EA0205602159
B0934534626067N00810426EA0205702160
B0934544626066N00810420EA0205702160
B0934554626066N00810413EA0205802161
B0934564626067N00810406EA0205902162
B0934574626069N00810400EA0206102164
B0934584626072N00810394EA0206302165
B0934594626076N00810389EA0206402167
B0935004626080N00810384EA0206502168
B0935014626085N00810380EA0206502168
B0935024626092N00810379EA0206502168
B0935034626099N00810380EA0206502168
B0935044626106N00810385EA0206602169
B0935054626110N00810393EA0206802171
B0935064626112N00810401EA0207002173
B0935074626110N00810409EA0207102174
B0935084626107N00810415EA0207302176
B0935094626103N00810418EA0207302177
B0935104626098N00810417EA0207402177
B0935114626094N00810414EA0207402178
B0935124626092N00810408EA0207402177
B0935134626091N00810400EA0207402177
B0935144626093N00810392EA0207502178
B0935154626095N00810385EA0207602179
B0935164626098N00810378EA0207802182
B0935174626101N00810373EA0208002183
B0935184626106N00810368EA0208202186
B0935194626112N00810366EA0208402187
B0935204626118N00810367EA0208402187
B0935214626124N00810371EA0208502189
B0935224626129N00810378EA0208702190
B0935234626130N00810385EA0208802192
B0935244626129N00810392EA0208902192
B0935254626125N00810397EA0208902193
B0935264626121N00810400EA0209002194
B0935274626117N00810399EA0209102195
B0935284626114N00810395EA0209102195
B0935294626112N00810389EA0209002194
B0935304626112N00810381EA0209202195
B0935314626112N00810374EA0209502199
B0935324626112N00810368EA0209802202
B0935334626114N00810363EA0210002204
B0935344626116N00810359EA0210002204
B0935354626119N00810355EA0210002204
B0935364626125N00810352EA0209902203
B0935374626132N00810352EA0209902203
B0935384626139N00810354EA0210002204
B0935394626145N00810358EA0210002204
B0935404626149N00810365EA0210202206
B0935414626151N00810371EA0210202206
B0935424626151N00810378EA0210302207
B0935434626149N00810384EA0210302207
B0935444626146N00810387EA0210302207
B0935454626142N00810388EA0210302207
B0935464626137N00810388EA0210302208
B0935474626132N00810385EA0210502209
B0935484626128N00810381EA0210602210
B0935494626126N00810374EA0210802212
B0935504626128N00810368EA0210902213
B0935514626132N00810363EA0210902214
B0935524626138N00810359EA0211102216
B0935534626143N00810358EA0211302217
B0935544626149N00810359EA0211402218
B0935554626155N00810361EA0211302217
B0935564626160N00810365EA0211202217
B0935574626165N00810370EA0211202216
B0935584626169N00810377EA0211202216
B0935594626170N00810384EA0211202216
B0936004626170N00810391EA0211202216
B0936014626167N00810398EA0211102215
B0936024626164N00810402EA0211002215
B0936034626159N00810403EA0211102216
B0936044626154N00810402EA0211202217
B0936054626151N00810398EA0211302217
B0936064626151N00810392EA0211202217
B0936074626151N00810386EA0211202217
B0936084626154N00810379EA0211402219
B0936094626157N00810374EA0211402219
B0936104626160N00810368EA0211502220
B0936114626164N00810363EA0211502220
B0936124626168N00810358EA0211502220
B0936134626173N00810353EA0211502220
B0936144626178N00810348EA0211402219
B0936154626183N00810344EA0211302218
B0936164626189N00810342EA0211202217
B0936174626195N00810341EA0210902214
B0936184626201N00810343EA0210602211
B0936194626207N00810347EA0210302208
B0936204626212N00810352EA0209902204
B0936214626216N00810358EA0209702202
B0936224626220N00810365EA0209302198
B0936234626224N00810372EA0209002195
B0936244626228N00810379EA0208802193
B0936254626232N00810385EA0208702192
B0936264626237N00810392EA0208602191
B0936274626241N00810398EA0208402189
B0936284626246N00810404EA0208302188
B0936294626250N00810410EA0208202187
B0936304626254N00810416EA0208002185
B0936314626258N00810423EA0207802183
B0936324626263N00810431EA0207702181
B0936334626266N00810438EA0207402179
B0936344626271N00810446EA0207302178
B0936354626275N00810454EA0207202177
B0936364626279N00810461EA0207102176
B0936374626284N00810468EA0206902174
B0936384626289N00810474EA0206702172
B0936394626294N00810480EA0206602171
B0936404626299N00810487EA0206602171
B0936414626304N00810494EA0206602171
B0936424626308N00810501EA0206702172
B0936434626312N00810507EA0206702172
B0936444626316N00810511EA0206602172
B0936454626321N00810517EA0206602171
B0936464626326N00810523EA0206502170
B0936474626331N00810530EA0206502170
B0936484626337N00810538EA0206702172
B0936494626342N00810545EA0206802173
B0936504626345N00810551EA0206802173
B0936514626349N00810557EA0206702172
B0936524626353N00810564EA0206502170
B0936534626357N00810571EA0206302168
B0936544626361N00810579EA0206102166
B0936554626367N00810586EA0205902164
B0936564626373N00810592EA0205802163
B0936574626378N00810598EA0205702162
B0936584626383N00810604EA0205502160
B0936594626388N00810611EA0205302158
B0937004626394N00810617EA0205102156
B0937014626400N00810624EA0205002155
B0937024626407N00810630EA0204902154
B0937034626413N00810635EA0204802153
B0937044626419N00810641EA0204702153
B0937054626425N00810647EA0204702152
B0937064626431N00810653EA0204602151
B0937074626437N00810658EA0204402149
B0937084626444N00810664EA0204302148
B0937094626451N00810671EA0204202147
B0937104626457N00810677EA0204102147
B0937114626464N00810684EA0204202147
B0937124626470N00810691EA0204102147
B0937134626476N00810697EA0204102146
B0937144626482N00810702EA0204102146
B0937154626488N00810708EA0204002145
B0937164626494N00810712EA0203902145
B0937174626500N00810717EA0203802143
B0937184626506N00810722EA0203702142
B0937194626513N00810727EA0203802143
B0937204626520N00810732EA0204002145
B0937214626526N00810737EA0204102146
B0937224626532N00810740EA0204202147
B0937234626539N00810744EA0204202147
B0937244626545N00810748EA0204102146
B0937254626552N00810752EA0204102146
B0937264626559N00810757EA0204202147
B0937274626565N00810761EA0204202147
B0937284626570N00810765EA0204102146
B0937294626575N00810768EA0204002145
B0937304626581N00810772EA0203802143
B0937314626586N00810777EA0203702142
B0937324626592N00810783EA0203602141
B0937334626598N00810788EA0203502140
B0937344626604N00810793EA0203602141
B0937354626609N00810797EA0203502140
B0937364626613N00810801EA0203302139
B0937374626619N00810804EA0203102136
B0937384626624N00810809EA0202902134
B0937394626630N00810814EA0202702132
B0937404626635N00810819EA0202502130
B0937414626641N00810824EA0202302129
B0937424626646N00810828EA0202202127
B0937434626651N00810833EA0202102126
B0937444626656N00810837EA0202002125
B0937454626661N00810841EA0201902123
B0937464626665N00810846EA0201702122
B0937474626670N00810851EA0201602121
B0937484626675N00810856EA0201502120
B0937494626680N00810862EA0201502120
B0937504626685N00810868EA0201602121
B0937514626689N00810874EA0201802122
B0937524626693N00810879EA0201702122
B0937534626696N00810885EA0201602121
B0937544626700N00810891EA0201402119
B0937554626704N00810897EA0201302118
B0937564626709N00810904EA0201302118
B0937574626713N00810912EA0201402119
B0937584626717N00810919EA0201502119
B0937594626721N00810925EA0201502119
B0938004626724N00810930EA0201202117
B0938014626728N00810935EA0200902114
B0938024626732N00810940EA0200502110
B0938034626737N00810947EA0200302107
B0938044626743N00810955EA0200302107
B0938054626747N00810963EA0200302108
B0938064626751N00810971EA0200402109
B0938074626754N00810977EA0200402108
B0938084626758N00810984EA0200202106
B0938094626761N00810991EA0199902104
B0938104626765N00810999EA0199702101
B0938114626769N00811008EA0199402099
B0938124626773N00811016EA0199302097
B0938134626777N00811024EA0199102096
B0938144626782N00811032EA0199002095
B0938154626786N00811040EA0198902094
B0938164626790N00811048EA0199002094
B0938174626794N00811056EA0199002095
B0938184626798N00811065EA0199002095
B0938194626801N00811074EA0199002094
B0938204626804N00811082EA0198902094
B0938214626808N00811091EA0198902093
B0938224626811N00811100EA0198702092
B0938234626814N00811109EA0198702091
B0938244626818N00811117EA0198802093
B0938254626822N00811124EA0199002094
B0938264626825N00811130EA0199102095
B0938274626827N00811136EA0199002095
B0938284626829N00811143EA0199002094
B0938294626832N00811150EA0198902093
B0938304626835N00811158EA0198902094
B0938314626838N00811165EA0198902093
B0938324626841N00811171EA0198802092
B0938334626843N00811178EA0198702091
B0938344626845N00811185EA0198502090
B0938354626848N00811193EA0198402088
B0938364626851N00811201EA0198302087
B0938374626854N00811208EA0198202087
B0938384626856N00811216EA0198102086
B0938394626859N00811224EA0198202086
B0938404626861N00811231EA0198302088
B0938414626863N00811237EA0198402088
B0938424626865N00811242EA0198402088
B0938434626868N00811248EA0198202087
B0938444626870N00811254EA0198102085
B0938454626873N00811261EA0198002084
B0938464626876N00811269EA0197902084
B0938474626879N00811277EA0197902083
B0938484626881N00811285EA0197902084
B0938494626884N00811293EA0198002084
B0938504626886N00811300EA0197902084
B0938514626888N00811307EA0197802083
B0938524626890N00811315EA0197602081
B0938534626893N00811323EA0197302078
B0938544626895N00811332EA0197002074
B0938554626898N00811340EA0196702071
B0938564626900N00811349EA0196502069
B0938574626903N00811357EA0196302067
B0938584626906N00811365EA0196002065
B0938594626909N00811372EA0195802063
B0939004626913N00811380EA0195702061
B0939014626916N00811387EA0195502059
B0939024626919N00811394EA0195302057
B0939034626922N00811402EA0195102055
B0939044626926N00811409EA0194902053
B0939054626929N00811417EA0194702051
B0939064626933N00811424EA0194502050
B0939074626936N00811432EA0194402048
B0939084626940N00811439EA0194202047
B0939094626943N00811446EA0194102045
B0939104626946N00811453EA0193902044
B0939114626950N00811460EA0193802042
B0939124626954N00811468EA0193602041
B0939134626958N00811475EA0193502039
B0939144626962N00811483EA0193402038
B0939154626965N00811490EA0193302037
B0939164626969N00811498EA0193102036
B0939174626973N00811506EA0193002034
B0939184626977N00811513EA0192902033
B0939194626982N00811521EA0192702032
B0939204626986N00811529EA0192702031
B0939214626990N00811536EA0192602031
B0939224626994N00811544EA0192602030
B0939234626998N00811551EA0192502029
B0939244627002N00811559EA0192402029
B0939254627006N00811567EA0192302028
B0939264627010N00811574EA0192302027
B0939274627014N00811582EA0192202026
B0939284627019N00811590EA0192202026
B0939294627023N00811597EA0192102025
B0939304627028N00811604EA0192102025
B0939314627032N00811611EA0192002025
B0939324627036N00811619EA0192002024
B0939334627040N00811626EA0192002024
B0939344627044N00811634EA0191902023
B0939354627048N00811641EA0191802023
B0939364627052N00811649EA0191802022
B0939374627056N00811657EA0191702021
B0939384627059N00811664EA0191502019
B0939394627063N00811672EA0191402018
B0939404627067N00811679EA0191302017
B0939414627071N00811687EA0191302017
B0939424627074N00811694EA0191202016
B0939434627078N00811702EA0191202016
B0939444627082N00811709EA0191202016
B0939454627085N00811716EA0191102015
B0939464627089N00811723EA0191102015
B0939474627093N00811731EA0191102015
B0939484627097N00811738EA0191102015
B0939494627101N00811745EA0191102015
B0939504627105N00811752EA0191102015
B0939514627108N00811759EA0191002014
B0939524627111N00811765EA0190902014
B0939534627114N00811772EA0190802012
B0939544627117N00811779EA0190702011
B0939554627121N00811786EA0190502009
B0939564627124N00811793EA0190402008
B0939574627128N00811801EA0190402008
B0939584627130N00811808EA0190302007
B0939594627133N00811815EA0190202006
B0940004627136N00811822EA0190002004
B0940014627139N00811829EA0189802002
B0940024627142N00811837EA0189602000
B0940034627144N00811845EA0189501999
B0940044627148N00811853EA0189401997
B0940054627151N00811861EA0189301997
B0940064627154N00811869EA0189301996
B0940074627157N00811876EA0189201996
B0940084627160N00811883EA0189101995
B0940094627163N00811890EA0189001994
B0940104627167N00811897EA0188901993
B0940114627171N00811907EA0188801992
B0940124627173N00811913EA0188801991
B0940134627176N00811920EA0188701990
B0940144627180N00811927EA0188501989
B0940154627184N00811933EA0188401988
B0940164627187N00811940EA0188301987
B0940174627190N00811948EA0188301986
B0940184627194N00811955EA0188201985
B0940194627197N00811961EA0188101984
B0940204627200N00811968EA0188001983
B0940214627203N00811975EA0187801982
B0940224627206N00811982EA0187701980
B0940234627210N00811989EA0187501979
B0940244627215N00811996EA0187401978
B0940254627218N00812002EA0187301977
B0940264627222N00812009EA0187201976
B0940274627226N00812015EA0187201975
B0940284627230N00812020EA0187001974
B0940294627234N00812027EA0186901972
B0940304627238N00812033EA0186801971
B0940314627242N00812039EA0186601970
B0940324627246N00812045EA0186601969
B0940334627250N00812051EA0186601969
B0940344627253N00812057EA0186601969
B0940354627257N00812062EA0186501968
B0940364627260N00812068EA0186401967
B0940374627264N00812073EA0186201965
B0940384627267N00812079EA0186101964
B0940394627271N00812085EA0186001963
B0940404627275N00812091EA0185901962
B0940414627278N00812096EA0185801961
B0940424627282N00812102EA0185701960
B0940434627286N00812108EA0185601959
B0940444627289N00812114EA0185501958
B0940454627293N00812121EA0185401957
B0940464627297N00812127EA0185301956
B0940474627300N00812133EA0185101954
B0940484627304N00812139EA0185001953
B0940494627307N00812146EA0184801951
B0940504627309N00812153EA0184601949
B0940514627313N00812161EA0184501948
B0940524627316N00812167EA0184401946
B0940534627319N00812174EA0184201945
B0940544627323N00812181EA0184101944
B0940554627326N00812187EA0184001943
B0940564627330N00812194EA0183901941
B0940574627334N00812200EA0183801940
B0940584627338N00812206EA0183701940
B0940594627342N00812212EA0183601938
B0941004627346N00812218EA0183401937
B0941014627350N00812223EA0183201935
B0941024627354N00812229EA0183101934
B0941034627358N00812235EA0182901932
B0941044627362N00812241EA0182701930
B0941054627366N00812248EA0182501928
B0941064627370N00812254EA0182401927
B0941074627375N00812261EA0182401926
B0941084627379N00812268EA0182401927
B0941094627382N00812275EA0182401927
B0941104627385N00812280EA0182501928
B0941114627388N00812286EA0182601928
B0941124627390N00812290EA0182601928
B0941134627392N00812295EA0182501927
B0941144627394N00812300EA0182401926
B0941154627397N00812307EA0182301926
B0941164627399N00812315EA0182401926
B0941174627402N00812323EA0182501927
B0941184627404N00812331EA0182701930
B0941194627406N00812338EA0182901932
B0941204627408N00812344EA0183001932
B0941214627410N00812351EA0183001933
B0941224627412N00812358EA0182901932
B0941234627415N00812366EA0182801931
B0941244627418N00812373EA0182701930
B0941254627421N00812381EA0182601928
B0941264627423N00812388EA0182501927
B0941274627425N00812396EA0182301925
B0941284627427N00812403EA0182201924
B0941294627429N00812410EA0182001922
B0941304627431N00812418EA0181801920
B0941314627433N00812426EA0181701919
B0941324627436N00812433EA0181601918
B0941334627438N00812441EA0181401916
B0941344627440N00812449EA0181301915
B0941354627442N00812457EA0181101913
B0941364627445N00812464EA0181001912
B0941374627448N00812472EA0180801910
B0941384627450N00812479EA0180601908
B0941394627452N00812487EA0180501907
B0941404627454N00812494EA0180401906
B0941414627457N00812501EA0180201904
B0941424627459N00812508EA0180101902
B0941434627462N00812515EA0179901901
B0941444627465N00812521EA0179701899
B0941454627469N00812528EA0179601897
B0941464627472N00812534EA0179401896
B0941474627476N00812540EA0179201894
B0941484627480N00812546EA0179101892
B0941494627483N00812552EA0178901891
B0941504627486N00812559EA0178801889
B0941514627488N00812566EA0178601888
B0941524627491N00812573EA0178501886
B0941534627494N00812581EA0178301884
B0941544627496N00812589EA0178201883
B0941554627498N00812597EA0178101882
B0941564627501N00812605EA0178101882
B0941574627504N00812613EA0178101882
B0941584627506N00812620EA0178101882
B0941594627508N00812627EA0178001881
B0942004627510N00812634EA0177801880
B0942014627513N00812642EA0177701878
B0942024627515N00812650EA0177601877
B0942034627517N00812658EA0177501876
B0942044627519N00812666EA0177501876
B0942054627521N00812674EA0177401875
B0942064627522N00812681EA0177301874
B0942074627524N00812689EA0177101872
B0942084627526N00812696EA0176901870
B0942094627528N00812704EA0176801868
B0942104627530N00812712EA0176601867
B0942114627532N00812721EA0176501866
B0942124627534N00812728EA0176401865
B0942134627536N00812736EA0176301864
B0942144627538N00812744EA0176201862
B0942154627540N00812751EA0176001861
B0942164627542N00812759EA0175801859
B0942174627545N00812767EA0175701857
B0942184627547N00812775EA0175501856
B0942194627549N00812782EA0175401855
B0942204627551N00812790EA0175201853
B0942214627553N00812798EA0175101851
B0942224627556N00812805EA0174901850
B0942234627559N00812813EA0174701848
B0942244627561N00812820EA0174601846
B0942254627564N00812827EA0174401844
B0942264627567N00812835EA0174201842
B0942274627569N00812843EA0174001840
B0942284627572N00812850EA0173801839
B0942294627574N00812858EA0173701837
B0942304627577N00812865EA0173501835
B0942314627580N00812872EA0173301833
B0942324627583N00812879EA0173101832
B0942334627585N00812887EA0173001830
B0942344627588N00812894EA0172801829
B0942354627589N00812902EA0172701827
B0942364627591N00812909EA0172501825
B0942374627592N00812917EA0172301823
B0942384627593N00812926EA0172101821
B0942394627593N00812934EA0172001820
B0942404627592N00812943EA0171801818
B0942414627591N00812951EA0171701817
B0942424627591N00812960EA0171601816
B0942434627591N00812968EA0171501815
B0942444627590N00812977EA0171401814
B0942454627589N00812985EA0171201812
B0942464627589N00812994EA0170901809
B0942474627587N00813003EA0170801808
B0942484627586N00813011EA0170701807
B0942494627585N00813020EA0170601806
B0942504627584N00813028EA0170601806
B0942514627582N00813037EA0170501805
B0942524627581N00813046EA0170501804
B0942534627580N00813055EA0170401804
B0942544627579N00813063EA0170301803
B0942554627579N00813071EA0170201802
B0942564627578N00813080EA0170101801
B0942574627577N00813088EA0170001800
B0942584627576N00813097EA0169901799
B0942594627576N00813106EA0169801797
B0943004627575N00813114EA0169701796
B0943014627575N00813123EA0169601795
B0943024627574N00813132EA0169501794
B0943034627574N00813141EA0169401794
B0943044627573N00813150EA0169401793
B0943054627572N00813158EA0169201792
B0943064627571N00813166EA0169101790
B0943074627570N00813175EA0168901788
B0943084627569N00813184EA0168701786
B0943094627568N00813193EA0168501784
B0943104627567N00813202EA0168401783
B0943114627567N00813210EA0168301783
B0943124627568N00813218EA0168301782
B0943134627570N00813226EA0168101780
B0943144627573N00813233EA0168001779
B0943154627577N00813240EA0167901778
B0943164627581N00813245EA0167701776
B0943174627586N00813250EA0167601775
B0943184627591N00813253EA0167401773
B0943194627596N00813255EA0167301771
B0943204627602N00813257EA0167101770
B0943214627607N00813257EA0167001769
B0943224627613N00813256EA0166901767
B0943234627618N00813254EA0166701766
B0943244627624N00813251EA0166501764
B0943254627628N00813248EA0166401762
B0943264627633N00813243EA0166301761
B0943274627638N00813238EA0166101760
B0943284627642N00813233EA0166001759
B0943294627647N00813228EA0165901758
B0943304627651N00813224EA0165801757
B0943314627655N00813219EA0165701756
B0943324627659N00813214EA0165601755
B0943334627664N00813209EA0165501753
B0943344627670N00813207EA0165301752
B0943354627675N00813206EA0165201750
B0943364627682N00813208EA0165001749
B0943374627687N00813211EA0164901748
B0943384627692N00813217EA0164801747
B0943394627696N00813224EA0164701746
B0943404627698N00813232EA0164701745
B0943414627700N00813240EA0164601744
B0943424627701N00813248EA0164501743
B0943434627702N00813256EA0164401742
B0943444627704N00813264EA0164301741
B0943454627706N00813272EA0164101740
B0943464627707N00813280EA0164101739
B0943474627708N00813288EA0164001739
B0943484627709N00813295EA0164001738
B0943494627710N00813303EA0164001738
B0943504627711N00813311EA0163901737
B0943514627711N00813318EA0163801736
B0943524627712N00813326EA0163601734
B0943534627712N00813334EA0163401732
B0943544627713N00813343EA0163301731
B0943554627713N00813351EA0163201730
B0943564627713N00813360EA0163101729
B0943574627714N00813368EA0163001728
B0943584627713N00813376EA0162901726
B0943594627713N00813384EA0162801725
B0944004627713N00813392EA0162601724
B0944014627714N00813401EA0162501723
B0944024627713N00813409EA0162301721
B0944034627713N00813417EA0162201719
B0944044627713N00813425EA0162001718
B0944054627713N00813433EA0161801716
B0944064627713N00813441EA0161601713
B0944074627712N00813450EA0161301710
B0944084627712N00813459EA0161201709
B0944094627711N00813468EA0161101708
B0944104627710N00813478EA0161001708
B0944114627709N00813487EA0161001708
B0944124627708N00813496EA0161001708
B0944134627707N00813504EA0160901707
B0944144627705N00813512EA0160801705
B0944154627702N00813520EA0160701704
B0944164627698N00813526EA0160601703
B0944174627694N00813531EA0160401702
B0944184627689N00813534EA0160401701
B0944194627684N00813536EA0160401701
B0944204627680N00813537EA0160301701
B0944214627675N00813536EA0160301700
B0944224627671N00813535EA0160201699
B0944234627667N00813533EA0160101698
B0944244627663N00813529EA0160001697
B0944254627659N00813525EA0159901696
B0944264627656N00813521EA0159801695
B0944274627653N00813515EA0159601693
B0944284627650N00813510EA0159501692
B0944294627647N00813504EA0159301690
B0944304627645N00813499EA0159101688
B0944314627642N00813493EA0158901686
B0944324627638N00813487EA0158801685
B0944334627635N00813482EA0158601683
B0944344627631N00813477EA0158501682
B0944354627627N00813473EA0158401681
B0944364627622N00813468EA0158301679
B0944374627619N00813464EA0158101678
B0944384627615N00813460EA0157901675
B0944394627611N00813456EA0157601673
B0944404627607N00813451EA0157401671
B0944414627603N00813446EA0157201669
B0944424627599N00813440EA0157001667
B0944434627595N00813434EA0156901666
B0944444627591N00813429EA0156801664
B0944454627588N00813424EA0156601663
B0944464627584N00813420EA0156501662
B0944474627579N00813417EA0156401661
B0944484627575N00813416EA0156301659
B0944494627570N00813416EA0156101657
B0944504627565N00813418EA0155901655
B0944514627561N00813420EA0155701654
B0944524627557N00813424EA0155601652
B0944534627553N00813429EA0155501651
B0944544627550N00813435EA0155401650
B0944554627548N00813442EA0155201648
B0944564627547N00813450EA0155101647
B0944574627546N00813458EA0154901645
B0944584627547N00813466EA0154801644
B0944594627549N00813474EA0154701643
B0945004627552N00813482EA0154501641
B0945014627556N00813488EA0154401640
B0945024627560N00813494EA0154401640
B0945034627564N00813500EA0154301639
B0945044627570N00813504EA0154201638
B0945054627575N00813508EA0153901635
B0945064627581N00813512EA0153701633
B0945074627588N00813515EA0153501631
B0945084627594N00813516EA0153301629
B0945094627600N00813515EA0153201628
B0945104627606N00813513EA0153001626
B0945114627612N00813510EA0152801624
B0945124627617N00813505EA0152701623
B0945134627621N00813499EA0152601621
B0945144627625N00813493EA0152401620
B0945154627627N00813486EA0152301618
B0945164627629N00813480EA0152101616
B0945174627629N00813473EA0151901614
B0945184627629N00813465EA0151601612
B0945194627629N00813458EA0151401610
B0945204627628N00813451EA0151201608
B0945214627626N00813444EA0151101606
B0945224627624N00813438EA0150901604
B0945234627621N00813433EA0150701602
B0945244627618N00813428EA0150501600
B0945254627614N00813423EA0150301599
B0945264627610N00813419EA0150201597
B0945274627605N00813416EA0150001595
B0945284627601N00813414EA0149801593
B0945294627596N00813413EA0149701592
B0945304627591N00813412EA0149501590
B0945314627587N00813412EA0149301589
B0945324627582N00813413EA0149201587
B0945334627578N00813415EA0149101586
B0945344627574N00813417EA0148801583
B0945354627570N00813420EA0148601581
B0945364627565N00813425EA0148401579
B0945374627562N00813431EA0148201577
B0945384627561N00813439EA0148201577
B0945394627560N00813446EA0148101576
B0945404627560N00813454EA0148001575
B0945414627560N00813461EA0147801573
B0945424627561N00813468EA0147601571
B0945434627562N00813476EA0147401569
B0945444627563N00813485EA0147201567
B0945454627565N00813493EA0147201567
B0945464627569N00813501EA0147301567
B0945474627573N00813508EA0147301568
B0945484627579N00813513EA0147401569
B0945494627584N00813516EA0147501570
B0945504627590N00813519EA0147601570
B0945514627595N00813521EA0147501570
B0945524627600N00813521EA0147501569
B0945534627607N00813520EA0147401569
B0945544627613N00813518EA0147401569
B0945554627618N00813515EA0147501569
B0945564627622N00813510EA0147601571
B0945574627625N00813504EA0147701571
B0945584627626N00813498EA0147701571
B0945594627626N00813491EA0147701571
B0946004627627N00813485EA0147501569
B0946014627629N00813481EA0147201567
B0946024627631N00813475EA0147001564
B0946034627631N00813468EA0146701561
B0946044627629N00813460EA0146501559
B0946054627626N00813453EA0146401558
B0946064627624N00813447EA0146401558
B0946074627621N00813442EA0146301557
B0946084627619N00813437EA0146101556
B0946094627616N00813431EA0145901553
B0946104627612N00813426EA0145701551
B0946114627608N00813421EA0145601550
B0946124627604N00813417EA0145401548
B0946134627600N00813413EA0145301547
B0946144627596N00813410EA0145101545
B0946154627592N00813406EA0144901543
B0946164627588N00813403EA0144701541
B0946174627583N00813399EA0144501539
B0946184627579N00813396EA0144401538
B0946194627575N00813392EA0144301537
B0946204627571N00813389EA0144101535
B0946214627567N00813386EA0143901533
B0946224627564N00813382EA0143701531
B0946234627559N00813380EA0143601530
B0946244627555N00813377EA0143501529
B0946254627550N00813375EA0143501529
B0946264627546N00813372EA0143501529
B0946274627541N00813370EA0143401528
B0946284627537N00813369EA0143301527
B0946294627533N00813367EA0143201525
B0946304627529N00813365EA0143001524
B0946314627523N00813362EA0143001523
B0946324627519N00813359EA0143001524
B0946334627515N00813357EA0143101524
B0946344627511N00813356EA0143001524
B0946354627507N00813355EA0142901522
B0946364627502N00813355EA0142701520
B0946374627498N00813356EA0142501519
B0946384627493N00813357EA0142401518
B0946394627488N00813358EA0142301516
B0946404627483N00813359EA0142101514
B0946414627479N00813359EA0141801511
B0946424627474N00813360EA0141601509
B0946434627470N00813362EA0141401507
B0946444627465N00813366EA0141201505
B0946454627461N00813372EA0141001503
B0946464627458N00813377EA0140901502
B0946474627456N00813383EA0140801501
B0946484627453N00813389EA0140601499
B0946494627450N00813396EA0140401497
B0946504627448N00813403EA0140201495
B0946514627447N00813411EA0140001494
B0946524627446N00813421EA0139901492
B0946534627445N00813428EA0139801491
B0946544627444N00813436EA0139701490
B0946554627442N00813444EA0139601488
B0946564627442N00813452EA0139401487
B0946574627443N00813460EA0139301486
B0946584627444N00813468EA0139101484
B0946594627444N00813476EA0138901482
B0947004627445N00813484EA0138701480
B0947014627446N00813493EA0138501477
B0947024627447N00813502EA0138201475
B0947034627448N00813511EA0138001473
B0947044627450N00813520EA0137901471
B0947054627451N00813529EA0137701469
B0947064627453N00813538EA0137401467
B0947074627455N00813547EA0137201465
B0947084627458N00813557EA0137101464
B0947094627461N00813566EA0137001463
B0947104627463N00813574EA0137001462
B0947114627466N00813582EA0136901461
B0947124627469N00813590EA0136801460
B0947134627472N00813597EA0136601458
B0947144627474N00813605EA0136301456
B0947154627477N00813613EA0136001453
B0947164627480N00813621EA0135801450
B0947174627484N00813630EA0135601449
B0947184627488N00813638EA0135601448
B0947194627492N00813646EA0135601448
B0947204627496N00813653EA0135501447
B0947214627500N00813660EA0135401446
B0947224627504N00813667EA0135101443
B0947234627509N00813675EA0134801440
B0947244627514N00813684EA0134701439
B0947254627518N00813693EA0134701439
B0947264627522N00813701EA0134801440
B0947274627526N00813708EA0134901441
B0947284627530N00813714EA0134901441
B0947294627534N00813719EA0134801440
B0947304627538N00813725EA0134601438
B0947314627541N00813731EA0134401436
B0947324627545N00813739EA0134201434
B0947334627548N00813748EA0134101433
B0947344627551N00813756EA0134101433
B0947354627554N00813764EA0134201433
B0947364627558N00813770EA0134201434
B0947374627561N00813776EA0134301434
B0947384627564N00813782EA0134201434
B0947394627567N00813789EA0134101433
B0947404627571N00813797EA0134001432
B0947414627574N00813804EA0134001432
B0947424627578N00813812EA0134001431
B0947434627582N00813819EA0134001431
B0947444627585N00813827EA0134101432
B0947454627589N00813834EA0134201434
B0947464627593N00813840EA0134501436
B0947474627596N00813846EA0134601438
B0947484627599N00813851EA0134701438
B0947494627604N00813856EA0134701439
B0947504627608N00813860EA0134801439
B0947514627612N00813865EA0134901440
B0947524627616N00813871EA0134901440
B0947534627619N00813877EA0134801439
B0947544627622N00813883EA0134701438
B0947554627626N00813890EA0134601437
B0947564627631N00813896EA0134701438
B0947574627636N00813901EA0134701439
B0947584627640N00813905EA0134901440
B0947594627645N00813907EA0134801440
B0948004627649N00813910EA0134801439
B0948014627654N00813911EA0134601437
B0948024627661N00813911EA0134501436
B0948034627668N00813908EA0134701438
B0948044627673N00813906EA0135001441
B0948054627678N00813905EA0135101442
B0948064627682N00813905EA0135101442
B0948074627687N00813904EA0135001441
B0948084627692N00813903EA0134701438
B0948094627698N00813902EA0134501435
B0948104627703N00813899EA0134201433
B0948114627708N00813896EA0134101431
B0948124627713N00813892EA0133901430
B0948134627718N00813889EA0133801429
B0948144627722N00813885EA0133601427
B0948154627726N00813881EA0133501426
B0948164627729N00813876EA0133301424
B0948174627733N00813871EA0133201422
B0948184627737N00813866EA0133101421
B0948194627739N00813861EA0133001420
B0948204627742N00813857EA0132901419
B0948214627745N00813852EA0132701418
B0948224627747N00813846EA0132701417
B0948234627749N00813841EA0132701417
B0948244627751N00813836EA0132701418
B0948254627751N00813831EA0132601416
B0948264627751N00813827EA0132301413
B0948274627750N00813822EA0131901409
B0948284627748N00813815EA0131501405
B0948294627745N00813808EA0131101402
B0948304627743N00813801EA0131101401
B0948314627742N00813796EA0131101401
B0948324627740N00813791EA0130901399
B0948334627739N00813786EA0130701397
B0948344627736N00813781EA0130501395
B0948354627733N00813775EA0130301393
B0948364627729N00813770EA0130301393
B0948374627727N00813766EA0130301393
B0948384627724N00813763EA0130301393
B0948394627721N00813760EA0130001390
B0948404627719N00813755EA0129601386
B0948414627716N00813750EA0129401384
B0948424627713N00813744EA0129301383
B0948434627711N00813739EA0129501384
B0948444627709N00813736EA0129401384
B0948454627706N00813732EA0129101381
B0948464627705N00813729EA0128801378
B0948474627702N00813724EA0128601376
B0948484627699N00813720EA0128701377
B0948494627697N00813716EA0128801377
B0948504627697N00813714EA0128701377
B0948514627696N00813712EA0128601376
B0948524627696N00813710EA0128701377
B0948534627696N00813709EA0128801377
B0948544627696N00813709EA0128801377
B0948554627697N00813710EA0128801377
B0948564627697N00813710EA0128701377
B0948574627697N00813710EA0128801377
B0948584627697N00813710EA0128801377
B0948594627697N00813710EA0128801377
B0949004627697N00813710EA0128701377
B0949014627697N00813710EA0128801377
B0949024627697N00813710EA0128801377
B0949034627697N00813710EA0128801377
B0949044627697N00813710EA0128701377
B0949054627697N00813710EA0128801377
B0949064627697N00813710EA0128701377
B0949074627698N00813710EA0128701377
B0949084627698N00813710EA0128701377
B0949094627698N00813710EA0128701377
B0949104627698N00813710EA0128801377
B0949114627698N00813710EA0128701377
B0949124627698N00813710EA0128701377
B0949134627698N00813710EA0128701376
B0949144627698N00813710EA0128801377
B0949154627698N00813710EA0128801377
B0949164627698N00813710EA0128801376
B0949174627698N00813710EA0128801376
B0949184627699N00813710EA0128801377
B0949194627699N00813710EA0128801377
B0949204627699N00813710EA0128801377
B0949214627700N00813711EA0128801377
B0949224627700N00813711EA0128801377
B0949234627700N00813710EA0128801377
B0949244627700N00813711EA0128801377
B0949254627700N00813711EA0128801377
B0949264627700N00813711EA0128801377
B0949274627700N00813711EA0128801377
B0949284627700N00813711EA0128801377
B0949294627700N00813711EA0128801377
B0949304627700N00813711EA0128801377
B0949314627700N00813711EA0128801377
B0949324627700N00813711EA0128801377
B0949334627700N00813711EA0128801377
B0949344627700N00813711EA0128801377
B0949354627700N00813712EA0128801376
B0949364627700N00813712EA0128801376
B0949374627700N00813712EA0128801376
B0949384627700N00813712EA0128701376
B0949394627700N00813712EA0128701376
B0949404627699N00813712EA0128701376
B0949414627698N00813712EA0128701375
B0949424627697N00813712EA0128701375
B0949434627697N00813712EA0128701375
B0949444627696N00813712EA0128701375
B0949454627696N00813712EA0128701375
B0949464627695N00813712EA0128701375
B0949474627694N00813712EA0128701375
B0949484627694N00813712EA0128701375
B0949494627693N00813712EA0128601374
B0949504627693N00813712EA0128601374
B0949514627692N00813712EA0128601374
B0949524627692N00813712EA0128601374
B0949534627690N00813712EA0128601374
B0949544627690N00813712EA0128601374
B0949554627690N00813712EA0128601374
B0949564627689N00813712EA0128601374
B0949574627688N00813712EA0128601373
B0949584627688N00813712EA0128601373
B0949594627687N00813712EA0128601373
B0950004627686N00813712EA0128601373
B0950014627686N00813712EA0128601373
B0950024627685N00813712EA0128501373
B0950034627685N00813712EA0128501373
B0950044627684N00813712EA0128501373
B0950054627683N00813712EA0128501373
B0950064627683N00813712EA0128501372
B0950074627682N00813712EA0128501372
B0950084627682N00813712EA0128501372
B0950094627681N00813712EA0128501372
B0950104627681N00813712EA0128501372
B0950114627680N00813712EA0128501372
B0950124627679N00813712EA0128401372
B0950134627678N00813712EA0128401372
B0950144627678N00813711EA0128401372
B0950154627677N00813711EA0128401372
B0950164627676N00813711EA0128401372
B0950174627676N00813711EA0128401371
B0950184627675N00813710EA0128401371
B0950194627674N00813710EA0128401371
B0950204627674N00813710EA0128401371
B0950214627673N00813710EA0128401371
B0950224627672N00813710EA0128401371
B0950234627672N00813710EA0128401371
B0950244627671N00813709EA0128401371
B0950254627670N00813709EA0128401371
B0950264627670N00813709EA0128401371
B0950274627669N00813708EA0128401371
B0950284627669N00813708EA0128401371
B0950294627668N00813707EA0128401371
B0950304627668N00813707EA0128401371
B0950314627667N00813706EA0128401371
B0950324627667N00813706EA0128401371
B0950334627667N00813706EA0128401371
B0950344627667N00813706EA0128401371
B0950354627667N00813706EA0128401371
B0950364627667N00813706EA0128401371
B0950374627667N00813706EA0128401371
B0950384627667N00813706EA0128401371
B0950394627667N00813706EA0128401371
LXSX;C1;GM:1.4
LXSX;S1;TS:1785144041;TL:1785145839;AS:2159;AL:1371;AT:2377;AB:1371
LXSX;S1;XS:0;XD:11.96;SP:49.9;MC:3.4;MS:-2.4;NB:1800
LXSX;S1;FL:17.9;TG:354;TC:1.4;AG:783;GM:1.4
LXSX;S1;X0:46.41385,8.10815
LXSX;S1;X1:46.46133,8.22562
LXSX;S1;X2:46.45783,8.22270
LXSX;S1;X3:46.46180,8.23160
LXSX;S1;X4:46.46112,8.22843
GD98C6CA3A763CE802783E59202B3362D
