AXSX006 SKYTRAXX
HFPLTPILOT:Sepp
HFGTYGLIDERTYPE:Advance Sigma 11
HFDTM100GPSDATUM:WGS-84
HFRFWFIRMWAREVERSION:202512231104
HFRHWHARDWAREVERSION:5.0
HFTZNTIMEZONE:-3.00
HFSITSITE:Rampa do Mirante Alto
HFDTE120326
LXSX;I1;OAB:20260223;OOB:20260123
LXSX;I1;ID:115785
LXSX;I1;AC:1;CAT:C
LXSX;RAT:LTE M1;GSM:3
C120326140508000000000003route (7).gpx
C2044432S04103593WTAKEOFF
C2044236S04103514WSTART
C2041852S04105300WTURN
C2036301S04105304WTURN
C2038716S04119784WTURN
C2036878S04112085WFINISH
C2036878S04112085WLANDING
B1448042044432S04103593WA0054600571
B1448052044432S04103593WA0054600571
B1448062044432S04103593WA0054600571
B1448072044432S04103593WA0054600571
B1448082044432S04103593WA0054600571
B1448092044432S04103593WA0054500571
B1448102044432S04103593WA0054500571
B1448112044432S04103593WA0054500571
B1448122044432S04103593WA0054500571
B1448132044432S04103593WA0054500571
B1448142044431S04103593WA0054500571
B1448152044432S04103594WA0054400570
B1448162044432S04103594WA0054400570
B1448172044432S04103594WA0054500571
B1448182044433S04103595WA0054400570
B1448192044433S04103596WA0054300569
B1448202044435S04103598WA0054200568
B1448212044435S04103599WA0054100567
B1448222044436S04103602WA0053900565
B1448232044438S04103604WA0053800564
B1448242044441S04103609WA0053700563
B1448252044442S04103611WA0053700563
B1448262044444S04103614WA0053700562
B1448272044446S04103618WA0053600561
B1448282044447S04103622WA0053400560
B1448292044448S04103626WA0053300558
B1448302044449S04103631WA0053100557
B1448312044449S04103637WA0052900555
B1448322044449S04103643WA0052800554
B1448332044450S04103649WA0052600552
B1448342044451S04103654WA0052600551
B1448352044452S04103660WA0052500551
B1448362044452S04103666WA0052400550
B1448372044452S04103671WA0052300549
B1448382044451S04103677WA0052200547
B1448392044451S04103682WA0052000546
B1448402044451S04103688WA0051900544
B1448412044450S04103693WA0051700543
B1448422044449S04103699WA0051600542
B1448432044449S04103706WA0051500541
B1448442044448S04103712WA0051400539
B1448452044447S04103717WA0051200538
B1448462044446S04103723WA0051100536
B1448472044445S04103729WA0051000535
B1448482044445S04103735WA0050800534
B1448492044444S04103740WA0050700533
B1448502044443S04103746WA0050500531
B1448512044443S04103752WA0050400530
B1448522044443S04103758WA0050300529
B1448532044442S04103764WA0050300528
B1448542044442S04103770WA0050200528
B1448552044442S04103776WA0050100527
B1448562044441S04103781WA0049900525
B1448572044440S04103788WA0049800523
B1448582044439S04103794WA0049600522
B1448592044439S04103800WA0049400520
B1449002044438S04103807WA0049300519
B1449012044438S04103813WA0049200518
B1449022044437S04103819WA0049100516
B1449032044436S04103825WA0048900515
B1449042044436S04103831WA0048700513
B1449052044436S04103838WA0048600512
B1449062044435S04103845WA0048500510
B1449072044435S04103851WA0048400509
B1449082044435S04103857WA0048300509
B1449092044434S04103864WA0048200508
B1449102044434S04103869WA0048000506
B1449112044434S04103875WA0047800504
B1449122044434S04103882WA0047600502
B1449132044433S04103888WA0047500501
B1449142044432S04103894WA0047400499
B1449152044432S04103901WA0047200498
B1449162044433S04103907WA0047100496
B1449172044433S04103913WA0047000495
B1449182044433S04103919WA0046900495
B1449192044433S04103926WA0046900495
B1449202044434S04103932WA0047000495
B1449212044434S04103937WA0047000495
B1449222044435S04103942WA0047000496
B1449232044437S04103948WA0047100496
B1449242044438S04103953WA0047200497
B1449252044440S04103957WA0047200497
B1449262044443S04103961WA0047100497
B1449272044446S04103965WA0047100496
B1449282044449S04103970WA0047100496
B1449292044450S04103976WA0047200497
B1449302044450S04103981WA0047200497
B1449312044449S04103987WA0047300498
B1449322044446S04103992WA0047300498
B1449332044443S04103995WA0047300498
B1449342044439S04103998WA0047300498
B1449352044434S04103999WA0047200497
B1449362044428S04104000WA0047200497
B1449372044423S04103999WA0047200497
B1449382044418S04103997WA0047200497
B1449392044414S04103993WA0047200497
B1449402044410S04103989WA0047200496
B1449412044408S04103984WA0047200496
B1449422044408S04103980WA0047200497
B1449432044408S04103975WA0047200497
B1449442044410S04103972WA0047300497
B1449452044413S04103969WA0047300497
B1449462044417S04103966WA0047300497
B1449472044421S04103964WA0047300498
B1449482044426S04103964WA0047300498
B1449492044430S04103964WA0047400498
B1449502044435S04103965WA0047400499
B1449512044440S04103967WA0047500499
B1449522044444S04103969WA0047500500
B1449532044447S04103972WA0047600500
B1449542044450S04103975WA0047600500
B1449552044452S04103979WA0047600500
B1449562044453S04103985WA0047600501
B1449572044454S04103990WA0047600501
B1449582044453S04103996WA0047700501
B1449592044450S04104000WA0047700501
B1450002044446S04104004WA0047700501
B1450012044442S04104007WA0047600500
B1450022044437S04104009WA0047600500
B1450032044432S04104009WA0047600500
B1450042044427S04104008WA0047500499
B1450052044422S04104007WA0047400498
B1450062044417S04104003WA0047400498
B1450072044414S04103999WA0047400498
B1450082044411S04103995WA0047400498
B1450092044410S04103990WA0047400498
B1450102044411S04103985WA0047300497
B1450112044413S04103981WA0047300497
B1450122044416S04103978WA0047300497
B1450132044419S04103975WA0047400497
B1450142044424S04103973WA0047400498
B1450152044429S04103972WA0047400498
B1450162044434S04103971WA0047500498
B1450172044438S04103971WA0047500498
B1450182044442S04103971WA0047500498
B1450192044446S04103971WA0047500498
B1450202044450S04103973WA0047500498
B1450212044454S04103975WA0047400498
B1450222044457S04103978WA0047400498
B1450232044460S04103980WA0047400497
B1450242044464S04103983WA0047300497
B1450252044468S04103986WA0047300496
B1450262044470S04103989WA0047200496
B1450272044472S04103993WA0047100495
B1450282044474S04103998WA0047000494
B1450292044474S04104003WA0047000494
B1450302044475S04104007WA0047000493
B1450312044475S04104012WA0046900492
B1450322044476S04104017WA0046800491
B1450332044476S04104022WA0046700490
B1450342044477S04104027WA0046600490
B1450352044477S04104032WA0046600489
B1450362044478S04104037WA0046600489
B1450372044480S04104042WA0046500488
B1450382044481S04104048WA0046500488
B1450392044482S04104053WA0046500488
B1450402044483S04104059WA0046600489
B1450412044484S04104064WA0046600489
B1450422044485S04104069WA0046600489
B1450432044486S04104074WA0046500489
B1450442044487S04104079WA0046500488
B1450452044487S04104085WA0046400487
B1450462044487S04104091WA0046300486
B1450472044486S04104097WA0046300486
B1450482044485S04104102WA0046300486
B1450492044484S04104107WA0046200485
B1450502044483S04104112WA0046000483
B1450512044482S04104117WA0045800481
B1450522044481S04104123WA0045600479
B1450532044480S04104129WA0045400477
B1450542044479S04104135WA0045300476
B1450552044478S04104142WA0045200475
B1450562044478S04104148WA0045000473
B1450572044478S04104154WA0044900472
B1450582044478S04104160WA0044800471
B1450592044477S04104166WA0044800471
B1451002044477S04104172WA0044800471
B1451012044478S04104177WA0044700470
B1451022044478S04104182WA0044500468
B1451032044479S04104188WA0044300466
B1451042044479S04104193WA0044200465
B1451052044478S04104200WA0044100464
B1451062044478S04104204WA0044000463
B1451072044477S04104210WA0043800461
B1451082044476S04104215WA0043700460
B1451092044475S04104219WA0043500458
B1451102044475S04104224WA0043200455
B1451112044474S04104230WA0043000453
B1451122044474S04104235WA0042800451
B1451132044474S04104241WA0042600449
B1451142044474S04104246WA0042400447
B1451152044474S04104252WA0042200445
B1451162044473S04104257WA0042000443
B1451172044473S04104263WA0041900441
B1451182044474S04104268WA0041800441
B1451192044474S04104273WA0041700439
B1451202044475S04104278WA0041500438
B1451212044475S04104283WA0041400437
B1451222044475S04104288WA0041300435
B1451232044475S04104292WA0041100434
B1451242044475S04104298WA0040900432
B1451252044474S04104303WA0040700430
B1451262044474S04104308WA0040600428
B1451272044475S04104314WA0040400426
B1451282044475S04104319WA0040200424
B1451292044476S04104324WA0040000422
B1451302044477S04104330WA0039800420
B1451312044477S04104335WA0039500418
B1451322044478S04104341WA0039400416
B1451332044478S04104346WA0039100414
B1451342044479S04104352WA0039200414
B1451352044478S04104357WA0039100413
B1451362044478S04104364WA0038900412
B1451372044479S04104370WA0038800410
B1451382044480S04104375WA0038600409
B1451392044481S04104381WA0038500408
B1451402044482S04104386WA0038400406
B1451412044482S04104391WA0038300405
B1451422044483S04104396WA0038100403
B1451432044484S04104401WA0037900402
B1451442044485S04104407WA0037700400
B1451452044487S04104412WA0037600399
B1451462044488S04104418WA0037500398
B1451472044489S04104423WA0037400397
B1451482044490S04104428WA0037300396
B1451492044491S04104433WA0037200394
B1451502044492S04104438WA0037000392
B1451512044493S04104444WA0036800390
B1451522044493S04104449WA0036600389
B1451532044494S04104453WA0036400387
B1451542044495S04104459WA0036300386
B1451552044495S04104464WA0036100384
B1451562044495S04104469WA0036000382
B1451572044495S04104474WA0035800381
B1451582044496S04104480WA0035700379
B1451592044496S04104485WA0035500378
B1452002044497S04104490WA0035400377
B1452012044498S04104496WA0035300376
B1452022044500S04104501WA0035200375
B1452032044502S04104505WA0035200374
B1452042044504S04104509WA0035100373
B1452052044506S04104513WA0035000372
B1452062044508S04104517WA0034800371
B1452072044511S04104521WA0034700369
B1452082044513S04104525WA0034600368
B1452092044515S04104530WA0034500368
B1452102044517S04104534WA0034400367
B1452112044519S04104539WA0034300365
B1452122044521S04104543WA0034100364
B1452132044523S04104548WA0033900362
B1452142044525S04104552WA0033800360
B1452152044527S04104557WA0033600358
B1452162044528S04104562WA0033400356
B1452172044530S04104567WA0033200354
B1452182044531S04104572WA0033000352
B1452192044532S04104578WA0032800350
B1452202044533S04104583WA0032700349
B1452212044534S04104589WA0032500347
B1452222044535S04104594WA0032400346
B1452232044535S04104599WA0032200344
B1452242044536S04104604WA0032000342
B1452252044537S04104609WA0031800340
B1452262044537S04104615WA0031600337
B1452272044538S04104621WA0031300335
B1452282044538S04104627WA0031200333
B1452292044539S04104632WA0031000332
B1452302044539S04104637WA0030900331
B1452312044540S04104643WA0030800329
B1452322044541S04104648WA0030600328
B1452332044541S04104653WA0030400326
B1452342044542S04104659WA0030300324
B1452352044542S04104665WA0030200323
B1452362044543S04104671WA0030000322
B1452372044544S04104676WA0029900321
B1452382044545S04104682WA0029900320
B1452392044545S04104687WA0029800320
B1452402044546S04104692WA0029800320
B1452412044547S04104696WA0029800319
B1452422044548S04104701WA0029700318
B1452432044550S04104705WA0029600317
B1452442044552S04104709WA0029500316
B1452452044555S04104713WA0029500316
B1452462044558S04104717WA0029400316
B1452472044561S04104721WA0029400315
B1452482044564S04104725WA0029300314
B1452492044567S04104729WA0029200313
B1452502044569S04104733WA0029100312
B1452512044572S04104737WA0029100312
B1452522044575S04104741WA0029000311
B1452532044577S04104745WA0028900311
B1452542044580S04104749WA0028900310
B1452552044583S04104753WA0028700309
B1452562044585S04104757WA0028600307
B1452572044587S04104762WA0028500306
B1452582044589S04104767WA0028400305
B1452592044590S04104771WA0028300304
B1453002044592S04104775WA0028200302
B1453012044593S04104780WA0028000301
B1453022044595S04104784WA0027800299
B1453032044597S04104788WA0027600297
B1453042044599S04104792WA0027500295
B1453052044602S04104796WA0027300293
B1453062044604S04104800WA0027100291
B1453072044606S04104803WA0026900290
B1453082044607S04104808WA0026700288
B1453092044609S04104812WA0026500286
B1453102044611S04104817WA0026300284
B1453112044613S04104821WA0026200282
B1453122044615S04104826WA0026000281
B1453132044616S04104831WA0025900280
B1453142044616S04104835WA0025800279
B1453152044616S04104841WA0025700278
B1453162044616S04104845WA0025600277
B1453172044616S04104850WA0025500275
B1453182044616S04104855WA0025200273
B1453192044615S04104860WA0025000271
B1453202044614S04104866WA0024800268
B1453212044613S04104871WA0024500266
B1453222044611S04104876WA0024400264
B1453232044608S04104880WA0024100261
B1453242044604S04104884WA0023900259
B1453252044600S04104888WA0023700257
B1453262044595S04104892WA0023500255
B1453272044590S04104895WA0023300253
B1453282044585S04104898WA0023100251
B1453292044580S04104900WA0022800249
B1453302044575S04104903WA0022600246
B1453312044569S04104907WA0022400244
B1453322044565S04104910WA0022200242
B1453332044560S04104915WA0022000240
B1453342044556S04104919WA0021800238
B1453352044552S04104924WA0021600236
B1453362044548S04104929WA0021400234
B1453372044545S04104934WA0021200232
B1453382044543S04104940WA0021000230
B1453392044541S04104947WA0020800228
B1453402044539S04104952WA0020700226
B1453412044538S04104957WA0020500224
B1453422044537S04104963WA0020300222
B1453432044537S04104969WA0020000220
B1453442044536S04104976WA0019900218
B1453452044535S04104982WA0019700217
B1453462044535S04104990WA0019600216
B1453472044535S04104994WA0019600216
B1453482044535S04104999WA0019600216
B1453492044535S04105004WA0019600216
B1453502044535S04105008WA0019600216
B1453512044536S04105012WA0019500215
B1453522044536S04105016WA0019500214
B1453532044537S04105020WA0019400214
B1453542044538S04105025WA0019400213
B1453552044540S04105029WA0019400213
B1453562044542S04105034WA0019400213
B1453572044544S04105038WA0019400213
B1453582044546S04105043WA0019300212
B1453592044547S04105048WA0019100211
B1454002044548S04105053WA0018900208
B1454012044548S04105059WA0018700206
B1454022044547S04105063WA0018500205
B1454032044546S04105068WA0018400203
B1454042044545S04105073WA0018200201
B1454052044543S04105078WA0018000199
B1454062044542S04105083WA0017800197
B1454072044541S04105089WA0017700196
B1454082044539S04105094WA0017500194
B1454092044537S04105099WA0017400193
B1454102044535S04105105WA0017300192
B1454112044532S04105109WA0017200191
B1454122044528S04105113WA0017200191
B1454132044523S04105115WA0017200191
B1454142044519S04105117WA0017200190
B1454152044515S04105118WA0017100190
B1454162044511S04105119WA0016900188
B1454172044506S04105121WA0016700186
B1454182044501S04105123WA0016600184
B1454192044496S04105125WA0016400183
B1454202044491S04105127WA0016300182
B1454212044487S04105129WA0016200180
B1454222044482S04105129WA0016000179
B1454232044477S04105128WA0015900177
B1454242044472S04105126WA0015700175
B1454252044469S04105123WA0015600174
B1454262044465S04105119WA0015500173
B1454272044462S04105116WA0015400172
B1454282044459S04105112WA0015400172
B1454292044455S04105109WA0015400172
B1454302044452S04105107WA0015200170
B1454312044451S04105104WA0015000169
B1454322044449S04105099WA0014800167
B1454332044448S04105094WA0014700165
B1454342044449S04105089WA0014700165
B1454352044452S04105084WA0014700165
B1454362044454S04105081WA0014700165
B1454372044457S04105078WA0014600165
B1454382044459S04105075WA0014500163
B1454392044460S04105071WA0014200160
B1454402044459S04105065WA0013900157
B1454412044457S04105060WA0013700155
B1454422044455S04105056WA0013600154
B1454432044454S04105052WA0013600154
B1454442044453S04105048WA0013400152
B1454452044453S04105044WA0013300151
B1454462044452S04105041WA0013200150
B1454472044452S04105040WA0013300151
B1454482044452S04105038WA0013300151
B1454492044452S04105037WA0013300151
B1454502044451S04105037WA0013300151
B1454512044451S04105035WA0013300150
B1454522044451S04105035WA0013300150
B1454532044451S04105035WA0013300151
B1454542044451S04105034WA0013300151
B1454552044451S04105034WA0013300150
B1454562044451S04105034WA0013300150
B1454572044451S04105035WA0013300150
B1454582044451S04105034WA0013300150
B1454592044451S04105034WA0013300150
B1455002044451S04105034WA0013300150
B1455012044451S04105034WA0013300150
B1455022044451S04105034WA0013300150
B1455032044451S04105034WA0013300150
B1455042044451S04105034WA0013300150
B1455052044451S04105034WA0013300150
B1455062044451S04105034WA0013300150
B1455072044451S04105034WA0013300150
B1455082044451S04105034WA0013300150
B1455092044451S04105034WA0013300150
B1455102044451S04105034WA0013300150
B1455112044451S04105034WA0013300150
B1455122044451S04105034WA0013300150
B1455132044451S04105034WA0013300150
B1455142044451S04105034WA0013300150
B1455152044451S04105034WA0013300150
B1455162044451S04105034WA0013300150
B1455172044451S04105033WA0013300150
B1455182044451S04105033WA0013300150
B1455192044451S04105033WA0013300150
B1455202044451S04105033WA0013300150
B1455212044451S04105033WA0013300150
B1455222044451S04105033WA0013300150
B1455232044451S04105033WA0013300150
B1455242044451S04105033WA0013300150
B1455252044451S04105033WA0013300150
B1455262044451S04105033WA0013300150
B1455272044451S04105033WA0013300150
B1455282044451S04105033WA0013300150
B1455292044451S04105033WA0013300150
B1455302044451S04105033WA0013300149
B1455312044451S04105033WA0013300149
B1455322044451S04105033WA0013300149
B1455332044451S04105033WA0013300149
B1455342044451S04105033WA0013300149
B1455352044451S04105033WA0013300149
B1455362044451S04105033WA0013300149
B1455372044451S04105033WA0013300149
B1455382044451S04105033WA0013300149
B1455392044451S04105033WA0013300149
B1455402044451S04105034WA0013300149
B1455412044451S04105034WA0013300149
B1455422044451S04105034WA0013300149
B1455432044451S04105034WA0013300149
B1455442044451S04105034WA0013300149
B1455452044451S04105034WA0013300149
B1455462044451S04105034WA0013300149
B1455472044451S04105034WA0013300149
B1455482044451S04105034WA0013300149
B1455492044451S04105034WA0013300149
B1455502044451S04105034WA0013300149
B1455512044451S04105034WA0013300149
B1455522044451S04105034WA0013300149
B1455532044451S04105034WA0013300149
B1455542044451S04105034WA0013300149
B1455552044451S04105034WA0013300149
B1455562044451S04105034WA0013300149
B1455572044451S04105034WA0013300149
B1455582044451S04105034WA0013300149
B1455592044451S04105034WA0013300149
B1456002044451S04105034WA0013300149
B1456012044451S04105034WA0013300149
B1456022044451S04105034WA0013300149
B1456032044451S04105034WA0013300149
B1456042044451S04105034WA0013300149
B1456052044451S04105034WA0013300149
B1456062044451S04105034WA0013300149
B1456072044451S04105034WA0013300149
B1456082044451S04105034WA0013300149
B1456092044451S04105034WA0013300149
B1456102044451S04105033WA0013300148
B1456112044451S04105033WA0013300148
B1456122044451S04105033WA0013300148
B1456132044451S04105033WA0013300148
B1456142044451S04105033WA0013300148
B1456152044451S04105033WA0013300148
B1456162044451S04105033WA0013300148
B1456172044451S04105033WA0013300148
B1456182044451S04105033WA0013300148
B1456192044451S04105033WA0013300148
B1456202044451S04105033WA0013300148
B1456212044451S04105033WA0013300148
B1456222044451S04105033WA0013300148
B1456232044451S04105033WA0013300148
B1456242044451S04105033WA0013300148
B1456252044451S04105033WA0013300148
B1456262044451S04105033WA0013300148
B1456272044451S04105034WA0013300148
B1456282044451S04105034WA0013300148
B1456292044451S04105034WA0013300148
B1456302044451S04105034WA0013300148
B1456312044451S04105034WA0013300148
B1456322044451S04105034WA0013300148
B1456332044451S04105034WA0013300148
B1456342044451S04105034WA0013300148
B1456352044451S04105034WA0013300148
B1456362044451S04105034WA0013300148
B1456372044451S04105034WA0013300148
B1456382044451S04105034WA0013300148
B1456392044451S04105034WA0013300148
B1456402044451S04105034WA0013300148
B1456412044451S04105034WA0013300148
B1456422044451S04105034WA0013300148
B1456432044451S04105034WA0013300148
B1456442044451S04105034WA0013300148
B1456452044451S04105034WA0013300148
B1456462044451S04105034WA0013300148
B1456472044451S04105034WA0013300148
B1456482044451S04105034WA0013300148
B1456492044451S04105034WA0013300147
B1456502044451S04105034WA0013300147
LXSX;C1;GM:1.4
LXSX;S1;TS:1773326884;TL:1773327410;AS:571;AL:147;AT:571;AB:147
LXSX;S1;XS:0;XD:2.98;SP:39.1;MC:0.3;MS:-2.1;NB:528
LXSX;S1;FL:3.6;TG:0;TC:0.0;AG:14;GM:1.4
LXSX;S1;X0:-20.74055,-41.05993
LXSX;S1;X1:-20.74070,-41.06678
LXSX;S1;X2:-20.74032,-41.06625
LXSX;S1;X3:-20.74137,-41.08548
LXSX;S1;X4:-20.74085,-41.08391
G96B84EEBF0344659B46D7A27A080BAD0
