AXSX006 SKYTRAXX
HFPLTPILOT:Sepp
HFGTYGLIDERTYPE:Niviuk Artik R 2
HFDTM100GPSDATUM:WGS-84
HFRFWFIRMWAREVERSION:202603201607
HFRHWHARDWAREVERSION:5.0
HFTZNTIMEZONE:+3.00
HFSITSITE:Dainava_Le
HFDTE130626
LXSX;I1;OAB:20260612;OOB:20260123
LXSX;I1;ID:115785
LXSX;I1;AC:1;CAT:C
LXSX;RAT:LTE M1;GSM:3
B1041495514221N02440998EA0010500079
B1041505514221N02440998EA0010500080
B1041515514220N02440998EA0010500080
B1041525514220N02440998EA0010500080
B1041535514220N02440998EA0010500080
B1041545514220N02440998EA0010500079
B1041555514220N02440998EA0010500079
B1041565514220N02440998EA0010500079
B1041575514220N02440998EA0010500079
B1041585514220N02440998EA0010500079
B1041595514220N02440998EA0010500079
B1042005514220N02440997EA0010400079
B1042015514219N02440994EA0010400079
B1042025514218N02440993EA0010400079
B1042035514217N02440991EA0010400079
B1042045514215N02440987EA0010300078
B1042055514213N02440983EA0010300078
B1042065514211N02440978EA0010300078
B1042075514209N02440971EA0010200077
B1042085514205N02440963EA0010400079
B1042095514203N02440957EA0011100085
B1042105514201N02440953EA0011600091
B1042115514199N02440949EA0011900094
B1042125514197N02440944EA0012100096
B1042135514194N02440939EA0012200097
B1042145514191N02440933EA0012300098
B1042155514187N02440928EA0012500100
B1042165514182N02440924EA0012800102
B1042175514178N02440920EA0013100105
B1042185514174N02440917EA0013400109
B1042195514169N02440914EA0013600111
B1042205514165N02440910EA0013900114
B1042215514161N02440905EA0014100116
B1042225514158N02440899EA0014500119
B1042235514154N02440893EA0014700122
B1042245514150N02440887EA0015000125
B1042255514146N02440881EA0015400128
B1042265514141N02440876EA0015900134
B1042275514138N02440871EA0016200136
B1042285514134N02440866EA0016500140
B1042295514129N02440860EA0016700141
B1042305514124N02440855EA0017000145
B1042315514119N02440849EA0017200147
B1042325514115N02440843EA0017700152
B1042335514111N02440839EA0018200156
B1042345514107N02440834EA0018400159
B1042355514102N02440829EA0018800163
B1042365514098N02440822EA0019100165
B1042375514093N02440817EA0019700172
B1042385514089N02440813EA0020200176
B1042395514086N02440808EA0020500180
B1042405514083N02440801EA0020800183
B1042415514081N02440793EA0021200187
B1042425514079N02440784EA0021800193
B1042435514078N02440774EA0022300198
B1042445514077N02440765EA0022800203
B1042455514077N02440755EA0023300208
B1042465514076N02440745EA0023800213
B1042475514074N02440735EA0024300219
B1042485514072N02440725EA0025100226
B1042495514071N02440716EA0025600231
B1042505514068N02440707EA0025900235
B1042515514066N02440696EA0026500240
B1042525514064N02440685EA0027100246
B1042535514062N02440675EA0027700252
B1042545514059N02440666EA0028100256
B1042555514057N02440656EA0028500260
B1042565514055N02440646EA0028800264
B1042575514052N02440635EA0029300268
B1042585514049N02440624EA0029700273
B1042595514047N02440613EA0030100276
B1043005514045N02440603EA0030500280
B1043015514043N02440593EA0030700282
B1043025514041N02440583EA0031200288
B1043035514039N02440575EA0031700293
B1043045514038N02440567EA0032000295
B1043055514037N02440558EA0032300299
B1043065514037N02440549EA0032400300
B1043075514035N02440538EA0032700303
B1043085514035N02440527EA0033000305
B1043095514034N02440517EA0033400309
B1043105514034N02440508EA0033700312
B1043115514035N02440499EA0033800314
B1043125514036N02440490EA0033900315
B1043135514036N02440480EA0034000316
B1043145514037N02440470EA0034200318
B1043155514037N02440460EA0034600322
B1043165514037N02440450EA0035000326
B1043175514037N02440440EA0035300329
B1043185514037N02440431EA0035700333
B1043195514037N02440421EA0036100337
B1043205514037N02440412EA0036300339
B1043215514037N02440402EA0036600342
B1043225514037N02440392EA0036900345
B1043235514038N02440382EA0037200348
B1043245514038N02440372EA0037600352
B1043255514038N02440363EA0037900355
B1043265514039N02440354EA0038200358
B1043275514040N02440345EA0038400360
B1043285514040N02440335EA0038500361
B1043295514040N02440324EA0038800364
B1043305514041N02440314EA0039100367
B1043315514041N02440305EA0039500372
B1043325514040N02440297EA0039800374
B1043335514039N02440287EA0040000377
B1043345514039N02440278EA0040500381
B1043355514039N02440268EA0040900385
B1043365514039N02440259EA0041100387
B1043375514039N02440250EA0041500391
B1043385514039N02440240EA0041800394
B1043395514039N02440230EA0042100398
B1043405514039N02440220EA0042500401
B1043415514039N02440210EA0042900405
B1043425514040N02440200EA0043200409
B1043435514040N02440189EA0043500412
B1043445514041N02440179EA0044000416
B1043455514041N02440168EA0044400420
B1043465514041N02440159EA0044700424
B1043475514042N02440149EA0045100428
B1043485514042N02440139EA0045500432
B1043495514043N02440129EA0045900436
B1043505514043N02440119EA0046200439
B1043515514044N02440109EA0046700444
B1043525514045N02440099EA0047200449
B1043535514046N02440090EA0047600453
B1043545514047N02440081EA0048100458
B1043555514048N02440073EA0048500462
B1043565514050N02440065EA0048800465
B1043575514052N02440056EA0049200469
B1043585514053N02440046EA0049600473
B1043595514056N02440038EA0050100478
B1044005514057N02440029EA0050600484
B1044015514059N02440022EA0051100488
B1044025514060N02440013EA0051600493
B1044035514061N02440005EA0052000497
B1044045514062N02439996EA0052500502
B1044055514062N02439988EA0052600504
B1044065514063N02439980EA0053200509
B1044075514064N02439972EA0053600513
B1044085514065N02439966EA0053700515
B1044095514067N02439960EA0053800515
B1044105514068N02439955EA0053600513
B1044115514069N02439950EA0053300510
B1044125514071N02439943EA0052900506
B1044135514073N02439935EA0052600503
B1044145514075N02439927EA0052500502
B1044155514077N02439921EA0052400501
B1044165514079N02439915EA0052300500
B1044175514082N02439910EA0052300500
B1044185514084N02439904EA0052100498
B1044195514087N02439899EA0052000497
B1044205514090N02439894EA0051900496
B1044215514094N02439891EA0051800495
B1044225514098N02439888EA0051600493
B1044235514103N02439885EA0051400491
B1044245514108N02439882EA0051200488
B1044255514113N02439877EA0050900486
B1044265514119N02439873EA0050700484
B1044275514125N02439869EA0050600483
B1044285514130N02439866EA0050600482
B1044295514136N02439864EA0050400481
B1044305514141N02439863EA0050200479
B1044315514147N02439862EA0050100477
B1044325514154N02439860EA0049900476
B1044335514161N02439859EA0049900475
B1044345514167N02439858EA0049900476
B1044355514173N02439857EA0049900476
B1044365514178N02439857EA0049800475
B1044375514184N02439856EA0049600473
B1044385514190N02439855EA0049500472
B1044395514197N02439854EA0049400471
B1044405514205N02439853EA0049500471
B1044415514212N02439853EA0049500472
B1044425514218N02439855EA0049500471
B1044435514225N02439856EA0049500471
B1044445514231N02439857EA0049400470
B1044455514238N02439859EA0049300469
B1044465514246N02439860EA0049200468
B1044475514254N02439862EA0049300469
B1044485514261N02439867EA0049500471
B1044495514266N02439872EA0049600472
B1044505514272N02439877EA0049700473
B1044515514278N02439882EA0049800474
B1044525514285N02439887EA0049800474
B1044535514291N02439894EA0049900475
B1044545514296N02439905EA0049800475
B1044555514299N02439917EA0049900475
B1044565514300N02439929EA0049900475
B1044575514299N02439941EA0049900475
B1044585514298N02439951EA0049900475
B1044595514294N02439957EA0049800474
B1045005514290N02439960EA0049800473
B1045015514287N02439961EA0049800474
B1045025514285N02439962EA0049800474
B1045035514283N02439963EA0049900475
B1045045514281N02439963EA0049900475
B1045055514279N02439962EA0049700473
B1045065514278N02439960EA0049600472
B1045075514276N02439956EA0049500471
B1045085514276N02439951EA0049600472
B1045095514278N02439947EA0049700473
B1045105514278N02439945EA0049700473
B1045115514279N02439943EA0049700472
B1045125514280N02439939EA0049500471
B1045135514281N02439934EA0049500470
B1045145514281N02439928EA0049400469
B1045155514282N02439924EA0049400470
B1045165514284N02439920EA0049300469
B1045175514285N02439916EA0049300469
B1045185514287N02439911EA0049400469
B1045195514287N02439908EA0049400470
B1045205514288N02439904EA0049400470
B1045215514289N02439901EA0049300469
B1045225514289N02439897EA0049200467
B1045235514289N02439893EA0049000466
B1045245514290N02439888EA0048800464
B1045255514290N02439883EA0048700462
B1045265514291N02439878EA0048500461
B1045275514293N02439872EA0048400459
B1045285514297N02439866EA0048300458
B1045295514302N02439862EA0048100456
B1045305514310N02439860EA0048000456
B1045315514317N02439862EA0048100456
B1045325514324N02439865EA0048100457
B1045335514330N02439871EA0048100456
B1045345514336N02439877EA0048000456
B1045355514342N02439884EA0048000456
B1045365514349N02439891EA0047900455
B1045375514354N02439899EA0047800454
B1045385514360N02439907EA0047800453
B1045395514366N02439916EA0047800453
B1045405514373N02439924EA0047900454
B1045415514379N02439931EA0048000456
B1045425514385N02439937EA0048200457
B1045435514390N02439943EA0048300459
B1045445514395N02439949EA0048300459
B1045455514401N02439956EA0048300458
B1045465514406N02439965EA0048200457
B1045475514411N02439976EA0048100457
B1045485514416N02439987EA0048100457
B1045495514419N02439999EA0048100457
B1045505514420N02440011EA0048000455
B1045515514419N02440022EA0047800454
B1045525514418N02440032EA0047600452
B1045535514416N02440041EA0047500450
B1045545514413N02440050EA0047300449
B1045555514410N02440056EA0047100447
B1045565514406N02440061EA0047000446
B1045575514401N02440065EA0046900444
B1045585514398N02440068EA0046800443
B1045595514394N02440069EA0046800444
B1046005514391N02440070EA0046800444
B1046015514389N02440068EA0046900444
B1046025514388N02440064EA0046900444
B1046035514388N02440061EA0046900444
B1046045514389N02440058EA0046900444
B1046055514391N02440056EA0046800444
B1046065514391N02440053EA0046800443
B1046075514393N02440049EA0046600441
B1046085514393N02440045EA0046400439
B1046095514396N02440039EA0046300438
B1046105514399N02440033EA0046100436
B1046115514404N02440029EA0045900435
B1046125514411N02440026EA0045900435
B1046135514418N02440023EA0046100436
B1046145514424N02440020EA0046200438
B1046155514430N02440017EA0046400439
B1046165514435N02440014EA0046400439
B1046175514439N02440011EA0046400439
B1046185514445N02440008EA0046300438
B1046195514450N02440005EA0046200437
B1046205514456N02440000EA0046200437
B1046215514462N02439996EA0046200438
B1046225514468N02439992EA0046200438
B1046235514473N02439988EA0046200438
B1046245514478N02439985EA0046100437
B1046255514484N02439982EA0046000435
B1046265514489N02439979EA0045800433
B1046275514496N02439975EA0045600431
B1046285514503N02439972EA0045400429
B1046295514510N02439968EA0045300429
B1046305514517N02439964EA0045400429
B1046315514524N02439961EA0045500430
B1046325514531N02439958EA0045500431
B1046335514538N02439955EA0045600431
B1046345514544N02439952EA0045600431
B1046355514551N02439949EA0045600431
B1046365514557N02439945EA0045600431
B1046375514564N02439941EA0045600431
B1046385514571N02439937EA0045700432
B1046395514579N02439934EA0045800433
B1046405514585N02439931EA0046000436
B1046415514592N02439929EA0046200437
B1046425514597N02439925EA0046300438
B1046435514602N02439921EA0046300438
B1046445514605N02439916EA0046400439
B1046455514608N02439909EA0046400439
B1046465514610N02439903EA0046500440
B1046475514610N02439896EA0046600441
B1046485514609N02439891EA0046800443
B1046495514606N02439888EA0046900444
B1046505514603N02439888EA0047000445
B1046515514601N02439891EA0047100446
B1046525514599N02439896EA0047200447
B1046535514598N02439903EA0047200447
B1046545514598N02439911EA0047200447
B1046555514598N02439920EA0047200447
B1046565514599N02439930EA0047300448
B1046575514602N02439940EA0047200447
B1046585514607N02439949EA0047300448
B1046595514614N02439957EA0047300448
B1047005514621N02439964EA0047300449
B1047015514628N02439968EA0047400449
B1047025514635N02439970EA0047400449
B1047035514642N02439969EA0047300448
B1047045514649N02439967EA0047200447
B1047055514656N02439964EA0047200447
B1047065514662N02439960EA0047200447
B1047075514667N02439955EA0047200447
B1047085514671N02439950EA0047000445
B1047095514673N02439944EA0046800443
B1047105514674N02439938EA0046700442
B1047115514675N02439931EA0046400439
B1047125514675N02439925EA0046200436
B1047135514674N02439919EA0045900434
B1047145514673N02439913EA0045700432
B1047155514671N02439908EA0045500429
B1047165514667N02439905EA0045300428
B1047175514663N02439905EA0045400429
B1047185514659N02439906EA0045400429
B1047195514656N02439908EA0045500430
B1047205514653N02439910EA0045500430
B1047215514650N02439913EA0045500429
B1047225514646N02439914EA0045400429
B1047235514642N02439916EA0045400429
B1047245514638N02439919EA0045600431
B1047255514634N02439923EA0045800433
B1047265514631N02439927EA0046100436
B1047275514628N02439930EA0046300438
B1047285514626N02439932EA0046500439
B1047295514623N02439933EA0046600441
B1047305514621N02439934EA0046700442
B1047315514618N02439932EA0046800443
B1047325514617N02439928EA0046900443
B1047335514617N02439922EA0046900444
B1047345514619N02439915EA0047000445
B1047355514622N02439908EA0047100446
B1047365514628N02439902EA0047200446
B1047375514635N02439900EA0047300448
B1047385514642N02439902EA0047400448
B1047395514649N02439908EA0047500450
B1047405514654N02439918EA0047700452
B1047415514657N02439928EA0047900454
B1047425514659N02439938EA0048100456
B1047435514659N02439947EA0048300458
B1047445514657N02439955EA0048500460
B1047455514656N02439962EA0048600461
B1047465514653N02439968EA0048700462
B1047475514650N02439972EA0048800463
B1047485514647N02439973EA0049000465
B1047495514644N02439970EA0049100466
B1047505514642N02439965EA0049200467
B1047515514642N02439958EA0049400469
B1047525514645N02439951EA0049500470
B1047535514648N02439945EA0049600471
B1047545514654N02439940EA0049700472
B1047555514661N02439938EA0049800473
B1047565514668N02439938EA0049900474
B1047575514675N02439943EA0049900474
B1047585514681N02439950EA0050000475
B1047595514686N02439961EA0050100476
B1048005514689N02439972EA0050200478
B1048015514689N02439983EA0050400480
B1048025514688N02439992EA0050600481
B1048035514685N02439999EA0050800483
B1048045514682N02440003EA0051000485
B1048055514679N02440006EA0051200487
B1048065514675N02440008EA0051400489
B1048075514672N02440008EA0051600492
B1048085514668N02440007EA0051900494
B1048095514666N02440005EA0052100496
B1048105514664N02440001EA0052300498
B1048115514663N02439995EA0052500500
B1048125514664N02439987EA0052700502
B1048135514668N02439979EA0052900505
B1048145514673N02439974EA0053100506
B1048155514680N02439971EA0053200508
B1048165514687N02439972EA0053300509
B1048175514694N02439974EA0053500511
B1048185514700N02439980EA0053700512
B1048195514706N02439988EA0053700513
B1048205514711N02439998EA0053800514
B1048215514712N02440010EA0053900515
B1048225514711N02440020EA0054000516
B1048235514708N02440028EA0054100517
B1048245514705N02440033EA0054300519
B1048255514701N02440035EA0054600522
B1048265514698N02440035EA0054900525
B1048275514695N02440033EA0055100527
B1048285514692N02440031EA0055300529
B1048295514689N02440026EA0055600532
B1048305514688N02440020EA0055800534
B1048315514688N02440014EA0055900535
B1048325514690N02440007EA0055900536
B1048335514693N02440000EA0056000536
B1048345514698N02439994EA0056100537
B1048355514704N02439990EA0056200538
B1048365514711N02439989EA0056300540
B1048375514719N02439992EA0056500541
B1048385514726N02439999EA0056600542
B1048395514731N02440010EA0056800544
B1048405514733N02440021EA0057000546
B1048415514734N02440031EA0057100547
B1048425514733N02440040EA0057200548
B1048435514731N02440048EA0057400550
B1048445514728N02440053EA0057500551
B1048455514725N02440056EA0057600553
B1048465514721N02440057EA0057800554
B1048475514718N02440058EA0058000556
B1048485514715N02440058EA0058100558
B1048495514712N02440057EA0058200558
B1048505514710N02440054EA0058300559
B1048515514708N02440050EA0058300560
B1048525514707N02440045EA0058400561
B1048535514707N02440039EA0058500562
B1048545514707N02440033EA0058600563
B1048555514707N02440027EA0058700563
B1048565514708N02440021EA0058700564
B1048575514711N02440014EA0058800565
B1048585514715N02440007EA0058800565
B1048595514719N02440000EA0058900566
B1049005514724N02439996EA0059100568
B1049015514731N02439994EA0059200569
B1049025514737N02439994EA0059300570
B1049035514744N02439998EA0059400570
B1049045514750N02440005EA0059500572
B1049055514756N02440014EA0059600573
B1049065514759N02440025EA0059700574
B1049075514761N02440035EA0059900576
B1049085514760N02440045EA0060100577
B1049095514759N02440052EA0060100577
B1049105514756N02440056EA0060100577
B1049115514753N02440057EA0060100578
B1049125514750N02440055EA0060200578
B1049135514748N02440051EA0060200579
B1049145514747N02440046EA0060300579
B1049155514746N02440041EA0060300580
B1049165514746N02440036EA0060400581
B1049175514746N02440030EA0060500581
B1049185514746N02440024EA0060500582
B1049195514747N02440017EA0060500582
B1049205514749N02440010EA0060600583
B1049215514752N02440003EA0060700583
B1049225514756N02439997EA0060700584
B1049235514762N02439992EA0060800585
B1049245514769N02439990EA0060800585
B1049255514776N02439990EA0060800585
B1049265514783N02439992EA0061000586
B1049275514790N02439997EA0061200589
B1049285514796N02440006EA0061500592
B1049295514799N02440016EA0061700594
B1049305514799N02440026EA0061900595
B1049315514797N02440035EA0062000596
B1049325514795N02440039EA0062100598
B1049335514792N02440039EA0062200599
B1049345514790N02440037EA0062300600
B1049355514787N02440034EA0062300600
B1049365514786N02440029EA0062400601
B1049375514786N02440023EA0062500601
B1049385514786N02440015EA0062600602
B1049395514789N02440007EA0062700603
B1049405514791N02440000EA0062900605
B1049415514796N02439994EA0063100607
B1049425514800N02439989EA0063200608
B1049435514807N02439987EA0063200609
B1049445514814N02439987EA0063300610
B1049455514822N02439991EA0063500611
B1049465514829N02439998EA0063700613
B1049475514833N02440009EA0063900615
B1049485514836N02440021EA0064100617
B1049495514836N02440032EA0064300620
B1049505514835N02440039EA0064500622
B1049515514833N02440044EA0064600623
B1049525514830N02440047EA0064700624
B1049535514827N02440048EA0064800625
B1049545514824N02440046EA0064900625
B1049555514823N02440041EA0064900626
B1049565514823N02440034EA0065000627
B1049575514823N02440026EA0065200628
B1049585514826N02440019EA0065300630
B1049595514830N02440013EA0065500632
B1050005514834N02440008EA0065700634
B1050015514840N02440006EA0065800635
B1050025514847N02440006EA0066000637
B1050035514853N02440009EA0066300640
B1050045514860N02440014EA0066600643
B1050055514864N02440022EA0066900646
B1050065514867N02440032EA0067200649
B1050075514868N02440041EA0067300650
B1050085514868N02440050EA0067500652
B1050095514867N02440057EA0067600653
B1050105514865N02440061EA0067600653
B1050115514863N02440062EA0067600653
B1050125514859N02440060EA0067600653
B1050135514856N02440056EA0067800654
B1050145514855N02440050EA0068000656
B1050155514855N02440043EA0068100658
B1050165514857N02440036EA0068200659
B1050175514860N02440030EA0068300660
B1050185514864N02440023EA0068500662
B1050195514870N02440017EA0068700664
B1050205514876N02440014EA0069000667
B1050215514882N02440015EA0069400671
B1050225514888N02440019EA0069700674
B1050235514893N02440025EA0069900676
B1050245514897N02440034EA0070200679
B1050255514899N02440043EA0070600683
B1050265514900N02440052EA0070900686
B1050275514898N02440058EA0071100688
B1050285514895N02440063EA0071300690
B1050295514892N02440066EA0071500692
B1050305514889N02440066EA0071700694
B1050315514887N02440063EA0071800695
B1050325514887N02440057EA0071900696
B1050335514887N02440049EA0072000697
B1050345514889N02440041EA0072200699
B1050355514894N02440034EA0072400701
B1050365514900N02440029EA0072600703
B1050375514905N02440028EA0073000707
B1050385514912N02440030EA0073200709
B1050395514918N02440036EA0073300710
B1050405514923N02440044EA0073600713
B1050415514926N02440054EA0073900716
B1050425514927N02440064EA0074100718
B1050435514924N02440071EA0074200719
B1050445514921N02440075EA0074500722
B1050455514918N02440076EA0074800725
B1050465514915N02440076EA0075100728
B1050475514913N02440073EA0075400731
B1050485514913N02440069EA0075500732
B1050495514913N02440062EA0075600733
B1050505514913N02440054EA0075700734
B1050515514915N02440046EA0075900736
B1050525514919N02440039EA0076200739
B1050535514924N02440034EA0076400741
B1050545514930N02440031EA0076600743
B1050555514936N02440029EA0076800745
B1050565514942N02440030EA0077100748
B1050575514949N02440034EA0077300750
B1050585514954N02440041EA0077500752
B1050595514958N02440051EA0077800755
B1051005514959N02440061EA0078100758
B1051015514959N02440070EA0078300760
B1051025514957N02440075EA0078500762
B1051035514954N02440079EA0078700764
B1051045514951N02440083EA0078900766
B1051055514948N02440084EA0079200769
B1051065514944N02440083EA0079400771
B1051075514941N02440079EA0079600773
B1051085514940N02440073EA0079800775
B1051095514940N02440066EA0080000778
B1051105514940N02440058EA0080300780
B1051115514943N02440050EA0080500782
B1051125514946N02440043EA0080700784
B1051135514950N02440038EA0080800786
B1051145514957N02440033EA0081000787
B1051155514963N02440033EA0081200789
B1051165514970N02440036EA0081300790
B1051175514976N02440042EA0081500793
B1051185514981N02440050EA0081800796
B1051195514983N02440060EA0082100799
B1051205514983N02440069EA0082400802
B1051215514982N02440077EA0082700804
B1051225514980N02440083EA0082900806
B1051235514976N02440086EA0083100808
B1051245514973N02440085EA0083300810
B1051255514970N02440082EA0083400812
B1051265514967N02440075EA0083600813
B1051275514966N02440067EA0083700815
B1051285514967N02440058EA0083900817
B1051295514969N02440050EA0084100819
B1051305514974N02440043EA0084200820
B1051315514979N02440039EA0084400821
B1051325514985N02440037EA0084500823
B1051335514991N02440037EA0084700824
B1051345514997N02440040EA0084800826
B1051355515003N02440047EA0085000827
B1051365515008N02440056EA0085200829
B1051375515011N02440067EA0085400832
B1051385515013N02440077EA0085700835
B1051395515014N02440086EA0086100838
B1051405515015N02440095EA0086400841
B1051415515015N02440103EA0086700844
B1051425515013N02440110EA0087000847
B1051435515010N02440116EA0087300850
B1051445515007N02440117EA0087500853
B1051455515004N02440116EA0087800855
B1051465515002N02440112EA0087900857
B1051475515001N02440105EA0088000858
B1051485515001N02440097EA0088100858
B1051495515004N02440089EA0088200859
B1051505515008N02440082EA0088300860
B1051515515014N02440078EA0088400861
B1051525515021N02440077EA0088500862
B1051535515029N02440080EA0088600864
B1051545515036N02440087EA0088800865
B1051555515042N02440096EA0089000868
B1051565515047N02440106EA0089300870
B1051575515051N02440116EA0089600874
B1051585515054N02440126EA0090000877
B1051595515057N02440135EA0090200880
B1052005515057N02440143EA0090300881
B1052015515057N02440152EA0090400881
B1052025515056N02440161EA0090500883
B1052035515053N02440169EA0090700885
B1052045515050N02440174EA0091000888
B1052055515047N02440175EA0091200889
B1052065515045N02440172EA0091300890
B1052075515043N02440167EA0091400892
B1052085515044N02440161EA0091700894
B1052095515047N02440154EA0091900897
B1052105515052N02440149EA0092000898
B1052115515059N02440145EA0092100899
B1052125515067N02440144EA0092400901
B1052135515074N02440145EA0092600904
B1052145515081N02440149EA0092800906
B1052155515088N02440157EA0093000907
B1052165515093N02440167EA0093100908
B1052175515096N02440178EA0093200909
B1052185515098N02440188EA0093200910
B1052195515098N02440196EA0093100909
B1052205515098N02440204EA0093000908
B1052215515096N02440213EA0093000908
B1052225515094N02440221EA0093100908
B1052235515092N02440228EA0093000908
B1052245515089N02440235EA0093100908
B1052255515086N02440242EA0093100909
B1052265515084N02440250EA0093100909
B1052275515081N02440258EA0093200909
B1052285515078N02440266EA0093200910
B1052295515075N02440273EA0093300910
B1052305515072N02440281EA0093400911
B1052315515068N02440287EA0093500913
B1052325515064N02440294EA0093700914
B1052335515060N02440300EA0093800915
B1052345515055N02440305EA0093900917
B1052355515052N02440310EA0094000918
B1052365515047N02440315EA0094100919
B1052375515043N02440321EA0094200920
B1052385515039N02440326EA0094400921
B1052395515034N02440331EA0094500923
B1052405515030N02440336EA0094700925
B1052415515026N02440341EA0094800926
B1052425515022N02440345EA0095000928
B1052435515017N02440349EA0095200929
B1052445515013N02440353EA0095500932
B1052455515009N02440358EA0095800936
B1052465515004N02440361EA0096200940
B1052475515001N02440363EA0096700944
B1052485514998N02440365EA0097200949
B1052495514996N02440367EA0097500953
B1052505514994N02440369EA0097800955
B1052515514992N02440373EA0098000957
B1052525514989N02440379EA0098200960
B1052535514988N02440387EA0098500963
B1052545514989N02440397EA0098700965
B1052555514991N02440408EA0099000968
B1052565514995N02440417EA0099400972
B1052575514999N02440425EA0099900976
B1052585515004N02440431EA0100200980
B1052595515010N02440436EA0100600984
B1053005515016N02440437EA0101000987
B1053015515022N02440436EA0101200989
B1053025515027N02440433EA0101500993
B1053035515031N02440428EA0101900996
B1053045515033N02440422EA0102100998
B1053055515033N02440416EA0102301001
B1053065515032N02440410EA0102501003
B1053075515030N02440405EA0102701005
B1053085515027N02440403EA0103101009
B1053095515023N02440405EA0103401012
B1053105515020N02440411EA0103601014
B1053115515018N02440419EA0103901017
B1053125515017N02440428EA0104301021
B1053135515018N02440438EA0104701025
B1053145515021N02440447EA0105101029
B1053155515024N02440455EA0105501033
B1053165515030N02440462EA0105801036
B1053175515036N02440465EA0106201039
B1053185515042N02440464EA0106501042
B1053195515047N02440458EA0106801045
B1053205515049N02440449EA0107001048
B1053215515048N02440443EA0107401052
B1053225515047N02440439EA0107801056
B1053235515044N02440437EA0108101059
B1053245515042N02440436EA0108401062
B1053255515038N02440436EA0108701065
B1053265515034N02440437EA0109101069
B1053275515030N02440441EA0109501073
B1053285515028N02440448EA0109801076
B1053295515027N02440458EA0110101079
B1053305515028N02440467EA0110401082
B1053315515030N02440476EA0110701085
B1053325515034N02440485EA0111001087
B1053335515039N02440491EA0111101088
B1053345515045N02440495EA0111301090
B1053355515052N02440495EA0111601093
B1053365515059N02440492EA0111901097
B1053375515064N02440487EA0112501102
B1053385515066N02440481EA0112901107
B1053395515067N02440476EA0113201109
B1053405515066N02440472EA0113401112
B1053415515065N02440467EA0113701115
B1053425515063N02440463EA0114001118
B1053435515060N02440460EA0114301121
B1053445515055N02440461EA0114501122
B1053455515051N02440465EA0114701125
B1053465515049N02440473EA0115001128
B1053475515048N02440483EA0115201130
B1053485515049N02440494EA0115501132
B1053495515053N02440504EA0115701135
B1053505515059N02440510EA0116001138
B1053515515065N02440513EA0116301140
B1053525515070N02440512EA0116501143
B1053535515076N02440508EA0116701145
B1053545515081N02440502EA0117001148
B1053555515085N02440496EA0117501152
B1053565515089N02440492EA0118001158
B1053575515092N02440488EA0118301161
B1053585515094N02440485EA0118501162
B1053595515096N02440479EA0118501163
B1054005515096N02440471EA0118601164
B1054015515095N02440464EA0118801166
B1054025515091N02440459EA0119001168
B1054035515087N02440457EA0119301171
B1054045515084N02440458EA0119601173
B1054055515080N02440462EA0119901176
B1054065515077N02440468EA0120201180
B1054075515075N02440475EA0120601183
B1054085515075N02440483EA0120901186
B1054095515076N02440492EA0121001188
B1054105515078N02440502EA0121201190
B1054115515082N02440511EA0121501193
B1054125515087N02440519EA0121801195
B1054135515093N02440524EA0122001197
B1054145515100N02440525EA0122201199
B1054155515107N02440523EA0122401202
B1054165515112N02440518EA0122701205
B1054175515115N02440512EA0122901207
B1054185515117N02440505EA0123101209
B1054195515118N02440498EA0123201209
B1054205515117N02440492EA0123301211
B1054215515114N02440488EA0123501212
B1054225515110N02440485EA0123701214
B1054235515107N02440484EA0123801216
B1054245515103N02440484EA0124001218
B1054255515099N02440485EA0124201219
B1054265515095N02440487EA0124301220
B1054275515091N02440492EA0124301220
B1054285515087N02440499EA0124401221
B1054295515084N02440508EA0124601223
B1054305515081N02440516EA0124901226
B1054315515078N02440523EA0125101228
B1054325515075N02440529EA0125301230
B1054335515072N02440537EA0125401231
B1054345515070N02440547EA0125401231
B1054355515069N02440558EA0125501232
B1054365515069N02440571EA0125601233
B1054375515070N02440583EA0126001237
B1054385515072N02440593EA0126401241
B1054395515075N02440600EA0126501242
B1054405515078N02440606EA0126601243
B1054415515083N02440612EA0126701243
B1054425515088N02440617EA0126801245
B1054435515094N02440620EA0127001247
B1054445515101N02440617EA0127101248
B1054455515106N02440611EA0127301250
B1054465515108N02440602EA0127601253
B1054475515108N02440594EA0127801255
B1054485515105N02440590EA0128001257
B1054495515101N02440587EA0128201259
B1054505515097N02440586EA0128401261
B1054515515094N02440586EA0128701264
B1054525515090N02440589EA0128801265
B1054535515087N02440595EA0128801265
B1054545515083N02440604EA0128801265
B1054555515080N02440614EA0128901266
B1054565515078N02440626EA0129001267
B1054575515078N02440637EA0129201268
B1054585515078N02440647EA0129201268
B1054595515082N02440657EA0129101267
B1055005515087N02440666EA0129001267
B1055015515093N02440674EA0129101267
B1055025515100N02440679EA0129101268
B1055035515106N02440681EA0129201269
B1055045515112N02440679EA0129301270
B1055055515117N02440674EA0129501271
B1055065515122N02440668EA0129701273
B1055075515126N02440661EA0129901275
B1055085515128N02440654EA0130101277
B1055095515129N02440648EA0130301280
B1055105515128N02440643EA0130401281
B1055115515127N02440639EA0130501282
B1055125515123N02440635EA0130601283
B1055135515119N02440634EA0130801284
B1055145515114N02440636EA0130901285
B1055155515109N02440643EA0130901285
B1055165515106N02440651EA0130801285
B1055175515103N02440660EA0130801285
B1055185515102N02440671EA0130801284
B1055195515101N02440683EA0130701283
B1055205515102N02440697EA0130601282
B1055215515104N02440710EA0130601282
B1055225515107N02440721EA0130701283
B1055235515110N02440732EA0130901285
B1055245515115N02440740EA0131101288
B1055255515120N02440746EA0131201289
B1055265515126N02440751EA0131301289
B1055275515132N02440753EA0131401290
B1055285515137N02440752EA0131501291
B1055295515143N02440748EA0131601292
B1055305515146N02440741EA0131601292
B1055315515148N02440734EA0131601292
B1055325515149N02440727EA0131701293
B1055335515148N02440722EA0131701293
B1055345515147N02440717EA0131601292
B1055355515144N02440715EA0131501291
B1055365515140N02440715EA0131401291
B1055375515135N02440717EA0131401290
B1055385515130N02440721EA0131401290
B1055395515126N02440727EA0131601292
B1055405515123N02440734EA0131701293
B1055415515121N02440742EA0131701293
B1055425515119N02440751EA0131701293
B1055435515118N02440760EA0131501291
B1055445515117N02440771EA0131301289
B1055455515116N02440783EA0131201287
B1055465515115N02440795EA0131201288
B1055475515114N02440808EA0131301289
B1055485515112N02440820EA0131601292
B1055495515111N02440831EA0131801294
B1055505515110N02440840EA0132001295
B1055515515110N02440849EA0132001296
B1055525515109N02440859EA0132201297
B1055535515108N02440870EA0132401299
B1055545515107N02440879EA0132501301
B1055555515104N02440887EA0132601302
B1055565515101N02440892EA0132501301
B1055575515096N02440895EA0132401300
B1055585515092N02440895EA0132401300
B1055595515088N02440893EA0132401300
B1056005515085N02440889EA0132401299
B1056015515083N02440884EA0132401300
B1056025515081N02440879EA0132501301
B1056035515081N02440875EA0132501301
B1056045515081N02440872EA0132501301
B1056055515084N02440868EA0132301299
B1056065515087N02440864EA0132201298
B1056075515092N02440860EA0132101297
B1056085515097N02440859EA0132001296
B1056095515103N02440861EA0131901295
B1056105515110N02440866EA0131901294
B1056115515115N02440875EA0131901295
B1056125515118N02440885EA0131901295
B1056135515120N02440895EA0131901295
B1056145515121N02440905EA0132001295
B1056155515122N02440914EA0131801294
B1056165515122N02440924EA0131701293
B1056175515122N02440935EA0131801294
B1056185515122N02440947EA0131901295
B1056195515122N02440958EA0132001296
B1056205515122N02440968EA0132201298
B1056215515122N02440979EA0132301299
B1056225515122N02440989EA0132401300
B1056235515123N02441001EA0132501301
B1056245515123N02441012EA0132601302
B1056255515124N02441024EA0132701303
B1056265515125N02441036EA0132901305
B1056275515125N02441047EA0133101307
B1056285515125N02441059EA0133201308
B1056295515125N02441071EA0133301309
B1056305515125N02441083EA0133401310
B1056315515125N02441094EA0133401310
B1056325515126N02441106EA0133401310
B1056335515127N02441119EA0133201308
B1056345515127N02441131EA0133101308
B1056355515127N02441144EA0133101307
B1056365515126N02441157EA0133001306
B1056375515125N02441169EA0133001306
B1056385515125N02441181EA0133001306
B1056395515123N02441193EA0132901305
B1056405515123N02441205EA0132901305
B1056415515122N02441217EA0132901305
B1056425515120N02441228EA0132901305
B1056435515119N02441240EA0132901305
B1056445515119N02441251EA0132901305
B1056455515119N02441263EA0132801304
B1056465515119N02441275EA0132701303
B1056475515119N02441288EA0132601302
B1056485515118N02441301EA0132501301
B1056495515117N02441314EA0132401300
B1056505515117N02441328EA0132301299
B1056515515116N02441342EA0132301299
B1056525515116N02441356EA0132301299
B1056535515116N02441370EA0132301299
B1056545515115N02441383EA0132201298
B1056555515114N02441396EA0132301299
B1056565515112N02441409EA0132201298
B1056575515112N02441422EA0132301299
B1056585515112N02441434EA0132201298
B1056595515112N02441446EA0132101297
B1057005515110N02441458EA0131901295
B1057015515109N02441471EA0131801294
B1057025515108N02441484EA0131701293
B1057035515108N02441498EA0131701293
B1057045515107N02441510EA0131601292
B1057055515107N02441523EA0131501291
B1057065515106N02441535EA0131401290
B1057075515106N02441548EA0131301289
B1057085515106N02441562EA0131201288
B1057095515105N02441576EA0131201288
B1057105515104N02441589EA0131201288
B1057115515104N02441602EA0131101287
B1057125515103N02441615EA0130901285
B1057135515103N02441628EA0130701283
B1057145515103N02441642EA0130401280
B1057155515103N02441656EA0130101278
B1057165515103N02441671EA0129901275
B1057175515103N02441685EA0129601272
B1057185515103N02441700EA0129301269
B1057195515104N02441716EA0129101267
B1057205515103N02441732EA0128901265
B1057215515103N02441748EA0128901265
B1057225515102N02441764EA0128901265
B1057235515102N02441779EA0128901265
B1057245515102N02441794EA0128701263
B1057255515102N02441809EA0128601262
B1057265515103N02441824EA0128501261
B1057275515103N02441840EA0128401260
B1057285515103N02441855EA0128401260
B1057295515104N02441870EA0128501261
B1057305515105N02441884EA0128501261
B1057315515105N02441898EA0128401260
B1057325515105N02441912EA0128301259
B1057335515105N02441927EA0128201258
B1057345515104N02441943EA0128101257
B1057355515103N02441958EA0128201258
B1057365515102N02441972EA0128301259
B1057375515101N02441984EA0128201258
B1057385515100N02441997EA0128101257
B1057395515100N02442011EA0127901256
B1057405515099N02442026EA0127901255
B1057415515098N02442041EA0127801254
B1057425515097N02442055EA0127901256
B1057435515097N02442069EA0128001256
B1057445515096N02442082EA0128001256
B1057455515096N02442098EA0127901255
B1057465515096N02442110EA0127701253
B1057475515095N02442125EA0127501251
B1057485515094N02442140EA0127501251
B1057495515092N02442154EA0127501251
B1057505515090N02442166EA0127401250
B1057515515088N02442179EA0127301249
B1057525515087N02442193EA0127201248
B1057535515085N02442208EA0127201248
B1057545515083N02442222EA0127201249
B1057555515080N02442235EA0127301249
B1057565515078N02442248EA0127401250
B1057575515077N02442261EA0127301250
B1057585515075N02442274EA0127301249
B1057595515073N02442288EA0127301249
B1058005515071N02442302EA0127301249
B1058015515069N02442316EA0127301250
B1058025515068N02442329EA0127401250
B1058035515067N02442343EA0127301250
B1058045515065N02442356EA0127201249
B1058055515063N02442370EA0127201248
B1058065515062N02442384EA0127101248
B1058075515060N02442396EA0127201248
B1058085515059N02442408EA0127201249
B1058095515059N02442418EA0127101248
B1058105515058N02442430EA0126901245
B1058115515057N02442442EA0126601243
B1058125515056N02442456EA0126401240
B1058135515054N02442469EA0126401240
B1058145515053N02442481EA0126601242
B1058155515051N02442491EA0126601242
B1058165515050N02442500EA0126501241
B1058175515049N02442511EA0126301239
B1058185515048N02442522EA0126101237
B1058195515047N02442534EA0126001237
B1058205515046N02442546EA0126001237
B1058215515045N02442557EA0126101237
B1058225515044N02442569EA0126001237
B1058235515043N02442580EA0126001236
B1058245515043N02442592EA0125901235
B1058255515042N02442605EA0125801234
B1058265515041N02442614EA0125701233
B1058275515040N02442625EA0125501231
B1058285515040N02442636EA0125401230
B1058295515040N02442648EA0125301230
B1058305515039N02442661EA0125301229
B1058315515039N02442675EA0125501231
B1058325515039N02442688EA0125701234
B1058335515039N02442700EA0126001237
B1058345515040N02442710EA0126201238
B1058355515041N02442719EA0126201239
B1058365515041N02442729EA0126201238
B1058375515041N02442739EA0126001236
B1058385515039N02442750EA0125901235
B1058395515038N02442762EA0125901235
B1058405515037N02442773EA0125901235
B1058415515038N02442785EA0126001236
B1058425515039N02442797EA0126001236
B1058435515040N02442809EA0126001236
B1058445515041N02442821EA0126101237
B1058455515041N02442834EA0126101238
B1058465515041N02442845EA0126201238
B1058475515041N02442856EA0126301239
B1058485515042N02442868EA0126301240
B1058495515043N02442880EA0126301240
B1058505515047N02442892EA0126401240
B1058515515052N02442903EA0126301239
B1058525515058N02442913EA0126201238
B1058535515065N02442919EA0126101237
B1058545515072N02442923EA0126001237
B1058555515080N02442925EA0125901236
B1058565515086N02442925EA0125801234
B1058575515091N02442922EA0125601232
B1058585515095N02442918EA0125301230
B1058595515097N02442913EA0125101227
B1059005515098N02442907EA0124801224
B1059015515097N02442901EA0124701223
B1059025515096N02442898EA0124601222
B1059035515092N02442899EA0124501221
B1059045515088N02442903EA0124401220
B1059055515085N02442909EA0124501221
B1059065515082N02442915EA0124501221
B1059075515080N02442921EA0124501221
B1059085515078N02442926EA0124501221
B1059095515075N02442932EA0124501221
B1059105515072N02442938EA0124401220
B1059115515069N02442945EA0124401220
B1059125515067N02442951EA0124301219
B1059135515063N02442957EA0124301219
B1059145515060N02442963EA0124301219
B1059155515058N02442970EA0124301219
B1059165515055N02442976EA0124301219
B1059175515053N02442984EA0124301219
B1059185515051N02442991EA0124201218
B1059195515049N02442999EA0124101217
B1059205515047N02443007EA0124101217
B1059215515045N02443016EA0124001216
B1059225515043N02443026EA0124001216
B1059235515041N02443036EA0124001216
B1059245515039N02443045EA0124001216
B1059255515038N02443055EA0124001216
B1059265515037N02443066EA0124001216
B1059275515035N02443077EA0123901215
B1059285515034N02443089EA0123901215
B1059295515034N02443101EA0124001216
B1059305515034N02443112EA0123901215
B1059315515035N02443124EA0123801214
B1059325515035N02443137EA0123801214
B1059335515036N02443151EA0123701213
B1059345515038N02443165EA0123601212
B1059355515038N02443178EA0123601212
B1059365515039N02443191EA0123601212
B1059375515040N02443203EA0123501211
B1059385515041N02443215EA0123301209
B1059395515041N02443226EA0123201208
B1059405515042N02443238EA0122901205
B1059415515043N02443250EA0122601202
B1059425515044N02443262EA0122301199
B1059435515046N02443275EA0122001196
B1059445515046N02443288EA0121801194
B1059455515047N02443301EA0121501191
B1059465515048N02443314EA0121301189
B1059475515049N02443326EA0121001186
B1059485515050N02443339EA0120601182
B1059495515051N02443352EA0120201178
B1059505515050N02443366EA0120001176
B1059515515049N02443381EA0120001176
B1059525515047N02443393EA0120101177
B1059535515047N02443405EA0120201178
B1059545515047N02443415EA0120001176
B1059555515047N02443426EA0119801174
B1059565515047N02443438EA0119501171
B1059575515047N02443450EA0119201168
B1059585515047N02443464EA0118901165
B1059595515047N02443477EA0118701163
B1100005515048N02443490EA0118401160
B1100015515049N02443503EA0118201158
B1100025515049N02443517EA0118101157
B1100035515050N02443530EA0117901155
B1100045515052N02443544EA0117801154
B1100055515053N02443557EA0117701153
B1100065515054N02443569EA0117601152
B1100075515055N02443581EA0117401150
B1100085515056N02443593EA0117201148
B1100095515057N02443605EA0117001146
B1100105515059N02443618EA0116601142
B1100115515060N02443632EA0116301139
B1100125515061N02443646EA0116201138
B1100135515062N02443659EA0116101137
B1100145515063N02443671EA0116001136
B1100155515066N02443683EA0115801134
B1100165515068N02443695EA0115601132
B1100175515070N02443708EA0115301129
B1100185515071N02443720EA0115101127
B1100195515073N02443733EA0114901125
B1100205515075N02443746EA0114601122
B1100215515077N02443759EA0114301119
B1100225515078N02443771EA0114001117
B1100235515080N02443785EA0113801114
B1100245515082N02443798EA0113601112
B1100255515084N02443811EA0113501111
B1100265515086N02443824EA0113301109
B1100275515088N02443836EA0113101107
B1100285515089N02443849EA0112901105
B1100295515091N02443862EA0112601102
B1100305515092N02443876EA0112401100
B1100315515094N02443890EA0112201098
B1100325515096N02443904EA0112101097
B1100335515097N02443918EA0112001096
B1100345515099N02443931EA0111901095
B1100355515102N02443944EA0111801094
B1100365515103N02443957EA0111601092
B1100375515106N02443971EA0111501091
B1100385515108N02443985EA0111301089
B1100395515110N02443999EA0111201088
B1100405515112N02444012EA0111101087
B1100415515113N02444026EA0110901085
B1100425515115N02444040EA0110801084
B1100435515117N02444054EA0110601082
B1100445515119N02444068EA0110501081
B1100455515120N02444083EA0110301079
B1100465515122N02444097EA0110101077
B1100475515123N02444110EA0110001076
B1100485515125N02444124EA0110001076
B1100495515127N02444137EA0109801074
B1100505515129N02444151EA0109701073
B1100515515131N02444165EA0109501071
B1100525515133N02444179EA0109301069
B1100535515135N02444193EA0109201068
B1100545515137N02444208EA0109201068
B1100555515139N02444222EA0109201068
B1100565515140N02444235EA0109101067
B1100575515141N02444248EA0109001066
B1100585515143N02444261EA0108801064
B1100595515144N02444275EA0108601062
B1101005515146N02444290EA0108401060
B1101015515147N02444306EA0108301059
B1101025515149N02444320EA0108301059
B1101035515150N02444334EA0108301059
B1101045515152N02444347EA0108301059
B1101055515153N02444360EA0108101057
B1101065515154N02444377EA0107901055
B1101075515156N02444388EA0107701054
B1101085515158N02444403EA0107601052
B1101095515159N02444417EA0107601052
B1101105515161N02444430EA0107601052
B1101115515163N02444443EA0107501051
B1101125515164N02444455EA0107301049
B1101135515166N02444469EA0107201048
B1101145515168N02444483EA0107001046
B1101155515169N02444497EA0106801044
B1101165515171N02444511EA0106701043
B1101175515173N02444525EA0106701043
B1101185515175N02444538EA0106601042
B1101195515176N02444551EA0106501042
B1101205515178N02444564EA0106401040
B1101215515180N02444577EA0106401040
B1101225515182N02444590EA0106201038
B1101235515183N02444604EA0106101037
B1101245515185N02444618EA0106001036
B1101255515187N02444632EA0105901035
B1101265515188N02444645EA0105901035
B1101275515190N02444659EA0105801034
B1101285515191N02444673EA0105701033
B1101295515192N02444687EA0105701033
B1101305515193N02444701EA0105701033
B1101315515195N02444714EA0105601033
B1101325515196N02444728EA0105601032
B1101335515198N02444741EA0105501031
B1101345515199N02444755EA0105401031
B1101355515201N02444769EA0105401030
B1101365515202N02444783EA0105301029
B1101375515204N02444797EA0105201028
B1101385515205N02444811EA0105101028
B1101395515206N02444825EA0105101027
B1101405515207N02444840EA0105001026
B1101415515209N02444854EA0104901025
B1101425515211N02444870EA0104801024
B1101435515211N02444885EA0104801024
B1101445515212N02444899EA0104801024
B1101455515213N02444913EA0104701023
B1101465515214N02444930EA0104501022
B1101475515215N02444941EA0104401020
B1101485515217N02444955EA0104201018
B1101495515219N02444968EA0104101017
B1101505515220N02444981EA0104101017
B1101515515222N02444994EA0104001016
B1101525515223N02445007EA0103801014
B1101535515224N02445019EA0103601013
B1101545515225N02445032EA0103401010
B1101555515226N02445045EA0103201008
B1101565515227N02445057EA0103101007
B1101575515228N02445070EA0103001006
B1101585515229N02445083EA0102701004
B1101595515229N02445096EA0102501001
B1102005515230N02445109EA0102401000
B1102015515230N02445123EA0102200998
B1102025515231N02445137EA0102100997
B1102035515232N02445150EA0102100997
B1102045515232N02445163EA0102000996
B1102055515232N02445176EA0101800994
B1102065515232N02445190EA0101600992
B1102075515232N02445203EA0101600992
B1102085515231N02445217EA0101600993
B1102095515230N02445228EA0101600992
B1102105515230N02445240EA0101500992
B1102115515229N02445252EA0101500991
B1102125515229N02445266EA0101500991
B1102135515228N02445279EA0101600993
B1102145515228N02445291EA0101900995
B1102155515228N02445302EA0102200998
B1102165515228N02445313EA0102300999
B1102175515227N02445323EA0102401001
B1102185515225N02445334EA0102601002
B1102195515224N02445344EA0102701004
B1102205515221N02445352EA0102801004
B1102215515217N02445358EA0102801004
B1102225515214N02445361EA0102801004
B1102235515211N02445361EA0102701004
B1102245515208N02445359EA0102701003
B1102255515206N02445354EA0102601003
B1102265515204N02445349EA0102701004
B1102275515204N02445343EA0102801005
B1102285515206N02445338EA0102901005
B1102295515208N02445334EA0102901005
B1102305515210N02445330EA0102901005
B1102315515214N02445326EA0102801005
B1102325515218N02445322EA0102701004
B1102335515224N02445320EA0102701003
B1102345515229N02445318EA0102701003
B1102355515236N02445318EA0102701003
B1102365515242N02445320EA0102701003
B1102375515248N02445324EA0102701003
B1102385515254N02445329EA0102701003
B1102395515260N02445334EA0102701003
B1102405515266N02445341EA0102601003
B1102415515272N02445348EA0102601003
B1102425515278N02445357EA0102701003
B1102435515283N02445367EA0102701003
B1102445515288N02445378EA0102701004
B1102455515291N02445389EA0102901005
B1102465515295N02445401EA0103101007
B1102475515299N02445412EA0103201009
B1102485515303N02445422EA0103301009
B1102495515306N02445433EA0103401011
B1102505515310N02445443EA0103501012
B1102515515314N02445453EA0103601013
B1102525515316N02445463EA0103701014
B1102535515317N02445474EA0103801015
B1102545515316N02445484EA0103801015
B1102555515313N02445492EA0103801015
B1102565515310N02445498EA0103901016
B1102575515305N02445501EA0103901016
B1102585515301N02445499EA0104101018
B1102595515298N02445495EA0104201019
B1103005515298N02445489EA0104401021
B1103015515298N02445483EA0104601023
B1103025515301N02445478EA0104701024
B1103035515305N02445473EA0104801025
B1103045515311N02445469EA0104901026
B1103055515318N02445469EA0105001027
B1103065515325N02445471EA0105101028
B1103075515332N02445477EA0105201029
B1103085515337N02445484EA0105301030
B1103095515342N02445493EA0105301030
B1103105515347N02445503EA0105401031
B1103115515350N02445514EA0105401031
B1103125515351N02445526EA0105501032
B1103135515350N02445537EA0105601033
B1103145515348N02445546EA0105701034
B1103155515345N02445553EA0105701034
B1103165515341N02445558EA0105701034
B1103175515338N02445560EA0105801035
B1103185515334N02445561EA0105901036
B1103195515331N02445558EA0106001037
B1103205515330N02445553EA0106001037
B1103215515330N02445547EA0106101038
B1103225515331N02445541EA0106201039
B1103235515333N02445535EA0106301040
B1103245515338N02445531EA0106401041
B1103255515344N02445528EA0106401041
B1103265515351N02445529EA0106501042
B1103275515358N02445533EA0106501042
B1103285515364N02445541EA0106501042
B1103295515370N02445550EA0106601043
B1103305515374N02445559EA0106701044
B1103315515378N02445569EA0106801045
B1103325515381N02445580EA0106901046
B1103335515382N02445592EA0106901047
B1103345515382N02445603EA0107001047
B1103355515380N02445612EA0107101048
B1103365515378N02445619EA0107101048
B1103375515375N02445623EA0107101048
B1103385515371N02445625EA0107201049
B1103395515369N02445623EA0107201049
B1103405515366N02445619EA0107301050
B1103415515366N02445614EA0107301050
B1103425515366N02445608EA0107301050
B1103435515368N02445602EA0107301050
B1103445515371N02445596EA0107401051
B1103455515377N02445592EA0107401051
B1103465515384N02445591EA0107401051
B1103475515390N02445595EA0107401051
B1103485515396N02445602EA0107401051
B1103495515401N02445611EA0107401051
B1103505515406N02445622EA0107401051
B1103515515410N02445632EA0107401051
B1103525515413N02445643EA0107401051
B1103535515416N02445655EA0107401051
B1103545515418N02445667EA0107401051
B1103555515420N02445679EA0107401051
B1103565515421N02445691EA0107401051
B1103575515421N02445703EA0107501052
B1103585515420N02445714EA0107501052
B1103595515419N02445724EA0107501052
B1104005515416N02445733EA0107601053
B1104015515413N02445741EA0107601053
B1104025515410N02445748EA0107601053
B1104035515407N02445754EA0107701054
B1104045515403N02445759EA0107801055
B1104055515400N02445762EA0107901056
B1104065515397N02445762EA0107901056
B1104075515394N02445760EA0107801055
B1104085515393N02445756EA0107801055
B1104095515392N02445750EA0107801056
B1104105515393N02445744EA0107901056
B1104115515397N02445738EA0107901056
B1104125515401N02445734EA0107901056
B1104135515407N02445732EA0107801055
B1104145515414N02445732EA0107701054
B1104155515421N02445735EA0107601053
B1104165515428N02445741EA0107601053
B1104175515433N02445750EA0107501052
B1104185515437N02445762EA0107501052
B1104195515439N02445774EA0107601053
B1104205515440N02445785EA0107501052
B1104215515439N02445796EA0107501052
B1104225515438N02445806EA0107501052
B1104235515435N02445814EA0107401051
B1104245515432N02445822EA0107401051
B1104255515428N02445828EA0107301050
B1104265515425N02445834EA0107301050
B1104275515420N02445838EA0107301050
B1104285515416N02445839EA0107301050
B1104295515413N02445840EA0107301050
B1104305515409N02445839EA0107301050
B1104315515406N02445837EA0107301050
B1104325515403N02445833EA0107301050
B1104335515400N02445829EA0107301050
B1104345515398N02445824EA0107301050
B1104355515396N02445819EA0107301050
B1104365515394N02445814EA0107301050
B1104375515391N02445809EA0107301050
B1104385515389N02445803EA0107301050
B1104395515387N02445798EA0107301050
B1104405515385N02445793EA0107301050
B1104415515383N02445787EA0107301050
B1104425515382N02445782EA0107301050
B1104435515382N02445776EA0107301050
B1104445515384N02445769EA0107301050
B1104455515387N02445763EA0107201049
B1104465515391N02445758EA0107201049
B1104475515396N02445754EA0107201049
B1104485515403N02445753EA0107101048
B1104495515409N02445755EA0106901046
B1104505515417N02445760EA0106801045
B1104515515423N02445767EA0106801044
B1104525515429N02445777EA0106701044
B1104535515433N02445788EA0106601043
B1104545515437N02445799EA0106601043
B1104555515439N02445811EA0106501042
B1104565515442N02445823EA0106401040
B1104575515443N02445835EA0106301039
B1104585515445N02445848EA0106201039
B1104595515446N02445860EA0106101038
B1105005515446N02445873EA0106001037
B1105015515445N02445885EA0106001036
B1105025515445N02445898EA0105901036
B1105035515444N02445911EA0105901036
B1105045515444N02445924EA0105901036
B1105055515444N02445937EA0105901036
B1105065515443N02445949EA0105901036
B1105075515442N02445960EA0105901036
B1105085515441N02445971EA0105901036
B1105095515440N02445983EA0105901036
B1105105515440N02445995EA0105901036
B1105115515439N02446008EA0105901036
B1105125515439N02446020EA0105901036
B1105135515438N02446032EA0106001036
B1105145515436N02446044EA0106101038
B1105155515436N02446056EA0106201039
B1105165515435N02446068EA0106201039
B1105175515435N02446080EA0106301040
B1105185515434N02446092EA0106501042
B1105195515432N02446101EA0106601042
B1105205515430N02446108EA0106601043
B1105215515426N02446112EA0106601043
B1105225515423N02446114EA0106601043
B1105235515420N02446114EA0106801044
B1105245515418N02446112EA0106801045
B1105255515418N02446107EA0106801045
B1105265515420N02446101EA0106701044
B1105275515423N02446095EA0106701044
B1105285515427N02446089EA0106801045
B1105295515433N02446087EA0106801045
B1105305515440N02446089EA0106901046
B1105315515447N02446094EA0107001047
B1105325515452N02446101EA0107001047
B1105335515458N02446110EA0107001047
B1105345515462N02446120EA0107001047
B1105355515465N02446133EA0107001047
B1105365515467N02446145EA0107101048
B1105375515467N02446158EA0107201048
B1105385515466N02446168EA0107201049
B1105395515464N02446177EA0107201049
B1105405515462N02446184EA0107201049
B1105415515459N02446190EA0107201049
B1105425515456N02446194EA0107201049
B1105435515453N02446197EA0107201049
B1105445515450N02446197EA0107201049
B1105455515448N02446195EA0107201048
B1105465515447N02446192EA0107101048
B1105475515446N02446187EA0107101048
B1105485515447N02446182EA0107101048
B1105495515448N02446176EA0107101048
B1105505515451N02446171EA0107001047
B1105515515455N02446166EA0107001047
B1105525515461N02446163EA0106901046
B1105535515468N02446162EA0106901046
B1105545515475N02446164EA0106901046
B1105555515482N02446171EA0107001047
B1105565515489N02446179EA0107101047
B1105575515494N02446187EA0107101048
B1105585515499N02446195EA0107201049
B1105595515505N02446203EA0107201049
B1106005515510N02446211EA0107201049
B1106015515515N02446222EA0107201048
B1106025515518N02446234EA0107101048
B1106035515521N02446248EA0107101048
B1106045515524N02446260EA0107201048
B1106055515527N02446272EA0107201049
B1106065515529N02446283EA0107301049
B1106075515531N02446294EA0107201049
B1106085515533N02446306EA0107201049
B1106095515534N02446318EA0107101048
B1106105515536N02446330EA0107101048
B1106115515537N02446342EA0107101048
B1106125515538N02446353EA0107101048
B1106135515538N02446364EA0107001047
B1106145515539N02446375EA0106901046
B1106155515539N02446386EA0106701044
B1106165515539N02446397EA0106501042
B1106175515539N02446408EA0106301039
B1106185515540N02446419EA0106001036
B1106195515540N02446432EA0105701033
B1106205515540N02446445EA0105501031
B1106215515540N02446458EA0105301030
B1106225515540N02446470EA0105201029
B1106235515539N02446481EA0105101027
B1106245515539N02446493EA0104901026
B1106255515539N02446505EA0104801024
B1106265515539N02446517EA0104601022
B1106275515538N02446528EA0104401021
B1106285515538N02446540EA0104301020
B1106295515538N02446552EA0104201018
B1106305515538N02446564EA0104001017
B1106315515538N02446577EA0103901016
B1106325515538N02446589EA0103801014
B1106335515537N02446600EA0103601013
B1106345515537N02446612EA0103501012
B1106355515537N02446624EA0103401010
B1106365515537N02446636EA0103201009
B1106375515537N02446648EA0103001007
B1106385515536N02446659EA0102901005
B1106395515535N02446671EA0102701004
B1106405515534N02446683EA0102501001
B1106415515533N02446694EA0102300999
B1106425515532N02446706EA0102100998
B1106435515531N02446718EA0102000997
B1106445515530N02446731EA0101900996
B1106455515529N02446743EA0101800995
B1106465515528N02446755EA0101700994
B1106475515527N02446767EA0101600993
B1106485515526N02446778EA0101600993
B1106495515525N02446790EA0101500992
B1106505515525N02446801EA0101400991
B1106515515525N02446813EA0101200989
B1106525515524N02446824EA0101000987
B1106535515524N02446836EA0100900986
B1106545515523N02446848EA0100700984
B1106555515521N02446859EA0100600983
B1106565515520N02446870EA0100500982
B1106575515519N02446882EA0100400981
B1106585515519N02446893EA0100300980
B1106595515518N02446904EA0100100978
B1107005515517N02446914EA0099900976
B1107015515516N02446924EA0099700974
B1107025515515N02446936EA0099500971
B1107035515514N02446947EA0099200969
B1107045515513N02446959EA0099000967
B1107055515513N02446970EA0098800965
B1107065515511N02446981EA0098600963
B1107075515510N02446992EA0098400961
B1107085515509N02447003EA0098300959
B1107095515508N02447014EA0098000957
B1107105515507N02447025EA0097800954
B1107115515505N02447037EA0097500952
B1107125515504N02447049EA0097300949
B1107135515503N02447061EA0097100948
B1107145515502N02447072EA0096900946
B1107155515500N02447083EA0096700944
B1107165515498N02447094EA0096600942
B1107175515497N02447106EA0096400941
B1107185515495N02447117EA0096300940
B1107195515494N02447128EA0096200938
B1107205515493N02447138EA0096000937
B1107215515492N02447149EA0095800935
B1107225515490N02447161EA0095700933
B1107235515490N02447172EA0095500932
B1107245515489N02447183EA0095400930
B1107255515488N02447193EA0095200929
B1107265515486N02447204EA0095000927
B1107275515485N02447214EA0094900925
B1107285515484N02447225EA0094700924
B1107295515483N02447235EA0094600922
B1107305515482N02447246EA0094400921
B1107315515481N02447257EA0094300919
B1107325515480N02447268EA0094100917
B1107335515480N02447280EA0093900916
B1107345515479N02447291EA0093700914
B1107355515479N02447303EA0093600913
B1107365515478N02447315EA0093500911
B1107375515477N02447326EA0093400910
B1107385515476N02447338EA0093300909
B1107395515476N02447349EA0093100907
B1107405515475N02447361EA0092900906
B1107415515474N02447372EA0092700904
B1107425515473N02447384EA0092600902
B1107435515472N02447395EA0092400901
B1107445515472N02447407EA0092200899
B1107455515471N02447417EA0092000896
B1107465515469N02447428EA0091800894
B1107475515468N02447439EA0091500892
B1107485515466N02447451EA0091300890
B1107495515465N02447464EA0091100888
B1107505515464N02447475EA0091000886
B1107515515462N02447486EA0090700884
B1107525515460N02447497EA0090400881
B1107535515458N02447508EA0090100877
B1107545515456N02447520EA0089800874
B1107555515455N02447532EA0089500872
B1107565515452N02447545EA0089200869
B1107575515452N02447557EA0089000867
B1107585515451N02447568EA0088800865
B1107595515450N02447579EA0088600862
B1108005515449N02447591EA0088200859
B1108015515448N02447604EA0087900856
B1108025515448N02447617EA0087700853
B1108035515448N02447630EA0087500852
B1108045515447N02447642EA0087300850
B1108055515446N02447653EA0087100847
B1108065515444N02447665EA0086800845
B1108075515443N02447676EA0086600842
B1108085515442N02447688EA0086400841
B1108095515441N02447700EA0086300840
B1108105515441N02447712EA0086200839
B1108115515440N02447723EA0086200838
B1108125515439N02447733EA0085900836
B1108135515438N02447743EA0085700834
B1108145515437N02447754EA0085600832
B1108155515436N02447764EA0085400831
B1108165515435N02447774EA0085300829
B1108175515434N02447784EA0085300830
B1108185515432N02447795EA0085400831
B1108195515431N02447805EA0085600833
B1108205515430N02447815EA0085700834
B1108215515428N02447823EA0085800834
B1108225515427N02447833EA0085800835
B1108235515425N02447843EA0086100837
B1108245515423N02447854EA0086300839
B1108255515422N02447862EA0086400840
B1108265515421N02447869EA0086400841
B1108275515420N02447876EA0086400841
B1108285515418N02447884EA0086400841
B1108295515417N02447892EA0086400840
B1108305515416N02447901EA0086200838
B1108315515414N02447910EA0086000837
B1108325515413N02447920EA0085900835
B1108335515411N02447931EA0085700833
B1108345515410N02447942EA0085700833
B1108355515408N02447953EA0085600833
B1108365515406N02447963EA0085600833
B1108375515405N02447972EA0085600832
B1108385515404N02447982EA0085500831
B1108395515403N02447993EA0085300830
B1108405515401N02448004EA0085300829
B1108415515400N02448016EA0085200829
B1108425515399N02448028EA0085300829
B1108435515398N02448038EA0085300830
B1108445515396N02448048EA0085300830
B1108455515394N02448058EA0085300829
B1108465515392N02448069EA0085200828
B1108475515391N02448080EA0085100828
B1108485515390N02448092EA0085100827
B1108495515388N02448104EA0085000827
B1108505515386N02448115EA0085000826
B1108515515385N02448126EA0084900825
B1108525515383N02448137EA0084800825
B1108535515381N02448148EA0084700823
B1108545515379N02448160EA0084500822
B1108555515378N02448172EA0084400820
B1108565515376N02448183EA0084300819
B1108575515375N02448195EA0084200818
B1108585515373N02448206EA0084000816
B1108595515371N02448218EA0083800815
B1109005515369N02448230EA0083800814
B1109015515367N02448241EA0083800814
B1109025515366N02448252EA0083800815
B1109035515364N02448263EA0083800814
B1109045515363N02448274EA0083700814
B1109055515362N02448285EA0083600813
B1109065515360N02448296EA0083500812
B1109075515359N02448308EA0083400811
B1109085515357N02448322EA0083300810
B1109095515356N02448331EA0083200809
B1109105515354N02448343EA0083100807
B1109115515353N02448355EA0083000806
B1109125515351N02448368EA0082800805
B1109135515350N02448380EA0082700804
B1109145515349N02448393EA0082700803
B1109155515347N02448405EA0082500802
B1109165515346N02448417EA0082400801
B1109175515345N02448429EA0082300799
B1109185515344N02448442EA0082200798
B1109195515343N02448454EA0082000797
B1109205515342N02448467EA0081900796
B1109215515341N02448480EA0081800794
B1109225515340N02448493EA0081600792
B1109235515339N02448505EA0081400791
B1109245515338N02448517EA0081300790
B1109255515337N02448529EA0081200789
B1109265515336N02448541EA0081100787
B1109275515335N02448554EA0080900785
B1109285515334N02448566EA0080700783
B1109295515332N02448578EA0080600782
B1109305515331N02448591EA0080400781
B1109315515330N02448604EA0080300779
B1109325515329N02448617EA0080100777
B1109335515328N02448629EA0079900775
B1109345515328N02448642EA0079700774
B1109355515327N02448655EA0079600772
B1109365515327N02448668EA0079400771
B1109375515326N02448682EA0079300769
B1109385515326N02448694EA0079100768
B1109395515325N02448707EA0079000766
B1109405515325N02448720EA0078800764
B1109415515325N02448733EA0078600762
B1109425515325N02448747EA0078400760
B1109435515325N02448760EA0078300759
B1109445515324N02448774EA0078200758
B1109455515324N02448787EA0078000757
B1109465515324N02448800EA0077900756
B1109475515323N02448813EA0077800754
B1109485515322N02448826EA0077600753
B1109495515322N02448839EA0077500751
B1109505515322N02448853EA0077300750
B1109515515322N02448866EA0077200748
B1109525515320N02448879EA0077100747
B1109535515320N02448892EA0076900746
B1109545515319N02448905EA0076800744
B1109555515318N02448918EA0076600743
B1109565515317N02448932EA0076500741
B1109575515315N02448944EA0076400740
B1109585515314N02448958EA0076200739
B1109595515313N02448971EA0076100738
B1110005515312N02448984EA0076000736
B1110015515311N02448996EA0075800735
B1110025515310N02449009EA0075700733
B1110035515308N02449022EA0075400731
B1110045515307N02449035EA0075300729
B1110055515306N02449047EA0075100728
B1110065515304N02449060EA0075000726
B1110075515303N02449072EA0074800724
B1110085515302N02449085EA0074600722
B1110095515301N02449098EA0074400720
B1110105515300N02449111EA0074200718
B1110115515298N02449124EA0074000716
B1110125515297N02449137EA0073800714
B1110135515295N02449150EA0073700713
B1110145515294N02449163EA0073500711
B1110155515294N02449177EA0073400710
B1110165515293N02449190EA0073200708
B1110175515291N02449203EA0073000706
B1110185515290N02449216EA0072900705
B1110195515288N02449229EA0072800704
B1110205515288N02449243EA0072600702
B1110215515286N02449255EA0072400700
B1110225515285N02449266EA0072300699
B1110235515283N02449278EA0072000696
B1110245515282N02449289EA0071700693
B1110255515281N02449302EA0071400690
B1110265515279N02449314EA0071200688
B1110275515278N02449326EA0070900686
B1110285515277N02449336EA0070700684
B1110295515276N02449346EA0070600682
B1110305515275N02449357EA0070300679
B1110315515274N02449368EA0070000676
B1110325515272N02449380EA0069700673
B1110335515271N02449391EA0069500671
B1110345515270N02449401EA0069300669
B1110355515269N02449410EA0069100667
B1110365515268N02449420EA0068700663
B1110375515266N02449431EA0068300659
B1110385515265N02449443EA0068000656
B1110395515263N02449455EA0067800653
B1110405515262N02449465EA0067600652
B1110415515261N02449476EA0067300649
B1110425515260N02449485EA0067000646
B1110435515259N02449495EA0066600642
B1110445515259N02449506EA0066300638
B1110455515258N02449518EA0065900635
B1110465515256N02449530EA0065700633
B1110475515255N02449542EA0065600631
B1110485515254N02449553EA0065500631
B1110495515253N02449563EA0065400630
B1110505515252N02449572EA0065300628
B1110515515250N02449581EA0065100626
B1110525515249N02449592EA0064800624
B1110535515247N02449604EA0064600622
B1110545515244N02449616EA0064500620
B1110555515241N02449627EA0064400619
B1110565515239N02449638EA0064300618
B1110575515238N02449650EA0064300618
B1110585515237N02449660EA0064200618
B1110595515236N02449670EA0064200618
B1111005515234N02449679EA0064100617
B1111015515233N02449688EA0064000616
B1111025515231N02449697EA0063800614
B1111035515231N02449708EA0063700612
B1111045515230N02449719EA0063500611
B1111055515230N02449730EA0063500610
B1111065515230N02449741EA0063500611
B1111075515230N02449751EA0063600611
B1111085515231N02449761EA0063600612
B1111095515232N02449774EA0063700612
B1111105515233N02449781EA0063700613
B1111115515234N02449790EA0063700613
B1111125515234N02449799EA0063700612
B1111135515235N02449809EA0063600612
B1111145515236N02449819EA0063600612
B1111155515236N02449829EA0063600611
B1111165515237N02449839EA0063600611
B1111175515238N02449848EA0063600611
B1111185515240N02449857EA0063500611
B1111195515242N02449865EA0063500611
B1111205515245N02449873EA0063500611
B1111215515248N02449879EA0063500611
B1111225515252N02449883EA0063500610
B1111235515256N02449886EA0063300609
B1111245515261N02449889EA0063300608
B1111255515266N02449889EA0063300608
B1111265515272N02449888EA0063300608
B1111275515277N02449884EA0063300609
B1111285515281N02449879EA0063400609
B1111295515285N02449873EA0063400609
B1111305515288N02449868EA0063400609
B1111315515291N02449863EA0063300609
B1111325515295N02449857EA0063300608
B1111335515298N02449852EA0063200607
B1111345515301N02449845EA0063100606
B1111355515303N02449838EA0063000606
B1111365515304N02449830EA0063000605
B1111375515306N02449822EA0063000605
B1111385515309N02449815EA0063000605
B1111395515311N02449808EA0063000605
B1111405515314N02449803EA0062800604
B1111415515317N02449799EA0062700602
B1111425515320N02449794EA0062400600
B1111435515324N02449788EA0062200598
B1111445515327N02449781EA0062100597
B1111455515332N02449775EA0062000595
B1111465515336N02449769EA0061800594
B1111475515341N02449764EA0061700593
B1111485515346N02449758EA0061600592
B1111495515353N02449752EA0061500591
B1111505515357N02449750EA0061400590
B1111515515363N02449747EA0061400589
B1111525515369N02449744EA0061300589
B1111535515375N02449743EA0061300588
B1111545515380N02449741EA0061200588
B1111555515387N02449741EA0061100587
B1111565515393N02449740EA0061100586
B1111575515398N02449741EA0061000585
B1111585515404N02449743EA0060900584
B1111595515411N02449746EA0060800583
B1112005515417N02449750EA0060700582
B1112015515423N02449755EA0060500581
B1112025515428N02449761EA0060300579
B1112035515434N02449767EA0060100577
B1112045515440N02449774EA0059900575
B1112055515446N02449783EA0059800573
B1112065515450N02449793EA0059600572
B1112075515454N02449804EA0059500571
B1112085515457N02449815EA0059400570
B1112095515459N02449827EA0059300569
B1112105515459N02449838EA0059200567
B1112115515459N02449849EA0058900565
B1112125515459N02449861EA0058600562
B1112135515457N02449873EA0058400559
B1112145515455N02449885EA0058200557
B1112155515452N02449896EA0058000555
B1112165515450N02449906EA0057800553
B1112175515448N02449915EA0057600551
B1112185515445N02449923EA0057200547
B1112195515442N02449931EA0056800544
B1112205515439N02449940EA0056500540
B1112215515436N02449949EA0056200537
B1112225515432N02449958EA0056000535
B1112235515430N02449969EA0056000535
B1112245515426N02449979EA0055900534
B1112255515423N02449989EA0055800534
B1112265515419N02449998EA0055800533
B1112275515415N02450006EA0055700533
B1112285515412N02450014EA0055600532
B1112295515408N02450022EA0055600531
B1112305515405N02450030EA0055500530
B1112315515402N02450038EA0055400529
B1112325515400N02450046EA0055400529
B1112335515397N02450053EA0055300528
B1112345515395N02450061EA0055200527
B1112355515392N02450068EA0055000525
B1112365515390N02450077EA0054900524
B1112375515387N02450085EA0054700523
B1112385515384N02450092EA0054600522
B1112395515380N02450099EA0054600521
B1112405515377N02450105EA0054500520
B1112415515373N02450112EA0054400519
B1112425515369N02450119EA0054300518
B1112435515366N02450127EA0054300518
B1112445515364N02450135EA0054300519
B1112455515361N02450143EA0054300519
B1112465515359N02450151EA0054300518
B1112475515357N02450159EA0054200517
B1112485515354N02450167EA0054000515
B1112495515351N02450176EA0053800514
B1112505515350N02450185EA0053800513
B1112515515347N02450195EA0053600511
B1112525515346N02450203EA0053500511
B1112535515344N02450212EA0053400510
B1112545515342N02450220EA0053300508
B1112555515341N02450229EA0053100507
B1112565515339N02450238EA0053000505
B1112575515338N02450248EA0052800503
B1112585515337N02450258EA0052700502
B1112595515335N02450267EA0052600501
B1113005515333N02450276EA0052500500
B1113015515332N02450285EA0052400499
B1113025515331N02450294EA0052300498
B1113035515330N02450303EA0052100497
B1113045515328N02450313EA0052100496
B1113055515327N02450323EA0052100496
B1113065515327N02450332EA0052000496
B1113075515326N02450340EA0052000495
B1113085515326N02450350EA0051900494
B1113095515326N02450359EA0051800493
B1113105515326N02450369EA0051600492
B1113115515326N02450379EA0051600491
B1113125515326N02450388EA0051500490
B1113135515326N02450398EA0051400489
B1113145515325N02450408EA0051300488
B1113155515325N02450417EA0051200487
B1113165515325N02450426EA0051100486
B1113175515325N02450436EA0051000485
B1113185515325N02450446EA0050900484
B1113195515325N02450455EA0050800483
B1113205515326N02450465EA0050700482
B1113215515326N02450475EA0050600481
B1113225515326N02450484EA0050500481
B1113235515326N02450493EA0050500480
B1113245515327N02450502EA0050300479
B1113255515327N02450512EA0050200477
B1113265515327N02450523EA0050100476
B1113275515327N02450534EA0050000475
B1113285515327N02450545EA0049900475
B1113295515328N02450554EA0049800473
B1113305515329N02450564EA0049500470
B1113315515330N02450575EA0049200468
B1113325515331N02450587EA0049000465
B1113335515332N02450598EA0048800463
B1113345515333N02450610EA0048700462
B1113355515333N02450620EA0048600461
B1113365515335N02450630EA0048500461
B1113375515336N02450640EA0048400459
B1113385515337N02450651EA0048200457
B1113395515339N02450662EA0047900454
B1113405515340N02450674EA0047700452
B1113415515341N02450686EA0047500450
B1113425515342N02450697EA0047400449
B1113435515343N02450708EA0047200447
B1113445515344N02450717EA0047000446
B1113455515344N02450727EA0046800443
B1113465515345N02450737EA0046600441
B1113475515345N02450747EA0046300438
B1113485515347N02450759EA0046000435
B1113495515348N02450770EA0045800434
B1113505515350N02450781EA0045700432
B1113515515351N02450791EA0045600431
B1113525515351N02450801EA0045400429
B1113535515353N02450811EA0045200427
B1113545515354N02450821EA0045000425
B1113555515356N02450831EA0044800423
B1113565515357N02450841EA0044600420
B1113575515358N02450851EA0044300418
B1113585515360N02450861EA0044000415
B1113595515362N02450871EA0043700412
B1114005515363N02450881EA0043400409
B1114015515365N02450892EA0043100406
B1114025515366N02450903EA0042800403
B1114035515367N02450914EA0042500400
B1114045515369N02450924EA0042300397
B1114055515370N02450935EA0042000394
B1114065515372N02450945EA0041600391
B1114075515373N02450956EA0041300387
B1114085515374N02450967EA0041000384
B1114095515376N02450978EA0040700382
B1114105515378N02450988EA0040500379
B1114115515379N02450997EA0040200376
B1114125515381N02451006EA0039800373
B1114135515383N02451015EA0039500369
B1114145515384N02451025EA0039000365
B1114155515387N02451034EA0038700361
B1114165515389N02451044EA0038400359
B1114175515392N02451053EA0038200356
B1114185515395N02451060EA0038000354
B1114195515398N02451068EA0037700351
B1114205515401N02451077EA0037400348
B1114215515403N02451086EA0037200346
B1114225515406N02451094EA0036900343
B1114235515409N02451102EA0036600340
B1114245515412N02451110EA0036400338
B1114255515416N02451117EA0036100335
B1114265515420N02451125EA0035800332
B1114275515424N02451132EA0035500329
B1114285515428N02451141EA0035300327
B1114295515431N02451149EA0035100325
B1114305515434N02451157EA0035000324
B1114315515439N02451165EA0034800322
B1114325515443N02451172EA0034500319
B1114335515447N02451179EA0034300317
B1114345515451N02451186EA0034100315
B1114355515455N02451193EA0033900313
B1114365515458N02451200EA0033600310
B1114375515461N02451208EA0033400308
B1114385515464N02451217EA0033100305
B1114395515467N02451226EA0032900303
B1114405515470N02451235EA0032700301
B1114415515473N02451245EA0032600299
B1114425515476N02451254EA0032400298
B1114435515479N02451263EA0032300296
B1114445515482N02451272EA0032100294
B1114455515485N02451280EA0031900293
B1114465515488N02451288EA0031800291
B1114475515490N02451297EA0031600289
B1114485515492N02451306EA0031400288
B1114495515493N02451315EA0031300286
B1114505515495N02451323EA0031200285
B1114515515497N02451331EA0031000284
B1114525515499N02451339EA0030900282
B1114535515501N02451347EA0030700280
B1114545515503N02451356EA0030500279
B1114555515505N02451365EA0030500278
B1114565515507N02451374EA0030400278
B1114575515509N02451382EA0030500278
B1114585515511N02451391EA0030500278
B1114595515513N02451399EA0030500278
B1115005515515N02451407EA0030500278
B1115015515518N02451415EA0030400278
B1115025515520N02451423EA0030400277
B1115035515524N02451431EA0030400278
B1115045515527N02451439EA0030400278
B1115055515529N02451446EA0030500279
B1115065515532N02451453EA0030600279
B1115075515535N02451459EA0030600279
B1115085515538N02451465EA0030600279
B1115095515542N02451470EA0030500278
B1115105515545N02451475EA0030300277
B1115115515550N02451479EA0030300276
B1115125515554N02451480EA0030200275
B1115135515559N02451479EA0030200275
B1115145515563N02451476EA0030200275
B1115155515566N02451471EA0030100275
B1115165515569N02451468EA0030100274
B1115175515572N02451464EA0030100274
B1115185515575N02451458EA0030000273
B1115195515577N02451451EA0030100274
B1115205515579N02451444EA0030100274
B1115215515580N02451437EA0030100274
B1115225515582N02451430EA0030100274
B1115235515583N02451423EA0030100274
B1115245515583N02451417EA0030100274
B1115255515584N02451410EA0030300276
B1115265515583N02451404EA0030300276
B1115275515583N02451399EA0030400277
B1115285515583N02451393EA0030500278
B1115295515582N02451386EA0030600279
B1115305515580N02451381EA0030600279
B1115315515577N02451378EA0030500278
B1115325515574N02451376EA0030500278
B1115335515569N02451373EA0030300276
B1115345515565N02451371EA0030300276
B1115355515561N02451370EA0030200274
B1115365515557N02451371EA0029900272
B1115375515552N02451374EA0029500268
B1115385515547N02451378EA0029300266
B1115395515542N02451383EA0029200265
B1115405515538N02451391EA0029200265
B1115415515536N02451400EA0029200264
B1115425515535N02451409EA0029100263
B1115435515535N02451417EA0029000263
B1115445515536N02451426EA0029000262
B1115455515538N02451434EA0029000262
B1115465515541N02451442EA0028900262
B1115475515545N02451448EA0028800260
B1115485515550N02451452EA0028700260
B1115495515555N02451454EA0028700259
B1115505515560N02451453EA0028700259
B1115515515564N02451451EA0028600259
B1115525515567N02451447EA0028600259
B1115535515569N02451442EA0028600259
B1115545515571N02451435EA0028600259
B1115555515572N02451428EA0028600259
B1115565515573N02451421EA0028700259
B1115575515574N02451414EA0028800260
B1115585515574N02451407EA0028800260
B1115595515575N02451400EA0028800260
B1116005515576N02451392EA0028700259
B1116015515576N02451385EA0028600258
B1116025515576N02451378EA0028500257
B1116035515576N02451371EA0028300255
B1116045515576N02451363EA0028200254
B1116055515576N02451355EA0027900251
B1116065515575N02451347EA0027700249
B1116075515574N02451340EA0027400246
B1116085515574N02451333EA0027100243
B1116095515573N02451325EA0026800240
B1116105515571N02451317EA0026500237
B1116115515569N02451309EA0026200234
B1116125515566N02451302EA0026000232
B1116135515562N02451298EA0025800230
B1116145515558N02451295EA0025600228
B1116155515554N02451295EA0025400226
B1116165515550N02451297EA0025300225
B1116175515547N02451300EA0025200224
B1116185515544N02451305EA0025100222
B1116195515540N02451311EA0025000222
B1116205515537N02451317EA0024900221
B1116215515534N02451325EA0024800220
B1116225515531N02451333EA0024700219
B1116235515528N02451341EA0024600217
B1116245515524N02451348EA0024400215
B1116255515521N02451356EA0024100213
B1116265515518N02451365EA0024000211
B1116275515516N02451375EA0023900210
B1116285515513N02451384EA0023800209
B1116295515512N02451393EA0023700208
B1116305515509N02451403EA0023500207
B1116315515508N02451410EA0023400205
B1116325515506N02451420EA0023300204
B1116335515505N02451431EA0023100202
B1116345515504N02451442EA0022900200
B1116355515503N02451454EA0022700198
B1116365515502N02451465EA0022700198
B1116375515501N02451476EA0022700198
B1116385515502N02451486EA0022800199
B1116395515502N02451495EA0022700198
B1116405515502N02451504EA0022600197
B1116415515502N02451514EA0022500196
B1116425515501N02451524EA0022400195
B1116435515500N02451535EA0022300194
B1116445515500N02451545EA0022300194
B1116455515500N02451556EA0022300194
B1116465515500N02451565EA0022200193
B1116475515500N02451574EA0022100192
B1116485515499N02451584EA0022000191
B1116495515498N02451594EA0021900190
B1116505515496N02451603EA0021800188
B1116515515494N02451612EA0021600187
B1116525515493N02451620EA0021500186
B1116535515493N02451629EA0021300184
B1116545515493N02451638EA0021100182
B1116555515493N02451647EA0021000181
B1116565515492N02451656EA0020900180
B1116575515491N02451663EA0020800178
B1116585515489N02451671EA0020600177
B1116595515488N02451679EA0020500175
B1117005515485N02451687EA0020300173
B1117015515482N02451695EA0020100171
B1117025515479N02451703EA0020000171
B1117035515475N02451710EA0020000170
B1117045515471N02451715EA0019900170
B1117055515466N02451719EA0019900169
B1117065515461N02451722EA0019800168
B1117075515457N02451725EA0019700167
B1117085515452N02451728EA0019500166
B1117095515447N02451731EA0019400164
B1117105515442N02451732EA0019200163
B1117115515436N02451732EA0019100162
B1117125515431N02451730EA0019000161
B1117135515426N02451726EA0018900160
B1117145515422N02451719EA0018800159
B1117155515420N02451711EA0018700158
B1117165515419N02451702EA0018700157
B1117175515419N02451694EA0018700157
B1117185515420N02451686EA0018600157
B1117195515422N02451680EA0018600156
B1117205515424N02451673EA0018400155
B1117215515425N02451666EA0018300154
B1117225515426N02451658EA0018200152
B1117235515426N02451650EA0018100151
B1117245515425N02451641EA0018000151
B1117255515425N02451633EA0018000151
B1117265515425N02451626EA0018000150
B1117275515423N02451619EA0017900149
B1117285515422N02451611EA0017700148
B1117295515420N02451604EA0017600146
B1117305515417N02451597EA0017400144
B1117315515413N02451590EA0017300143
B1117325515410N02451583EA0017200143
B1117335515408N02451575EA0017100141
B1117345515407N02451567EA0016900139
B1117355515408N02451559EA0016700137
B1117365515411N02451552EA0016600136
B1117375515415N02451548EA0016500135
B1117385515419N02451546EA0016500135
B1117395515423N02451545EA0016500135
B1117405515427N02451545EA0016500135
B1117415515431N02451542EA0016500135
B1117425515433N02451536EA0016400134
B1117435515435N02451528EA0016400134
B1117445515434N02451519EA0016600136
B1117455515432N02451513EA0016700137
B1117465515428N02451510EA0016800137
B1117475515425N02451509EA0016800138
B1117485515421N02451509EA0016800138
B1117495515416N02451510EA0016800138
B1117505515413N02451511EA0016700137
B1117515515408N02451510EA0016700136
B1117525515404N02451508EA0016600136
B1117535515400N02451507EA0016500135
B1117545515396N02451504EA0016500135
B1117555515393N02451499EA0016400134
B1117565515393N02451493EA0016200132
B1117575515394N02451486EA0015900129
B1117585515398N02451481EA0015800127
B1117595515403N02451479EA0015700126
B1118005515408N02451480EA0015600126
B1118015515412N02451483EA0015600125
B1118025515416N02451484EA0015500124
B1118035515420N02451485EA0015400123
B1118045515425N02451486EA0015200121
B1118055515430N02451486EA0014900119
B1118065515434N02451483EA0014700117
B1118075515438N02451477EA0014500114
B1118085515440N02451469EA0014300112
B1118095515441N02451462EA0014300113
B1118105515442N02451456EA0014300112
B1118115515442N02451450EA0014200111
B1118125515443N02451444EA0014100110
B1118135515444N02451437EA0014000109
B1118145515444N02451432EA0014000110
B1118155515446N02451427EA0014000109
B1118165515447N02451423EA0013900108
B1118175515447N02451421EA0013900109
B1118185515447N02451420EA0014000109
B1118195515448N02451420EA0014000109
B1118205515448N02451421EA0014000109
B1118215515448N02451423EA0014000109
B1118225515448N02451424EA0014000109
B1118235515448N02451424EA0014000109
B1118245515448N02451424EA0014000109
B1118255515448N02451424EA0014000109
B1118265515448N02451424EA0014000109
B1118275515448N02451424EA0014000109
B1118285515448N02451424EA0014000109
B1118295515448N02451424EA0014000109
B1118305515448N02451424EA0014000109
B1118315515448N02451424EA0014000109
B1118325515448N02451424EA0014000109
B1118335515448N02451424EA0014000109
B1118345515448N02451424EA0014000109
B1118355515448N02451424EA0014000109
B1118365515448N02451424EA0014000109
B1118375515448N02451424EA0014000109
B1118385515448N02451424EA0014000109
B1118395515448N02451424EA0014000109
B1118405515448N02451424EA0014000109
B1118415515448N02451424EA0014000109
B1118425515448N02451424EA0014000109
B1118435515448N02451424EA0014000109
B1118445515448N02451424EA0014000109
B1118455515448N02451424EA0014000109
B1118465515448N02451424EA0014000109
B1118475515448N02451424EA0014000109
B1118485515448N02451424EA0014000109
B1118495515448N02451424EA0014000109
B1118505515448N02451424EA0014000109
B1118515515449N02451425EA0014000109
B1118525515450N02451425EA0014000109
B1118535515450N02451425EA0014000109
B1118545515450N02451425EA0014000109
B1118555515450N02451426EA0014000109
B1118565515450N02451426EA0014000109
B1118575515450N02451426EA0014000109
B1118585515450N02451426EA0014000109
B1118595515450N02451426EA0014000109
B1119005515450N02451426EA0014000109
B1119015515450N02451425EA0014000109
B1119025515450N02451425EA0014000109
B1119035515450N02451425EA0014000109
B1119045515450N02451424EA0014000109
B1119055515450N02451423EA0013900109
B1119065515449N02451422EA0013900109
B1119075515449N02451421EA0013900109
B1119085515449N02451420EA0013900109
B1119095515450N02451418EA0013900109
B1119105515450N02451417EA0014000109
B1119115515450N02451416EA0014000109
B1119125515450N02451415EA0013900109
B1119135515450N02451414EA0013900109
B1119145515450N02451413EA0014000109
B1119155515450N02451412EA0013900109
B1119165515450N02451410EA0013900109
B1119175515450N02451409EA0013900109
B1119185515450N02451408EA0013900109
B1119195515450N02451407EA0013900109
B1119205515450N02451406EA0013900108
B1119215515450N02451405EA0013900109
B1119225515450N02451404EA0013900109
B1119235515450N02451402EA0013900108
B1119245515450N02451401EA0013900108
B1119255515450N02451400EA0013900108
B1119265515450N02451399EA0013900108
B1119275515450N02451398EA0013900108
B1119285515450N02451397EA0013900108
B1119295515450N02451396EA0013900108
B1119305515450N02451395EA0013900108
B1119315515450N02451393EA0013900108
B1119325515450N02451392EA0013900108
B1119335515450N02451391EA0013900108
B1119345515450N02451390EA0013900108
B1119355515450N02451389EA0013900108
B1119365515450N02451388EA0013900108
B1119375515450N02451387EA0013800108
B1119385515450N02451386EA0013800108
B1119395515450N02451385EA0013800108
B1119405515450N02451384EA0013800108
B1119415515450N02451383EA0013800107
B1119425515450N02451381EA0013800107
B1119435515450N02451380EA0013800107
B1119445515450N02451379EA0013800107
B1119455515450N02451378EA0013800107
B1119465515450N02451377EA0013800107
B1119475515450N02451376EA0013800107
B1119485515450N02451374EA0013800107
B1119495515450N02451373EA0013800107
B1119505515450N02451372EA0013800107
B1119515515450N02451371EA0013800107
B1119525515450N02451370EA0013800107
B1119535515450N02451369EA0013800107
B1119545515450N02451368EA0013800107
B1119555515450N02451367EA0013700107
B1119565515450N02451366EA0013700107
B1119575515450N02451366EA0013700107
B1119585515450N02451365EA0013700107
B1119595515450N02451365EA0013700107
B1120005515450N02451365EA0013700107
B1120015515450N02451366EA0013700107
B1120025515450N02451366EA0013700107
B1120035515450N02451366EA0013700107
B1120045515450N02451366EA0013700107
B1120055515450N02451366EA0013700107
B1120065515450N02451366EA0013700107
B1120075515450N02451366EA0013700107
LXSX;C1;GM:1.3
LXSX;S1;TS:1781347309;TL:1781349607;AS:79;AL:107;AT:1310;AB:77
LXSX;S1;XS:0;XD:15.66;SP:59.5;MC:5.1;MS:-3.2;NB:2300
LXSX;S1;FL:23.5;TG:1233;TC:1.4;AG:1556;GM:1.3
LXSX;S1;X0:55.23697,24.68321
LXSX;S1;X1:55.23452,24.66571
LXSX;S1;X2:55.25123,24.66908
LXSX;S1;X3:55.25753,24.86213
LXSX;S1;X4:55.25750,24.85610
G044009745BEB17288F9AA6C42139310B
