AXSX006 SKYTRAXX
HFPLTPILOT:Sepp
HFGTYGLIDERTYPE:Niviuk Artik R2
HFDTM100GPSDATUM:WGS-84
HFRFWFIRMWAREVERSION:202603201607
HFRHWHARDWAREVERSION:5.0
HFTZNTIMEZONE:+2.00
HFSITSITE:Fiesch Kühboden 1 (
HFDTE020426
LXSX;I1;OAB:20260331;OOB:20260123
LXSX;I1;ID:115785
LXSX;I1;AC:1;CAT:C
LXSX;RAT:LTE M1;GSM:3
B1021254624865N00806460EA0219102168
B1021264624866N00806460EA0219102168
B1021274624866N00806460EA0219102168
B1021284624866N00806460EA0219102168
B1021294624866N00806460EA0219102168
B1021304624866N00806460EA0219102168
B1021314624866N00806460EA0219102168
B1021324624866N00806460EA0219102168
B1021334624866N00806460EA0219102168
B1021344624865N00806461EA0219102168
B1021354624865N00806461EA0219102168
B1021364624865N00806461EA0219102168
B1021374624865N00806461EA0219102168
B1021384624865N00806461EA0219102168
B1021394624865N00806461EA0219102168
B1021404624865N00806461EA0219002167
B1021414624863N00806462EA0218902166
B1021424624862N00806463EA0218902166
B1021434624861N00806464EA0218802165
B1021444624859N00806465EA0218702164
B1021454624857N00806466EA0218502162
B1021464624853N00806468EA0218202159
B1021474624850N00806470EA0217802155
B1021484624846N00806473EA0217502152
B1021494624841N00806475EA0217302150
B1021504624836N00806477EA0217102148
B1021514624831N00806479EA0217002147
B1021524624826N00806481EA0217002147
B1021534624821N00806485EA0216902146
B1021544624816N00806489EA0216502142
B1021554624811N00806494EA0216302140
B1021564624806N00806500EA0216202139
B1021574624801N00806506EA0216002137
B1021584624797N00806512EA0215902136
B1021594624793N00806518EA0215902136
B1022004624789N00806523EA0215802135
B1022014624785N00806528EA0215802135
B1022024624781N00806533EA0216102138
B1022034624777N00806537EA0216602143
B1022044624776N00806540EA0217002147
B1022054624774N00806543EA0217202149
B1022064624772N00806545EA0217302150
B1022074624769N00806548EA0217502152
B1022084624765N00806551EA0217602153
B1022094624760N00806552EA0217702154
B1022104624756N00806550EA0217902155
B1022114624752N00806545EA0217902156
B1022124624750N00806540EA0217902156
B1022134624751N00806534EA0218102157
B1022144624753N00806528EA0218102158
B1022154624757N00806523EA0218102158
B1022164624762N00806519EA0218502162
B1022174624767N00806518EA0219002167
B1022184624771N00806520EA0219202169
B1022194624774N00806524EA0219302170
B1022204624776N00806531EA0219602173
B1022214624776N00806538EA0219902176
B1022224624774N00806544EA0220202179
B1022234624771N00806548EA0220402181
B1022244624766N00806549EA0220502181
B1022254624761N00806547EA0220502182
B1022264624758N00806542EA0220702184
B1022274624758N00806536EA0220802184
B1022284624761N00806529EA0220902185
B1022294624766N00806521EA0221002187
B1022304624771N00806517EA0221402190
B1022314624777N00806516EA0222002197
B1022324624781N00806519EA0222302200
B1022334624783N00806525EA0222502202
B1022344624781N00806532EA0222402200
B1022354624776N00806538EA0222602203
B1022364624771N00806539EA0223102207
B1022374624766N00806536EA0223202208
B1022384624764N00806528EA0223402210
B1022394624763N00806519EA0223702214
B1022404624764N00806511EA0224402221
B1022414624765N00806507EA0225002227
B1022424624767N00806504EA0225302230
B1022434624771N00806503EA0225502231
B1022444624775N00806501EA0225702234
B1022454624780N00806500EA0226102238
B1022464624784N00806503EA0226202239
B1022474624786N00806508EA0226402241
B1022484624785N00806515EA0226702243
B1022494624784N00806521EA0226902246
B1022504624782N00806527EA0227402250
B1022514624780N00806531EA0227702254
B1022524624777N00806533EA0227802255
B1022534624772N00806533EA0227902256
B1022544624768N00806529EA0227902256
B1022554624764N00806521EA0228002256
B1022564624762N00806512EA0228202258
B1022574624762N00806504EA0228702263
B1022584624764N00806497EA0229202269
B1022594624767N00806491EA0229602272
B1023004624771N00806488EA0229702274
B1023014624776N00806485EA0229902276
B1023024624781N00806484EA0230302279
B1023034624785N00806486EA0230502281
B1023044624787N00806490EA0230602282
B1023054624787N00806497EA0230802284
B1023064624783N00806503EA0231002286
B1023074624778N00806507EA0231402290
B1023084624772N00806506EA0231602292
B1023094624768N00806502EA0231702293
B1023104624764N00806494EA0231802295
B1023114624762N00806485EA0232202298
B1023124624762N00806476EA0232502301
B1023134624763N00806469EA0232802304
B1023144624766N00806465EA0233102307
B1023154624770N00806463EA0233202308
B1023164624775N00806463EA0233202308
B1023174624780N00806465EA0233202309
B1023184624784N00806470EA0233202308
B1023194624785N00806478EA0233202308
B1023204624782N00806486EA0233502311
B1023214624777N00806490EA0233702313
B1023224624771N00806490EA0233902315
B1023234624766N00806487EA0234102317
B1023244624763N00806480EA0234302318
B1023254624761N00806472EA0234302319
B1023264624762N00806464EA0234402319
B1023274624765N00806458EA0234502320
B1023284624770N00806453EA0234502321
B1023294624775N00806451EA0234602322
B1023304624781N00806450EA0234702323
B1023314624785N00806452EA0234602322
B1023324624788N00806456EA0234502321
B1023334624790N00806462EA0234602321
B1023344624790N00806469EA0234702323
B1023354624789N00806475EA0234802323
B1023364624786N00806479EA0234902324
B1023374624782N00806482EA0234902324
B1023384624777N00806485EA0235002326
B1023394624771N00806487EA0235402329
B1023404624765N00806487EA0235702333
B1023414624760N00806484EA0235902335
B1023424624756N00806479EA0236002335
B1023434624754N00806471EA0236102336
B1023444624754N00806463EA0236202337
B1023454624756N00806456EA0236302339
B1023464624760N00806451EA0236402340
B1023474624765N00806448EA0236402340
B1023484624770N00806447EA0236302338
B1023494624775N00806448EA0236402339
B1023504624780N00806449EA0236402339
B1023514624784N00806452EA0236302338
B1023524624787N00806457EA0236202337
B1023534624789N00806463EA0236202337
B1023544624790N00806470EA0236302338
B1023554624790N00806477EA0236402339
B1023564624790N00806483EA0236602341
B1023574624790N00806489EA0236802343
B1023584624789N00806495EA0237102346
B1023594624787N00806501EA0237302348
B1024004624784N00806506EA0237602351
B1024014624782N00806511EA0237802353
B1024024624779N00806515EA0238002355
B1024034624776N00806518EA0238102356
B1024044624772N00806519EA0238102356
B1024054624767N00806517EA0238102355
B1024064624762N00806513EA0238002355
B1024074624758N00806505EA0238102356
B1024084624757N00806496EA0238302358
B1024094624758N00806488EA0238502360
B1024104624762N00806481EA0238802363
B1024114624767N00806479EA0238902364
B1024124624773N00806480EA0239002365
B1024134624778N00806484EA0239202367
B1024144624781N00806491EA0239402369
B1024154624783N00806497EA0239702372
B1024164624782N00806503EA0239902373
B1024174624779N00806507EA0239802372
B1024184624774N00806509EA0239702372
B1024194624770N00806510EA0239702371
B1024204624764N00806509EA0239802372
B1024214624760N00806505EA0239902373
B1024224624756N00806498EA0240002374
B1024234624756N00806490EA0240102375
B1024244624757N00806483EA0240102376
B1024254624762N00806478EA0240302377
B1024264624767N00806476EA0240402378
B1024274624772N00806477EA0240602380
B1024284624777N00806482EA0240702381
B1024294624779N00806488EA0240802382
B1024304624779N00806494EA0240802382
B1024314624779N00806500EA0240802382
B1024324624777N00806506EA0240802382
B1024334624775N00806513EA0240902383
B1024344624772N00806519EA0241002384
B1024354624768N00806523EA0241202386
B1024364624763N00806524EA0241302387
B1024374624758N00806522EA0241302387
B1024384624754N00806518EA0241402388
B1024394624751N00806511EA0241502388
B1024404624751N00806503EA0241502389
B1024414624752N00806495EA0241602390
B1024424624757N00806489EA0241802392
B1024434624762N00806486EA0242002394
B1024444624768N00806487EA0242302396
B1024454624772N00806489EA0242502399
B1024464624776N00806494EA0242502399
B1024474624779N00806498EA0242602400
B1024484624782N00806502EA0242802402
B1024494624784N00806508EA0242802401
B1024504624783N00806514EA0242502399
B1024514624781N00806521EA0242402397
B1024524624778N00806527EA0242302397
B1024534624772N00806531EA0242302396
B1024544624767N00806533EA0242302397
B1024554624762N00806531EA0242402397
B1024564624758N00806528EA0242402397
B1024574624754N00806522EA0242402398
B1024584624753N00806516EA0242502398
B1024594624752N00806509EA0242602399
B1025004624754N00806502EA0242502399
B1025014624758N00806496EA0242502398
B1025024624764N00806493EA0242602399
B1025034624770N00806492EA0242802401
B1025044624775N00806493EA0243002403
B1025054624779N00806495EA0243202405
B1025064624783N00806496EA0243302406
B1025074624787N00806498EA0243302406
B1025084624792N00806501EA0243202405
B1025094624798N00806505EA0243102404
B1025104624805N00806510EA0243402407
B1025114624809N00806513EA0243602409
B1025124624815N00806517EA0244102414
B1025134624820N00806522EA0244402417
B1025144624825N00806526EA0244702420
B1025154624830N00806530EA0244902422
B1025164624835N00806533EA0245002423
B1025174624841N00806537EA0245002423
B1025184624846N00806540EA0245002423
B1025194624851N00806544EA0244902421
B1025204624856N00806548EA0244802420
B1025214624861N00806551EA0244602418
B1025224624867N00806555EA0244302416
B1025234624873N00806559EA0244102414
B1025244624879N00806563EA0243902412
B1025254624885N00806565EA0243802410
B1025264624891N00806567EA0243702410
B1025274624896N00806569EA0243702410
B1025284624901N00806573EA0243502407
B1025294624906N00806576EA0243202405
B1025304624911N00806579EA0242902402
B1025314624916N00806582EA0242602399
B1025324624922N00806586EA0242302396
B1025334624928N00806589EA0242202394
B1025344624933N00806593EA0242002393
B1025354624938N00806597EA0241902391
B1025364624943N00806601EA0241802390
B1025374624947N00806604EA0241602388
B1025384624953N00806608EA0241402387
B1025394624958N00806611EA0241302385
B1025404624963N00806615EA0241202384
B1025414624968N00806618EA0241002382
B1025424624973N00806622EA0240902381
B1025434624978N00806625EA0240802380
B1025444624982N00806629EA0240702379
B1025454624987N00806632EA0240602378
B1025464624991N00806636EA0240402376
B1025474624997N00806639EA0240202374
B1025484625002N00806642EA0240202374
B1025494625007N00806644EA0240002372
B1025504625012N00806646EA0239902371
B1025514625017N00806650EA0239802369
B1025524625021N00806653EA0239602368
B1025534625026N00806657EA0239502366
B1025544625031N00806660EA0239402366
B1025554625036N00806663EA0239302365
B1025564625041N00806666EA0239102363
B1025574625046N00806668EA0238902361
B1025584625051N00806671EA0238602358
B1025594625056N00806674EA0238402356
B1026004625061N00806676EA0238302355
B1026014625066N00806679EA0238202353
B1026024625071N00806680EA0238002352
B1026034625076N00806683EA0237802349
B1026044625082N00806685EA0237602348
B1026054625087N00806686EA0237602347
B1026064625092N00806688EA0237302345
B1026074625097N00806689EA0237002342
B1026084625102N00806691EA0236802340
B1026094625109N00806692EA0236702339
B1026104625114N00806693EA0236602338
B1026114625119N00806694EA0236502336
B1026124625125N00806696EA0236302334
B1026134625129N00806698EA0236102332
B1026144625134N00806700EA0235902330
B1026154625141N00806702EA0235702329
B1026164625146N00806704EA0235702328
B1026174625152N00806705EA0235802329
B1026184625157N00806707EA0235702328
B1026194625162N00806709EA0235602327
B1026204625168N00806711EA0235502326
B1026214625173N00806713EA0235402325
B1026224625179N00806713EA0235402325
B1026234625185N00806714EA0235402325
B1026244625190N00806715EA0235202323
B1026254625196N00806716EA0235002321
B1026264625202N00806717EA0234802319
B1026274625210N00806719EA0234702318
B1026284625216N00806721EA0234702318
B1026294625222N00806724EA0234802319
B1026304625227N00806727EA0234802319
B1026314625232N00806730EA0234702318
B1026324625238N00806733EA0234602317
B1026334625244N00806736EA0234402315
B1026344625251N00806738EA0234302314
B1026354625257N00806741EA0234202313
B1026364625262N00806745EA0234102312
B1026374625268N00806749EA0234102311
B1026384625273N00806753EA0233802309
B1026394625279N00806757EA0233602307
B1026404625285N00806761EA0233502305
B1026414625291N00806765EA0233402305
B1026424625297N00806769EA0233302304
B1026434625302N00806772EA0233302304
B1026444625307N00806776EA0233302303
B1026454625313N00806780EA0233202302
B1026464625318N00806784EA0233202302
B1026474625323N00806787EA0233102301
B1026484625328N00806791EA0233002300
B1026494625333N00806795EA0232902299
B1026504625338N00806799EA0232802298
B1026514625343N00806803EA0232702298
B1026524625348N00806808EA0232702297
B1026534625353N00806811EA0232702297
B1026544625358N00806814EA0232702297
B1026554625363N00806818EA0232602296
B1026564625368N00806821EA0232402294
B1026574625374N00806825EA0232302293
B1026584625379N00806829EA0232102291
B1026594625385N00806834EA0232002290
B1027004625390N00806838EA0231802288
B1027014625396N00806843EA0231702287
B1027024625401N00806847EA0231602286
B1027034625407N00806852EA0231502285
B1027044625412N00806856EA0231302283
B1027054625418N00806860EA0231102281
B1027064625424N00806864EA0230902279
B1027074625429N00806869EA0230802277
B1027084625435N00806874EA0230702276
B1027094625440N00806880EA0230602275
B1027104625445N00806884EA0230502275
B1027114625450N00806889EA0230402274
B1027124625456N00806893EA0230402273
B1027134625461N00806898EA0230302272
B1027144625465N00806904EA0230002270
B1027154625470N00806909EA0229802268
B1027164625475N00806914EA0229702266
B1027174625481N00806919EA0229602265
B1027184625486N00806924EA0229402263
B1027194625490N00806929EA0229202262
B1027204625495N00806935EA0229202261
B1027214625500N00806939EA0229202262
B1027224625506N00806943EA0229302263
B1027234625512N00806946EA0229502265
B1027244625517N00806948EA0229802268
B1027254625521N00806950EA0230002270
B1027264625525N00806950EA0230002269
B1027274625530N00806951EA0229802268
B1027284625535N00806953EA0229702267
B1027294625542N00806955EA0229702266
B1027304625548N00806956EA0229702267
B1027314625554N00806957EA0229802267
B1027324625558N00806959EA0229602265
B1027334625562N00806962EA0229302262
B1027344625567N00806967EA0229002259
B1027354625570N00806975EA0228802257
B1027364625573N00806984EA0228702256
B1027374625573N00806994EA0229202261
B1027384625573N00807001EA0229902268
B1027394625573N00807005EA0230302272
B1027404625574N00807008EA0230402273
B1027414625574N00807012EA0230302272
B1027424625575N00807018EA0230102271
B1027434625575N00807027EA0230102270
B1027444625572N00807034EA0230102270
B1027454625568N00807039EA0230202272
B1027464625563N00807041EA0230402273
B1027474625558N00807039EA0230502275
B1027484625554N00807035EA0230502275
B1027494625551N00807030EA0230502275
B1027504625549N00807022EA0230502275
B1027514625548N00807015EA0230602276
B1027524625548N00807007EA0230702277
B1027534625551N00806999EA0230902279
B1027544625556N00806995EA0231002279
B1027554625562N00806993EA0230902279
B1027564625569N00806995EA0231002280
B1027574625574N00806998EA0231102281
B1027584625578N00807003EA0231302283
B1027594625581N00807009EA0231602286
B1028004625583N00807014EA0231802288
B1028014625583N00807020EA0231902289
B1028024625582N00807025EA0231902289
B1028034625581N00807032EA0232002289
B1028044625579N00807038EA0232002290
B1028054625576N00807043EA0231902289
B1028064625572N00807047EA0231902288
B1028074625566N00807049EA0231802288
B1028084625562N00807049EA0231802288
B1028094625558N00807047EA0231802288
B1028104625554N00807044EA0231902289
B1028114625550N00807040EA0231802288
B1028124625547N00807034EA0231802288
B1028134625545N00807027EA0232002290
B1028144625544N00807019EA0232002290
B1028154625545N00807011EA0232002290
B1028164625546N00807003EA0232002290
B1028174625549N00806996EA0232002290
B1028184625553N00806988EA0232102291
B1028194625558N00806983EA0232302293
B1028204625565N00806980EA0232402294
B1028214625572N00806982EA0232502295
B1028224625578N00806987EA0232602297
B1028234625582N00806995EA0232802298
B1028244625583N00807003EA0232702297
B1028254625582N00807010EA0232702297
B1028264625578N00807015EA0232702297
B1028274625574N00807017EA0232702297
B1028284625568N00807017EA0232802298
B1028294625564N00807014EA0233002300
B1028304625561N00807010EA0233202302
B1028314625560N00807005EA0233202303
B1028324625560N00807000EA0233202302
B1028334625561N00806993EA0233102302
B1028344625562N00806985EA0233102301
B1028354625566N00806976EA0233102301
B1028364625571N00806969EA0233202302
B1028374625577N00806964EA0233302304
B1028384625584N00806963EA0233602306
B1028394625591N00806965EA0233802308
B1028404625595N00806970EA0233802308
B1028414625597N00806978EA0233802308
B1028424625598N00806986EA0233802308
B1028434625596N00806993EA0233802309
B1028444625592N00806998EA0233802309
B1028454625589N00807000EA0233902309
B1028464625584N00807000EA0234002310
B1028474625580N00806999EA0234102311
B1028484625577N00806997EA0234202312
B1028494625574N00806993EA0234302313
B1028504625573N00806987EA0234402314
B1028514625571N00806979EA0234402314
B1028524625573N00806970EA0234602316
B1028534625576N00806961EA0234802318
B1028544625582N00806954EA0234902319
B1028554625589N00806953EA0235102321
B1028564625595N00806957EA0235202322
B1028574625599N00806964EA0235302323
B1028584625600N00806971EA0235402324
B1028594625598N00806977EA0235502326
B1029004625595N00806981EA0235602327
B1029014625590N00806982EA0235702328
B1029024625586N00806979EA0235802328
B1029034625582N00806973EA0236002330
B1029044625579N00806966EA0236302334
B1029054625579N00806957EA0236602336
B1029064625581N00806949EA0236702337
B1029074625586N00806941EA0236702337
B1029084625592N00806936EA0236702337
B1029094625599N00806935EA0236702338
B1029104625606N00806937EA0236802338
B1029114625611N00806942EA0236902340
B1029124625614N00806949EA0237202342
B1029134625614N00806955EA0237402344
B1029144625612N00806961EA0237402345
B1029154625609N00806965EA0237502346
B1029164625605N00806966EA0237602346
B1029174625599N00806966EA0237702348
B1029184625595N00806964EA0238102351
B1029194625592N00806959EA0238302354
B1029204625591N00806953EA0238402354
B1029214625591N00806945EA0238402355
B1029224625592N00806936EA0238402355
B1029234625595N00806927EA0238402355
B1029244625600N00806920EA0238402354
B1029254625607N00806917EA0238302353
B1029264625615N00806919EA0238202352
B1029274625621N00806925EA0238202352
B1029284625625N00806932EA0238402354
B1029294625628N00806940EA0238602356
B1029304625628N00806947EA0238802359
B1029314625627N00806953EA0239102361
B1029324625625N00806959EA0239302363
B1029334625622N00806964EA0239402364
B1029344625618N00806967EA0239502365
B1029354625613N00806968EA0239702367
B1029364625608N00806966EA0239802368
B1029374625605N00806961EA0239902369
B1029384625603N00806953EA0240102371
B1029394625603N00806945EA0240202373
B1029404625606N00806937EA0240202373
B1029414625611N00806930EA0240202372
B1029424625617N00806927EA0240302374
B1029434625624N00806927EA0240402375
B1029444625630N00806931EA0240502376
B1029454625635N00806938EA0240702377
B1029464625637N00806945EA0240902379
B1029474625637N00806953EA0241002380
B1029484625635N00806960EA0241102381
B1029494625631N00806965EA0241202382
B1029504625627N00806967EA0241202382
B1029514625621N00806965EA0241302383
B1029524625617N00806961EA0241402384
B1029534625614N00806954EA0241602386
B1029544625614N00806946EA0241802388
B1029554625616N00806938EA0241902389
B1029564625619N00806931EA0241902389
B1029574625624N00806925EA0242002390
B1029584625631N00806922EA0242102391
B1029594625639N00806924EA0242202392
B1030004625645N00806929EA0242302393
B1030014625648N00806937EA0242502395
B1030024625649N00806945EA0242702397
B1030034625647N00806952EA0242702397
B1030044625644N00806957EA0242802398
B1030054625640N00806961EA0242902399
B1030064625635N00806962EA0243002400
B1030074625631N00806961EA0243102400
B1030084625627N00806958EA0243202402
B1030094625624N00806953EA0243302403
B1030104625623N00806946EA0243502405
B1030114625624N00806938EA0243502405
B1030124625628N00806930EA0243502405
B1030134625634N00806925EA0243502405
B1030144625641N00806922EA0243502405
B1030154625648N00806924EA0243502405
B1030164625654N00806929EA0243602406
B1030174625658N00806935EA0243802408
B1030184625661N00806943EA0244002410
B1030194625661N00806949EA0244102411
B1030204625661N00806954EA0244202412
B1030214625659N00806959EA0244202412
B1030224625657N00806964EA0244202412
B1030234625655N00806969EA0244302412
B1030244625651N00806971EA0244202412
B1030254625646N00806971EA0244102410
B1030264625640N00806968EA0243902408
B1030274625635N00806961EA0243802408
B1030284625632N00806952EA0243902409
B1030294625630N00806943EA0244202411
B1030304625630N00806935EA0244402414
B1030314625631N00806928EA0244602415
B1030324625634N00806921EA0244702417
B1030334625637N00806915EA0244802417
B1030344625641N00806908EA0244802418
B1030354625647N00806903EA0244902419
B1030364625653N00806902EA0245002419
B1030374625660N00806905EA0245102420
B1030384625665N00806910EA0245102421
B1030394625668N00806917EA0245302422
B1030404625669N00806924EA0245302422
B1030414625667N00806931EA0245402423
B1030424625664N00806935EA0245402424
B1030434625659N00806937EA0245202422
B1030444625653N00806935EA0245102421
B1030454625648N00806930EA0245102421
B1030464625645N00806924EA0245202421
B1030474625643N00806915EA0245202422
B1030484625643N00806906EA0245402423
B1030494625646N00806897EA0245602425
B1030504625650N00806890EA0245802427
B1030514625655N00806884EA0246002429
B1030524625660N00806880EA0246102431
B1030534625665N00806877EA0246302432
B1030544625671N00806873EA0246502434
B1030554625677N00806872EA0246702436
B1030564625684N00806874EA0246702437
B1030574625689N00806879EA0246802437
B1030584625692N00806886EA0247002439
B1030594625691N00806894EA0247002439
B1031004625688N00806898EA0246902438
B1031014625684N00806899EA0246802437
B1031024625679N00806898EA0246902438
B1031034625674N00806894EA0246902438
B1031044625671N00806889EA0246802437
B1031054625668N00806881EA0246802437
B1031064625668N00806872EA0246802437
B1031074625671N00806862EA0246802437
B1031084625676N00806853EA0247002439
B1031094625682N00806848EA0247302442
B1031104625689N00806846EA0247602445
B1031114625695N00806845EA0247902448
B1031124625702N00806845EA0248002449
B1031134625708N00806846EA0248202451
B1031144625714N00806848EA0248402453
B1031154625719N00806853EA0248502454
B1031164625722N00806861EA0248402453
B1031174625722N00806869EA0248402453
B1031184625719N00806875EA0248502454
B1031194625715N00806877EA0248402453
B1031204625710N00806877EA0248502453
B1031214625705N00806874EA0248502454
B1031224625700N00806869EA0248502454
B1031234625697N00806861EA0248402453
B1031244625697N00806851EA0248302452
B1031254625699N00806840EA0248202451
B1031264625703N00806831EA0248202450
B1031274625710N00806826EA0248302451
B1031284625718N00806824EA0248302451
B1031294625724N00806826EA0248402453
B1031304625731N00806830EA0248602454
B1031314625736N00806836EA0248702456
B1031324625740N00806841EA0248802456
B1031334625744N00806846EA0248902457
B1031344625748N00806851EA0248902458
B1031354625752N00806856EA0248902458
B1031364625755N00806863EA0248802457
B1031374625757N00806871EA0248602455
B1031384625760N00806878EA0248502453
B1031394625763N00806885EA0248702455
B1031404625766N00806891EA0248702455
B1031414625768N00806897EA0248602455
B1031424625770N00806903EA0248502453
B1031434625773N00806909EA0248202450
B1031444625776N00806916EA0247902447
B1031454625778N00806924EA0247702446
B1031464625781N00806933EA0247502443
B1031474625783N00806941EA0247402442
B1031484625784N00806949EA0247402442
B1031494625786N00806956EA0247302441
B1031504625789N00806962EA0247002438
B1031514625791N00806970EA0246602434
B1031524625795N00806978EA0246402432
B1031534625798N00806987EA0246302431
B1031544625801N00806995EA0246202430
B1031554625803N00807002EA0246102429
B1031564625806N00807010EA0246002428
B1031574625809N00807017EA0245802426
B1031584625811N00807024EA0245502423
B1031594625814N00807033EA0245202420
B1032004625816N00807042EA0244802415
B1032014625819N00807051EA0244502413
B1032024625823N00807060EA0244402412
B1032034625827N00807069EA0244402412
B1032044625830N00807077EA0244302411
B1032054625833N00807086EA0244002408
B1032064625835N00807096EA0243702405
B1032074625837N00807106EA0243502403
B1032084625839N00807117EA0243402402
B1032094625841N00807127EA0243302401
B1032104625844N00807137EA0243202400
B1032114625846N00807147EA0243202400
B1032124625848N00807156EA0243002398
B1032134625849N00807166EA0242802396
B1032144625851N00807176EA0242502393
B1032154625853N00807186EA0242302391
B1032164625855N00807196EA0242102389
B1032174625857N00807207EA0241902387
B1032184625859N00807217EA0241802386
B1032194625860N00807228EA0241702385
B1032204625862N00807239EA0241502383
B1032214625862N00807249EA0241402382
B1032224625863N00807260EA0241302381
B1032234625865N00807271EA0241202380
B1032244625868N00807281EA0241202379
B1032254625871N00807291EA0241202380
B1032264625873N00807301EA0241102379
B1032274625874N00807311EA0240902377
B1032284625876N00807321EA0240602374
B1032294625878N00807331EA0240402372
B1032304625880N00807340EA0240402372
B1032314625882N00807349EA0240302371
B1032324625884N00807357EA0240202371
B1032334625885N00807366EA0240202370
B1032344625885N00807376EA0239902367
B1032354625887N00807386EA0239602364
B1032364625888N00807396EA0239502363
B1032374625891N00807406EA0239202360
B1032384625894N00807415EA0239002358
B1032394625896N00807426EA0238802356
B1032404625897N00807436EA0238802356
B1032414625898N00807446EA0238702355
B1032424625900N00807455EA0238602353
B1032434625903N00807464EA0238402352
B1032444625905N00807474EA0238202350
B1032454625908N00807484EA0237902347
B1032464625909N00807494EA0237802346
B1032474625911N00807504EA0237702345
B1032484625912N00807514EA0237502343
B1032494625915N00807523EA0237502343
B1032504625917N00807532EA0237502343
B1032514625919N00807540EA0237402342
B1032524625920N00807547EA0237302340
B1032534625921N00807556EA0237002338
B1032544625923N00807565EA0236802336
B1032554625925N00807573EA0236602334
B1032564625928N00807582EA0236502333
B1032574625930N00807590EA0236402332
B1032584625932N00807599EA0236202330
B1032594625934N00807608EA0236002328
B1033004625935N00807618EA0236002328
B1033014625937N00807627EA0235902327
B1033024625938N00807637EA0235902326
B1033034625939N00807645EA0235702325
B1033044625940N00807654EA0235602324
B1033054625941N00807664EA0235402322
B1033064625941N00807673EA0235302321
B1033074625943N00807683EA0235102318
B1033084625944N00807693EA0234902317
B1033094625945N00807702EA0234802316
B1033104625947N00807712EA0234602314
B1033114625947N00807721EA0234502312
B1033124625948N00807731EA0234402312
B1033134625949N00807740EA0234202310
B1033144625951N00807749EA0234002308
B1033154625953N00807758EA0233802306
B1033164625955N00807768EA0233502303
B1033174625957N00807778EA0233402302
B1033184625957N00807789EA0233302301
B1033194625958N00807798EA0233302301
B1033204625959N00807808EA0233302301
B1033214625959N00807816EA0233302301
B1033224625960N00807825EA0233202300
B1033234625961N00807835EA0233102299
B1033244625962N00807844EA0233002298
B1033254625963N00807853EA0232902297
B1033264625963N00807862EA0232802296
B1033274625964N00807871EA0232802295
B1033284625964N00807880EA0232702294
B1033294625965N00807889EA0232602293
B1033304625966N00807897EA0232502293
B1033314625966N00807905EA0232402292
B1033324625967N00807913EA0232202290
B1033334625967N00807921EA0231902287
B1033344625967N00807930EA0231602284
B1033354625967N00807939EA0231402282
B1033364625968N00807948EA0231302280
B1033374625968N00807957EA0231102279
B1033384625968N00807965EA0230902277
B1033394625969N00807974EA0230602274
B1033404625970N00807983EA0230302271
B1033414625971N00807993EA0230102269
B1033424625971N00808003EA0230002268
B1033434625972N00808014EA0230002268
B1033444625974N00808023EA0230002267
B1033454625974N00808033EA0229902266
B1033464625975N00808043EA0229702265
B1033474625975N00808054EA0229702265
B1033484625976N00808064EA0229702265
B1033494625976N00808074EA0229702265
B1033504625977N00808083EA0229702265
B1033514625977N00808092EA0229602263
B1033524625978N00808101EA0229402262
B1033534625978N00808111EA0229202260
B1033544625979N00808121EA0229002258
B1033554625980N00808132EA0228802256
B1033564625982N00808143EA0228602253
B1033574625983N00808154EA0228402252
B1033584625984N00808165EA0228202250
B1033594625984N00808176EA0228002248
B1034004625985N00808186EA0227802246
B1034014625986N00808197EA0227502243
B1034024625987N00808208EA0227202240
B1034034625988N00808219EA0227002238
B1034044625989N00808231EA0226802236
B1034054625990N00808242EA0226702235
B1034064625991N00808253EA0226502233
B1034074625992N00808263EA0226402232
B1034084625993N00808274EA0226202230
B1034094625994N00808285EA0226002227
B1034104625995N00808296EA0225702225
B1034114625995N00808307EA0225502223
B1034124625996N00808318EA0225402222
B1034134625997N00808329EA0225402221
B1034144625998N00808339EA0225302220
B1034154625998N00808349EA0225102219
B1034164625999N00808359EA0225002218
B1034174626000N00808370EA0224902217
B1034184626001N00808380EA0224702215
B1034194626002N00808391EA0224702214
B1034204626003N00808401EA0224502213
B1034214626004N00808412EA0224502212
B1034224626006N00808422EA0224302211
B1034234626007N00808432EA0224202210
B1034244626008N00808442EA0224102208
B1034254626008N00808452EA0223902207
B1034264626009N00808463EA0223702205
B1034274626009N00808473EA0223602204
B1034284626010N00808483EA0223402202
B1034294626011N00808494EA0223202200
B1034304626012N00808504EA0223002198
B1034314626013N00808514EA0222902197
B1034324626013N00808527EA0222702195
B1034334626014N00808536EA0222602193
B1034344626015N00808546EA0222402192
B1034354626015N00808557EA0222302190
B1034364626016N00808568EA0222102189
B1034374626017N00808579EA0222002188
B1034384626017N00808589EA0221802186
B1034394626018N00808599EA0221702184
B1034404626019N00808610EA0221402182
B1034414626020N00808620EA0221202180
B1034424626020N00808631EA0221002178
B1034434626021N00808642EA0220802176
B1034444626022N00808653EA0220702175
B1034454626022N00808664EA0220602174
B1034464626022N00808675EA0220402172
B1034474626022N00808686EA0220202170
B1034484626023N00808696EA0220002168
B1034494626023N00808707EA0219802166
B1034504626024N00808718EA0219602164
B1034514626025N00808729EA0219402162
B1034524626025N00808740EA0219302161
B1034534626027N00808752EA0219202159
B1034544626028N00808762EA0219002158
B1034554626028N00808773EA0218902157
B1034564626029N00808783EA0218802155
B1034574626030N00808794EA0218602154
B1034584626031N00808804EA0218502153
B1034594626032N00808815EA0218402152
B1035004626033N00808825EA0218302151
B1035014626033N00808836EA0218202149
B1035024626033N00808846EA0218002148
B1035034626034N00808857EA0217902146
B1035044626035N00808867EA0217702145
B1035054626036N00808878EA0217502143
B1035064626036N00808889EA0217402142
B1035074626037N00808899EA0217302141
B1035084626038N00808909EA0217202140
B1035094626039N00808920EA0217002138
B1035104626040N00808930EA0216902137
B1035114626041N00808941EA0216802135
B1035124626041N00808953EA0216702134
B1035134626042N00808962EA0216502133
B1035144626043N00808972EA0216402132
B1035154626044N00808983EA0216302131
B1035164626045N00808994EA0216102129
B1035174626046N00809004EA0216002128
B1035184626047N00809015EA0215902126
B1035194626048N00809026EA0215702125
B1035204626049N00809037EA0215602124
B1035214626050N00809048EA0215502123
B1035224626051N00809058EA0215402121
B1035234626052N00809069EA0215202120
B1035244626053N00809079EA0215202120
B1035254626054N00809088EA0215202120
B1035264626056N00809097EA0215102119
B1035274626056N00809105EA0215002117
B1035284626058N00809113EA0214702115
B1035294626059N00809122EA0214402112
B1035304626059N00809132EA0214302111
B1035314626060N00809142EA0214302110
B1035324626062N00809151EA0214202110
B1035334626063N00809160EA0214002108
B1035344626064N00809168EA0213802106
B1035354626065N00809177EA0213602103
B1035364626065N00809187EA0213302101
B1035374626066N00809197EA0213202100
B1035384626068N00809206EA0213002098
B1035394626070N00809216EA0212902097
B1035404626071N00809225EA0212802095
B1035414626072N00809233EA0212602094
B1035424626073N00809243EA0212302091
B1035434626074N00809253EA0212102089
B1035444626075N00809263EA0212002088
B1035454626076N00809274EA0211902087
B1035464626077N00809284EA0211902087
B1035474626078N00809293EA0211802086
B1035484626079N00809302EA0211702085
B1035494626080N00809311EA0211502083
B1035504626081N00809321EA0211302081
B1035514626082N00809331EA0211202080
B1035524626084N00809340EA0211102079
B1035534626085N00809349EA0211002079
B1035544626086N00809358EA0210902078
B1035554626088N00809368EA0210802076
B1035564626088N00809377EA0210602074
B1035574626090N00809387EA0210402072
B1035584626091N00809397EA0210302071
B1035594626093N00809406EA0210202070
B1036004626095N00809415EA0210102069
B1036014626096N00809425EA0210002068
B1036024626098N00809434EA0209902067
B1036034626099N00809443EA0209802066
B1036044626101N00809453EA0209702065
B1036054626102N00809462EA0209602064
B1036064626103N00809471EA0209502064
B1036074626104N00809481EA0209402063
B1036084626105N00809490EA0209302061
B1036094626106N00809499EA0209202060
B1036104626108N00809509EA0209002059
B1036114626109N00809518EA0208902058
B1036124626110N00809527EA0208802057
B1036134626111N00809537EA0208802057
B1036144626112N00809546EA0208702056
B1036154626113N00809555EA0208602055
B1036164626114N00809564EA0208502054
B1036174626115N00809573EA0208402053
B1036184626116N00809583EA0208302052
B1036194626117N00809592EA0208202051
B1036204626119N00809601EA0208102050
B1036214626119N00809610EA0207902048
B1036224626120N00809619EA0207802047
B1036234626121N00809628EA0207602045
B1036244626122N00809637EA0207502044
B1036254626123N00809646EA0207302042
B1036264626124N00809655EA0207202041
B1036274626125N00809664EA0207102040
B1036284626127N00809674EA0207002039
B1036294626130N00809683EA0207102040
B1036304626132N00809693EA0207302042
B1036314626134N00809703EA0207402043
B1036324626135N00809712EA0207402043
B1036334626137N00809721EA0207302042
B1036344626139N00809729EA0207102040
B1036354626142N00809739EA0206902039
B1036364626144N00809750EA0206702037
B1036374626145N00809762EA0206802037
B1036384626147N00809771EA0207002039
B1036394626150N00809780EA0207102041
B1036404626151N00809788EA0207202041
B1036414626153N00809797EA0207102040
B1036424626154N00809806EA0207002039
B1036434626157N00809816EA0207002039
B1036444626158N00809826EA0207102041
B1036454626160N00809836EA0207302042
B1036464626161N00809844EA0207502044
B1036474626163N00809851EA0207502045
B1036484626164N00809858EA0207502044
B1036494626165N00809866EA0207402043
B1036504626165N00809874EA0207302043
B1036514626165N00809883EA0207202041
B1036524626165N00809891EA0207102041
B1036534626165N00809900EA0207202042
B1036544626165N00809908EA0207402044
B1036554626165N00809916EA0207702046
B1036564626163N00809922EA0207902049
B1036574626161N00809928EA0208102051
B1036584626159N00809934EA0208302053
B1036594626155N00809938EA0208502055
B1037004626151N00809939EA0208702056
B1037014626147N00809938EA0208702057
B1037024626143N00809936EA0208802058
B1037034626140N00809933EA0208802058
B1037044626138N00809929EA0208802058
B1037054626137N00809924EA0208702056
B1037064626139N00809918EA0208502054
B1037074626142N00809913EA0208302053
B1037084626146N00809908EA0208202052
B1037094626151N00809905EA0208202051
B1037104626157N00809903EA0208102051
B1037114626162N00809901EA0208202051
B1037124626167N00809900EA0208202052
B1037134626174N00809901EA0208202052
B1037144626177N00809903EA0208102051
B1037154626182N00809906EA0208002050
B1037164626186N00809909EA0207902049
B1037174626191N00809913EA0207802047
B1037184626196N00809917EA0207702046
B1037194626201N00809923EA0207602046
B1037204626205N00809931EA0207602046
B1037214626208N00809940EA0207602045
B1037224626210N00809950EA0207702047
B1037234626212N00809959EA0208102051
B1037244626213N00809966EA0208402054
B1037254626215N00809972EA0208502055
B1037264626216N00809979EA0208502055
B1037274626216N00809985EA0208402054
B1037284626216N00809993EA0208202052
B1037294626214N00810000EA0208102051
B1037304626212N00810006EA0208002050
B1037314626209N00810010EA0207902049
B1037324626206N00810013EA0207802048
B1037334626203N00810014EA0207502045
B1037344626199N00810015EA0207302043
B1037354626195N00810014EA0207002040
B1037364626190N00810011EA0206902039
B1037374626185N00810007EA0206902039
B1037384626182N00810002EA0207002040
B1037394626177N00809998EA0207202042
B1037404626173N00809995EA0207402044
B1037414626169N00809992EA0207602046
B1037424626166N00809990EA0207802048
B1037434626161N00809988EA0207902049
B1037444626157N00809987EA0207902050
B1037454626153N00809985EA0207902049
B1037464626150N00809983EA0207802048
B1037474626146N00809978EA0207602047
B1037484626144N00809973EA0207602046
B1037494626142N00809968EA0207502045
B1037504626141N00809962EA0207302043
B1037514626139N00809957EA0207102041
B1037524626137N00809951EA0206802038
B1037534626135N00809943EA0206602036
B1037544626134N00809938EA0206502035
B1037554626132N00809932EA0206402035
B1037564626131N00809926EA0206302034
B1037574626130N00809921EA0206102032
B1037584626128N00809916EA0205802028
B1037594626128N00809909EA0205502025
B1038004626127N00809902EA0205202022
B1038014626127N00809895EA0204902020
B1038024626128N00809887EA0204702018
B1038034626129N00809880EA0204502015
B1038044626132N00809873EA0204302013
B1038054626134N00809865EA0204102011
B1038064626135N00809857EA0203902009
B1038074626137N00809848EA0203802008
B1038084626139N00809840EA0203702007
B1038094626141N00809833EA0203702007
B1038104626144N00809826EA0203702008
B1038114626147N00809820EA0203702008
B1038124626153N00809817EA0203702007
B1038134626159N00809815EA0203602006
B1038144626166N00809815EA0203602006
B1038154626173N00809819EA0203602007
B1038164626179N00809824EA0203602007
B1038174626183N00809832EA0203602006
B1038184626185N00809840EA0203602006
B1038194626186N00809849EA0203702008
B1038204626188N00809857EA0204002010
B1038214626189N00809864EA0204102012
B1038224626190N00809871EA0204102012
B1038234626189N00809879EA0204202013
B1038244626185N00809887EA0204302014
B1038254626182N00809893EA0204502016
B1038264626177N00809894EA0204502015
B1038274626173N00809892EA0204402014
B1038284626169N00809888EA0204302013
B1038294626167N00809882EA0204402014
B1038304626166N00809876EA0204302014
B1038314626166N00809869EA0204302013
B1038324626169N00809862EA0204202013
B1038334626175N00809856EA0204202012
B1038344626180N00809854EA0204102012
B1038354626186N00809854EA0204102011
B1038364626193N00809857EA0204002011
B1038374626198N00809863EA0203902010
B1038384626203N00809872EA0203802009
B1038394626206N00809882EA0203902010
B1038404626207N00809893EA0204002011
B1038414626207N00809903EA0204302014
B1038424626207N00809912EA0204502016
B1038434626208N00809920EA0204702017
B1038444626209N00809926EA0204702018
B1038454626209N00809933EA0204602017
B1038464626209N00809939EA0204502015
B1038474626207N00809946EA0204302014
B1038484626203N00809951EA0204202012
B1038494626199N00809956EA0204002011
B1038504626196N00809961EA0203902010
B1038514626192N00809966EA0204002011
B1038524626189N00809972EA0204002011
B1038534626185N00809978EA0203802009
B1038544626182N00809984EA0203802009
B1038554626179N00809989EA0203802009
B1038564626177N00809994EA0203502006
B1038574626174N00810001EA0203402004
B1038584626173N00810009EA0203102002
B1038594626172N00810017EA0203102002
B1039004626172N00810026EA0203102001
B1039014626172N00810035EA0203102002
B1039024626173N00810043EA0203202003
B1039034626174N00810051EA0203102002
B1039044626176N00810059EA0203202003
B1039054626178N00810067EA0203202003
B1039064626181N00810075EA0203202003
B1039074626184N00810083EA0203202002
B1039084626187N00810091EA0203202003
B1039094626190N00810099EA0203202003
B1039104626193N00810106EA0203202003
B1039114626196N00810113EA0203202002
B1039124626198N00810121EA0203102002
B1039134626202N00810130EA0203002001
B1039144626204N00810137EA0203002001
B1039154626207N00810145EA0203002001
B1039164626209N00810155EA0202902000
B1039174626211N00810164EA0202601997
B1039184626213N00810174EA0202501996
B1039194626215N00810183EA0202401995
B1039204626217N00810193EA0202501996
B1039214626220N00810202EA0202801999
B1039224626224N00810210EA0203202003
B1039234626227N00810217EA0203702008
B1039244626230N00810222EA0204102012
B1039254626232N00810227EA0204502016
B1039264626233N00810233EA0204602017
B1039274626232N00810240EA0204602017
B1039284626230N00810245EA0204602017
B1039294626227N00810249EA0204502016
B1039304626224N00810249EA0204502016
B1039314626222N00810247EA0204502016
B1039324626221N00810242EA0204502016
B1039334626222N00810235EA0204502016
B1039344626225N00810229EA0204502016
B1039354626229N00810224EA0204702018
B1039364626236N00810221EA0204902020
B1039374626242N00810220EA0205302024
B1039384626249N00810221EA0205702028
B1039394626255N00810225EA0205902031
B1039404626260N00810230EA0206102033
B1039414626264N00810235EA0206302035
B1039424626267N00810242EA0206602037
B1039434626269N00810248EA0206702038
B1039444626268N00810254EA0206702038
B1039454626265N00810257EA0206602037
B1039464626262N00810258EA0206702038
B1039474626259N00810257EA0206702038
B1039484626257N00810254EA0206802039
B1039494626255N00810249EA0206902040
B1039504626254N00810244EA0207002041
B1039514626254N00810238EA0207302044
B1039524626255N00810231EA0207502047
B1039534626256N00810224EA0208002051
B1039544626259N00810219EA0208302054
B1039554626264N00810216EA0208502057
B1039564626270N00810215EA0208702058
B1039574626276N00810217EA0208902061
B1039584626281N00810222EA0209302065
B1039594626284N00810228EA0209502066
B1040004626285N00810235EA0209702068
B1040014626284N00810241EA0209902070
B1040024626281N00810245EA0210102072
B1040034626278N00810246EA0210202073
B1040044626274N00810244EA0210402075
B1040054626270N00810240EA0210702078
B1040064626269N00810234EA0211002082
B1040074626270N00810228EA0211302084
B1040084626274N00810223EA0211302084
B1040094626280N00810220EA0211302085
B1040104626287N00810218EA0211902090
B1040114626293N00810220EA0212302095
B1040124626297N00810224EA0212502097
B1040134626299N00810231EA0212702098
B1040144626299N00810237EA0212902100
B1040154626297N00810243EA0213102102
B1040164626295N00810248EA0213202104
B1040174626291N00810252EA0213402105
B1040184626287N00810254EA0213602107
B1040194626283N00810253EA0213802110
B1040204626281N00810250EA0213902110
B1040214626281N00810245EA0213802109
B1040224626282N00810239EA0213802109
B1040234626285N00810233EA0213902110
B1040244626290N00810228EA0214202113
B1040254626297N00810226EA0214502117
B1040264626303N00810228EA0214802119
B1040274626308N00810234EA0215102122
B1040284626311N00810241EA0215502126
B1040294626315N00810249EA0215902131
B1040304626318N00810256EA0216302134
B1040314626320N00810263EA0216402136
B1040324626320N00810269EA0216602137
B1040334626320N00810274EA0216602138
B1040344626318N00810279EA0216702138
B1040354626316N00810285EA0216602138
B1040364626313N00810290EA0216802139
B1040374626310N00810293EA0216902141
B1040384626306N00810293EA0216902141
B1040394626303N00810290EA0217002141
B1040404626302N00810284EA0217002141
B1040414626303N00810276EA0217002141
B1040424626306N00810269EA0217002141
B1040434626311N00810262EA0217102142
B1040444626318N00810256EA0217102142
B1040454626325N00810254EA0217402145
B1040464626333N00810253EA0217702148
B1040474626341N00810255EA0218102152
B1040484626348N00810260EA0218402155
B1040494626353N00810267EA0218702158
B1040504626358N00810275EA0218902161
B1040514626361N00810282EA0219102162
B1040524626363N00810290EA0219302164
B1040534626363N00810296EA0219202164
B1040544626361N00810303EA0219302164
B1040554626360N00810307EA0219402165
B1040564626357N00810309EA0219302164
B1040574626353N00810309EA0219202163
B1040584626350N00810305EA0219202163
B1040594626348N00810299EA0219502166
B1041004626348N00810292EA0219802169
B1041014626350N00810286EA0220002172
B1041024626354N00810280EA0220102172
B1041034626360N00810276EA0220202173
B1041044626368N00810272EA0220402175
B1041054626375N00810271EA0220702178
B1041064626383N00810272EA0220802180
B1041074626389N00810277EA0221002181
B1041084626393N00810284EA0221102182
B1041094626394N00810292EA0221002181
B1041104626393N00810299EA0220902180
B1041114626390N00810303EA0220902180
B1041124626387N00810304EA0221102182
B1041134626384N00810302EA0221102182
B1041144626382N00810298EA0221102182
B1041154626380N00810292EA0221302184
B1041164626378N00810286EA0221602187
B1041174626378N00810279EA0221902190
B1041184626379N00810272EA0222102192
B1041194626383N00810265EA0222302194
B1041204626388N00810258EA0222502196
B1041214626395N00810255EA0222702198
B1041224626401N00810256EA0222802199
B1041234626407N00810260EA0222902200
B1041244626410N00810265EA0223102202
B1041254626412N00810272EA0223202203
B1041264626411N00810278EA0223302204
B1041274626409N00810284EA0223502206
B1041284626405N00810288EA0223502206
B1041294626401N00810288EA0223702208
B1041304626397N00810284EA0223902210
B1041314626395N00810278EA0224302214
B1041324626396N00810270EA0224602216
B1041334626398N00810263EA0224802219
B1041344626402N00810256EA0225002221
B1041354626407N00810250EA0225302224
B1041364626412N00810247EA0225502226
B1041374626418N00810247EA0225602227
B1041384626423N00810251EA0225602227
B1041394626427N00810258EA0225702228
B1041404626429N00810266EA0225802229
B1041414626428N00810273EA0226002231
B1041424626426N00810279EA0226102232
B1041434626423N00810283EA0226302234
B1041444626419N00810286EA0226602237
B1041454626415N00810286EA0226902240
B1041464626412N00810284EA0227202243
B1041474626409N00810281EA0227502246
B1041484626407N00810277EA0227802249
B1041494626406N00810272EA0228102252
B1041504626406N00810265EA0228302254
B1041514626408N00810257EA0228502256
B1041524626412N00810249EA0228602257
B1041534626418N00810244EA0228802259
B1041544626424N00810242EA0229002261
B1041554626431N00810243EA0229202263
B1041564626435N00810247EA0229502266
B1041574626439N00810252EA0229702268
B1041584626442N00810257EA0229902270
B1041594626446N00810262EA0230102272
B1042004626451N00810268EA0230202273
B1042014626455N00810273EA0230302274
B1042024626459N00810278EA0230502275
B1042034626461N00810282EA0230502275
B1042044626464N00810287EA0230302274
B1042054626466N00810293EA0230002271
B1042064626469N00810300EA0229802269
B1042074626472N00810308EA0229602267
B1042084626476N00810315EA0229502265
B1042094626480N00810322EA0229402265
B1042104626483N00810329EA0229502266
B1042114626487N00810335EA0229802268
B1042124626490N00810340EA0230202272
B1042134626493N00810343EA0230502276
B1042144626496N00810347EA0230702277
B1042154626499N00810350EA0230802279
B1042164626502N00810355EA0230902279
B1042174626505N00810360EA0231002281
B1042184626508N00810367EA0231202282
B1042194626512N00810373EA0231502285
B1042204626515N00810379EA0231802289
B1042214626517N00810385EA0232102292
B1042224626519N00810389EA0232302294
B1042234626521N00810394EA0232402295
B1042244626524N00810400EA0232502295
B1042254626528N00810407EA0232602296
B1042264626531N00810413EA0232702297
B1042274626534N00810420EA0232902299
B1042284626538N00810426EA0233102301
B1042294626541N00810431EA0233302304
B1042304626544N00810436EA0233502305
B1042314626547N00810440EA0233502306
B1042324626550N00810445EA0233702307
B1042334626553N00810452EA0233702307
B1042344626556N00810458EA0233802308
B1042354626558N00810465EA0234002310
B1042364626561N00810471EA0234202312
B1042374626564N00810477EA0234302314
B1042384626567N00810483EA0234402314
B1042394626571N00810489EA0234302313
B1042404626575N00810495EA0234302313
B1042414626579N00810502EA0234402314
B1042424626583N00810510EA0234502315
B1042434626586N00810517EA0234502315
B1042444626589N00810524EA0234502315
B1042454626592N00810530EA0234502315
B1042464626595N00810537EA0234402314
B1042474626599N00810543EA0234402314
B1042484626603N00810550EA0234302313
B1042494626606N00810556EA0234202311
B1042504626609N00810561EA0234102311
B1042514626613N00810567EA0233902309
B1042524626617N00810574EA0233702307
B1042534626621N00810581EA0233602306
B1042544626626N00810588EA0233702307
B1042554626631N00810596EA0233802308
B1042564626635N00810604EA0233902309
B1042574626638N00810610EA0234102311
B1042584626642N00810617EA0234202311
B1042594626646N00810623EA0234102311
B1043004626650N00810630EA0233902309
B1043014626654N00810637EA0233802308
B1043024626658N00810645EA0233802308
B1043034626662N00810651EA0233902309
B1043044626665N00810656EA0233902309
B1043054626669N00810661EA0233802308
B1043064626673N00810665EA0233702306
B1043074626676N00810671EA0233302303
B1043084626680N00810678EA0233002300
B1043094626684N00810685EA0233002300
B1043104626687N00810692EA0233002299
B1043114626691N00810698EA0232902298
B1043124626695N00810703EA0232702296
B1043134626699N00810708EA0232402294
B1043144626703N00810714EA0232302292
B1043154626707N00810721EA0232302292
B1043164626711N00810727EA0232302293
B1043174626714N00810732EA0232402293
B1043184626717N00810737EA0232402294
B1043194626720N00810743EA0232302293
B1043204626723N00810748EA0232202291
B1043214626727N00810754EA0232102290
B1043224626730N00810760EA0232002290
B1043234626734N00810766EA0232002289
B1043244626737N00810771EA0232002289
B1043254626740N00810778EA0231902289
B1043264626743N00810785EA0231902288
B1043274626746N00810792EA0231802288
B1043284626749N00810798EA0231902288
B1043294626752N00810805EA0231802288
B1043304626755N00810811EA0231902288
B1043314626759N00810818EA0231902289
B1043324626762N00810824EA0232102290
B1043334626766N00810831EA0232202291
B1043344626770N00810837EA0232402293
B1043354626773N00810842EA0232602295
B1043364626777N00810847EA0232702296
B1043374626780N00810851EA0232602296
B1043384626784N00810855EA0232502294
B1043394626787N00810860EA0232402293
B1043404626791N00810864EA0232302292
B1043414626794N00810869EA0232202291
B1043424626797N00810874EA0232102290
B1043434626800N00810879EA0232102290
B1043444626803N00810885EA0232202291
B1043454626807N00810889EA0232302292
B1043464626811N00810893EA0232202291
B1043474626814N00810895EA0232102290
B1043484626817N00810898EA0232002289
B1043494626820N00810903EA0231902288
B1043504626825N00810909EA0232002289
B1043514626830N00810917EA0232202290
B1043524626833N00810924EA0232202291
B1043534626835N00810931EA0232302292
B1043544626837N00810936EA0232402293
B1043554626842N00810945EA0232402293
B1043564626845N00810951EA0232502293
B1043574626849N00810960EA0232602295
B1043584626852N00810967EA0232802297
B1043594626856N00810974EA0233002299
B1044004626859N00810980EA0233102300
B1044014626863N00810986EA0233202301
B1044024626866N00810993EA0233302301
B1044034626868N00811000EA0233302301
B1044044626871N00811005EA0233202301
B1044054626874N00811011EA0233002299
B1044064626876N00811016EA0232802297
B1044074626880N00811023EA0232602295
B1044084626883N00811030EA0232502293
B1044094626886N00811037EA0232402292
B1044104626890N00811043EA0232302291
B1044114626893N00811049EA0232202291
B1044124626895N00811054EA0232002289
B1044134626899N00811060EA0231802286
B1044144626902N00811066EA0231502283
B1044154626906N00811072EA0231202281
B1044164626910N00811078EA0231102279
B1044174626915N00811084EA0231002279
B1044184626919N00811090EA0230802277
B1044194626922N00811096EA0230702276
B1044204626926N00811102EA0230602275
B1044214626930N00811109EA0230502274
B1044224626934N00811115EA0230502273
B1044234626938N00811121EA0230402273
B1044244626943N00811127EA0230402272
B1044254626947N00811133EA0230402272
B1044264626951N00811139EA0230302271
B1044274626954N00811145EA0230202270
B1044284626959N00811151EA0230202270
B1044294626963N00811156EA0230102270
B1044304626967N00811161EA0230002269
B1044314626970N00811166EA0230002268
B1044324626974N00811171EA0229802267
B1044334626977N00811176EA0229702265
B1044344626982N00811181EA0229602264
B1044354626985N00811186EA0229402263
B1044364626990N00811191EA0229302261
B1044374626994N00811197EA0229102260
B1044384626998N00811202EA0229002258
B1044394627003N00811207EA0228802257
B1044404627007N00811212EA0228602255
B1044414627012N00811218EA0228502254
B1044424627016N00811223EA0228402253
B1044434627020N00811229EA0228302251
B1044444627024N00811235EA0228102250
B1044454627028N00811240EA0228002248
B1044464627033N00811246EA0227802247
B1044474627037N00811251EA0227602244
B1044484627042N00811256EA0227502243
B1044494627047N00811262EA0227402243
B1044504627052N00811268EA0227502243
B1044514627056N00811274EA0227702245
B1044524627060N00811280EA0227902247
B1044534627063N00811285EA0228002248
B1044544627066N00811290EA0227902247
B1044554627069N00811295EA0227702246
B1044564627074N00811301EA0227602245
B1044574627079N00811306EA0227602244
B1044584627084N00811310EA0227402243
B1044594627088N00811314EA0227302241
B1045004627093N00811318EA0227202240
B1045014627098N00811323EA0227002239
B1045024627103N00811328EA0226902238
B1045034627107N00811334EA0226802236
B1045044627112N00811339EA0226702236
B1045054627117N00811344EA0226702236
B1045064627121N00811348EA0226702236
B1045074627126N00811351EA0226702236
B1045084627130N00811354EA0226702235
B1045094627135N00811356EA0226502234
B1045104627140N00811359EA0226402232
B1045114627146N00811361EA0226202231
B1045124627152N00811363EA0226102230
B1045134627159N00811364EA0226102230
B1045144627165N00811363EA0226302231
B1045154627171N00811362EA0226402233
B1045164627176N00811361EA0226502233
B1045174627182N00811360EA0226702235
B1045184627188N00811358EA0226802237
B1045194627193N00811355EA0226802237
B1045204627198N00811351EA0226802237
B1045214627204N00811346EA0227102239
B1045224627208N00811341EA0227202241
B1045234627212N00811334EA0227302242
B1045244627214N00811326EA0227402243
B1045254627216N00811317EA0227602245
B1045264627216N00811308EA0228002249
B1045274627215N00811301EA0228402253
B1045284627212N00811295EA0228702256
B1045294627208N00811292EA0229002259
B1045304627204N00811291EA0229202260
B1045314627200N00811292EA0229202260
B1045324627196N00811294EA0229102260
B1045334627192N00811298EA0229102260
B1045344627191N00811305EA0228902258
B1045354627190N00811314EA0228802257
B1045364627192N00811322EA0228902258
B1045374627195N00811327EA0229102260
B1045384627199N00811332EA0229102260
B1045394627203N00811335EA0229202261
B1045404627208N00811339EA0229202261
B1045414627212N00811343EA0229302262
B1045424627218N00811346EA0229402263
B1045434627225N00811348EA0229502264
B1045444627231N00811350EA0229702266
B1045454627236N00811349EA0229802266
B1045464627242N00811348EA0229902267
B1045474627248N00811345EA0229902268
B1045484627253N00811340EA0229802267
B1045494627258N00811335EA0230002268
B1045504627263N00811328EA0230302272
B1045514627265N00811321EA0230602274
B1045524627265N00811314EA0230702276
B1045534627263N00811308EA0230802277
B1045544627260N00811302EA0230902278
B1045554627255N00811297EA0231102280
B1045564627251N00811295EA0231302282
B1045574627246N00811295EA0231602285
B1045584627241N00811298EA0231802287
B1045594627238N00811302EA0232002289
B1046004627235N00811308EA0232202291
B1046014627234N00811315EA0232602295
B1046024627233N00811321EA0232902298
B1046034627233N00811328EA0233002300
B1046044627234N00811335EA0233202301
B1046054627236N00811342EA0233302302
B1046064627239N00811350EA0233302302
B1046074627242N00811357EA0233502304
B1046084627247N00811364EA0233602305
B1046094627253N00811367EA0233802307
B1046104627258N00811368EA0233902308
B1046114627265N00811366EA0233902308
B1046124627270N00811362EA0233902308
B1046134627275N00811357EA0234102310
B1046144627278N00811353EA0234202311
B1046154627281N00811348EA0234302312
B1046164627283N00811341EA0234202311
B1046174627284N00811333EA0234202311
B1046184627284N00811324EA0234502314
B1046194627283N00811316EA0234702316
B1046204627279N00811311EA0234702316
B1046214627274N00811309EA0234902318
B1046224627269N00811309EA0235102320
B1046234627264N00811311EA0235402322
B1046244627261N00811314EA0235602325
B1046254627259N00811319EA0235902328
B1046264627258N00811325EA0236002329
B1046274627257N00811333EA0236002329
B1046284627258N00811341EA0236202331
B1046294627261N00811350EA0236302332
B1046304627265N00811356EA0236502334
B1046314627271N00811359EA0236502334
B1046324627277N00811360EA0236502333
B1046334627283N00811359EA0236602335
B1046344627289N00811356EA0236802337
B1046354627293N00811351EA0237002338
B1046364627296N00811344EA0236902338
B1046374627298N00811336EA0237002338
B1046384627300N00811327EA0237002339
B1046394627300N00811318EA0237102339
B1046404627299N00811309EA0237202341
B1046414627296N00811303EA0237402343
B1046424627291N00811300EA0237402343
B1046434627285N00811301EA0237602344
B1046444627281N00811304EA0237702346
B1046454627278N00811310EA0237902347
B1046464627277N00811316EA0238202350
B1046474627278N00811322EA0238402352
B1046484627279N00811328EA0238502354
B1046494627282N00811335EA0238602355
B1046504627286N00811340EA0238702355
B1046514627291N00811344EA0238702356
B1046524627296N00811346EA0238802357
B1046534627303N00811346EA0238902357
B1046544627308N00811343EA0239002359
B1046554627313N00811338EA0239002359
B1046564627316N00811331EA0239002359
B1046574627318N00811323EA0238902358
B1046584627320N00811314EA0238902358
B1046594627320N00811304EA0239002359
B1047004627318N00811296EA0239102359
B1047014627314N00811289EA0239002359
B1047024627309N00811283EA0239002359
B1047034627304N00811281EA0239202361
B1047044627299N00811281EA0239402363
B1047054627295N00811285EA0239502364
B1047064627291N00811290EA0239602365
B1047074627289N00811295EA0239902368
B1047084627289N00811301EA0240202370
B1047094627289N00811307EA0240402373
B1047104627291N00811313EA0240602374
B1047114627295N00811318EA0240702375
B1047124627298N00811324EA0240802377
B1047134627302N00811328EA0240802377
B1047144627305N00811332EA0240802377
B1047154627309N00811337EA0240702376
B1047164627314N00811342EA0240602375
B1047174627318N00811348EA0240702376
B1047184627322N00811354EA0240802377
B1047194627326N00811359EA0240902377
B1047204627329N00811364EA0240902378
B1047214627334N00811369EA0240802377
B1047224627337N00811373EA0240702375
B1047234627341N00811379EA0240402373
B1047244627345N00811385EA0240302371
B1047254627349N00811390EA0240202371
B1047264627353N00811395EA0240102370
B1047274627357N00811399EA0240002369
B1047284627360N00811402EA0239802366
B1047294627364N00811407EA0239502364
B1047304627367N00811413EA0239102360
B1047314627371N00811419EA0238902357
B1047324627376N00811426EA0238702355
B1047334627381N00811431EA0238502354
B1047344627386N00811437EA0238502353
B1047354627390N00811442EA0238402352
B1047364627393N00811449EA0238202351
B1047374627398N00811455EA0238102349
B1047384627402N00811462EA0237802347
B1047394627407N00811468EA0237602344
B1047404627412N00811474EA0237402342
B1047414627416N00811481EA0237302341
B1047424627420N00811488EA0237102339
B1047434627425N00811495EA0237002338
B1047444627429N00811502EA0236902338
B1047454627433N00811508EA0236802337
B1047464627437N00811515EA0236702335
B1047474627441N00811522EA0236502333
B1047484627445N00811529EA0236302331
B1047494627449N00811536EA0236102329
B1047504627453N00811544EA0236002328
B1047514627457N00811550EA0236002328
B1047524627461N00811555EA0235902328
B1047534627464N00811560EA0235802326
B1047544627466N00811566EA0235602324
B1047554627469N00811573EA0235402323
B1047564627473N00811580EA0235302321
B1047574627477N00811588EA0235202320
B1047584627480N00811595EA0235202321
B1047594627484N00811601EA0235302321
B1048004627487N00811608EA0235402322
B1048014627489N00811614EA0235402322
B1048024627491N00811620EA0235202320
B1048034627494N00811626EA0234902317
B1048044627497N00811632EA0234802316
B1048054627500N00811638EA0235002318
B1048064627503N00811644EA0235102319
B1048074627505N00811648EA0235202320
B1048084627506N00811652EA0235102319
B1048094627507N00811656EA0234902318
B1048104627508N00811663EA0234702315
B1048114627509N00811671EA0234402312
B1048124627510N00811680EA0234402312
B1048134627512N00811687EA0234302311
B1048144627514N00811694EA0234402312
B1048154627516N00811700EA0234402312
B1048164627517N00811706EA0234402312
B1048174627518N00811713EA0234402312
B1048184627519N00811721EA0234402312
B1048194627520N00811729EA0234502313
B1048204627521N00811736EA0234702315
B1048214627522N00811744EA0234802316
B1048224627523N00811751EA0234902317
B1048234627524N00811760EA0235102319
B1048244627526N00811768EA0235302321
B1048254627526N00811776EA0235502323
B1048264627527N00811785EA0235702325
B1048274627529N00811794EA0236102329
B1048284627530N00811802EA0236302331
B1048294627531N00811810EA0236502333
B1048304627533N00811816EA0236602334
B1048314627534N00811823EA0236802336
B1048324627537N00811831EA0237002338
B1048334627539N00811838EA0237302341
B1048344627540N00811846EA0237502344
B1048354627542N00811853EA0237902347
B1048364627544N00811860EA0238102349
B1048374627546N00811866EA0238202351
B1048384627549N00811873EA0238402353
B1048394627551N00811880EA0238502353
B1048404627553N00811887EA0238502354
B1048414627556N00811895EA0238602355
B1048424627559N00811903EA0238802357
B1048434627562N00811910EA0239002358
B1048444627565N00811917EA0239202360
B1048454627568N00811924EA0239202361
B1048464627570N00811931EA0239302361
B1048474627572N00811939EA0239202360
B1048484627575N00811947EA0238902358
B1048494627577N00811954EA0238802356
B1048504627579N00811962EA0238602354
B1048514627582N00811969EA0238502353
B1048524627585N00811976EA0238502353
B1048534627588N00811982EA0238302352
B1048544627590N00811988EA0238202350
B1048554627593N00811994EA0238102350
B1048564627597N00812001EA0238002348
B1048574627600N00812008EA0237902347
B1048584627603N00812015EA0237902347
B1048594627605N00812022EA0238002348
B1049004627608N00812027EA0237902347
B1049014627611N00812032EA0237702346
B1049024627615N00812038EA0237502343
B1049034627619N00812044EA0237302341
B1049044627624N00812051EA0237202340
B1049054627628N00812057EA0237302341
B1049064627633N00812061EA0237502343
B1049074627637N00812065EA0237402342
B1049084627642N00812069EA0237202340
B1049094627646N00812074EA0237002339
B1049104627651N00812081EA0237002338
B1049114627655N00812088EA0237102339
B1049124627659N00812095EA0237302341
B1049134627663N00812101EA0237402343
B1049144627666N00812105EA0237402343
B1049154627670N00812110EA0237302341
B1049164627673N00812115EA0237102339
B1049174627677N00812121EA0236802336
B1049184627681N00812129EA0236602334
B1049194627685N00812137EA0236602334
B1049204627689N00812144EA0236702335
B1049214627692N00812150EA0236802336
B1049224627695N00812156EA0236902337
B1049234627698N00812161EA0237002338
B1049244627701N00812166EA0236902337
B1049254627704N00812171EA0236802336
B1049264627706N00812176EA0236602335
B1049274627709N00812182EA0236402332
B1049284627712N00812188EA0236102329
B1049294627715N00812194EA0235802326
B1049304627719N00812201EA0235502323
B1049314627723N00812209EA0235302321
B1049324627727N00812216EA0235202320
B1049334627731N00812223EA0235102320
B1049344627733N00812230EA0235202320
B1049354627735N00812237EA0235102319
B1049364627738N00812244EA0235002318
B1049374627742N00812251EA0235002318
B1049384627746N00812258EA0235102319
B1049394627749N00812265EA0235102319
B1049404627752N00812271EA0235302321
B1049414627756N00812277EA0235302321
B1049424627759N00812282EA0235302321
B1049434627762N00812288EA0235202320
B1049444627766N00812294EA0235202320
B1049454627769N00812302EA0235202320
B1049464627773N00812308EA0235202320
B1049474627777N00812314EA0235302321
B1049484627781N00812320EA0235202320
B1049494627785N00812326EA0235202320
B1049504627788N00812332EA0235102319
B1049514627792N00812338EA0235102319
B1049524627796N00812344EA0235002318
B1049534627800N00812350EA0235002318
B1049544627803N00812357EA0235002318
B1049554627808N00812362EA0234902317
B1049564627812N00812368EA0234802316
B1049574627816N00812374EA0234702315
B1049584627820N00812379EA0234602314
B1049594627824N00812385EA0234502313
B1050004627828N00812391EA0234402312
B1050014627833N00812396EA0234202310
B1050024627838N00812402EA0234102309
B1050034627842N00812408EA0234102309
B1050044627845N00812413EA0234002308
B1050054627849N00812418EA0234002308
B1050064627852N00812424EA0234002308
B1050074627856N00812429EA0234002308
B1050084627860N00812435EA0234002308
B1050094627863N00812440EA0234102309
B1050104627866N00812445EA0234202310
B1050114627870N00812450EA0234202310
B1050124627873N00812455EA0234302311
B1050134627876N00812461EA0234302311
B1050144627878N00812467EA0234402312
B1050154627882N00812472EA0234602314
B1050164627885N00812476EA0234802316
B1050174627888N00812479EA0235002318
B1050184627891N00812481EA0235202320
B1050194627893N00812485EA0235402322
B1050204627895N00812488EA0235402322
B1050214627897N00812492EA0235302321
B1050224627900N00812495EA0235202320
B1050234627902N00812499EA0235002318
B1050244627905N00812503EA0235002318
B1050254627908N00812507EA0234902317
B1050264627910N00812511EA0235002318
B1050274627913N00812515EA0235002318
B1050284627914N00812519EA0235002318
B1050294627915N00812524EA0235002318
B1050304627917N00812529EA0235002318
B1050314627920N00812534EA0235002318
B1050324627922N00812539EA0235002318
B1050334627925N00812544EA0235002318
B1050344627927N00812548EA0234902317
B1050354627929N00812554EA0234802316
B1050364627931N00812560EA0234602314
B1050374627934N00812568EA0234602314
B1050384627937N00812573EA0234602314
B1050394627939N00812579EA0234702315
B1050404627942N00812583EA0234602314
B1050414627943N00812588EA0234502313
B1050424627946N00812593EA0234302311
B1050434627949N00812600EA0234102309
B1050444627952N00812606EA0234002308
B1050454627955N00812612EA0234102309
B1050464627958N00812617EA0234202310
B1050474627960N00812621EA0234202310
B1050484627962N00812625EA0234102309
B1050494627965N00812629EA0233902307
B1050504627969N00812634EA0233602304
B1050514627972N00812640EA0233402302
B1050524627975N00812645EA0233402302
B1050534627978N00812650EA0233302301
B1050544627981N00812655EA0233202300
B1050554627983N00812659EA0233102299
B1050564627986N00812663EA0232902297
B1050574627989N00812667EA0232602294
B1050584627992N00812671EA0232402292
B1050594627996N00812676EA0232202290
B1051004627999N00812681EA0232102289
B1051014628001N00812686EA0231902287
B1051024628004N00812691EA0231602284
B1051034628006N00812696EA0231402282
B1051044628008N00812701EA0231202281
B1051054628010N00812705EA0231002278
B1051064628012N00812710EA0230702275
B1051074628015N00812716EA0230402272
B1051084628019N00812723EA0230302271
B1051094628022N00812729EA0230302271
B1051104628024N00812733EA0230302271
B1051114628026N00812736EA0230102269
B1051124628027N00812740EA0229902267
B1051134628029N00812746EA0229502263
B1051144628031N00812753EA0229202260
B1051154628033N00812760EA0229002258
B1051164628033N00812767EA0229002258
B1051174628033N00812773EA0228902257
B1051184628032N00812779EA0228802256
B1051194628031N00812785EA0228602254
B1051204628031N00812792EA0228402252
B1051214628030N00812800EA0228202250
B1051224628028N00812807EA0228102249
B1051234628026N00812815EA0228002248
B1051244628025N00812822EA0228002248
B1051254628023N00812830EA0228002248
B1051264628022N00812837EA0227902248
B1051274628021N00812844EA0228002248
B1051284628019N00812850EA0228002249
B1051294628016N00812857EA0228202250
B1051304628014N00812864EA0228302252
B1051314628012N00812871EA0228502254
B1051324628011N00812878EA0228702256
B1051334628010N00812884EA0228802257
B1051344628009N00812891EA0228902258
B1051354628007N00812898EA0228902258
B1051364628006N00812906EA0229002259
B1051374628004N00812914EA0229102259
B1051384628003N00812922EA0229102260
B1051394628002N00812929EA0229202261
B1051404628001N00812937EA0229202261
B1051414628000N00812944EA0229102260
B1051424628000N00812951EA0229002259
B1051434627998N00812960EA0229002258
B1051444627996N00812969EA0229102259
B1051454627994N00812977EA0229202261
B1051464627992N00812984EA0229402263
B1051474627990N00812991EA0229502263
B1051484627989N00812998EA0229502263
B1051494627988N00813006EA0229402263
B1051504627986N00813015EA0229302262
B1051514627983N00813023EA0229302261
B1051524627980N00813031EA0229302262
B1051534627977N00813038EA0229302262
B1051544627974N00813045EA0229102260
B1051554627971N00813053EA0228902258
B1051564627968N00813060EA0228702256
B1051574627965N00813068EA0228702256
B1051584627962N00813075EA0228602255
B1051594627958N00813082EA0228502254
B1052004627955N00813089EA0228402253
B1052014627951N00813095EA0228102250
B1052024627947N00813101EA0227802247
B1052034627942N00813107EA0227402243
B1052044627937N00813113EA0227002239
B1052054627933N00813120EA0226602235
B1052064627929N00813126EA0226302232
B1052074627925N00813132EA0226002229
B1052084627921N00813138EA0225502224
B1052094627916N00813144EA0225002219
B1052104627913N00813150EA0224402213
B1052114627909N00813157EA0223902208
B1052124627906N00813165EA0223402203
B1052134627903N00813173EA0222902198
B1052144627901N00813181EA0222702196
B1052154627899N00813189EA0222502193
B1052164627895N00813197EA0222302192
B1052174627892N00813205EA0222202191
B1052184627888N00813211EA0222102190
B1052194627884N00813217EA0221902188
B1052204627881N00813223EA0221702186
B1052214627877N00813228EA0221502183
B1052224627874N00813234EA0221202181
B1052234627872N00813241EA0221002179
B1052244627870N00813248EA0220702176
B1052254627869N00813254EA0220502174
B1052264627868N00813260EA0220202171
B1052274627868N00813267EA0219902167
B1052284627868N00813273EA0219602164
B1052294627868N00813280EA0219302162
B1052304627866N00813287EA0219002159
B1052314627866N00813294EA0218802157
B1052324627865N00813301EA0218502154
B1052334627865N00813308EA0218302152
B1052344627865N00813314EA0218102150
B1052354627866N00813320EA0217902148
B1052364627868N00813326EA0217702146
B1052374627870N00813331EA0217602145
B1052384627871N00813336EA0217502145
B1052394627873N00813340EA0217402143
B1052404627875N00813345EA0217202141
B1052414627877N00813350EA0217102140
B1052424627880N00813354EA0217002139
B1052434627882N00813358EA0216902138
B1052444627884N00813361EA0216802137
B1052454627887N00813364EA0216602135
B1052464627889N00813368EA0216402133
B1052474627892N00813372EA0216202131
B1052484627895N00813376EA0216102130
B1052494627899N00813378EA0216002129
B1052504627901N00813381EA0215902129
B1052514627904N00813384EA0215902128
B1052524627906N00813387EA0215802127
B1052534627909N00813390EA0215702126
B1052544627912N00813394EA0215502125
B1052554627915N00813398EA0215402123
B1052564627918N00813401EA0215202122
B1052574627920N00813405EA0215202121
B1052584627923N00813409EA0215102120
B1052594627926N00813413EA0215002120
B1053004627928N00813417EA0215002119
B1053014627930N00813421EA0214802117
B1053024627932N00813425EA0214702116
B1053034627934N00813430EA0214602115
B1053044627936N00813434EA0214502114
B1053054627938N00813439EA0214402113
B1053064627941N00813443EA0214302112
B1053074627943N00813447EA0214202111
B1053084627946N00813451EA0214102110
B1053094627948N00813455EA0213902109
B1053104627951N00813458EA0213802108
B1053114627953N00813461EA0213802107
B1053124627955N00813464EA0213602106
B1053134627958N00813468EA0213502104
B1053144627961N00813472EA0213402103
B1053154627963N00813475EA0213302102
B1053164627966N00813479EA0213202101
B1053174627969N00813482EA0213102100
B1053184627972N00813486EA0213002100
B1053194627974N00813489EA0213002099
B1053204627976N00813492EA0212902098
B1053214627979N00813495EA0212702097
B1053224627981N00813499EA0212602095
B1053234627984N00813502EA0212502094
B1053244627987N00813506EA0212402093
B1053254627989N00813510EA0212402093
B1053264627991N00813513EA0212302092
B1053274627992N00813517EA0212102091
B1053284627994N00813521EA0212002089
B1053294627996N00813525EA0211802088
B1053304627999N00813529EA0211702086
B1053314628001N00813533EA0211602085
B1053324628004N00813537EA0211502085
B1053334628006N00813541EA0211402084
B1053344628008N00813545EA0211402083
B1053354628010N00813550EA0211202082
B1053364628011N00813555EA0211102080
B1053374628012N00813560EA0210902079
B1053384628012N00813567EA0210702077
B1053394628012N00813574EA0210602075
B1053404628011N00813581EA0210502074
B1053414628009N00813588EA0210302073
B1053424628005N00813595EA0210302072
B1053434628001N00813601EA0210202071
B1053444627997N00813606EA0210002070
B1053454627993N00813611EA0209802068
B1053464627987N00813616EA0209702066
B1053474627982N00813622EA0209602066
B1053484627978N00813627EA0209502065
B1053494627974N00813633EA0209402064
B1053504627971N00813638EA0209402063
B1053514627967N00813644EA0209302063
B1053524627963N00813649EA0209202061
B1053534627959N00813654EA0209102060
B1053544627955N00813659EA0208902059
B1053554627950N00813664EA0208802058
B1053564627946N00813669EA0208702056
B1053574627939N00813672EA0208502055
B1053584627931N00813672EA0208402054
B1053594627924N00813671EA0208402054
B1054004627917N00813668EA0208302053
B1054014627910N00813663EA0208102051
B1054024627904N00813657EA0208002050
B1054034627898N00813650EA0207902049
B1054044627893N00813642EA0207902049
B1054054627890N00813633EA0207802048
B1054064627889N00813623EA0207702047
B1054074627889N00813614EA0207602046
B1054084627891N00813606EA0207602046
B1054094627894N00813600EA0207502045
B1054104627897N00813596EA0207302043
B1054114627900N00813594EA0207102042
B1054124627905N00813595EA0207002040
B1054134627908N00813597EA0206902039
B1054144627911N00813601EA0206902040
B1054154627914N00813604EA0207002040
B1054164627916N00813608EA0207002040
B1054174627918N00813611EA0206802039
B1054184627920N00813616EA0206702037
B1054194627922N00813620EA0206602036
B1054204627924N00813626EA0206402034
B1054214627925N00813632EA0206302033
B1054224627925N00813637EA0206202033
B1054234627924N00813643EA0206202032
B1054244627921N00813649EA0206002030
B1054254627916N00813654EA0205802029
B1054264627911N00813658EA0205602027
B1054274627903N00813658EA0205502026
B1054284627895N00813654EA0205302024
B1054294627890N00813645EA0205002021
B1054304627889N00813635EA0204702018
B1054314627892N00813626EA0204302013
B1054324627898N00813624EA0203902009
B1054334627903N00813631EA0203602006
B1054344627901N00813642EA0203302004
B1054354627895N00813649EA0203002001
B1054364627886N00813647EA0202901999
B1054374627881N00813637EA0202401995
B1054384627882N00813624EA0201801988
B1054394627889N00813618EA0201601986
B1054404627896N00813622EA0201501985
B1054414627897N00813632EA0201101981
B1054424627892N00813641EA0200801978
B1054434627882N00813640EA0200201972
B1054444627876N00813630EA0199601966
B1054454627877N00813617EA0199401964
B1054464627884N00813611EA0198901959
B1054474627891N00813615EA0198601956
B1054484627893N00813626EA0198401954
B1054494627889N00813636EA0198101951
B1054504627881N00813639EA0197701947
B1054514627874N00813633EA0197301943
B1054524627872N00813622EA0196901939
B1054534627876N00813612EA0196601936
B1054544627883N00813610EA0196201932
B1054554627890N00813615EA0195901929
B1054564627892N00813626EA0195701927
B1054574627889N00813636EA0195601926
B1054584627884N00813643EA0195501925
B1054594627877N00813643EA0195301923
B1055004627871N00813640EA0195101921
B1055014627867N00813634EA0194901919
B1055024627865N00813627EA0194801918
B1055034627863N00813620EA0194501916
B1055044627862N00813613EA0194301913
B1055054627861N00813604EA0194001911
B1055064627861N00813595EA0193901909
B1055074627862N00813587EA0193901909
B1055084627865N00813580EA0193701908
B1055094627870N00813576EA0193501905
B1055104627876N00813575EA0193301903
B1055114627881N00813578EA0193101902
B1055124627886N00813584EA0193001900
B1055134627888N00813592EA0192801899
B1055144627888N00813600EA0192601897
B1055154627886N00813608EA0192401895
B1055164627882N00813614EA0192201893
B1055174627877N00813618EA0192101892
B1055184627871N00813620EA0192001890
B1055194627866N00813619EA0191801889
B1055204627861N00813616EA0191601887
B1055214627857N00813611EA0191401885
B1055224627853N00813606EA0191301883
B1055234627850N00813598EA0191101882
B1055244627849N00813591EA0190901880
B1055254627850N00813583EA0190801879
B1055264627853N00813576EA0190601877
B1055274627857N00813570EA0190401875
B1055284627862N00813567EA0190301874
B1055294627868N00813566EA0190101872
B1055304627873N00813567EA0189901870
B1055314627878N00813571EA0189701868
B1055324627881N00813577EA0189601867
B1055334627884N00813585EA0189501866
B1055344627884N00813593EA0189301864
B1055354627882N00813601EA0189101862
B1055364627880N00813608EA0188901860
B1055374627876N00813613EA0188701858
B1055384627870N00813616EA0188501856
B1055394627865N00813617EA0188301854
B1055404627859N00813615EA0188101852
B1055414627854N00813611EA0187901850
B1055424627851N00813604EA0187701848
B1055434627849N00813596EA0187501846
B1055444627850N00813588EA0187301844
B1055454627852N00813581EA0187101843
B1055464627856N00813575EA0186901841
B1055474627861N00813571EA0186801839
B1055484627866N00813570EA0186601838
B1055494627872N00813571EA0186401836
B1055504627876N00813575EA0186201834
B1055514627881N00813581EA0186001832
B1055524627884N00813588EA0185801830
B1055534627884N00813596EA0185601827
B1055544627884N00813605EA0185401825
B1055554627881N00813612EA0185101823
B1055564627875N00813617EA0184901821
B1055574627869N00813619EA0184701819
B1055584627863N00813617EA0184501817
B1055594627859N00813614EA0184401816
B1056004627856N00813607EA0184201814
B1056014627854N00813600EA0184101812
B1056024627853N00813592EA0183901811
B1056034627854N00813585EA0183701809
B1056044627857N00813578EA0183501807
B1056054627861N00813573EA0183301805
B1056064627866N00813569EA0183201804
B1056074627872N00813568EA0183001802
B1056084627878N00813569EA0182901801
B1056094627883N00813574EA0182701799
B1056104627887N00813580EA0182601798
B1056114627890N00813587EA0182401796
B1056124627893N00813594EA0182201794
B1056134627896N00813602EA0182001792
B1056144627899N00813609EA0181801791
B1056154627902N00813616EA0181601788
B1056164627906N00813624EA0181301785
B1056174627909N00813632EA0181101784
B1056184627911N00813640EA0181101784
B1056194627914N00813648EA0180901782
B1056204627916N00813656EA0180701779
B1056214627918N00813663EA0180301775
B1056224627920N00813670EA0179901771
B1056234627923N00813676EA0179601768
B1056244627926N00813683EA0179201765
B1056254627930N00813689EA0178901762
B1056264627932N00813697EA0178601758
B1056274627935N00813704EA0178301755
B1056284627936N00813712EA0178101754
B1056294627938N00813720EA0177801751
B1056304627940N00813728EA0177501748
B1056314627942N00813735EA0177301746
B1056324627944N00813743EA0177301746
B1056334627946N00813750EA0177101744
B1056344627947N00813756EA0176901742
B1056354627948N00813763EA0176701740
B1056364627950N00813771EA0176601739
B1056374627951N00813778EA0176401737
B1056384627952N00813785EA0176301735
B1056394627954N00813792EA0176201735
B1056404627955N00813799EA0176101734
B1056414627956N00813806EA0176101733
B1056424627956N00813814EA0176001733
B1056434627954N00813821EA0175901732
B1056444627950N00813827EA0175901732
B1056454627946N00813832EA0175901732
B1056464627941N00813836EA0175901732
B1056474627937N00813839EA0176001732
B1056484627932N00813842EA0175901732
B1056494627927N00813845EA0175801731
B1056504627922N00813848EA0175701730
B1056514627916N00813850EA0175601729
B1056524627911N00813850EA0175501728
B1056534627905N00813849EA0175501728
B1056544627899N00813848EA0175501728
B1056554627893N00813848EA0175501728
B1056564627888N00813848EA0175401727
B1056574627882N00813848EA0175201726
B1056584627876N00813847EA0175101724
B1056594627871N00813846EA0175001724
B1057004627865N00813843EA0175001723
B1057014627859N00813840EA0174901722
B1057024627854N00813837EA0174801722
B1057034627849N00813833EA0174801721
B1057044627843N00813829EA0174601720
B1057054627838N00813825EA0174501718
B1057064627832N00813820EA0174401718
B1057074627827N00813815EA0174401717
B1057084627822N00813810EA0174301717
B1057094627817N00813804EA0174301717
B1057104627813N00813797EA0174201716
B1057114627810N00813790EA0174201715
B1057124627807N00813782EA0174101714
B1057134627805N00813774EA0174001713
B1057144627805N00813765EA0173901713
B1057154627805N00813756EA0173801712
B1057164627807N00813748EA0173701710
B1057174627810N00813741EA0173501709
B1057184627813N00813734EA0173401708
B1057194627818N00813728EA0173301707
B1057204627823N00813724EA0173201705
B1057214627828N00813722EA0173001704
B1057224627834N00813721EA0172901703
B1057234627840N00813722EA0172801702
B1057244627844N00813725EA0172701700
B1057254627849N00813730EA0172501699
B1057264627852N00813735EA0172401698
B1057274627854N00813742EA0172201696
B1057284627855N00813749EA0172101695
B1057294627854N00813756EA0172001694
B1057304627852N00813763EA0171801692
B1057314627849N00813769EA0171701691
B1057324627844N00813773EA0171601690
B1057334627839N00813777EA0171501689
B1057344627834N00813778EA0171301687
B1057354627828N00813779EA0171201686
B1057364627822N00813777EA0171001684
B1057374627816N00813775EA0170901683
B1057384627811N00813772EA0170801682
B1057394627805N00813769EA0170701681
B1057404627800N00813765EA0170601681
B1057414627794N00813762EA0170501680
B1057424627788N00813758EA0170401679
B1057434627783N00813754EA0170401678
B1057444627778N00813750EA0170301677
B1057454627772N00813747EA0170201676
B1057464627767N00813743EA0170101675
B1057474627762N00813740EA0169901673
B1057484627756N00813736EA0169701672
B1057494627750N00813733EA0169601671
B1057504627744N00813730EA0169501670
B1057514627739N00813726EA0169501669
B1057524627734N00813722EA0169501669
B1057534627729N00813718EA0169301668
B1057544627724N00813715EA0169101666
B1057554627719N00813711EA0168901664
B1057564627714N00813706EA0168801663
B1057574627708N00813701EA0168801662
B1057584627704N00813696EA0168701662
B1057594627698N00813689EA0168701662
B1058004627695N00813685EA0168601661
B1058014627690N00813680EA0168501660
B1058024627686N00813675EA0168301658
B1058034627681N00813670EA0168201657
B1058044627675N00813665EA0168101655
B1058054627670N00813660EA0168001655
B1058064627665N00813655EA0167901654
B1058074627661N00813650EA0167901654
B1058084627658N00813643EA0167801653
B1058094627656N00813636EA0167601651
B1058104627654N00813626EA0167401649
B1058114627656N00813617EA0167201647
B1058124627658N00813608EA0167001645
B1058134627662N00813601EA0167001645
B1058144627667N00813596EA0166901644
B1058154627672N00813593EA0166801643
B1058164627678N00813591EA0166601641
B1058174627684N00813592EA0166501640
B1058184627689N00813595EA0166401639
B1058194627694N00813598EA0166301638
B1058204627699N00813602EA0166101636
B1058214627704N00813606EA0166001635
B1058224627708N00813611EA0165801633
B1058234627712N00813617EA0165701632
B1058244627715N00813623EA0165601631
B1058254627718N00813630EA0165601631
B1058264627719N00813637EA0165601631
B1058274627720N00813644EA0165501630
B1058284627721N00813651EA0165301629
B1058294627720N00813658EA0165201627
B1058304627720N00813665EA0165001625
B1058314627721N00813672EA0164901624
B1058324627721N00813680EA0164801623
B1058334627722N00813688EA0164701622
B1058344627724N00813695EA0164701622
B1058354627725N00813701EA0164701622
B1058364627727N00813707EA0164601621
B1058374627729N00813714EA0164401619
B1058384627731N00813720EA0164201618
B1058394627733N00813727EA0164101616
B1058404627736N00813733EA0164001616
B1058414627739N00813739EA0163901614
B1058424627743N00813744EA0163801613
B1058434627746N00813750EA0163601611
B1058444627750N00813755EA0163301608
B1058454627753N00813759EA0163201607
B1058464627757N00813764EA0163101606
B1058474627760N00813770EA0163001606
B1058484627763N00813775EA0162901605
B1058494627766N00813781EA0162801603
B1058504627769N00813786EA0162601602
B1058514627772N00813792EA0162401600
B1058524627775N00813798EA0162301598
B1058534627778N00813803EA0162201598
B1058544627781N00813809EA0162101597
B1058554627784N00813815EA0162001596
B1058564627787N00813820EA0161901595
B1058574627788N00813826EA0161801593
B1058584627789N00813832EA0161601592
B1058594627788N00813839EA0161501590
B1059004627786N00813845EA0161401589
B1059014627782N00813849EA0161301588
B1059024627778N00813853EA0161201587
B1059034627774N00813856EA0161001586
B1059044627769N00813857EA0160901585
B1059054627764N00813857EA0160701583
B1059064627758N00813855EA0160601581
B1059074627752N00813852EA0160401580
B1059084627747N00813847EA0160301579
B1059094627743N00813840EA0160301578
B1059104627740N00813832EA0160201577
B1059114627739N00813824EA0160101576
B1059124627739N00813816EA0159901575
B1059134627740N00813807EA0159801573
B1059144627743N00813799EA0159701572
B1059154627746N00813792EA0159501571
B1059164627751N00813787EA0159401569
B1059174627757N00813784EA0159201568
B1059184627762N00813784EA0159101566
B1059194627767N00813785EA0159001565
B1059204627772N00813787EA0158901564
B1059214627776N00813791EA0158701563
B1059224627780N00813795EA0158601562
B1059234627784N00813800EA0158501560
B1059244627787N00813806EA0158301559
B1059254627789N00813813EA0158201557
B1059264627789N00813820EA0158101557
B1059274627789N00813827EA0158101556
B1059284627788N00813833EA0158101556
B1059294627787N00813838EA0158001555
B1059304627784N00813843EA0157801554
B1059314627781N00813848EA0157601552
B1059324627777N00813852EA0157401549
B1059334627771N00813855EA0157201548
B1059344627766N00813856EA0157001546
B1059354627761N00813857EA0156901545
B1059364627756N00813855EA0156701542
B1059374627750N00813853EA0156501540
B1059384627744N00813849EA0156301539
B1059394627739N00813844EA0156201537
B1059404627734N00813838EA0156001536
B1059414627731N00813830EA0155901535
B1059424627729N00813821EA0155801534
B1059434627728N00813812EA0155701533
B1059444627728N00813803EA0155601532
B1059454627730N00813795EA0155401530
B1059464627733N00813787EA0155301529
B1059474627737N00813781EA0155201527
B1059484627742N00813777EA0155001526
B1059494627747N00813774EA0154901525
B1059504627753N00813774EA0154801524
B1059514627758N00813776EA0154601522
B1059524627762N00813779EA0154501521
B1059534627766N00813784EA0154401520
B1059544627769N00813789EA0154201518
B1059554627771N00813795EA0154101517
B1059564627772N00813802EA0154001516
B1059574627771N00813808EA0153901515
B1059584627770N00813815EA0153701513
B1059594627766N00813821EA0153601512
B1100004627763N00813825EA0153501511
B1100014627759N00813828EA0153301510
B1100024627754N00813830EA0153201508
B1100034627749N00813830EA0153001506
B1100044627743N00813829EA0152801504
B1100054627737N00813826EA0152701503
B1100064627732N00813821EA0152601502
B1100074627728N00813814EA0152501501
B1100084627726N00813806EA0152401500
B1100094627724N00813797EA0152301499
B1100104627725N00813789EA0152201498
B1100114627727N00813781EA0152101497
B1100124627729N00813774EA0152001496
B1100134627733N00813768EA0151801494
B1100144627738N00813763EA0151601493
B1100154627743N00813761EA0151501491
B1100164627749N00813761EA0151301490
B1100174627754N00813762EA0151201488
B1100184627760N00813764EA0151001487
B1100194627765N00813767EA0150901486
B1100204627769N00813771EA0150801485
B1100214627773N00813776EA0150701483
B1100224627776N00813782EA0150501482
B1100234627779N00813789EA0150401480
B1100244627781N00813796EA0150201478
B1100254627782N00813803EA0150101477
B1100264627783N00813811EA0149901476
B1100274627783N00813818EA0149801475
B1100284627782N00813826EA0149801474
B1100294627781N00813832EA0149701473
B1100304627780N00813839EA0149501472
B1100314627778N00813846EA0149401470
B1100324627776N00813852EA0149201469
B1100334627773N00813859EA0149101467
B1100344627770N00813865EA0149001466
B1100354627765N00813869EA0148901466
B1100364627761N00813872EA0148801464
B1100374627756N00813875EA0148601463
B1100384627751N00813877EA0148501462
B1100394627746N00813879EA0148401461
B1100404627740N00813881EA0148301460
B1100414627735N00813884EA0148201459
B1100424627730N00813886EA0148001457
B1100434627725N00813888EA0148001457
B1100444627720N00813888EA0147901456
B1100454627715N00813889EA0147801455
B1100464627710N00813890EA0147601453
B1100474627705N00813892EA0147501452
B1100484627700N00813893EA0147401451
B1100494627694N00813894EA0147201449
B1100504627689N00813894EA0147001447
B1100514627683N00813895EA0146901446
B1100524627677N00813894EA0146701444
B1100534627672N00813893EA0146601443
B1100544627666N00813891EA0146501443
B1100554627661N00813889EA0146401442
B1100564627656N00813887EA0146301441
B1100574627651N00813884EA0146201439
B1100584627646N00813881EA0146001438
B1100594627641N00813878EA0145901436
B1101004627636N00813874EA0145801435
B1101014627632N00813869EA0145501433
B1101024627628N00813865EA0145301431
B1101034627624N00813860EA0145001428
B1101044627619N00813855EA0144801425
B1101054627614N00813849EA0144701424
B1101064627610N00813844EA0144601424
B1101074627606N00813840EA0144601423
B1101084627602N00813835EA0144501422
B1101094627599N00813830EA0144401421
B1101104627595N00813825EA0144201420
B1101114627591N00813820EA0144001418
B1101124627587N00813815EA0143901417
B1101134627583N00813810EA0143901416
B1101144627580N00813804EA0143801416
B1101154627577N00813799EA0143701415
B1101164627575N00813794EA0143601414
B1101174627573N00813788EA0143401411
B1101184627570N00813782EA0143201409
B1101194627567N00813775EA0143101409
B1101204627564N00813770EA0143001408
B1101214627562N00813764EA0142901407
B1101224627559N00813758EA0142701405
B1101234627557N00813752EA0142501403
B1101244627553N00813745EA0142401401
B1101254627551N00813738EA0142301400
B1101264627548N00813731EA0142201399
B1101274627546N00813724EA0142001398
B1101284627545N00813718EA0141901397
B1101294627544N00813711EA0141801396
B1101304627545N00813705EA0141601394
B1101314627547N00813698EA0141401392
B1101324627551N00813691EA0141201390
B1101334627555N00813687EA0141101389
B1101344627559N00813683EA0141101388
B1101354627564N00813680EA0141001388
B1101364627569N00813678EA0140801386
B1101374627574N00813676EA0140601384
B1101384627579N00813675EA0140501383
B1101394627585N00813675EA0140401382
B1101404627590N00813677EA0140301381
B1101414627595N00813680EA0140201380
B1101424627600N00813684EA0140101379
B1101434627605N00813689EA0140001378
B1101444627609N00813692EA0139801376
B1101454627614N00813694EA0139601374
B1101464627620N00813695EA0139401372
B1101474627625N00813697EA0139301371
B1101484627630N00813700EA0139101369
B1101494627635N00813703EA0139001368
B1101504627640N00813708EA0138901367
B1101514627645N00813713EA0138801366
B1101524627648N00813718EA0138601365
B1101534627652N00813725EA0138501363
B1101544627655N00813732EA0138401362
B1101554627658N00813739EA0138301361
B1101564627662N00813745EA0138201360
B1101574627665N00813751EA0138001359
B1101584627670N00813756EA0137901357
B1101594627674N00813761EA0137701356
B1102004627679N00813766EA0137601355
B1102014627683N00813771EA0137501354
B1102024627688N00813776EA0137501353
B1102034627692N00813781EA0137401353
B1102044627696N00813786EA0137201351
B1102054627699N00813791EA0137101350
B1102064627702N00813796EA0137101349
B1102074627705N00813801EA0136901348
B1102084627706N00813804EA0137001349
B1102094627708N00813806EA0137001349
B1102104627708N00813807EA0137001349
B1102114627709N00813809EA0137001349
B1102124627710N00813809EA0137001349
B1102134627709N00813809EA0137001349
B1102144627709N00813809EA0137001349
B1102154627708N00813809EA0137001349
B1102164627708N00813809EA0137001349
B1102174627708N00813809EA0137001349
B1102184627708N00813809EA0137001349
B1102194627708N00813809EA0137001349
B1102204627708N00813809EA0137001349
B1102214627708N00813809EA0137001349
B1102224627708N00813809EA0137001349
B1102234627708N00813809EA0137001349
B1102244627708N00813809EA0137001349
B1102254627708N00813809EA0137001350
B1102264627708N00813809EA0137001350
B1102274627708N00813809EA0137001350
B1102284627708N00813809EA0137001350
B1102294627708N00813809EA0137001350
B1102304627708N00813809EA0137001350
B1102314627708N00813809EA0137001350
B1102324627708N00813809EA0137001349
B1102334627707N00813809EA0137001349
B1102344627706N00813809EA0137001349
B1102354627706N00813810EA0137001349
B1102364627706N00813810EA0136901349
B1102374627705N00813810EA0136901349
B1102384627705N00813811EA0136901348
B1102394627705N00813812EA0136901348
B1102404627705N00813812EA0136801348
B1102414627705N00813813EA0136801348
B1102424627705N00813813EA0136801348
B1102434627705N00813813EA0136801348
B1102444627705N00813813EA0136801348
B1102454627705N00813813EA0136801348
B1102464627705N00813813EA0136801348
B1102474627705N00813813EA0136801348
B1102484627705N00813813EA0136801348
B1102494627705N00813813EA0136801348
B1102504627705N00813813EA0136801348
B1102514627705N00813813EA0136801348
B1102524627705N00813813EA0136801348
B1102534627705N00813813EA0136801348
B1102544627705N00813813EA0136801348
B1102554627705N00813813EA0136801348
B1102564627705N00813813EA0136901348
B1102574627705N00813813EA0136801348
B1102584627705N00813813EA0136801348
B1102594627705N00813813EA0136801348
B1103004627705N00813813EA0136801348
B1103014627705N00813813EA0136801348
B1103024627705N00813813EA0136801348
B1103034627705N00813813EA0136801348
B1103044627705N00813813EA0136801348
B1103054627705N00813813EA0136801348
B1103064627705N00813813EA0136801348
B1103074627705N00813813EA0136801348
B1103084627705N00813813EA0136901348
B1103094627705N00813813EA0136901348
B1103104627706N00813814EA0136901348
B1103114627706N00813814EA0136901348
B1103124627707N00813814EA0136901348
B1103134627707N00813814EA0136901348
B1103144627708N00813815EA0136901349
B1103154627708N00813815EA0136901349
B1103164627709N00813815EA0136901348
B1103174627709N00813815EA0136901349
B1103184627710N00813815EA0136901349
B1103194627710N00813815EA0136901349
B1103204627711N00813816EA0136901349
B1103214627711N00813816EA0136901349
B1103224627712N00813816EA0137001349
B1103234627712N00813816EA0137001349
B1103244627713N00813816EA0137001349
B1103254627713N00813817EA0137001349
B1103264627713N00813817EA0137001349
B1103274627714N00813817EA0137001349
B1103284627714N00813817EA0137001349
B1103294627715N00813817EA0137001350
B1103304627716N00813818EA0137001350
B1103314627716N00813818EA0137001350
B1103324627717N00813818EA0137001350
B1103334627717N00813818EA0137001350
B1103344627718N00813819EA0137001350
B1103354627718N00813819EA0137101350
B1103364627719N00813819EA0137101350
B1103374627719N00813819EA0137101350
B1103384627720N00813819EA0137101350
B1103394627720N00813819EA0137101350
B1103404627721N00813820EA0137101350
B1103414627721N00813820EA0137101351
B1103424627721N00813820EA0137101351
B1103434627722N00813820EA0137101351
B1103444627722N00813821EA0137101351
B1103454627723N00813821EA0137101351
B1103464627724N00813822EA0137101351
B1103474627724N00813822EA0137101351
B1103484627724N00813822EA0137101351
B1103494627724N00813822EA0137101351
B1103504627725N00813823EA0137101351
B1103514627726N00813823EA0137101351
B1103524627726N00813824EA0137101351
B1103534627726N00813824EA0137101351
B1103544627727N00813824EA0137101351
B1103554627727N00813824EA0137101351
B1103564627726N00813824EA0137101351
B1103574627726N00813824EA0137101351
B1103584627726N00813824EA0137101351
B1103594627726N00813824EA0137101351
B1104004627726N00813824EA0137101351
B1104014627726N00813824EA0137101351
B1104024627726N00813824EA0137101351
B1104034627726N00813824EA0137101351
B1104044627726N00813824EA0137101351
B1104054627726N00813824EA0137101351
B1104064627726N00813825EA0137101351
B1104074627726N00813825EA0137101351
B1104084627726N00813825EA0137101351
B1104094627726N00813825EA0137101351
B1104104627726N00813825EA0137101351
LXSX;C1;GM:1.9
LXSX;S1;TS:1775125285;TL:1775127850;AS:2168;AL:1351;AT:2458;AB:1348
LXSX;S1;XS:0;XD:12.74;SP:52.0;MC:3.3;MS:-3.9;NB:2567
LXSX;S1;FL:25.1;TG:320;TC:1.6;AG:1283;GM:1.9
LXSX;S1;X0:46.41252,8.10838
LXSX;S1;X1:46.42943,8.11485
LXSX;S1;X2:46.46592,8.22998
LXSX;S1;X3:46.45918,8.22897
LXSX;S1;X4:46.46202,8.23033
G6090E7C21FAF1F2CDB8E8ADAE2DA6CB9
