AXSX006 SKYTRAXX
HFPLTPILOT:Sepp
HFGTYGLIDERTYPE:Niviuk Artik R 2
HFDTM100GPSDATUM:WGS-84
HFRFWFIRMWAREVERSION:202603201607
HFRHWHARDWAREVERSION:5.0
HFTZNTIMEZONE:+2.00
HFSITSITE:Bernadia_Nimis
HFDTE010626
LXSX;I1;OAB:20260531;OOB:20260123
LXSX;I1;ID:115785
LXSX;I1;AC:1;CAT:C
LXSX;RAT:---;GSM:2
B0956444613515N01315819EA0068800722
B0956454613515N01315819EA0068800722
B0956464613515N01315819EA0068800722
B0956474613515N01315819EA0068800722
B0956484613515N01315819EA0068800722
B0956494613515N01315819EA0068800722
B0956504613515N01315819EA0068800722
B0956514613515N01315819EA0068700722
B0956524613514N01315819EA0068700722
B0956534613514N01315819EA0068700722
B0956544613514N01315819EA0068700722
B0956554613513N01315820EA0068600720
B0956564613513N01315820EA0068600721
B0956574613513N01315820EA0068600721
B0956584613512N01315820EA0068500720
B0956594613511N01315820EA0068400718
B0957004613508N01315821EA0068200716
B0957014613505N01315822EA0068500719
B0957024613502N01315821EA0068700721
B0957034613499N01315818EA0068800723
B0957044613497N01315814EA0068900724
B0957054613496N01315809EA0069000724
B0957064613494N01315804EA0069000725
B0957074613494N01315798EA0069000725
B0957084613494N01315791EA0069000725
B0957094613495N01315783EA0069100725
B0957104613496N01315774EA0069200726
B0957114613498N01315766EA0069300728
B0957124613499N01315759EA0069400729
B0957134613501N01315751EA0069500730
B0957144613504N01315743EA0069700731
B0957154613505N01315735EA0069800732
B0957164613509N01315727EA0069900733
B0957174613512N01315719EA0070100735
B0957184613515N01315711EA0070200737
B0957194613518N01315704EA0070300738
B0957204613522N01315697EA0070400739
B0957214613526N01315691EA0070500739
B0957224613530N01315684EA0070600740
B0957234613533N01315676EA0070800742
B0957244613534N01315669EA0070800743
B0957254613534N01315662EA0070800742
B0957264613533N01315656EA0070700742
B0957274613531N01315651EA0070700742
B0957284613528N01315648EA0070700742
B0957294613525N01315647EA0070700741
B0957304613522N01315648EA0070600741
B0957314613519N01315652EA0070600740
B0957324613517N01315656EA0070600740
B0957334613517N01315662EA0070600740
B0957344613517N01315669EA0070600740
B0957354613517N01315675EA0070600741
B0957364613517N01315682EA0070600741
B0957374613516N01315688EA0070600741
B0957384613516N01315695EA0070600741
B0957394613516N01315702EA0070700741
B0957404613515N01315708EA0070700742
B0957414613515N01315715EA0070800743
B0957424613515N01315721EA0070900743
B0957434613515N01315727EA0070900744
B0957444613515N01315733EA0070900744
B0957454613515N01315740EA0071000744
B0957464613515N01315746EA0071000745
B0957474613515N01315753EA0071100745
B0957484613515N01315759EA0071100745
B0957494613516N01315766EA0071100745
B0957504613516N01315772EA0071000745
B0957514613516N01315778EA0071000744
B0957524613516N01315785EA0071000744
B0957534613516N01315792EA0071000744
B0957544613516N01315799EA0071000745
B0957554613515N01315804EA0071100746
B0957564613512N01315808EA0071100745
B0957574613508N01315809EA0071000745
B0957584613504N01315807EA0071000745
B0957594613499N01315803EA0071100746
B0958004613497N01315797EA0071300748
B0958014613495N01315792EA0071500749
B0958024613493N01315786EA0071600750
B0958034613493N01315780EA0071700751
B0958044613492N01315774EA0071700752
B0958054613493N01315766EA0071700752
B0958064613496N01315756EA0071700752
B0958074613499N01315750EA0071700752
B0958084613504N01315744EA0071800752
B0958094613508N01315738EA0071800753
B0958104613512N01315732EA0071900754
B0958114613515N01315725EA0071900754
B0958124613516N01315717EA0071800753
B0958134613515N01315710EA0071800753
B0958144613513N01315704EA0071800753
B0958154613510N01315700EA0071800752
B0958164613506N01315700EA0071700751
B0958174613502N01315702EA0071600751
B0958184613498N01315705EA0071700751
B0958194613496N01315710EA0071700752
B0958204613494N01315715EA0071700752
B0958214613494N01315722EA0071700752
B0958224613495N01315728EA0071700751
B0958234613497N01315736EA0071700752
B0958244613500N01315742EA0071800753
B0958254613503N01315749EA0071900754
B0958264613506N01315755EA0072100755
B0958274613509N01315761EA0072100756
B0958284613511N01315768EA0072200756
B0958294613511N01315775EA0072200757
B0958304613510N01315781EA0072200757
B0958314613507N01315787EA0072300757
B0958324613504N01315790EA0072400758
B0958334613500N01315790EA0072400759
B0958344613496N01315788EA0072500760
B0958354613493N01315785EA0072600761
B0958364613490N01315780EA0072800762
B0958374613488N01315775EA0072900763
B0958384613488N01315768EA0072900764
B0958394613489N01315760EA0072900764
B0958404613492N01315753EA0072900764
B0958414613496N01315746EA0073000764
B0958424613500N01315740EA0073000764
B0958434613504N01315734EA0073000764
B0958444613508N01315727EA0073000764
B0958454613512N01315720EA0073000765
B0958464613516N01315711EA0073100765
B0958474613518N01315704EA0073200767
B0958484613520N01315697EA0073300768
B0958494613520N01315689EA0073400769
B0958504613520N01315682EA0073500770
B0958514613519N01315675EA0073600770
B0958524613517N01315669EA0073600770
B0958534613514N01315664EA0073600770
B0958544613510N01315662EA0073600770
B0958554613505N01315663EA0073500770
B0958564613502N01315666EA0073500769
B0958574613499N01315672EA0073500770
B0958584613498N01315678EA0073700772
B0958594613499N01315685EA0073900774
B0959004613501N01315691EA0074100775
B0959014613503N01315696EA0074100776
B0959024613504N01315702EA0074100775
B0959034613506N01315710EA0074100775
B0959044613507N01315718EA0074100775
B0959054613507N01315725EA0074100776
B0959064613505N01315732EA0074200777
B0959074613504N01315736EA0074300778
B0959084613501N01315739EA0074300778
B0959094613498N01315741EA0074400778
B0959104613494N01315742EA0074400779
B0959114613491N01315740EA0074400779
B0959124613488N01315735EA0074400779
B0959134613486N01315728EA0074500779
B0959144613486N01315720EA0074500780
B0959154613489N01315712EA0074600781
B0959164613493N01315704EA0074900783
B0959174613499N01315699EA0075100786
B0959184613505N01315697EA0075300787
B0959194613512N01315698EA0075300788
B0959204613518N01315701EA0075300788
B0959214613523N01315707EA0075300787
B0959224613526N01315714EA0075300787
B0959234613526N01315722EA0075300787
B0959244613525N01315729EA0075300787
B0959254613522N01315734EA0075400788
B0959264613518N01315736EA0075600790
B0959274613515N01315738EA0075800792
B0959284613512N01315738EA0076000795
B0959294613509N01315738EA0076200796
B0959304613506N01315738EA0076300797
B0959314613503N01315737EA0076300798
B0959324613499N01315735EA0076400798
B0959334613496N01315731EA0076600800
B0959344613494N01315725EA0076800802
B0959354613493N01315717EA0076900804
B0959364613495N01315710EA0077000805
B0959374613498N01315702EA0077200806
B0959384613504N01315696EA0077400808
B0959394613510N01315693EA0077500810
B0959404613517N01315694EA0077500810
B0959414613523N01315699EA0077600811
B0959424613529N01315705EA0077800813
B0959434613532N01315712EA0078000814
B0959444613534N01315719EA0078100816
B0959454613533N01315725EA0078200817
B0959464613531N01315731EA0078400818
B0959474613528N01315735EA0078500819
B0959484613526N01315739EA0078600820
B0959494613523N01315741EA0078700821
B0959504613519N01315744EA0078800823
B0959514613516N01315746EA0078900824
B0959524613513N01315748EA0079000824
B0959534613510N01315750EA0079000824
B0959544613507N01315752EA0078900824
B0959554613503N01315754EA0078900824
B0959564613499N01315755EA0078900824
B0959574613494N01315755EA0079000825
B0959584613491N01315753EA0079000825
B0959594613488N01315750EA0079000824
B1000004613485N01315746EA0078900824
B1000014613484N01315741EA0078900823
B1000024613483N01315734EA0078800822
B1000034613482N01315727EA0078800822
B1000044613484N01315719EA0078900823
B1000054613486N01315712EA0078900823
B1000064613491N01315706EA0079000824
B1000074613496N01315701EA0079000824
B1000084613501N01315698EA0079000825
B1000094613508N01315696EA0079100825
B1000104613515N01315697EA0079100825
B1000114613522N01315702EA0079100825
B1000124613527N01315708EA0079100825
B1000134613531N01315716EA0079200826
B1000144613532N01315724EA0079300827
B1000154613532N01315732EA0079400828
B1000164613531N01315738EA0079400829
B1000174613529N01315743EA0079500829
B1000184613527N01315747EA0079500829
B1000194613523N01315750EA0079400829
B1000204613520N01315751EA0079400828
B1000214613516N01315752EA0079400828
B1000224613512N01315752EA0079300828
B1000234613509N01315751EA0079300827
B1000244613505N01315750EA0079300827
B1000254613502N01315747EA0079300827
B1000264613499N01315743EA0079300827
B1000274613497N01315739EA0079200827
B1000284613495N01315735EA0079100826
B1000294613494N01315730EA0079000825
B1000304613493N01315723EA0078900823
B1000314613494N01315716EA0078700821
B1000324613494N01315707EA0078600821
B1000334613496N01315699EA0078700821
B1000344613497N01315692EA0078700822
B1000354613497N01315685EA0078700822
B1000364613499N01315678EA0078700821
B1000374613499N01315670EA0078600821
B1000384613500N01315663EA0078600821
B1000394613501N01315656EA0078700821
B1000404613501N01315649EA0078700821
B1000414613502N01315643EA0078600821
B1000424613503N01315636EA0078600820
B1000434613503N01315629EA0078700821
B1000444613504N01315621EA0078700821
B1000454613504N01315614EA0078700822
B1000464613506N01315608EA0078800822
B1000474613508N01315601EA0078800822
B1000484613510N01315595EA0078800822
B1000494613511N01315588EA0078700822
B1000504613512N01315581EA0078800822
B1000514613513N01315574EA0078800822
B1000524613514N01315568EA0078800822
B1000534613515N01315562EA0078800822
B1000544613515N01315556EA0078800822
B1000554613516N01315550EA0078700821
B1000564613516N01315544EA0078600821
B1000574613517N01315538EA0078600820
B1000584613518N01315531EA0078500819
B1000594613519N01315525EA0078400818
B1001004613520N01315518EA0078300818
B1001014613521N01315511EA0078300817
B1001024613522N01315504EA0078200817
B1001034613524N01315497EA0078200817
B1001044613526N01315490EA0078300818
B1001054613529N01315484EA0078300817
B1001064613530N01315479EA0078200816
B1001074613531N01315474EA0078000814
B1001084613533N01315467EA0077800813
B1001094613534N01315459EA0077800812
B1001104613536N01315452EA0077800812
B1001114613538N01315446EA0077700812
B1001124613541N01315440EA0077700811
B1001134613543N01315434EA0077700811
B1001144613546N01315428EA0077600811
B1001154613550N01315423EA0077500810
B1001164613555N01315420EA0077400809
B1001174613561N01315420EA0077200807
B1001184613568N01315422EA0077100805
B1001194613574N01315427EA0076900803
B1001204613578N01315435EA0076700801
B1001214613580N01315444EA0076600800
B1001224613582N01315453EA0076500799
B1001234613582N01315461EA0076400798
B1001244613582N01315470EA0076400798
B1001254613581N01315478EA0076300797
B1001264613580N01315486EA0076300797
B1001274613579N01315494EA0076200797
B1001284613577N01315502EA0076300797
B1001294613574N01315509EA0076300797
B1001304613572N01315516EA0076400798
B1001314613571N01315523EA0076300797
B1001324613569N01315530EA0076300797
B1001334613567N01315537EA0076200796
B1001344613565N01315544EA0076200797
B1001354613562N01315552EA0076400798
B1001364613561N01315558EA0076500799
B1001374613559N01315565EA0076600800
B1001384613557N01315570EA0076700801
B1001394613554N01315577EA0076600800
B1001404613552N01315583EA0076500800
B1001414613550N01315591EA0076400798
B1001424613547N01315598EA0076300797
B1001434613545N01315606EA0076300797
B1001444613542N01315613EA0076300797
B1001454613540N01315619EA0076300797
B1001464613538N01315626EA0076300797
B1001474613536N01315632EA0076200796
B1001484613534N01315638EA0076100795
B1001494613532N01315645EA0076000794
B1001504613530N01315652EA0075900793
B1001514613528N01315659EA0075900793
B1001524613526N01315667EA0075900793
B1001534613524N01315674EA0075900793
B1001544613522N01315682EA0075900793
B1001554613521N01315690EA0075900792
B1001564613519N01315697EA0075800792
B1001574613517N01315705EA0075700791
B1001584613516N01315713EA0075700791
B1001594613514N01315720EA0075700791
B1002004613513N01315727EA0075600790
B1002014613511N01315734EA0075600790
B1002024613510N01315742EA0075500789
B1002034613508N01315749EA0075500789
B1002044613507N01315757EA0075400788
B1002054613505N01315764EA0075400788
B1002064613504N01315772EA0075300787
B1002074613503N01315779EA0075300786
B1002084613502N01315787EA0075200785
B1002094613500N01315795EA0075100784
B1002104613500N01315804EA0075000784
B1002114613499N01315813EA0075000783
B1002124613498N01315821EA0075000783
B1002134613497N01315828EA0075000783
B1002144613497N01315836EA0074900783
B1002154613496N01315844EA0074900782
B1002164613495N01315852EA0074800781
B1002174613493N01315860EA0074800781
B1002184613491N01315865EA0074700781
B1002194613486N01315868EA0074600780
B1002204613483N01315868EA0074600779
B1002214613479N01315866EA0074600779
B1002224613476N01315861EA0074600779
B1002234613475N01315855EA0074600779
B1002244613477N01315848EA0074700780
B1002254613478N01315842EA0074700781
B1002264613481N01315837EA0074800781
B1002274613483N01315831EA0074800781
B1002284613484N01315825EA0074800781
B1002294613486N01315819EA0074800781
B1002304613488N01315813EA0074800781
B1002314613491N01315806EA0074800781
B1002324613494N01315800EA0074800781
B1002334613496N01315794EA0074800781
B1002344613498N01315787EA0074800781
B1002354613501N01315781EA0074800781
B1002364613504N01315774EA0074900782
B1002374613508N01315768EA0074900782
B1002384613511N01315763EA0074900782
B1002394613514N01315759EA0074900781
B1002404613517N01315753EA0074800780
B1002414613520N01315747EA0074700779
B1002424613523N01315741EA0074600779
B1002434613526N01315735EA0074600778
B1002444613528N01315729EA0074500778
B1002454613531N01315723EA0074500777
B1002464613533N01315717EA0074400776
B1002474613533N01315711EA0074300776
B1002484613533N01315705EA0074300775
B1002494613531N01315700EA0074100774
B1002504613529N01315696EA0074000773
B1002514613525N01315694EA0073900772
B1002524613521N01315695EA0073800771
B1002534613517N01315697EA0073900771
B1002544613513N01315702EA0073900771
B1002554613510N01315708EA0073900771
B1002564613509N01315715EA0073800771
B1002574613509N01315723EA0073800770
B1002584613509N01315732EA0073700769
B1002594613511N01315740EA0073700769
B1003004613513N01315749EA0073600769
B1003014613515N01315758EA0073600768
B1003024613516N01315767EA0073600768
B1003034613516N01315775EA0073600768
B1003044613515N01315784EA0073500767
B1003054613513N01315792EA0073500767
B1003064613511N01315799EA0073400766
B1003074613507N01315804EA0073400766
B1003084613504N01315809EA0073300765
B1003094613499N01315811EA0073200764
B1003104613496N01315812EA0073200763
B1003114613492N01315809EA0073000762
B1003124613489N01315805EA0072900761
B1003134613488N01315800EA0072800760
B1003144613488N01315793EA0072700759
B1003154613490N01315787EA0072700759
B1003164613493N01315781EA0072700759
B1003174613496N01315776EA0072600758
B1003184613498N01315770EA0072600758
B1003194613500N01315764EA0072500757
B1003204613502N01315758EA0072500757
B1003214613504N01315751EA0072400756
B1003224613505N01315745EA0072400755
B1003234613505N01315738EA0072300755
B1003244613506N01315732EA0072300754
B1003254613507N01315725EA0072300754
B1003264613507N01315719EA0072300755
B1003274613508N01315712EA0072300755
B1003284613508N01315706EA0072300754
B1003294613507N01315701EA0072300754
B1003304613506N01315697EA0072200753
B1003314613504N01315694EA0072000752
B1003324613499N01315693EA0071800750
B1003334613495N01315694EA0071700748
B1003344613491N01315698EA0071600748
B1003354613488N01315705EA0071600747
B1003364613486N01315711EA0071600747
B1003374613486N01315718EA0071600747
B1003384613486N01315725EA0071500746
B1003394613486N01315733EA0071400745
B1003404613487N01315741EA0071300744
B1003414613488N01315749EA0071300744
B1003424613488N01315757EA0071300744
B1003434613488N01315765EA0071300744
B1003444613488N01315773EA0071300744
B1003454613488N01315781EA0071400745
B1003464613488N01315789EA0071300744
B1003474613488N01315797EA0071300744
B1003484613488N01315804EA0071200743
B1003494613488N01315812EA0071100742
B1003504613488N01315820EA0070900740
B1003514613488N01315828EA0070700738
B1003524613487N01315837EA0070700737
B1003534613485N01315847EA0070800739
B1003544613484N01315857EA0071100742
B1003554613483N01315865EA0071500745
B1003564613483N01315872EA0071800748
B1003574613483N01315879EA0071900750
B1003584613484N01315886EA0071900750
B1003594613484N01315894EA0072000750
B1004004613483N01315903EA0072100751
B1004014613480N01315910EA0072100752
B1004024613476N01315914EA0072100752
B1004034613472N01315915EA0072100752
B1004044613468N01315913EA0072200752
B1004054613466N01315908EA0072200753
B1004064613466N01315902EA0072300753
B1004074613468N01315896EA0072300753
B1004084613474N01315891EA0072200752
B1004094613479N01315890EA0072100751
B1004104613485N01315891EA0072000751
B1004114613493N01315894EA0072100752
B1004124613499N01315900EA0072200753
B1004134613503N01315908EA0072300753
B1004144613504N01315918EA0072300753
B1004154613504N01315927EA0072300754
B1004164613501N01315934EA0072400755
B1004174613498N01315940EA0072500755
B1004184613495N01315944EA0072600756
B1004194613491N01315948EA0072600756
B1004204613488N01315949EA0072600756
B1004214613485N01315949EA0072500755
B1004224613481N01315947EA0072500755
B1004234613478N01315944EA0072500755
B1004244613476N01315940EA0072600756
B1004254613475N01315936EA0072500755
B1004264613475N01315931EA0072500755
B1004274613476N01315926EA0072300753
B1004284613478N01315921EA0072200752
B1004294613480N01315915EA0072100751
B1004304613482N01315909EA0072000750
B1004314613482N01315903EA0072000749
B1004324613480N01315899EA0071800748
B1004334613478N01315895EA0071600746
B1004344613475N01315893EA0071500745
B1004354613471N01315892EA0071400744
B1004364613467N01315895EA0071300743
B1004374613463N01315899EA0071200742
B1004384613460N01315906EA0071200741
B1004394613459N01315914EA0071100741
B1004404613459N01315922EA0071200741
B1004414613459N01315931EA0071200741
B1004424613461N01315939EA0071200741
B1004434613463N01315948EA0071100741
B1004444613465N01315956EA0071100740
B1004454613467N01315965EA0071000739
B1004464613469N01315974EA0071000739
B1004474613471N01315984EA0070900739
B1004484613471N01315993EA0070900738
B1004494613472N01316003EA0070900738
B1004504613473N01316012EA0070800738
B1004514613473N01316021EA0070700737
B1004524613475N01316031EA0070700736
B1004534613475N01316041EA0070600735
B1004544613476N01316051EA0070600735
B1004554613477N01316061EA0070600735
B1004564613477N01316070EA0070500734
B1004574613477N01316079EA0070400733
B1004584613477N01316088EA0070300732
B1004594613475N01316096EA0070200731
B1005004613472N01316103EA0070100730
B1005014613468N01316108EA0070000729
B1005024613464N01316110EA0069900728
B1005034613460N01316110EA0069800727
B1005044613458N01316107EA0069700725
B1005054613457N01316102EA0069500724
B1005064613456N01316097EA0069400723
B1005074613456N01316092EA0069300722
B1005084613457N01316086EA0069200721
B1005094613457N01316080EA0069200720
B1005104613457N01316074EA0069100719
B1005114613458N01316068EA0069000719
B1005124613458N01316062EA0069000718
B1005134613459N01316057EA0068900718
B1005144613459N01316050EA0068900717
B1005154613459N01316044EA0068900717
B1005164613459N01316039EA0068900717
B1005174613459N01316033EA0068800717
B1005184613459N01316027EA0068800716
B1005194613459N01316021EA0068700716
B1005204613459N01316015EA0068700715
B1005214613459N01316009EA0068700715
B1005224613460N01316003EA0068800716
B1005234613461N01315997EA0068800716
B1005244613461N01315991EA0068800716
B1005254613461N01315985EA0068800716
B1005264613462N01315979EA0068700716
B1005274613463N01315972EA0068700715
B1005284613463N01315966EA0068700715
B1005294613464N01315960EA0068700715
B1005304613464N01315954EA0068700715
B1005314613465N01315948EA0068700715
B1005324613465N01315942EA0068700715
B1005334613466N01315936EA0068700715
B1005344613466N01315930EA0068600714
B1005354613467N01315923EA0068600714
B1005364613468N01315917EA0068600714
B1005374613469N01315910EA0068600714
B1005384613470N01315904EA0068600714
B1005394613472N01315898EA0068600714
B1005404613473N01315891EA0068600714
B1005414613474N01315885EA0068700714
B1005424613475N01315878EA0068700715
B1005434613476N01315872EA0068700715
B1005444613477N01315867EA0068700714
B1005454613477N01315861EA0068600714
B1005464613478N01315855EA0068500713
B1005474613478N01315848EA0068500713
B1005484613479N01315842EA0068500713
B1005494613479N01315835EA0068500712
B1005504613479N01315829EA0068500712
B1005514613479N01315822EA0068600713
B1005524613479N01315816EA0068700715
B1005534613478N01315810EA0068800715
B1005544613479N01315803EA0068900716
B1005554613480N01315797EA0069000717
B1005564613481N01315791EA0069100718
B1005574613483N01315784EA0069200719
B1005584613484N01315776EA0069300721
B1005594613485N01315770EA0069500722
B1006004613486N01315764EA0069500723
B1006014613486N01315758EA0069500723
B1006024613486N01315752EA0069500722
B1006034613488N01315745EA0069600723
B1006044613489N01315738EA0069600723
B1006054613491N01315731EA0069700724
B1006064613492N01315724EA0069800725
B1006074613491N01315717EA0069800725
B1006084613489N01315711EA0069800725
B1006094613486N01315708EA0069800725
B1006104613482N01315707EA0069800725
B1006114613478N01315707EA0069700724
B1006124613474N01315710EA0069800725
B1006134613472N01315714EA0069800725
B1006144613469N01315720EA0069800725
B1006154613468N01315726EA0069800725
B1006164613467N01315733EA0069800724
B1006174613466N01315740EA0069800724
B1006184613467N01315747EA0069800724
B1006194613467N01315755EA0069800725
B1006204613468N01315762EA0069800725
B1006214613470N01315769EA0069900725
B1006224613472N01315776EA0069900726
B1006234613474N01315783EA0070000727
B1006244613475N01315791EA0070100727
B1006254613476N01315799EA0070000727
B1006264613475N01315807EA0070000727
B1006274613472N01315814EA0070100727
B1006284613469N01315818EA0070100728
B1006294613465N01315820EA0070100727
B1006304613461N01315819EA0070100727
B1006314613458N01315816EA0070100727
B1006324613456N01315811EA0070000727
B1006334613455N01315805EA0069900726
B1006344613456N01315798EA0069900725
B1006354613458N01315791EA0069800725
B1006364613461N01315785EA0069800725
B1006374613464N01315779EA0069800725
B1006384613468N01315773EA0069800725
B1006394613472N01315767EA0069800724
B1006404613476N01315761EA0069700724
B1006414613480N01315754EA0069700724
B1006424613484N01315748EA0069800725
B1006434613488N01315741EA0069800725
B1006444613492N01315735EA0069800725
B1006454613496N01315729EA0069800725
B1006464613499N01315723EA0069800724
B1006474613504N01315716EA0069700724
B1006484613507N01315709EA0069700724
B1006494613511N01315702EA0069800725
B1006504613515N01315695EA0069900725
B1006514613518N01315689EA0069900726
B1006524613522N01315684EA0069900726
B1006534613526N01315678EA0070000727
B1006544613529N01315670EA0070000727
B1006554613531N01315662EA0070000726
B1006564613531N01315653EA0070000727
B1006574613530N01315645EA0070100728
B1006584613528N01315639EA0070200729
B1006594613524N01315636EA0070300730
B1007004613521N01315635EA0070400730
B1007014613517N01315636EA0070400731
B1007024613514N01315639EA0070500732
B1007034613511N01315643EA0070600733
B1007044613510N01315649EA0070700734
B1007054613510N01315656EA0070800735
B1007064613511N01315663EA0071000736
B1007074613514N01315669EA0071100738
B1007084613516N01315675EA0071200739
B1007094613517N01315681EA0071400741
B1007104613516N01315687EA0071500742
B1007114613514N01315691EA0071500742
B1007124613510N01315694EA0071500742
B1007134613505N01315692EA0071600743
B1007144613501N01315689EA0071700744
B1007154613498N01315684EA0071900746
B1007164613496N01315678EA0072100748
B1007174613495N01315673EA0072300750
B1007184613494N01315667EA0072400751
B1007194613495N01315661EA0072500752
B1007204613496N01315654EA0072600752
B1007214613499N01315647EA0072600753
B1007224613504N01315641EA0072700754
B1007234613509N01315636EA0072800754
B1007244613516N01315632EA0072800755
B1007254613522N01315629EA0072900756
B1007264613528N01315625EA0073100757
B1007274613533N01315619EA0073100757
B1007284613537N01315612EA0073100758
B1007294613540N01315605EA0073200758
B1007304613540N01315597EA0073200758
B1007314613538N01315592EA0073200759
B1007324613535N01315589EA0073200759
B1007334613531N01315590EA0073300759
B1007344613529N01315592EA0073300760
B1007354613527N01315596EA0073400761
B1007364613526N01315600EA0073500762
B1007374613527N01315605EA0073600762
B1007384613527N01315612EA0073600763
B1007394613529N01315620EA0073700763
B1007404613532N01315627EA0073700764
B1007414613534N01315633EA0073800765
B1007424613536N01315640EA0073900766
B1007434613538N01315646EA0074000767
B1007444613540N01315653EA0074100768
B1007454613541N01315660EA0074200769
B1007464613541N01315667EA0074300769
B1007474613538N01315673EA0074300770
B1007484613535N01315677EA0074400770
B1007494613532N01315677EA0074400771
B1007504613529N01315674EA0074600772
B1007514613526N01315670EA0074700773
B1007524613525N01315666EA0074800775
B1007534613524N01315661EA0074900776
B1007544613524N01315655EA0075000777
B1007554613525N01315650EA0075100777
B1007564613527N01315644EA0075000777
B1007574613529N01315637EA0075000777
B1007584613534N01315630EA0075000776
B1007594613539N01315624EA0075000777
B1008004613546N01315620EA0075100777
B1008014613552N01315616EA0075200779
B1008024613558N01315611EA0075300779
B1008034613562N01315604EA0075300779
B1008044613564N01315597EA0075200779
B1008054613564N01315590EA0075200778
B1008064613562N01315584EA0075100778
B1008074613559N01315581EA0075100778
B1008084613556N01315581EA0075100778
B1008094613552N01315583EA0075100777
B1008104613550N01315585EA0075100777
B1008114613547N01315587EA0075100777
B1008124613544N01315591EA0075100778
B1008134613541N01315596EA0075200778
B1008144613540N01315602EA0075200779
B1008154613538N01315609EA0075300779
B1008164613538N01315617EA0075300780
B1008174613540N01315624EA0075400781
B1008184613541N01315632EA0075500781
B1008194613542N01315640EA0075500782
B1008204613543N01315648EA0075600782
B1008214613544N01315656EA0075600783
B1008224613544N01315664EA0075700783
B1008234613543N01315671EA0075700784
B1008244613543N01315678EA0075800784
B1008254613542N01315684EA0075800785
B1008264613540N01315691EA0075900786
B1008274613538N01315697EA0075900786
B1008284613536N01315704EA0076000787
B1008294613534N01315709EA0076100788
B1008304613532N01315713EA0076200788
B1008314613529N01315715EA0076200789
B1008324613526N01315714EA0076200788
B1008334613523N01315710EA0076200788
B1008344613522N01315706EA0076200789
B1008354613521N01315701EA0076400790
B1008364613520N01315695EA0076500791
B1008374613521N01315690EA0076600792
B1008384613522N01315684EA0076600793
B1008394613523N01315678EA0076600793
B1008404613528N01315672EA0076600793
B1008414613533N01315667EA0076600793
B1008424613540N01315663EA0076600793
B1008434613546N01315659EA0076700794
B1008444613551N01315654EA0076900795
B1008454613555N01315648EA0076900796
B1008464613559N01315642EA0077000796
B1008474613561N01315635EA0077000797
B1008484613563N01315629EA0077100797
B1008494613563N01315622EA0077100798
B1008504613561N01315617EA0077100798
B1008514613559N01315614EA0077200799
B1008524613555N01315614EA0077400800
B1008534613553N01315617EA0077500801
B1008544613551N01315622EA0077500802
B1008554613550N01315628EA0077600802
B1008564613549N01315635EA0077700803
B1008574613549N01315642EA0077800804
B1008584613548N01315650EA0077800805
B1008594613548N01315657EA0078000806
B1009004613547N01315665EA0078100808
B1009014613546N01315671EA0078300810
B1009024613545N01315678EA0078400810
B1009034613544N01315684EA0078400811
B1009044613542N01315689EA0078500811
B1009054613539N01315692EA0078500811
B1009064613536N01315692EA0078400811
B1009074613534N01315689EA0078300810
B1009084613532N01315684EA0078300810
B1009094613532N01315678EA0078300810
B1009104613534N01315671EA0078300810
B1009114613536N01315665EA0078400810
B1009124613539N01315658EA0078400811
B1009134613542N01315652EA0078500811
B1009144613546N01315646EA0078500812
B1009154613549N01315640EA0078600813
B1009164613554N01315634EA0078700814
B1009174613557N01315627EA0078800815
B1009184613560N01315621EA0079000816
B1009194613561N01315615EA0079100817
B1009204613560N01315610EA0079100818
B1009214613558N01315606EA0079200819
B1009224613554N01315604EA0079400821
B1009234613552N01315606EA0079500822
B1009244613549N01315609EA0079600823
B1009254613547N01315613EA0079700823
B1009264613545N01315617EA0079700824
B1009274613542N01315622EA0079800824
B1009284613540N01315628EA0079900825
B1009294613538N01315635EA0080000826
B1009304613535N01315641EA0080100827
B1009314613533N01315647EA0080100828
B1009324613531N01315653EA0080200829
B1009334613529N01315659EA0080200829
B1009344613527N01315666EA0080200829
B1009354613523N01315672EA0080300830
B1009364613520N01315676EA0080300830
B1009374613516N01315677EA0080300830
B1009384613513N01315677EA0080400831
B1009394613510N01315675EA0080500831
B1009404613508N01315673EA0080500832
B1009414613507N01315670EA0080500832
B1009424613505N01315666EA0080500832
B1009434613504N01315661EA0080500832
B1009444613505N01315655EA0080500832
B1009454613507N01315649EA0080500832
B1009464613510N01315643EA0080500832
B1009474613515N01315639EA0080500832
B1009484613522N01315637EA0080600833
B1009494613529N01315638EA0080700834
B1009504613535N01315642EA0080700834
B1009514613540N01315649EA0080800835
B1009524613543N01315658EA0080900836
B1009534613545N01315666EA0081100838
B1009544613545N01315674EA0081300840
B1009554613545N01315680EA0081400841
B1009564613544N01315687EA0081300840
B1009574613542N01315693EA0081200839
B1009584613540N01315699EA0081200839
B1009594613536N01315702EA0081200839
B1010004613532N01315702EA0081200839
B1010014613529N01315701EA0081200839
B1010024613526N01315698EA0081200839
B1010034613524N01315696EA0081200839
B1010044613522N01315693EA0081100839
B1010054613521N01315689EA0081000838
B1010064613521N01315683EA0080900837
B1010074613522N01315676EA0080900836
B1010084613524N01315669EA0080800835
B1010094613528N01315663EA0080800835
B1010104613531N01315658EA0080800835
B1010114613536N01315653EA0080700835
B1010124613540N01315647EA0080700834
B1010134613542N01315641EA0080700834
B1010144613545N01315635EA0080500833
B1010154613545N01315628EA0080400831
B1010164613544N01315622EA0080300830
B1010174613541N01315618EA0080300830
B1010184613538N01315616EA0080300830
B1010194613534N01315617EA0080300830
B1010204613530N01315619EA0080300830
B1010214613527N01315622EA0080300830
B1010224613523N01315625EA0080200829
B1010234613520N01315629EA0080200829
B1010244613516N01315633EA0080200829
B1010254613512N01315638EA0080200829
B1010264613508N01315643EA0080200829
B1010274613505N01315648EA0080300830
B1010284613502N01315652EA0080300831
B1010294613498N01315656EA0080400831
B1010304613494N01315659EA0080300830
B1010314613490N01315661EA0080300830
B1010324613486N01315665EA0080300830
B1010334613482N01315669EA0080300830
B1010344613478N01315673EA0080300830
B1010354613474N01315676EA0080200830
B1010364613470N01315679EA0080200830
B1010374613466N01315682EA0080300830
B1010384613462N01315685EA0080300830
B1010394613458N01315690EA0080300830
B1010404613455N01315696EA0080300830
B1010414613452N01315702EA0080300831
B1010424613449N01315707EA0080400831
B1010434613446N01315713EA0080300831
B1010444613442N01315719EA0080400831
B1010454613439N01315725EA0080400831
B1010464613436N01315731EA0080400832
B1010474613433N01315737EA0080500833
B1010484613430N01315742EA0080600833
B1010494613426N01315747EA0080600834
B1010504613424N01315752EA0080600833
B1010514613421N01315756EA0080600833
B1010524613417N01315762EA0080500833
B1010534613414N01315767EA0080600833
B1010544613410N01315773EA0080600834
B1010554613407N01315778EA0080700835
B1010564613404N01315782EA0080800835
B1010574613400N01315787EA0080700835
B1010584613397N01315793EA0080700835
B1010594613393N01315798EA0080700835
B1011004613390N01315804EA0080700834
B1011014613386N01315810EA0080700834
B1011024613382N01315816EA0080700834
B1011034613379N01315822EA0080700835
B1011044613376N01315828EA0080600834
B1011054613372N01315834EA0080600833
B1011064613368N01315840EA0080600834
B1011074613364N01315844EA0080700834
B1011084613360N01315846EA0080600834
B1011094613356N01315844EA0080500832
B1011104613354N01315838EA0080300831
B1011114613351N01315832EA0080400831
B1011124613348N01315829EA0080200830
B1011134613344N01315830EA0080000828
B1011144613339N01315837EA0079900826
B1011154613335N01315845EA0080000828
B1011164613331N01315849EA0080000827
B1011174613326N01315847EA0079800825
B1011184613323N01315840EA0079500823
B1011194613321N01315832EA0079600824
B1011204613317N01315829EA0079500823
B1011214613313N01315830EA0079100819
B1011224613309N01315839EA0078900816
B1011234613307N01315850EA0079100818
B1011244613303N01315856EA0079100819
B1011254613298N01315856EA0078800816
B1011264613296N01315849EA0078500813
B1011274613294N01315840EA0078600813
B1011284613292N01315834EA0078500812
B1011294613287N01315834EA0078200810
B1011304613284N01315841EA0077900806
B1011314613282N01315853EA0077900807
B1011324613280N01315862EA0078200809
B1011334613277N01315865EA0078200809
B1011344613273N01315863EA0078000808
B1011354613270N01315859EA0078000807
B1011364613266N01315857EA0078000807
B1011374613261N01315858EA0078000808
B1011384613256N01315860EA0078000808
B1011394613253N01315862EA0078100808
B1011404613249N01315863EA0078000808
B1011414613245N01315864EA0078000807
B1011424613241N01315866EA0077900806
B1011434613236N01315869EA0077800805
B1011444613232N01315873EA0077700804
B1011454613228N01315876EA0077700804
B1011464613224N01315880EA0077700804
B1011474613219N01315883EA0077600804
B1011484613216N01315885EA0077600803
B1011494613212N01315889EA0077500802
B1011504613208N01315892EA0077300801
B1011514613204N01315897EA0077200800
B1011524613201N01315901EA0077100799
B1011534613197N01315905EA0077100798
B1011544613193N01315910EA0077000798
B1011554613190N01315915EA0076900797
B1011564613187N01315920EA0076900796
B1011574613183N01315924EA0076700795
B1011584613179N01315928EA0076600794
B1011594613175N01315931EA0076300791
B1012004613171N01315933EA0076200790
B1012014613168N01315936EA0076200790
B1012024613163N01315939EA0076200789
B1012034613159N01315941EA0076000788
B1012044613155N01315941EA0076000788
B1012054613151N01315940EA0076100788
B1012064613147N01315939EA0076000787
B1012074613143N01315938EA0075900787
B1012084613139N01315937EA0075800786
B1012094613135N01315935EA0075900787
B1012104613132N01315932EA0075900787
B1012114613128N01315929EA0075800785
B1012124613124N01315928EA0075700785
B1012134613119N01315928EA0075600784
B1012144613115N01315931EA0075600784
B1012154613111N01315934EA0075500783
B1012164613107N01315938EA0075500782
B1012174613103N01315941EA0075400782
B1012184613100N01315945EA0075300781
B1012194613096N01315950EA0075300780
B1012204613093N01315954EA0075200780
B1012214613090N01315958EA0075100779
B1012224613088N01315963EA0075000778
B1012234613085N01315967EA0074900777
B1012244613082N01315973EA0074800776
B1012254613080N01315979EA0074800775
B1012264613077N01315985EA0074800776
B1012274613074N01315990EA0074900777
B1012284613071N01315996EA0074900777
B1012294613069N01316001EA0074900777
B1012304613067N01316005EA0074900777
B1012314613064N01316010EA0074800775
B1012324613061N01316016EA0074700775
B1012334613058N01316021EA0074800776
B1012344613055N01316025EA0074800776
B1012354613052N01316029EA0074900776
B1012364613050N01316034EA0074900777
B1012374613047N01316039EA0074800776
B1012384613045N01316044EA0074800775
B1012394613043N01316050EA0074700775
B1012404613040N01316056EA0074700775
B1012414613038N01316061EA0074700775
B1012424613035N01316066EA0074700775
B1012434613032N01316069EA0074600774
B1012444613030N01316073EA0074500773
B1012454613027N01316077EA0074400772
B1012464613024N01316083EA0074300771
B1012474613021N01316088EA0074200770
B1012484613018N01316093EA0074100769
B1012494613014N01316097EA0074000768
B1012504613011N01316101EA0074000768
B1012514613008N01316104EA0074000768
B1012524613005N01316108EA0073900767
B1012534613002N01316112EA0073800765
B1012544612999N01316115EA0073600763
B1012554612996N01316119EA0073400762
B1012564612992N01316122EA0073300761
B1012574612989N01316125EA0073200759
B1012584612985N01316129EA0073100758
B1012594612982N01316132EA0072900757
B1013004612979N01316134EA0072800756
B1013014612976N01316137EA0072600754
B1013024612973N01316140EA0072400752
B1013034612969N01316143EA0072200750
B1013044612965N01316147EA0072100749
B1013054612961N01316150EA0072100749
B1013064612958N01316152EA0072100749
B1013074612955N01316155EA0072000748
B1013084612952N01316158EA0071900747
B1013094612948N01316161EA0071900747
B1013104612945N01316165EA0071900747
B1013114612941N01316168EA0072000747
B1013124612938N01316171EA0072000748
B1013134612936N01316174EA0072000748
B1013144612933N01316177EA0071900747
B1013154612930N01316180EA0071800746
B1013164612926N01316183EA0071700745
B1013174612922N01316186EA0071700744
B1013184612919N01316189EA0071700745
B1013194612915N01316191EA0071700744
B1013204612912N01316194EA0071700744
B1013214612908N01316196EA0071700744
B1013224612905N01316198EA0071600743
B1013234612901N01316201EA0071400742
B1013244612897N01316203EA0071300741
B1013254612893N01316204EA0071300740
B1013264612889N01316205EA0071200740
B1013274612886N01316206EA0071100739
B1013284612882N01316206EA0071000738
B1013294612878N01316207EA0070900737
B1013304612874N01316208EA0070800736
B1013314612871N01316208EA0070700735
B1013324612867N01316209EA0070700735
B1013334612864N01316209EA0070600734
B1013344612860N01316210EA0070400732
B1013354612856N01316210EA0070200729
B1013364612851N01316211EA0070000728
B1013374612847N01316213EA0070000727
B1013384612843N01316214EA0069900727
B1013394612839N01316215EA0069800726
B1013404612836N01316215EA0069700725
B1013414612832N01316217EA0069600724
B1013424612828N01316218EA0069400722
B1013434612824N01316219EA0069300720
B1013444612820N01316220EA0069200719
B1013454612815N01316221EA0069100719
B1013464612811N01316222EA0069100719
B1013474612808N01316223EA0069000718
B1013484612804N01316224EA0068900717
B1013494612801N01316225EA0068800715
B1013504612797N01316227EA0068600714
B1013514612793N01316228EA0068400712
B1013524612789N01316230EA0068400711
B1013534612786N01316231EA0068300711
B1013544612782N01316232EA0068200710
B1013554612779N01316233EA0068100708
B1013564612776N01316234EA0067900706
B1013574612772N01316236EA0067600704
B1013584612768N01316237EA0067400702
B1013594612764N01316238EA0067300701
B1014004612760N01316239EA0067200699
B1014014612756N01316240EA0067100698
B1014024612752N01316240EA0066900696
B1014034612749N01316242EA0066700695
B1014044612745N01316243EA0066600693
B1014054612741N01316244EA0066500693
B1014064612737N01316244EA0066500693
B1014074612733N01316244EA0066500693
B1014084612729N01316245EA0066600694
B1014094612726N01316246EA0066600694
B1014104612723N01316247EA0066600693
B1014114612720N01316248EA0066600694
B1014124612716N01316248EA0066700694
B1014134612713N01316248EA0066700694
B1014144612709N01316248EA0066700694
B1014154612705N01316249EA0066700694
B1014164612702N01316249EA0066700694
B1014174612698N01316250EA0066600693
B1014184612694N01316250EA0066600693
B1014194612689N01316251EA0066700694
B1014204612686N01316251EA0066700695
B1014214612683N01316251EA0066800695
B1014224612680N01316251EA0066600694
B1014234612676N01316250EA0066500692
B1014244612673N01316250EA0066300690
B1014254612669N01316250EA0066200689
B1014264612665N01316249EA0066200689
B1014274612662N01316249EA0066200689
B1014284612660N01316249EA0066100688
B1014294612657N01316248EA0066000687
B1014304612654N01316248EA0065800685
B1014314612651N01316247EA0065800685
B1014324612647N01316246EA0065700684
B1014334612644N01316245EA0065700684
B1014344612641N01316245EA0065700684
B1014354612638N01316244EA0065800685
B1014364612635N01316241EA0065800686
B1014374612633N01316237EA0065800685
B1014384612633N01316232EA0065800685
B1014394612634N01316225EA0065700684
B1014404612636N01316218EA0065600684
B1014414612640N01316212EA0065600683
B1014424612646N01316207EA0065500682
B1014434612653N01316206EA0065400681
B1014444612661N01316207EA0065200679
B1014454612668N01316213EA0065100678
B1014464612673N01316221EA0065000677
B1014474612676N01316230EA0064900676
B1014484612675N01316239EA0064800675
B1014494612672N01316244EA0064800675
B1014504612668N01316244EA0064700674
B1014514612665N01316239EA0064600673
B1014524612666N01316231EA0064500672
B1014534612671N01316223EA0064300670
B1014544612680N01316220EA0064200668
B1014554612688N01316225EA0063900666
B1014564612692N01316236EA0063500662
B1014574612689N01316246EA0063100657
B1014584612683N01316247EA0062700654
B1014594612680N01316237EA0062400651
B1015004612685N01316227EA0062100648
B1015014612695N01316225EA0061700644
B1015024612704N01316235EA0061300640
B1015034612703N01316249EA0060900635
B1015044612696N01316253EA0060300630
B1015054612691N01316244EA0060000626
B1015064612697N01316232EA0059800624
B1015074612708N01316231EA0059400621
B1015084612716N01316242EA0059100617
B1015094612715N01316256EA0058700613
B1015104612707N01316258EA0058100607
B1015114612703N01316248EA0057600602
B1015124612710N01316236EA0057100598
B1015134612722N01316239EA0056700593
B1015144612728N01316253EA0056100587
B1015154612724N01316264EA0055600582
B1015164612717N01316263EA0055100577
B1015174612716N01316251EA0054700573
B1015184612725N01316242EA0054300569
B1015194612736N01316247EA0053800564
B1015204612740N01316262EA0053200558
B1015214612733N01316272EA0052700553
B1015224612726N01316267EA0052200548
B1015234612728N01316253EA0052000546
B1015244612738N01316247EA0051600542
B1015254612749N01316255EA0051100537
B1015264612751N01316270EA0050700533
B1015274612745N01316279EA0050300529
B1015284612738N01316275EA0050000525
B1015294612738N01316263EA0049600522
B1015304612747N01316255EA0049200518
B1015314612759N01316262EA0048900515
B1015324612763N01316274EA0048700513
B1015334612760N01316286EA0048600511
B1015344612754N01316291EA0048700512
B1015354612749N01316289EA0048900514
B1015364612747N01316286EA0049000516
B1015374612746N01316285EA0049000516
B1015384612744N01316284EA0048800514
B1015394612740N01316284EA0048500511
B1015404612736N01316284EA0048300508
B1015414612731N01316281EA0048200508
B1015424612728N01316275EA0048300508
B1015434612727N01316268EA0048300509
B1015444612729N01316261EA0048400509
B1015454612731N01316255EA0048300508
B1015464612733N01316249EA0048100506
B1015474612736N01316242EA0047900504
B1015484612740N01316236EA0047700503
B1015494612746N01316231EA0047600501
B1015504612752N01316228EA0047500500
B1015514612759N01316227EA0047300498
B1015524612767N01316228EA0047200497
B1015534612773N01316232EA0047100496
B1015544612779N01316237EA0046900494
B1015554612785N01316244EA0046700492
B1015564612789N01316251EA0046500490
B1015574612793N01316260EA0046300488
B1015584612796N01316269EA0046300488
B1015594612799N01316276EA0046400488
B1016004612801N01316284EA0046300488
B1016014612802N01316292EA0046200487
B1016024612803N01316300EA0046200486
B1016034612802N01316308EA0046100486
B1016044612801N01316315EA0046000485
B1016054612797N01316321EA0045900484
B1016064612793N01316324EA0045700482
B1016074612788N01316326EA0045700482
B1016084612783N01316329EA0045800482
B1016094612779N01316333EA0045800483
B1016104612776N01316339EA0045800483
B1016114612775N01316346EA0045800483
B1016124612774N01316355EA0045800482
B1016134612775N01316363EA0045800483
B1016144612777N01316371EA0045800483
B1016154612781N01316379EA0045900483
B1016164612786N01316386EA0045900483
B1016174612792N01316391EA0045900483
B1016184612799N01316394EA0045900483
B1016194612805N01316394EA0045800483
B1016204612812N01316393EA0045900483
B1016214612818N01316391EA0045800483
B1016224612824N01316389EA0045800482
B1016234612830N01316388EA0045700481
B1016244612835N01316385EA0045500480
B1016254612840N01316381EA0045300478
B1016264612845N01316376EA0045200476
B1016274612850N01316369EA0045200477
B1016284612854N01316364EA0045300477
B1016294612858N01316359EA0045400478
B1016304612861N01316354EA0045300478
B1016314612864N01316348EA0045300477
B1016324612866N01316342EA0045200476
B1016334612869N01316335EA0045200476
B1016344612873N01316328EA0045100475
B1016354612875N01316322EA0045100475
B1016364612878N01316316EA0045100475
B1016374612880N01316310EA0045100475
B1016384612881N01316304EA0045000473
B1016394612880N01316299EA0044800472
B1016404612878N01316295EA0044700470
B1016414612875N01316293EA0044500469
B1016424612871N01316293EA0044400467
B1016434612868N01316297EA0044200466
B1016444612865N01316302EA0044000464
B1016454612864N01316310EA0043800461
B1016464612864N01316319EA0043500459
B1016474612866N01316328EA0043400458
B1016484612870N01316337EA0043300456
B1016494612874N01316345EA0043100455
B1016504612880N01316350EA0043100454
B1016514612886N01316353EA0043000453
B1016524612893N01316354EA0042900452
B1016534612899N01316351EA0042800451
B1016544612903N01316347EA0042700450
B1016554612906N01316341EA0042600449
B1016564612907N01316334EA0042400448
B1016574612905N01316329EA0042300447
B1016584612902N01316326EA0042300446
B1016594612899N01316326EA0042200445
B1017004612896N01316329EA0042100444
B1017014612893N01316333EA0042000443
B1017024612890N01316339EA0041800441
B1017034612889N01316346EA0041600439
B1017044612888N01316355EA0041400437
B1017054612888N01316364EA0041300436
B1017064612892N01316374EA0041200435
B1017074612897N01316381EA0041100434
B1017084612904N01316385EA0041000433
B1017094612911N01316385EA0041000433
B1017104612917N01316382EA0041100434
B1017114612920N01316378EA0041100434
B1017124612923N01316373EA0041100434
B1017134612924N01316367EA0041000433
B1017144612925N01316361EA0040900432
B1017154612924N01316355EA0040700430
B1017164612922N01316350EA0040600429
B1017174612918N01316349EA0040400427
B1017184612913N01316350EA0040300426
B1017194612909N01316355EA0040200424
B1017204612907N01316361EA0040100424
B1017214612906N01316369EA0040100423
B1017224612905N01316377EA0040000423
B1017234612905N01316385EA0039800421
B1017244612907N01316393EA0039700420
B1017254612911N01316401EA0039600418
B1017264612917N01316406EA0039400417
B1017274612925N01316408EA0039400417
B1017284612931N01316406EA0039400417
B1017294612936N01316402EA0039400416
B1017304612939N01316397EA0039400416
B1017314612942N01316392EA0039400416
B1017324612944N01316386EA0039300415
B1017334612945N01316381EA0039300415
B1017344612945N01316375EA0039100414
B1017354612943N01316370EA0039000412
B1017364612940N01316366EA0038900411
B1017374612937N01316362EA0038800410
B1017384612935N01316356EA0038800410
B1017394612934N01316350EA0038800410
B1017404612933N01316344EA0038800410
B1017414612930N01316339EA0038800411
B1017424612928N01316335EA0038900411
B1017434612925N01316333EA0038900411
B1017444612922N01316333EA0038800410
B1017454612918N01316333EA0038800410
B1017464612914N01316334EA0038800410
B1017474612909N01316336EA0038800410
B1017484612907N01316341EA0038800410
B1017494612905N01316349EA0038700409
B1017504612904N01316357EA0038700409
B1017514612906N01316366EA0038600408
B1017524612909N01316374EA0038600408
B1017534612913N01316380EA0038600407
B1017544612919N01316385EA0038500407
B1017554612926N01316389EA0038600408
B1017564612932N01316390EA0038700409
B1017574612938N01316388EA0038800409
B1017584612943N01316384EA0038800409
B1017594612947N01316379EA0038800409
B1018004612949N01316372EA0038800409
B1018014612951N01316367EA0038800410
B1018024612950N01316361EA0038900410
B1018034612949N01316356EA0038900410
B1018044612946N01316351EA0038900411
B1018054612943N01316349EA0038900410
B1018064612940N01316347EA0038800409
B1018074612937N01316346EA0038500407
B1018084612933N01316344EA0038300405
B1018094612930N01316341EA0038200404
B1018104612928N01316337EA0038100402
B1018114612926N01316334EA0037900401
B1018124612924N01316331EA0037700399
B1018134612922N01316329EA0037500396
B1018144612919N01316327EA0037200394
B1018154612916N01316325EA0036900390
B1018164612913N01316324EA0036500386
B1018174612909N01316322EA0036200383
B1018184612906N01316320EA0036100382
B1018194612902N01316318EA0036000381
B1018204612899N01316316EA0035800379
B1018214612896N01316316EA0035600377
B1018224612892N01316315EA0035500376
B1018234612889N01316313EA0035200373
B1018244612885N01316310EA0035100372
B1018254612882N01316307EA0035000371
B1018264612878N01316305EA0034900370
B1018274612875N01316304EA0034900370
B1018284612873N01316303EA0034800368
B1018294612870N01316302EA0034600367
B1018304612867N01316300EA0034400365
B1018314612863N01316298EA0034200363
B1018324612859N01316297EA0034100362
B1018334612856N01316296EA0034000361
B1018344612852N01316297EA0033900360
B1018354612849N01316299EA0033700358
B1018364612845N01316302EA0033600356
B1018374612841N01316306EA0033400355
B1018384612838N01316312EA0033300353
B1018394612836N01316318EA0033200352
B1018404612834N01316326EA0033000350
B1018414612833N01316333EA0032800349
B1018424612830N01316340EA0032700348
B1018434612828N01316347EA0032700347
B1018444612826N01316355EA0032600346
B1018454612826N01316364EA0032600346
B1018464612826N01316373EA0032500345
B1018474612826N01316382EA0032500345
B1018484612827N01316391EA0032400344
B1018494612827N01316400EA0032300344
B1018504612829N01316409EA0032300343
B1018514612831N01316418EA0032400344
B1018524612833N01316427EA0032500345
B1018534612836N01316436EA0032600346
B1018544612838N01316443EA0032600346
B1018554612841N01316450EA0032600346
B1018564612844N01316458EA0032600346
B1018574612848N01316467EA0032500345
B1018584612851N01316475EA0032600346
B1018594612855N01316483EA0032700347
B1019004612860N01316488EA0032800348
B1019014612865N01316493EA0032700347
B1019024612870N01316497EA0032600346
B1019034612875N01316502EA0032500345
B1019044612881N01316507EA0032400344
B1019054612886N01316512EA0032300343
B1019064612891N01316516EA0032200342
B1019074612897N01316520EA0032000340
B1019084612903N01316522EA0031800338
B1019094612910N01316525EA0031700336
B1019104612917N01316528EA0031500335
B1019114612924N01316531EA0031500334
B1019124612931N01316533EA0031400334
B1019134612938N01316535EA0031400333
B1019144612945N01316537EA0031400333
B1019154612951N01316538EA0031300332
B1019164612958N01316540EA0031200331
B1019174612965N01316542EA0031200331
B1019184612971N01316543EA0031200331
B1019194612977N01316543EA0031100330
B1019204612983N01316543EA0031000330
B1019214612990N01316544EA0031000329
B1019224612997N01316544EA0031000329
B1019234613003N01316543EA0031000329
B1019244613010N01316542EA0031000330
B1019254613017N01316540EA0031200331
B1019264613023N01316540EA0031300332
B1019274613028N01316539EA0031400333
B1019284613033N01316539EA0031600335
B1019294613038N01316538EA0031600335
B1019304613044N01316535EA0031600335
B1019314613049N01316532EA0031700336
B1019324613055N01316529EA0031700336
B1019334613061N01316526EA0031800337
B1019344613065N01316523EA0031900338
B1019354613070N01316519EA0031900338
B1019364613073N01316515EA0031900337
B1019374613075N01316510EA0031800336
B1019384613077N01316503EA0031700336
B1019394613077N01316497EA0031800336
B1019404613076N01316493EA0031800337
B1019414613073N01316492EA0031800336
B1019424613069N01316493EA0031800337
B1019434613066N01316496EA0031900337
B1019444613064N01316498EA0031900338
B1019454613061N01316498EA0031800337
B1019464613058N01316496EA0031700336
B1019474613057N01316490EA0031600335
B1019484613058N01316484EA0031600335
B1019494613062N01316478EA0031600335
B1019504613069N01316474EA0031600334
B1019514613075N01316473EA0031700335
B1019524613080N01316471EA0031700335
B1019534613084N01316467EA0031500333
B1019544613087N01316462EA0031200331
B1019554613088N01316457EA0031100329
B1019564613088N01316451EA0031000328
B1019574613087N01316448EA0030800326
B1019584613083N01316447EA0030500324
B1019594613080N01316450EA0030300322
B1020004613076N01316455EA0030200320
B1020014613074N01316463EA0030100319
B1020024613074N01316471EA0030200320
B1020034613074N01316479EA0030300321
B1020044613074N01316486EA0030400322
B1020054613073N01316492EA0030400322
B1020064613072N01316498EA0030400322
B1020074613072N01316504EA0030300321
B1020084613071N01316510EA0030300321
B1020094613070N01316515EA0030300321
B1020104613068N01316519EA0030200320
B1020114613066N01316521EA0030000318
B1020124613063N01316521EA0029900317
B1020134613061N01316516EA0029800316
B1020144613062N01316510EA0029600314
B1020154613065N01316502EA0029600314
B1020164613070N01316497EA0029800315
B1020174613074N01316494EA0030000317
B1020184613077N01316491EA0030100318
B1020194613079N01316487EA0030100318
B1020204613081N01316483EA0029900317
B1020214613083N01316478EA0029800315
B1020224613084N01316472EA0029600314
B1020234613083N01316467EA0029400312
B1020244613080N01316465EA0029200309
B1020254613075N01316467EA0029000308
B1020264613071N01316472EA0029000307
B1020274613069N01316479EA0029000308
B1020284613068N01316485EA0029100308
B1020294613066N01316490EA0029000308
B1020304613063N01316494EA0028900306
B1020314613060N01316498EA0028800305
B1020324613057N01316501EA0028700304
B1020334613054N01316505EA0028700304
B1020344613051N01316507EA0028600303
B1020354613049N01316508EA0028500302
B1020364613046N01316506EA0028300300
B1020374613044N01316502EA0028200299
B1020384613044N01316496EA0028100298
B1020394613045N01316491EA0028000297
B1020404613046N01316486EA0028000297
B1020414613047N01316482EA0028000297
B1020424613048N01316478EA0027900296
B1020434613048N01316474EA0027800295
B1020444613048N01316469EA0027700294
B1020454613049N01316463EA0027600293
B1020464613050N01316458EA0027500292
B1020474613051N01316453EA0027500292
B1020484613053N01316448EA0027400291
B1020494613055N01316444EA0027300289
B1020504613055N01316439EA0027100288
B1020514613053N01316435EA0027000286
B1020524613050N01316432EA0026700284
B1020534613046N01316433EA0026400281
B1020544613043N01316438EA0026300280
B1020554613040N01316444EA0026200279
B1020564613038N01316449EA0026200278
B1020574613036N01316454EA0026000277
B1020584613033N01316456EA0025800274
B1020594613030N01316455EA0025500271
B1021004613027N01316451EA0025300269
B1021014613025N01316446EA0025200268
B1021024613024N01316441EA0025100268
B1021034613025N01316437EA0025000267
B1021044613025N01316433EA0024900265
B1021054613024N01316428EA0024600262
B1021064613022N01316424EA0024300259
B1021074613019N01316420EA0024100257
B1021084613015N01316417EA0024000257
B1021094613012N01316414EA0024000256
B1021104613010N01316412EA0023900255
B1021114613008N01316409EA0023800254
B1021124613006N01316406EA0023700254
B1021134613004N01316402EA0023600252
B1021144613003N01316399EA0023500251
B1021154613000N01316397EA0023300249
B1021164612997N01316394EA0023100247
B1021174612994N01316391EA0022900245
B1021184612991N01316388EA0022800244
B1021194612988N01316385EA0022700243
B1021204612986N01316382EA0022600242
B1021214612983N01316379EA0022500241
B1021224612981N01316377EA0022400240
B1021234612979N01316375EA0022500240
B1021244612979N01316374EA0022500240
B1021254612979N01316374EA0022400240
B1021264612979N01316373EA0022400240
B1021274612979N01316374EA0022400240
B1021284612979N01316374EA0022400240
B1021294612979N01316374EA0022400240
B1021304612979N01316374EA0022400240
B1021314612979N01316374EA0022400240
B1021324612979N01316374EA0022400240
B1021334612979N01316374EA0022400240
B1021344612979N01316374EA0022400240
B1021354612979N01316374EA0022400240
B1021364612979N01316374EA0022400240
B1021374612979N01316374EA0022400240
B1021384612979N01316374EA0022400240
B1021394612979N01316374EA0022400240
B1021404612979N01316374EA0022400240
B1021414612979N01316374EA0022400240
B1021424612979N01316374EA0022400240
B1021434612979N01316374EA0022400240
B1021444612979N01316374EA0022400240
B1021454612979N01316374EA0022400240
B1021464612979N01316374EA0022400239
B1021474612979N01316374EA0022400239
B1021484612979N01316374EA0022400239
B1021494612979N01316374EA0022400239
B1021504612979N01316374EA0022400239
B1021514612980N01316375EA0022400240
B1021524612979N01316376EA0022400239
B1021534612979N01316376EA0022400239
B1021544612979N01316377EA0022400239
B1021554612980N01316378EA0022400239
B1021564612980N01316378EA0022400239
B1021574612980N01316378EA0022400239
B1021584612980N01316378EA0022400239
B1021594612980N01316378EA0022400239
B1022004612980N01316378EA0022400239
B1022014612980N01316378EA0022400239
B1022024612980N01316378EA0022400239
B1022034612981N01316378EA0022400239
B1022044612981N01316378EA0022400239
B1022054612982N01316378EA0022400239
B1022064612982N01316379EA0022400239
B1022074612983N01316379EA0022400239
B1022084612984N01316380EA0022400239
B1022094612984N01316380EA0022400239
B1022104612985N01316381EA0022400239
B1022114612985N01316381EA0022400239
B1022124612986N01316382EA0022400239
B1022134612986N01316383EA0022400239
B1022144612987N01316383EA0022400239
B1022154612988N01316383EA0022400239
B1022164612988N01316384EA0022400239
B1022174612989N01316384EA0022400239
B1022184612990N01316384EA0022400239
B1022194612990N01316385EA0022400239
B1022204612991N01316385EA0022400239
B1022214612992N01316386EA0022400239
B1022224612992N01316386EA0022400239
B1022234612993N01316387EA0022400239
B1022244612993N01316387EA0022400239
B1022254612994N01316387EA0022400239
B1022264612994N01316388EA0022400239
B1022274612994N01316388EA0022400239
B1022284612995N01316388EA0022400239
B1022294612995N01316388EA0022400239
B1022304612995N01316388EA0022400239
B1022314612995N01316388EA0022500239
B1022324612995N01316388EA0022500239
B1022334612995N01316388EA0022400239
B1022344612995N01316388EA0022400239
B1022354612995N01316388EA0022400239
B1022364612995N01316388EA0022400239
B1022374612995N01316388EA0022400239
B1022384612995N01316388EA0022400239
B1022394612995N01316388EA0022400239
B1022404612995N01316388EA0022400239
B1022414612995N01316388EA0022400239
B1022424612995N01316388EA0022400239
B1022434612995N01316389EA0022400239
B1022444612995N01316389EA0022400239
B1022454612995N01316389EA0022400239
B1022464612995N01316389EA0022400239
B1022474612995N01316389EA0022400239
B1022484612995N01316389EA0022400239
B1022494612995N01316389EA0022400239
B1022504612995N01316389EA0022400239
B1022514612995N01316389EA0022400239
B1022524612994N01316389EA0022400239
B1022534612994N01316389EA0022400239
B1022544612995N01316389EA0022400239
B1022554612995N01316389EA0022400239
B1022564612995N01316390EA0022400239
B1022574612994N01316389EA0022400239
B1022584612994N01316389EA0022400239
B1022594612994N01316389EA0022400239
B1023004612995N01316389EA0022400239
B1023014612995N01316389EA0022400239
B1023024612995N01316390EA0022400239
B1023034612995N01316390EA0022400239
B1023044612995N01316390EA0022400239
B1023054612995N01316389EA0022400239
B1023064612995N01316389EA0022400239
B1023074612995N01316389EA0022400239
B1023084612995N01316389EA0022400239
B1023094612995N01316389EA0022400239
B1023104612995N01316389EA0022400239
B1023114612994N01316388EA0022400239
B1023124612994N01316388EA0022400239
B1023134612994N01316388EA0022400239
B1023144612994N01316388EA0022400239
B1023154612994N01316388EA0022400239
B1023164612993N01316388EA0022400239
B1023174612993N01316388EA0022400239
B1023184612992N01316388EA0022400239
B1023194612992N01316388EA0022400239
B1023204612992N01316388EA0022400239
B1023214612992N01316388EA0022500239
B1023224612992N01316388EA0022400239
B1023234612993N01316388EA0022500239
B1023244612993N01316388EA0022400239
B1023254612993N01316388EA0022300238
B1023264612993N01316388EA0022400238
B1023274612993N01316387EA0022400239
B1023284612993N01316388EA0022400239
B1023294612993N01316388EA0022400239
B1023304612993N01316388EA0022400239
B1023314612993N01316388EA0022400239
B1023324612993N01316388EA0022400239
B1023334612993N01316388EA0022400238
B1023344612993N01316388EA0022400238
B1023354612993N01316388EA0022400239
B1023364612994N01316388EA0022400238
B1023374612994N01316388EA0022400238
B1023384612994N01316388EA0022400238
B1023394612994N01316388EA0022400238
B1023404612994N01316388EA0022400238
B1023414612994N01316388EA0022400238
B1023424612994N01316388EA0022400238
B1023434612994N01316389EA0022400238
B1023444612994N01316389EA0022400238
B1023454612994N01316389EA0022400238
B1023464612995N01316389EA0022400238
B1023474612995N01316389EA0022400238
B1023484612995N01316389EA0022400238
B1023494612995N01316389EA0022400238
B1023504612995N01316389EA0022400238
B1023514612995N01316389EA0022400238
B1023524612995N01316389EA0022400238
B1023534612995N01316389EA0022400238
B1023544612995N01316389EA0022400238
B1023554612995N01316389EA0022400238
B1023564612995N01316389EA0022400238
B1023574612995N01316389EA0022400238
B1023584612995N01316389EA0022400238
B1023594612995N01316389EA0022400238
B1024004612995N01316389EA0022400238
B1024014612995N01316389EA0022400238
B1024024612995N01316389EA0022300238
B1024034612995N01316389EA0022300238
LXSX;C1;GM:2.5
LXSX;S1;TS:1780307804;TL:1780309443;AS:722;AL:238;AT:841;AB:238
LXSX;S1;XS:0;XD:4.34;SP:44.8;MC:1.4;MS:-4.7;NB:1641
LXSX;S1;FL:13.5;TG:129;TC:0.5;AG:390;GM:2.5
LXSX;S1;X0:46.22577,13.25713
LXSX;S1;X1:46.22430,13.26845
LXSX;S1;X2:46.22607,13.25995
LXSX;S1;X3:46.21068,13.27075
LXSX;S1;X4:46.21812,13.27437
G4EF449217F0D49E106343930F6B2AE95
