AXSX006 SKYTRAXX
HFPLTPILOT:Sepp
HFGTYGLIDERTYPE:Niviuk Artik R2
HFDTM100GPSDATUM:WGS-84
HFRFWFIRMWAREVERSION:202603201607
HFRHWHARDWAREVERSION:5.0
HFTZNTIMEZONE:+2.00
HFSITSITE:Fiesch Kühboden 1 (
HFDTE030426
LXSX;I1;OAB:20260402;OOB:20260123
LXSX;I1;ID:115785
LXSX;I1;AC:1;CAT:C
LXSX;RAT:LTE M1;GSM:3
B0919364624866N00806461EA0212602153
B0919374624866N00806461EA0212602153
B0919384624866N00806461EA0212602153
B0919394624866N00806461EA0212602153
B0919404624866N00806461EA0212602153
B0919414624866N00806461EA0212602153
B0919424624866N00806461EA0212602153
B0919434624866N00806461EA0212602153
B0919444624866N00806461EA0212602153
B0919454624866N00806461EA0212602153
B0919464624866N00806461EA0212602153
B0919474624865N00806462EA0212502152
B0919484624864N00806463EA0212402151
B0919494624863N00806464EA0212402151
B0919504624862N00806465EA0212302150
B0919514624861N00806466EA0212202149
B0919524624859N00806467EA0212002147
B0919534624856N00806469EA0211902146
B0919544624853N00806471EA0211402141
B0919554624849N00806473EA0211202139
B0919564624844N00806477EA0211402141
B0919574624840N00806480EA0211502142
B0919584624837N00806483EA0211602143
B0919594624832N00806485EA0211602142
B0920004624828N00806488EA0211702144
B0920014624824N00806491EA0211802145
B0920024624820N00806494EA0211802145
B0920034624817N00806499EA0211702144
B0920044624814N00806504EA0211702144
B0920054624810N00806509EA0211602143
B0920064624808N00806515EA0211402140
B0920074624805N00806522EA0211202138
B0920084624801N00806529EA0210902135
B0920094624798N00806536EA0210802135
B0920104624794N00806544EA0211002137
B0920114624791N00806551EA0211202138
B0920124624789N00806557EA0211302140
B0920134624787N00806563EA0211402141
B0920144624785N00806569EA0211302140
B0920154624782N00806575EA0211202138
B0920164624780N00806583EA0211202139
B0920174624779N00806590EA0211502141
B0920184624778N00806596EA0211602143
B0920194624778N00806601EA0211802144
B0920204624777N00806606EA0211802145
B0920214624776N00806612EA0211702144
B0920224624775N00806618EA0211502142
B0920234624774N00806625EA0211502142
B0920244624772N00806632EA0211802144
B0920254624770N00806638EA0211902146
B0920264624768N00806643EA0212202148
B0920274624766N00806647EA0212302150
B0920284624764N00806652EA0212502152
B0920294624762N00806657EA0212702154
B0920304624759N00806663EA0212902155
B0920314624757N00806668EA0213002157
B0920324624755N00806674EA0213102157
B0920334624754N00806680EA0213102157
B0920344624756N00806687EA0213002156
B0920354624758N00806695EA0212902155
B0920364624762N00806703EA0212802154
B0920374624767N00806710EA0212802154
B0920384624774N00806715EA0212702154
B0920394624782N00806718EA0212702153
B0920404624789N00806717EA0212802155
B0920414624796N00806715EA0213002156
B0920424624802N00806710EA0213102157
B0920434624807N00806703EA0213302159
B0920444624811N00806695EA0213402160
B0920454624813N00806687EA0213502161
B0920464624813N00806679EA0213702163
B0920474624811N00806673EA0213902165
B0920484624809N00806669EA0214102167
B0920494624806N00806670EA0214202168
B0920504624803N00806673EA0214102168
B0920514624802N00806679EA0214202168
B0920524624803N00806686EA0214302169
B0920534624806N00806693EA0214202168
B0920544624810N00806700EA0214302169
B0920554624816N00806706EA0214302169
B0920564624823N00806711EA0214302169
B0920574624830N00806713EA0214502171
B0920584624838N00806713EA0214702173
B0920594624845N00806710EA0214902175
B0921004624851N00806705EA0215002176
B0921014624855N00806698EA0215102177
B0921024624858N00806691EA0215202178
B0921034624860N00806683EA0215302179
B0921044624860N00806676EA0215402180
B0921054624860N00806669EA0215302179
B0921064624858N00806664EA0215402180
B0921074624855N00806659EA0215502181
B0921084624851N00806657EA0215502181
B0921094624848N00806656EA0215702183
B0921104624846N00806657EA0215902185
B0921114624845N00806658EA0216102187
B0921124624844N00806661EA0216102187
B0921134624844N00806666EA0216102187
B0921144624844N00806672EA0216102187
B0921154624845N00806680EA0216102187
B0921164624849N00806686EA0216202188
B0921174624855N00806691EA0216202188
B0921184624862N00806692EA0216302189
B0921194624869N00806690EA0216302190
B0921204624876N00806684EA0216402190
B0921214624881N00806676EA0216602192
B0921224624883N00806669EA0216702193
B0921234624882N00806661EA0216802194
B0921244624880N00806654EA0216802194
B0921254624879N00806649EA0217102197
B0921264624878N00806645EA0217402200
B0921274624877N00806643EA0217402200
B0921284624875N00806643EA0217302199
B0921294624871N00806645EA0217202198
B0921304624868N00806648EA0217202198
B0921314624866N00806653EA0217302199
B0921324624867N00806661EA0217302199
B0921334624870N00806669EA0217202198
B0921344624875N00806676EA0217202198
B0921354624881N00806681EA0217502201
B0921364624888N00806682EA0217702203
B0921374624895N00806680EA0217802205
B0921384624901N00806675EA0218002206
B0921394624905N00806668EA0218102207
B0921404624907N00806660EA0218202208
B0921414624907N00806652EA0218202208
B0921424624907N00806645EA0218302209
B0921434624905N00806639EA0218502211
B0921444624903N00806635EA0218702213
B0921454624901N00806630EA0218802214
B0921464624900N00806628EA0218802214
B0921474624897N00806627EA0218802214
B0921484624893N00806627EA0218802214
B0921494624889N00806629EA0218702213
B0921504624885N00806633EA0218702213
B0921514624882N00806638EA0218802215
B0921524624879N00806644EA0218902215
B0921534624876N00806650EA0219002216
B0921544624873N00806655EA0219302219
B0921554624870N00806661EA0219602222
B0921564624868N00806667EA0220002226
B0921574624866N00806671EA0220302229
B0921584624865N00806675EA0220502231
B0921594624864N00806678EA0220702233
B0922004624862N00806679EA0220802234
B0922014624859N00806679EA0220902235
B0922024624856N00806676EA0220902235
B0922034624855N00806670EA0220902235
B0922044624855N00806661EA0221002236
B0922054624858N00806652EA0221102237
B0922064624863N00806645EA0221402240
B0922074624869N00806640EA0221602242
B0922084624875N00806638EA0221902246
B0922094624881N00806639EA0222302249
B0922104624886N00806642EA0222502251
B0922114624890N00806648EA0222502251
B0922124624894N00806655EA0222702253
B0922134624896N00806662EA0222802254
B0922144624896N00806670EA0222902255
B0922154624894N00806676EA0222902255
B0922164624890N00806679EA0223002256
B0922174624886N00806679EA0223202258
B0922184624883N00806676EA0223402260
B0922194624881N00806671EA0223602262
B0922204624881N00806665EA0223802264
B0922214624882N00806658EA0223902265
B0922224624883N00806651EA0224002266
B0922234624885N00806644EA0224202268
B0922244624889N00806637EA0224302269
B0922254624896N00806632EA0224302269
B0922264624902N00806632EA0224402270
B0922274624909N00806634EA0224502271
B0922284624915N00806639EA0224702273
B0922294624920N00806644EA0224902275
B0922304624924N00806650EA0225202277
B0922314624928N00806656EA0225302279
B0922324624934N00806661EA0225402280
B0922334624939N00806666EA0225502281
B0922344624945N00806671EA0225602282
B0922354624952N00806677EA0225702283
B0922364624958N00806682EA0225802284
B0922374624965N00806686EA0225902285
B0922384624971N00806690EA0226002286
B0922394624978N00806695EA0226102287
B0922404624985N00806699EA0226202288
B0922414624991N00806704EA0226302289
B0922424624997N00806707EA0226402289
B0922434625003N00806711EA0226402289
B0922444625008N00806715EA0226302288
B0922454625014N00806720EA0226102287
B0922464625020N00806725EA0226002286
B0922474625027N00806729EA0226002285
B0922484625034N00806733EA0225902285
B0922494625040N00806737EA0225802284
B0922504625046N00806740EA0225702282
B0922514625052N00806745EA0225602281
B0922524625058N00806749EA0225402279
B0922534625065N00806755EA0225302279
B0922544625072N00806760EA0225202278
B0922554625079N00806764EA0225202278
B0922564625087N00806768EA0225302278
B0922574625093N00806772EA0225402279
B0922584625098N00806776EA0225502280
B0922594625104N00806780EA0225502280
B0923004625109N00806783EA0225302278
B0923014625115N00806786EA0225102276
B0923024625121N00806789EA0224802273
B0923034625129N00806792EA0224702272
B0923044625136N00806795EA0224602271
B0923054625144N00806799EA0224602271
B0923064625151N00806804EA0224702272
B0923074625157N00806808EA0224902274
B0923084625163N00806811EA0225202277
B0923094625169N00806812EA0225302278
B0923104625175N00806814EA0225402279
B0923114625182N00806815EA0225402279
B0923124625188N00806818EA0225502280
B0923134625196N00806821EA0225702282
B0923144625202N00806825EA0226002284
B0923154625209N00806829EA0226302288
B0923164625215N00806832EA0226702292
B0923174625220N00806836EA0227102295
B0923184625226N00806840EA0227402298
B0923194625232N00806844EA0227702301
B0923204625238N00806849EA0227902304
B0923214625244N00806854EA0228102306
B0923224625250N00806860EA0228402309
B0923234625255N00806866EA0228702312
B0923244625260N00806871EA0229002315
B0923254625265N00806876EA0229202316
B0923264625269N00806881EA0229202317
B0923274625274N00806886EA0229202317
B0923284625279N00806892EA0229202316
B0923294625283N00806898EA0229002315
B0923304625288N00806905EA0228802313
B0923314625291N00806910EA0228902314
B0923324625294N00806914EA0228902314
B0923334625296N00806919EA0228602310
B0923344625299N00806925EA0228202306
B0923354625302N00806932EA0227902303
B0923364625305N00806940EA0227802303
B0923374625308N00806948EA0227902304
B0923384625310N00806954EA0227902303
B0923394625311N00806961EA0227702302
B0923404625313N00806967EA0227402299
B0923414625316N00806973EA0227102295
B0923424625319N00806980EA0226602290
B0923434625320N00806988EA0225902284
B0923444625321N00806996EA0225802282
B0923454625323N00807004EA0225702282
B0923464625326N00807013EA0225502280
B0923474625328N00807019EA0225302278
B0923484625329N00807026EA0225002275
B0923494625331N00807034EA0224802273
B0923504625332N00807043EA0224602271
B0923514625334N00807051EA0224502269
B0923524625337N00807058EA0224302268
B0923534625341N00807064EA0224202266
B0923544625344N00807070EA0223902264
B0923554625347N00807076EA0223502260
B0923564625350N00807083EA0223202256
B0923574625354N00807088EA0223002255
B0923584625359N00807094EA0222902254
B0923594625362N00807098EA0222802253
B0924004625365N00807103EA0222702253
B0924014625368N00807107EA0222602251
B0924024625371N00807111EA0222402249
B0924034625375N00807115EA0222202247
B0924044625380N00807119EA0222102246
B0924054625385N00807122EA0221902244
B0924064625389N00807124EA0221802243
B0924074625394N00807126EA0221502240
B0924084625399N00807127EA0221102236
B0924094625405N00807130EA0220802233
B0924104625411N00807134EA0220502231
B0924114625417N00807137EA0220402229
B0924124625422N00807139EA0220302229
B0924134625427N00807141EA0220202227
B0924144625432N00807143EA0220002225
B0924154625437N00807146EA0219802223
B0924164625442N00807148EA0219402220
B0924174625446N00807152EA0219102216
B0924184625452N00807156EA0218802213
B0924194625456N00807161EA0218602212
B0924204625461N00807165EA0218402209
B0924214625464N00807168EA0218102207
B0924224625468N00807172EA0217702203
B0924234625471N00807177EA0217302199
B0924244625475N00807184EA0217102196
B0924254625479N00807191EA0217102197
B0924264625482N00807200EA0217502200
B0924274625484N00807208EA0217802204
B0924284625486N00807216EA0218202208
B0924294625487N00807224EA0218602212
B0924304625489N00807231EA0219102216
B0924314625492N00807239EA0219502221
B0924324625495N00807247EA0220102227
B0924334625496N00807255EA0220602231
B0924344625495N00807262EA0220902235
B0924354625493N00807269EA0221202238
B0924364625489N00807275EA0221502241
B0924374625483N00807278EA0222002246
B0924384625479N00807278EA0222402250
B0924394625476N00807274EA0222602252
B0924404625475N00807267EA0222702253
B0924414625475N00807260EA0222902255
B0924424625477N00807254EA0223302259
B0924434625481N00807250EA0223502261
B0924444625487N00807247EA0223802265
B0924454625493N00807246EA0224302270
B0924464625499N00807248EA0224802274
B0924474625505N00807253EA0225302280
B0924484625509N00807260EA0225802285
B0924494625511N00807267EA0226202288
B0924504625511N00807274EA0226502291
B0924514625508N00807282EA0226702293
B0924524625504N00807288EA0226902295
B0924534625498N00807294EA0227302299
B0924544625491N00807296EA0227902305
B0924554625486N00807295EA0228302309
B0924564625483N00807294EA0228702314
B0924574625480N00807291EA0229002317
B0924584625477N00807287EA0229202318
B0924594625475N00807283EA0229302320
B0925004625475N00807277EA0229502321
B0925014625478N00807272EA0229502321
B0925024625482N00807268EA0229502321
B0925034625489N00807267EA0229802324
B0925044625495N00807270EA0230202329
B0925054625500N00807276EA0230902336
B0925064625503N00807283EA0231602343
B0925074625505N00807289EA0232102347
B0925084625508N00807296EA0232502352
B0925094625510N00807302EA0232902356
B0925104625513N00807309EA0233302360
B0925114625513N00807317EA0233702364
B0925124625511N00807324EA0233902366
B0925134625508N00807330EA0233902366
B0925144625502N00807333EA0234102368
B0925154625497N00807332EA0234302370
B0925164625493N00807327EA0234302370
B0925174625491N00807321EA0234302370
B0925184625489N00807314EA0234502372
B0925194625489N00807306EA0234802375
B0925204625491N00807300EA0235102379
B0925214625495N00807295EA0235402381
B0925224625500N00807293EA0235702384
B0925234625505N00807293EA0235902386
B0925244625511N00807296EA0236102389
B0925254625516N00807301EA0236402392
B0925264625519N00807307EA0236802396
B0925274625521N00807313EA0237202399
B0925284625520N00807320EA0237302401
B0925294625519N00807326EA0237502402
B0925304625518N00807333EA0237602403
B0925314625517N00807341EA0237602404
B0925324625518N00807349EA0237702405
B0925334625519N00807357EA0237902407
B0925344625521N00807365EA0238202409
B0925354625521N00807371EA0238502413
B0925364625522N00807377EA0238902416
B0925374625522N00807383EA0239102419
B0925384625523N00807389EA0239302421
B0925394625524N00807396EA0239602423
B0925404625526N00807402EA0239802426
B0925414625528N00807408EA0240102429
B0925424625530N00807414EA0240302430
B0925434625532N00807420EA0240402432
B0925444625535N00807426EA0240602434
B0925454625536N00807433EA0240702435
B0925464625537N00807441EA0240802436
B0925474625539N00807449EA0240902437
B0925484625541N00807456EA0241102439
B0925494625543N00807463EA0241202440
B0925504625545N00807470EA0241402442
B0925514625547N00807476EA0241502443
B0925524625550N00807483EA0241602444
B0925534625553N00807491EA0241702445
B0925544625557N00807498EA0241802446
B0925554625560N00807505EA0241902446
B0925564625563N00807512EA0241902447
B0925574625567N00807518EA0242202450
B0925584625570N00807523EA0242302451
B0925594625574N00807528EA0242502453
B0926004625577N00807534EA0242602454
B0926014625581N00807541EA0242902457
B0926024625584N00807548EA0243202460
B0926034625587N00807554EA0243502463
B0926044625590N00807560EA0243702465
B0926054625593N00807566EA0243702465
B0926064625596N00807573EA0243602465
B0926074625600N00807580EA0243602464
B0926084625605N00807588EA0243602464
B0926094625609N00807595EA0243702465
B0926104625614N00807602EA0243902467
B0926114625618N00807608EA0244002468
B0926124625621N00807614EA0244002468
B0926134625625N00807621EA0244102469
B0926144625629N00807628EA0244202470
B0926154625633N00807634EA0244302471
B0926164625637N00807641EA0244402472
B0926174625640N00807647EA0244402472
B0926184625644N00807653EA0244402472
B0926194625648N00807660EA0244302471
B0926204625652N00807667EA0244302471
B0926214625656N00807673EA0244402472
B0926224625660N00807680EA0244502473
B0926234625664N00807686EA0244502473
B0926244625667N00807693EA0244402472
B0926254625670N00807700EA0244502473
B0926264625673N00807707EA0244502473
B0926274625677N00807714EA0244502473
B0926284625681N00807721EA0244402472
B0926294625684N00807729EA0244402473
B0926304625687N00807737EA0244402472
B0926314625689N00807746EA0244502473
B0926324625692N00807754EA0244602474
B0926334625695N00807761EA0244602474
B0926344625698N00807769EA0244602474
B0926354625702N00807777EA0244402473
B0926364625704N00807786EA0244402472
B0926374625707N00807793EA0244302471
B0926384625711N00807801EA0244202470
B0926394625715N00807810EA0244102470
B0926404625720N00807818EA0244202470
B0926414625722N00807826EA0244202470
B0926424625724N00807834EA0244002468
B0926434625726N00807842EA0243602464
B0926444625729N00807852EA0243202460
B0926454625732N00807862EA0242802456
B0926464625736N00807872EA0242602454
B0926474625740N00807882EA0242602454
B0926484625743N00807890EA0242402452
B0926494625746N00807898EA0242202450
B0926504625750N00807906EA0241702446
B0926514625755N00807915EA0241402442
B0926524625758N00807926EA0241002438
B0926534625760N00807937EA0240902437
B0926544625762N00807947EA0240802436
B0926554625764N00807957EA0240602434
B0926564625767N00807966EA0240302431
B0926574625769N00807976EA0240102429
B0926584625771N00807987EA0239902427
B0926594625774N00807997EA0239702425
B0927004625776N00808007EA0239602424
B0927014625779N00808016EA0239602424
B0927024625781N00808025EA0239402422
B0927034625783N00808034EA0239202420
B0927044625786N00808043EA0239202420
B0927054625788N00808052EA0239102419
B0927064625791N00808062EA0238902417
B0927074625793N00808072EA0238702415
B0927084625795N00808082EA0238602414
B0927094625797N00808092EA0238502413
B0927104625799N00808102EA0238302411
B0927114625802N00808111EA0238202410
B0927124625805N00808121EA0238002408
B0927134625807N00808132EA0237702405
B0927144625808N00808142EA0237602404
B0927154625810N00808153EA0237402402
B0927164625812N00808163EA0237302401
B0927174625815N00808172EA0237102399
B0927184625817N00808182EA0236802396
B0927194625819N00808193EA0236502393
B0927204625821N00808204EA0236302391
B0927214625824N00808215EA0236102389
B0927224625827N00808226EA0236002388
B0927234625829N00808235EA0235902387
B0927244625831N00808244EA0235702385
B0927254625833N00808253EA0235402382
B0927264625834N00808263EA0235102379
B0927274625836N00808274EA0234702375
B0927284625837N00808285EA0234802376
B0927294625837N00808296EA0234902377
B0927304625838N00808307EA0234802376
B0927314625840N00808317EA0234602374
B0927324625842N00808326EA0234402372
B0927334625844N00808337EA0234102369
B0927344625845N00808347EA0233902367
B0927354625845N00808359EA0233802366
B0927364625846N00808369EA0233702365
B0927374625846N00808380EA0233602364
B0927384625847N00808390EA0233402362
B0927394625849N00808400EA0233202360
B0927404625850N00808410EA0233002358
B0927414625850N00808422EA0232802356
B0927424625850N00808434EA0232602355
B0927434625850N00808446EA0232502354
B0927444625851N00808457EA0232502353
B0927454625853N00808468EA0232402352
B0927464625854N00808479EA0232202351
B0927474625855N00808490EA0232102350
B0927484625856N00808501EA0232002348
B0927494625857N00808512EA0231802346
B0927504625858N00808523EA0231602344
B0927514625859N00808535EA0231402342
B0927524625860N00808546EA0231302341
B0927534625862N00808557EA0231202340
B0927544625862N00808569EA0231102339
B0927554625863N00808579EA0231002339
B0927564625865N00808589EA0231002339
B0927574625866N00808599EA0230802337
B0927584625867N00808609EA0230702336
B0927594625868N00808620EA0230502334
B0928004625869N00808631EA0230502334
B0928014625870N00808642EA0230602335
B0928024625871N00808652EA0230602334
B0928034625871N00808662EA0230502334
B0928044625871N00808671EA0230402333
B0928054625871N00808681EA0230402333
B0928064625871N00808691EA0230302332
B0928074625871N00808701EA0230202331
B0928084625871N00808712EA0230102330
B0928094625870N00808722EA0230002329
B0928104625870N00808732EA0230002328
B0928114625870N00808742EA0229902328
B0928124625871N00808752EA0229802327
B0928134625871N00808762EA0229702326
B0928144625872N00808772EA0229702326
B0928154625873N00808781EA0229602325
B0928164625874N00808790EA0229402323
B0928174625876N00808798EA0229102320
B0928184625877N00808807EA0228802317
B0928194625878N00808817EA0228502314
B0928204625880N00808828EA0228402313
B0928214625881N00808837EA0228502314
B0928224625883N00808845EA0228602315
B0928234625884N00808852EA0228502313
B0928244625885N00808859EA0228202311
B0928254625886N00808867EA0227902308
B0928264625887N00808877EA0227602305
B0928274625889N00808887EA0227502304
B0928284625890N00808896EA0227402303
B0928294625891N00808904EA0227402303
B0928304625892N00808911EA0227302302
B0928314625893N00808919EA0227102300
B0928324625894N00808927EA0227002299
B0928334625894N00808936EA0226902298
B0928344625894N00808945EA0226802297
B0928354625895N00808952EA0226602295
B0928364625896N00808960EA0226502294
B0928374625896N00808968EA0226202291
B0928384625896N00808976EA0225902289
B0928394625898N00808985EA0225702286
B0928404625899N00808993EA0225602285
B0928414625901N00809001EA0225402283
B0928424625902N00809009EA0225202282
B0928434625903N00809017EA0225102280
B0928444625905N00809025EA0224902278
B0928454625906N00809034EA0224702276
B0928464625909N00809042EA0224602275
B0928474625910N00809050EA0224502274
B0928484625911N00809059EA0224302273
B0928494625912N00809067EA0224202272
B0928504625914N00809075EA0224102271
B0928514625916N00809083EA0224002270
B0928524625918N00809091EA0223902268
B0928534625920N00809099EA0223802268
B0928544625922N00809106EA0223702267
B0928554625923N00809114EA0223602265
B0928564625925N00809121EA0223402263
B0928574625926N00809129EA0223102261
B0928584625928N00809138EA0223002259
B0928594625929N00809146EA0223002259
B0929004625930N00809154EA0222902259
B0929014625932N00809160EA0222802258
B0929024625934N00809167EA0222602256
B0929034625936N00809174EA0222602255
B0929044625938N00809182EA0222502255
B0929054625940N00809189EA0222502254
B0929064625943N00809196EA0222402254
B0929074625945N00809203EA0222402254
B0929084625948N00809210EA0222402254
B0929094625950N00809217EA0222302253
B0929104625953N00809224EA0222202252
B0929114625955N00809232EA0222002250
B0929124625958N00809241EA0222002250
B0929134625960N00809249EA0221902249
B0929144625963N00809257EA0221902249
B0929154625965N00809265EA0221802248
B0929164625967N00809273EA0221802248
B0929174625969N00809281EA0221802248
B0929184625972N00809289EA0221702247
B0929194625975N00809296EA0221602246
B0929204625979N00809304EA0221602247
B0929214625982N00809311EA0221702248
B0929224625984N00809318EA0221802248
B0929234625985N00809325EA0221802248
B0929244625987N00809331EA0221702247
B0929254625989N00809338EA0221502245
B0929264625991N00809345EA0221302244
B0929274625992N00809352EA0221202243
B0929284625994N00809360EA0221102242
B0929294625996N00809367EA0221002241
B0929304625998N00809374EA0220902239
B0929314625999N00809381EA0220702237
B0929324626000N00809388EA0220502235
B0929334626002N00809396EA0220202233
B0929344626004N00809403EA0220002230
B0929354626007N00809410EA0219802228
B0929364626009N00809418EA0219602226
B0929374626012N00809425EA0219402224
B0929384626015N00809432EA0219202222
B0929394626018N00809438EA0218902220
B0929404626021N00809445EA0218702217
B0929414626024N00809453EA0218502215
B0929424626027N00809460EA0218302214
B0929434626030N00809468EA0218302214
B0929444626033N00809475EA0218402215
B0929454626036N00809483EA0218602216
B0929464626039N00809490EA0218602217
B0929474626041N00809496EA0218502216
B0929484626044N00809502EA0218302213
B0929494626046N00809509EA0218002210
B0929504626048N00809516EA0217602207
B0929514626051N00809524EA0217402204
B0929524626053N00809532EA0217202202
B0929534626056N00809540EA0217002201
B0929544626058N00809547EA0216902200
B0929554626060N00809554EA0216802199
B0929564626063N00809562EA0216602197
B0929574626066N00809569EA0216502196
B0929584626070N00809576EA0216502196
B0929594626072N00809584EA0216402195
B0930004626075N00809591EA0216302194
B0930014626078N00809599EA0216102192
B0930024626081N00809606EA0215902191
B0930034626085N00809613EA0215802189
B0930044626088N00809621EA0215602187
B0930054626090N00809629EA0215302185
B0930064626093N00809637EA0215102182
B0930074626096N00809646EA0214902181
B0930084626100N00809654EA0214802180
B0930094626104N00809662EA0214702179
B0930104626108N00809669EA0214602178
B0930114626111N00809676EA0214602177
B0930124626114N00809684EA0214502176
B0930134626117N00809690EA0214202174
B0930144626120N00809697EA0214002172
B0930154626125N00809705EA0213802170
B0930164626129N00809712EA0213702169
B0930174626132N00809719EA0213502167
B0930184626135N00809726EA0213402165
B0930194626138N00809733EA0213202164
B0930204626140N00809741EA0213002162
B0930214626142N00809749EA0212902160
B0930224626144N00809757EA0212602158
B0930234626146N00809765EA0212402156
B0930244626148N00809773EA0212202154
B0930254626150N00809781EA0212002152
B0930264626151N00809790EA0211902151
B0930274626153N00809797EA0211802150
B0930284626154N00809804EA0211702149
B0930294626155N00809811EA0211602148
B0930304626156N00809818EA0211402146
B0930314626157N00809826EA0211102143
B0930324626158N00809834EA0210902141
B0930334626160N00809843EA0210802140
B0930344626161N00809852EA0210702139
B0930354626163N00809859EA0210602138
B0930364626164N00809867EA0210502137
B0930374626166N00809874EA0210402136
B0930384626167N00809881EA0210102133
B0930394626169N00809888EA0209802130
B0930404626171N00809897EA0209502127
B0930414626173N00809905EA0209402126
B0930424626174N00809914EA0209302125
B0930434626176N00809922EA0209102123
B0930444626178N00809929EA0208902121
B0930454626180N00809938EA0208702119
B0930464626181N00809947EA0208502117
B0930474626182N00809957EA0208302116
B0930484626184N00809966EA0208302116
B0930494626185N00809974EA0208302115
B0930504626186N00809981EA0208202115
B0930514626187N00809987EA0208202114
B0930524626188N00809994EA0207902112
B0930534626189N00810002EA0207702109
B0930544626189N00810010EA0207402107
B0930554626188N00810018EA0207202105
B0930564626186N00810025EA0207102103
B0930574626183N00810032EA0206902101
B0930584626179N00810037EA0206802101
B0930594626175N00810041EA0206902101
B0931004626171N00810044EA0206902102
B0931014626167N00810047EA0206802101
B0931024626164N00810051EA0206702099
B0931034626159N00810055EA0206502098
B0931044626154N00810059EA0206402097
B0931054626150N00810062EA0206502098
B0931064626145N00810064EA0206702099
B0931074626140N00810065EA0206802101
B0931084626135N00810065EA0206802101
B0931094626131N00810065EA0206802101
B0931104626125N00810065EA0207002103
B0931114626120N00810065EA0207102104
B0931124626115N00810065EA0207302106
B0931134626111N00810064EA0207602109
B0931144626107N00810063EA0207802111
B0931154626103N00810063EA0207802111
B0931164626099N00810061EA0207802112
B0931174626095N00810060EA0207802111
B0931184626090N00810060EA0207802112
B0931194626085N00810059EA0208002113
B0931204626079N00810058EA0208202116
B0931214626075N00810056EA0208602119
B0931224626071N00810054EA0208802122
B0931234626066N00810052EA0208902123
B0931244626061N00810051EA0208902122
B0931254626056N00810050EA0208802122
B0931264626051N00810048EA0208902122
B0931274626045N00810047EA0208902123
B0931284626040N00810047EA0209002123
B0931294626034N00810047EA0209102124
B0931304626029N00810048EA0209102125
B0931314626023N00810049EA0209202125
B0931324626018N00810050EA0209202126
B0931334626013N00810050EA0209402127
B0931344626008N00810051EA0209402128
B0931354626004N00810052EA0209302127
B0931364626000N00810052EA0209102125
B0931374625995N00810051EA0208702121
B0931384625989N00810050EA0208402118
B0931394625983N00810048EA0208202116
B0931404625977N00810043EA0208102115
B0931414625974N00810038EA0208002114
B0931424625970N00810031EA0208002113
B0931434625967N00810025EA0207802112
B0931444625965N00810019EA0207702111
B0931454625963N00810012EA0207502109
B0931464625961N00810006EA0207302107
B0931474625960N00809999EA0207202106
B0931484625961N00809993EA0207002104
B0931494625963N00809987EA0206902102
B0931504625966N00809981EA0206602100
B0931514625969N00809976EA0206502099
B0931524625972N00809972EA0206402098
B0931534625976N00809970EA0206202096
B0931544625981N00809970EA0206002094
B0931554625986N00809971EA0205802092
B0931564625992N00809974EA0205602089
B0931574625997N00809979EA0205402088
B0931584626001N00809985EA0205302086
B0931594626004N00809992EA0205102084
B0932004626007N00810000EA0204802082
B0932014626011N00810007EA0204602080
B0932024626014N00810015EA0204502079
B0932034626017N00810024EA0204402078
B0932044626020N00810033EA0204402078
B0932054626023N00810041EA0204402078
B0932064626025N00810048EA0204302077
B0932074626029N00810054EA0204302077
B0932084626032N00810060EA0204302077
B0932094626034N00810068EA0204202076
B0932104626036N00810075EA0204102075
B0932114626039N00810084EA0204102076
B0932124626042N00810091EA0204202076
B0932134626046N00810099EA0204302077
B0932144626049N00810106EA0204302077
B0932154626052N00810113EA0204302078
B0932164626054N00810120EA0204302077
B0932174626058N00810129EA0204302077
B0932184626062N00810137EA0204202077
B0932194626065N00810145EA0204302077
B0932204626068N00810152EA0204302078
B0932214626072N00810159EA0204302078
B0932224626076N00810166EA0204402079
B0932234626079N00810173EA0204702081
B0932244626083N00810179EA0205002085
B0932254626087N00810184EA0205202087
B0932264626090N00810189EA0205502089
B0932274626094N00810195EA0205702091
B0932284626098N00810200EA0205902093
B0932294626103N00810207EA0206202096
B0932304626106N00810211EA0206402099
B0932314626109N00810216EA0206702102
B0932324626112N00810222EA0207002104
B0932334626115N00810229EA0207202106
B0932344626119N00810237EA0207402109
B0932354626123N00810244EA0207702112
B0932364626127N00810252EA0208002115
B0932374626132N00810259EA0208302118
B0932384626136N00810266EA0208502120
B0932394626141N00810275EA0208702122
B0932404626146N00810283EA0208902124
B0932414626151N00810290EA0209102126
B0932424626155N00810298EA0209402129
B0932434626160N00810305EA0209702131
B0932444626165N00810313EA0209902134
B0932454626169N00810320EA0210102136
B0932464626174N00810327EA0210202137
B0932474626180N00810334EA0210502140
B0932484626185N00810341EA0210802144
B0932494626190N00810348EA0211102146
B0932504626194N00810354EA0211302148
B0932514626199N00810360EA0211402149
B0932524626204N00810367EA0211402150
B0932534626210N00810375EA0211502150
B0932544626215N00810382EA0211602151
B0932554626220N00810390EA0211702152
B0932564626226N00810398EA0211902154
B0932574626230N00810405EA0212102156
B0932584626234N00810412EA0212302158
B0932594626238N00810418EA0212402160
B0933004626242N00810425EA0212402160
B0933014626247N00810432EA0212302159
B0933024626251N00810440EA0212402159
B0933034626255N00810447EA0212402159
B0933044626258N00810455EA0212502160
B0933054626262N00810461EA0212602161
B0933064626264N00810468EA0212502160
B0933074626268N00810474EA0212502160
B0933084626272N00810480EA0212602162
B0933094626277N00810487EA0212802163
B0933104626280N00810493EA0213002165
B0933114626284N00810499EA0213202167
B0933124626288N00810505EA0213302168
B0933134626292N00810512EA0213202167
B0933144626297N00810521EA0213402169
B0933154626301N00810528EA0213702172
B0933164626306N00810535EA0214002175
B0933174626311N00810542EA0214202178
B0933184626315N00810548EA0214402179
B0933194626320N00810556EA0214502180
B0933204626325N00810565EA0214502181
B0933214626329N00810574EA0214802183
B0933224626334N00810582EA0215102186
B0933234626338N00810589EA0215302189
B0933244626342N00810596EA0215502190
B0933254626346N00810603EA0215502191
B0933264626350N00810611EA0215602191
B0933274626355N00810620EA0215602192
B0933284626360N00810628EA0215802193
B0933294626365N00810636EA0215902195
B0933304626369N00810643EA0216102197
B0933314626374N00810650EA0216302199
B0933324626377N00810657EA0216402200
B0933334626381N00810664EA0216502201
B0933344626385N00810671EA0216502201
B0933354626389N00810678EA0216602201
B0933364626392N00810685EA0216502201
B0933374626396N00810692EA0216402199
B0933384626399N00810699EA0216202197
B0933394626403N00810707EA0215902195
B0933404626407N00810714EA0215802194
B0933414626411N00810723EA0215702192
B0933424626415N00810731EA0215602191
B0933434626419N00810739EA0215602191
B0933444626424N00810746EA0215502191
B0933454626428N00810754EA0215302189
B0933464626433N00810761EA0215102187
B0933474626437N00810770EA0214902185
B0933484626442N00810778EA0214802183
B0933494626447N00810788EA0214702183
B0933504626451N00810793EA0214602182
B0933514626455N00810800EA0214502180
B0933524626459N00810808EA0214202178
B0933534626463N00810815EA0213902174
B0933544626468N00810823EA0213602172
B0933554626473N00810832EA0213502171
B0933564626477N00810840EA0213502171
B0933574626481N00810847EA0213602172
B0933584626484N00810854EA0213502171
B0933594626488N00810861EA0213302169
B0934004626492N00810867EA0213002166
B0934014626497N00810875EA0212702163
B0934024626501N00810883EA0212402160
B0934034626505N00810892EA0212302158
B0934044626510N00810900EA0212102156
B0934054626513N00810908EA0211902154
B0934064626516N00810915EA0211702152
B0934074626520N00810923EA0211402149
B0934084626524N00810932EA0211102147
B0934094626527N00810941EA0210802144
B0934104626532N00810949EA0210602141
B0934114626536N00810957EA0210302138
B0934124626539N00810966EA0210002135
B0934134626543N00810974EA0209602132
B0934144626547N00810982EA0209202127
B0934154626552N00810990EA0208702123
B0934164626557N00810999EA0208302119
B0934174626562N00811007EA0208002115
B0934184626567N00811016EA0207702112
B0934194626570N00811024EA0207502110
B0934204626574N00811032EA0207302108
B0934214626577N00811041EA0207002106
B0934224626581N00811049EA0206802103
B0934234626584N00811058EA0206602101
B0934244626588N00811065EA0206302099
B0934254626592N00811073EA0206102096
B0934264626595N00811081EA0206002095
B0934274626598N00811090EA0206002095
B0934284626601N00811098EA0205902094
B0934294626605N00811105EA0205902094
B0934304626608N00811111EA0205802094
B0934314626611N00811117EA0205602091
B0934324626615N00811124EA0205302089
B0934334626618N00811131EA0205202087
B0934344626622N00811139EA0205002086
B0934354626625N00811146EA0204902085
B0934364626629N00811153EA0204902084
B0934374626632N00811160EA0204802083
B0934384626636N00811168EA0204602082
B0934394626640N00811175EA0204402080
B0934404626644N00811183EA0204302078
B0934414626649N00811191EA0204202078
B0934424626653N00811198EA0204302078
B0934434626657N00811205EA0204202078
B0934444626662N00811212EA0204202077
B0934454626666N00811219EA0204102076
B0934464626671N00811226EA0204002076
B0934474626675N00811234EA0203902075
B0934484626680N00811241EA0203902074
B0934494626685N00811249EA0203802074
B0934504626690N00811257EA0203802073
B0934514626695N00811265EA0203702073
B0934524626700N00811272EA0203702073
B0934534626704N00811279EA0203802073
B0934544626708N00811286EA0203802073
B0934554626712N00811292EA0203802073
B0934564626717N00811299EA0203702073
B0934574626721N00811305EA0203602072
B0934584626725N00811311EA0203502070
B0934594626729N00811318EA0203302069
B0935004626733N00811326EA0203202068
B0935014626738N00811334EA0203202067
B0935024626742N00811341EA0203202068
B0935034626746N00811349EA0203202067
B0935044626750N00811356EA0203202067
B0935054626754N00811363EA0203102067
B0935064626757N00811371EA0203102067
B0935074626761N00811379EA0203102067
B0935084626765N00811387EA0203102067
B0935094626769N00811394EA0203302068
B0935104626773N00811400EA0203402070
B0935114626775N00811406EA0203502071
B0935124626778N00811412EA0203602072
B0935134626782N00811417EA0203502071
B0935144626786N00811424EA0203402070
B0935154626789N00811431EA0203402070
B0935164626794N00811439EA0203402070
B0935174626798N00811446EA0203602072
B0935184626802N00811454EA0203802075
B0935194626805N00811461EA0204002077
B0935204626809N00811467EA0204102077
B0935214626812N00811474EA0204002077
B0935224626815N00811481EA0203902075
B0935234626819N00811489EA0203902075
B0935244626823N00811498EA0203802074
B0935254626826N00811507EA0203802074
B0935264626829N00811516EA0203702073
B0935274626831N00811525EA0203502072
B0935284626834N00811533EA0203402070
B0935294626837N00811542EA0203202069
B0935304626841N00811550EA0203102068
B0935314626844N00811559EA0203102067
B0935324626848N00811567EA0203002066
B0935334626852N00811575EA0202902065
B0935344626855N00811583EA0202702064
B0935354626858N00811592EA0202602062
B0935364626862N00811601EA0202402060
B0935374626865N00811610EA0202302059
B0935384626869N00811620EA0202102057
B0935394626873N00811629EA0201902056
B0935404626877N00811638EA0201702053
B0935414626881N00811646EA0201602052
B0935424626884N00811655EA0201302049
B0935434626887N00811664EA0201102047
B0935444626889N00811673EA0200902046
B0935454626892N00811682EA0200802044
B0935464626895N00811691EA0200602042
B0935474626898N00811700EA0200402040
B0935484626902N00811709EA0200302039
B0935494626905N00811718EA0200202038
B0935504626908N00811729EA0200002036
B0935514626910N00811738EA0199902035
B0935524626913N00811748EA0199802034
B0935534626915N00811757EA0199802034
B0935544626917N00811767EA0199602033
B0935554626920N00811776EA0199502032
B0935564626922N00811784EA0199402030
B0935574626925N00811793EA0199102028
B0935584626929N00811802EA0198902025
B0935594626932N00811811EA0198702024
B0936004626935N00811820EA0198602022
B0936014626937N00811830EA0198302020
B0936024626940N00811839EA0198102017
B0936034626942N00811849EA0197902015
B0936044626945N00811858EA0197802015
B0936054626949N00811867EA0197602013
B0936064626953N00811876EA0197602012
B0936074626956N00811885EA0197402011
B0936084626960N00811894EA0197302010
B0936094626963N00811902EA0197202009
B0936104626967N00811910EA0197102008
B0936114626971N00811918EA0196902006
B0936124626975N00811926EA0196702004
B0936134626979N00811934EA0196602002
B0936144626984N00811943EA0196402000
B0936154626987N00811951EA0196301999
B0936164626992N00811959EA0196201998
B0936174626995N00811968EA0196101997
B0936184626999N00811976EA0195901996
B0936194627003N00811985EA0195801994
B0936204627007N00811994EA0195601993
B0936214627011N00812002EA0195501991
B0936224627015N00812010EA0195401990
B0936234627019N00812018EA0195101988
B0936244627023N00812027EA0194801985
B0936254627027N00812036EA0194701983
B0936264627031N00812045EA0194601983
B0936274627035N00812054EA0194601982
B0936284627038N00812062EA0194501981
B0936294627042N00812071EA0194401980
B0936304627045N00812080EA0194301979
B0936314627048N00812089EA0194201979
B0936324627052N00812098EA0194201979
B0936334627055N00812106EA0194201979
B0936344627059N00812114EA0194301979
B0936354627063N00812121EA0194201979
B0936364627066N00812129EA0194101978
B0936374627069N00812136EA0194001977
B0936384627073N00812144EA0193901976
B0936394627076N00812152EA0193801975
B0936404627080N00812160EA0193601973
B0936414627083N00812167EA0193601972
B0936424627087N00812175EA0193501972
B0936434627090N00812183EA0193501971
B0936444627094N00812191EA0193601973
B0936454627097N00812199EA0193701973
B0936464627100N00812205EA0193701974
B0936474627103N00812212EA0193601973
B0936484627106N00812220EA0193501971
B0936494627109N00812228EA0193301970
B0936504627113N00812236EA0193301970
B0936514627116N00812244EA0193301970
B0936524627118N00812252EA0193301970
B0936534627121N00812259EA0193201970
B0936544627123N00812267EA0193101968
B0936554627126N00812274EA0192901966
B0936564627129N00812283EA0192801965
B0936574627132N00812291EA0192701964
B0936584627134N00812299EA0192701964
B0936594627136N00812307EA0192501962
B0937004627139N00812314EA0192201960
B0937014627143N00812323EA0192001957
B0937024627147N00812331EA0191801955
B0937034627150N00812340EA0191701954
B0937044627152N00812349EA0191701954
B0937054627155N00812358EA0191701954
B0937064627159N00812365EA0191701954
B0937074627162N00812372EA0191601954
B0937084627166N00812380EA0191501953
B0937094627170N00812387EA0191401952
B0937104627173N00812395EA0191401951
B0937114627176N00812404EA0191301951
B0937124627179N00812412EA0191301951
B0937134627183N00812419EA0191301950
B0937144627187N00812427EA0191201949
B0937154627190N00812435EA0191101948
B0937164627194N00812443EA0191001948
B0937174627197N00812451EA0191001947
B0937184627201N00812459EA0190901947
B0937194627204N00812467EA0190901946
B0937204627208N00812475EA0190801946
B0937214627211N00812483EA0190701945
B0937224627215N00812491EA0190601944
B0937234627218N00812499EA0190601943
B0937244627222N00812506EA0190501942
B0937254627226N00812514EA0190401942
B0937264627229N00812522EA0190401942
B0937274627233N00812530EA0190301941
B0937284627236N00812537EA0190301941
B0937294627240N00812545EA0190301940
B0937304627244N00812552EA0190101939
B0937314627247N00812560EA0190001938
B0937324627251N00812568EA0189901937
B0937334627254N00812576EA0189801936
B0937344627258N00812584EA0189701935
B0937354627261N00812592EA0189601934
B0937364627265N00812600EA0189501933
B0937374627269N00812608EA0189401932
B0937384627272N00812616EA0189301930
B0937394627276N00812624EA0189101929
B0937404627279N00812632EA0188901927
B0937414627283N00812640EA0188801926
B0937424627286N00812648EA0188701925
B0937434627289N00812656EA0188601924
B0937444627292N00812664EA0188501923
B0937454627295N00812672EA0188401921
B0937464627298N00812681EA0188101919
B0937474627301N00812690EA0188001918
B0937484627304N00812698EA0187901917
B0937494627307N00812707EA0187801916
B0937504627311N00812715EA0187801916
B0937514627314N00812722EA0187701915
B0937524627317N00812730EA0187601914
B0937534627321N00812738EA0187601914
B0937544627324N00812745EA0187501913
B0937554627327N00812753EA0187501913
B0937564627330N00812761EA0187301911
B0937574627334N00812768EA0187201910
B0937584627338N00812775EA0187001908
B0937594627342N00812782EA0186801906
B0938004627346N00812790EA0186601904
B0938014627350N00812798EA0186501903
B0938024627353N00812806EA0186401902
B0938034627356N00812813EA0186301901
B0938044627360N00812820EA0186201901
B0938054627364N00812826EA0186101899
B0938064627367N00812833EA0185901897
B0938074627371N00812840EA0185701895
B0938084627375N00812846EA0185601894
B0938094627379N00812853EA0185501893
B0938104627383N00812859EA0185401892
B0938114627387N00812866EA0185301891
B0938124627391N00812873EA0185101889
B0938134627395N00812880EA0184901888
B0938144627399N00812887EA0184801886
B0938154627403N00812895EA0184601884
B0938164627406N00812902EA0184401883
B0938174627409N00812909EA0184301881
B0938184627412N00812917EA0184101879
B0938194627416N00812924EA0184001878
B0938204627419N00812931EA0183801877
B0938214627422N00812938EA0183701875
B0938224627426N00812945EA0183501873
B0938234627429N00812952EA0183301871
B0938244627432N00812959EA0183001868
B0938254627436N00812967EA0182801866
B0938264627440N00812975EA0182701865
B0938274627444N00812982EA0182701865
B0938284627447N00812988EA0182701866
B0938294627450N00812995EA0182701865
B0938304627454N00813002EA0182501863
B0938314627457N00813008EA0182301862
B0938324627460N00813015EA0182101860
B0938334627465N00813021EA0182101859
B0938344627469N00813027EA0182101859
B0938354627474N00813031EA0182101859
B0938364627478N00813035EA0182001858
B0938374627483N00813039EA0181901857
B0938384627489N00813042EA0181801856
B0938394627495N00813046EA0181601854
B0938404627501N00813048EA0181501854
B0938414627507N00813051EA0181501853
B0938424627513N00813051EA0181401853
B0938434627519N00813052EA0181401852
B0938444627525N00813052EA0181301851
B0938454627530N00813051EA0181101849
B0938464627537N00813051EA0180901848
B0938474627544N00813050EA0180801846
B0938484627550N00813049EA0180701845
B0938494627557N00813048EA0180701845
B0938504627563N00813048EA0180701845
B0938514627570N00813047EA0180601845
B0938524627576N00813046EA0180601844
B0938534627582N00813045EA0180401843
B0938544627588N00813044EA0180301841
B0938554627595N00813043EA0180201841
B0938564627602N00813043EA0180201840
B0938574627608N00813042EA0180201840
B0938584627614N00813042EA0180101840
B0938594627620N00813041EA0180101839
B0939004627627N00813042EA0180001838
B0939014627633N00813043EA0179801836
B0939024627639N00813044EA0179701835
B0939034627646N00813045EA0179601835
B0939044627652N00813046EA0179601834
B0939054627658N00813046EA0179501833
B0939064627664N00813046EA0179401832
B0939074627670N00813046EA0179301831
B0939084627677N00813046EA0179201830
B0939094627683N00813046EA0179101830
B0939104627690N00813045EA0179001829
B0939114627696N00813044EA0179101829
B0939124627703N00813043EA0179001829
B0939134627709N00813042EA0179001828
B0939144627715N00813041EA0178901828
B0939154627722N00813039EA0178801827
B0939164627729N00813037EA0178701826
B0939174627736N00813034EA0178701826
B0939184627743N00813032EA0178701826
B0939194627750N00813031EA0178701825
B0939204627757N00813030EA0178601825
B0939214627763N00813030EA0178601824
B0939224627770N00813030EA0178501823
B0939234627777N00813031EA0178401823
B0939244627784N00813034EA0178401822
B0939254627789N00813038EA0178301822
B0939264627794N00813044EA0178301821
B0939274627799N00813049EA0178301821
B0939284627802N00813056EA0178301821
B0939294627805N00813062EA0178201821
B0939304627808N00813068EA0178101820
B0939314627811N00813075EA0178001819
B0939324627813N00813082EA0177801817
B0939334627816N00813089EA0177701816
B0939344627818N00813096EA0177601814
B0939354627820N00813104EA0177501813
B0939364627822N00813111EA0177401813
B0939374627823N00813118EA0177301812
B0939384627825N00813126EA0177201811
B0939394627827N00813133EA0177201810
B0939404627828N00813141EA0177101810
B0939414627830N00813148EA0177001809
B0939424627831N00813155EA0176901808
B0939434627832N00813162EA0176801807
B0939444627832N00813169EA0176701806
B0939454627832N00813176EA0176601805
B0939464627832N00813183EA0176401803
B0939474627832N00813190EA0176301802
B0939484627832N00813197EA0176101799
B0939494627833N00813205EA0175901798
B0939504627834N00813213EA0175701796
B0939514627834N00813223EA0175601795
B0939524627835N00813230EA0175501794
B0939534627836N00813237EA0175401793
B0939544627837N00813245EA0175201791
B0939554627838N00813252EA0175001789
B0939564627839N00813261EA0174801787
B0939574627839N00813269EA0174701786
B0939584627840N00813277EA0174601785
B0939594627841N00813285EA0174501784
B0940004627842N00813293EA0174401783
B0940014627843N00813301EA0174301783
B0940024627843N00813309EA0174301782
B0940034627844N00813317EA0174301782
B0940044627844N00813324EA0174201782
B0940054627845N00813331EA0174101781
B0940064627846N00813338EA0174001780
B0940074627848N00813346EA0173901779
B0940084627849N00813353EA0173801777
B0940094627849N00813361EA0173701776
B0940104627850N00813368EA0173501775
B0940114627851N00813376EA0173401774
B0940124627852N00813384EA0173401773
B0940134627852N00813392EA0173301773
B0940144627853N00813399EA0173301772
B0940154627854N00813406EA0173201772
B0940164627855N00813414EA0173101770
B0940174627856N00813422EA0173001770
B0940184627857N00813430EA0172801768
B0940194627857N00813438EA0172701767
B0940204627858N00813447EA0172701766
B0940214627858N00813455EA0172601766
B0940224627860N00813462EA0172501765
B0940234627861N00813470EA0172401764
B0940244627863N00813478EA0172201762
B0940254627865N00813485EA0172001760
B0940264627865N00813493EA0171901759
B0940274627866N00813501EA0171801758
B0940284627866N00813509EA0171701757
B0940294627867N00813517EA0171601756
B0940304627868N00813525EA0171601756
B0940314627869N00813533EA0171601756
B0940324627870N00813540EA0171501755
B0940334627870N00813547EA0171401754
B0940344627871N00813554EA0171301753
B0940354627872N00813562EA0171201752
B0940364627873N00813569EA0171001750
B0940374627874N00813576EA0170801748
B0940384627874N00813584EA0170601746
B0940394627875N00813592EA0170401744
B0940404627876N00813600EA0170201742
B0940414627876N00813608EA0170101741
B0940424627877N00813616EA0170001740
B0940434627877N00813623EA0169801739
B0940444627877N00813631EA0169701738
B0940454627877N00813638EA0169601736
B0940464627876N00813646EA0169401735
B0940474627876N00813654EA0169301734
B0940484627876N00813661EA0169201733
B0940494627876N00813669EA0169101732
B0940504627876N00813677EA0169001730
B0940514627876N00813685EA0168801729
B0940524627876N00813692EA0168701727
B0940534627877N00813700EA0168501726
B0940544627877N00813708EA0168301724
B0940554627878N00813717EA0168101722
B0940564627878N00813725EA0168001721
B0940574627878N00813733EA0167901720
B0940584627880N00813740EA0167701718
B0940594627881N00813748EA0167601717
B0941004627882N00813756EA0167401715
B0941014627882N00813764EA0167201713
B0941024627882N00813772EA0167101712
B0941034627882N00813780EA0167001711
B0941044627882N00813788EA0166901710
B0941054627882N00813795EA0166701708
B0941064627881N00813803EA0166501707
B0941074627881N00813811EA0166401705
B0941084627880N00813819EA0166301704
B0941094627878N00813827EA0166201704
B0941104627878N00813834EA0166101703
B0941114627876N00813841EA0166001702
B0941124627874N00813847EA0165901700
B0941134627870N00813851EA0165601698
B0941144627866N00813854EA0165501696
B0941154627862N00813856EA0165301694
B0941164627858N00813857EA0165101692
B0941174627853N00813856EA0164901691
B0941184627849N00813854EA0164801689
B0941194627844N00813850EA0164601688
B0941204627840N00813846EA0164501686
B0941214627837N00813842EA0164401685
B0941224627833N00813837EA0164301684
B0941234627830N00813832EA0164201683
B0941244627826N00813827EA0164001682
B0941254627822N00813822EA0163901680
B0941264627819N00813816EA0163801679
B0941274627815N00813811EA0163701678
B0941284627812N00813806EA0163601677
B0941294627809N00813801EA0163501676
B0941304627805N00813797EA0163301674
B0941314627802N00813792EA0163101672
B0941324627799N00813786EA0163001671
B0941334627795N00813781EA0162901670
B0941344627791N00813777EA0162801669
B0941354627787N00813772EA0162701668
B0941364627784N00813768EA0162601667
B0941374627780N00813764EA0162401665
B0941384627776N00813760EA0162301664
B0941394627771N00813757EA0162101663
B0941404627768N00813753EA0162001661
B0941414627763N00813750EA0161901660
B0941424627759N00813746EA0161701659
B0941434627755N00813742EA0161601658
B0941444627751N00813738EA0161601657
B0941454627748N00813734EA0161401656
B0941464627744N00813730EA0161301654
B0941474627740N00813726EA0161101653
B0941484627737N00813722EA0160901651
B0941494627732N00813717EA0160801649
B0941504627729N00813713EA0160701648
B0941514627725N00813708EA0160701648
B0941524627722N00813703EA0160601647
B0941534627719N00813698EA0160601647
B0941544627716N00813692EA0160501646
B0941554627713N00813687EA0160301644
B0941564627710N00813682EA0160101642
B0941574627706N00813678EA0159901641
B0941584627703N00813673EA0159801639
B0941594627699N00813669EA0159601638
B0942004627695N00813665EA0159501636
B0942014627692N00813661EA0159301634
B0942024627688N00813657EA0159101633
B0942034627684N00813653EA0159001631
B0942044627681N00813648EA0158901630
B0942054627677N00813642EA0158801630
B0942064627674N00813638EA0158701629
B0942074627670N00813634EA0158601628
B0942084627666N00813630EA0158501626
B0942094627663N00813626EA0158301625
B0942104627659N00813621EA0158101623
B0942114627656N00813616EA0157901621
B0942124627653N00813611EA0157801620
B0942134627650N00813606EA0157801619
B0942144627647N00813601EA0157701619
B0942154627644N00813596EA0157601618
B0942164627640N00813592EA0157401616
B0942174627637N00813588EA0157301615
B0942184627633N00813584EA0157201614
B0942194627630N00813580EA0157101613
B0942204627627N00813575EA0156901611
B0942214627624N00813571EA0156801610
B0942224627620N00813566EA0156701609
B0942234627617N00813563EA0156501607
B0942244627613N00813561EA0156401606
B0942254627609N00813560EA0156201604
B0942264627605N00813561EA0156101603
B0942274627601N00813563EA0155901601
B0942284627598N00813567EA0155701599
B0942294627595N00813572EA0155601598
B0942304627593N00813578EA0155401596
B0942314627591N00813584EA0155201595
B0942324627591N00813592EA0155101593
B0942334627592N00813599EA0154901591
B0942344627594N00813607EA0154801590
B0942354627597N00813614EA0154601588
B0942364627601N00813620EA0154401586
B0942374627606N00813626EA0154201584
B0942384627611N00813631EA0154101583
B0942394627618N00813634EA0153901581
B0942404627624N00813636EA0153901581
B0942414627630N00813635EA0153801580
B0942424627636N00813633EA0153601579
B0942434627642N00813629EA0153401577
B0942444627646N00813624EA0153301575
B0942454627651N00813619EA0153101573
B0942464627654N00813612EA0153001572
B0942474627657N00813604EA0152901571
B0942484627658N00813597EA0152701570
B0942494627657N00813590EA0152701569
B0942504627656N00813585EA0152601568
B0942514627654N00813579EA0152401566
B0942524627651N00813574EA0152201564
B0942534627648N00813568EA0152001562
B0942544627645N00813562EA0151901561
B0942554627642N00813557EA0151801561
B0942564627638N00813552EA0151801560
B0942574627635N00813547EA0151701559
B0942584627633N00813542EA0151601558
B0942594627630N00813536EA0151401557
B0943004627628N00813530EA0151201555
B0943014627625N00813524EA0151101554
B0943024627622N00813519EA0151001553
B0943034627618N00813516EA0150801551
B0943044627614N00813515EA0150601549
B0943054627609N00813516EA0150501547
B0943064627605N00813518EA0150301546
B0943074627601N00813522EA0150201545
B0943084627597N00813527EA0150101544
B0943094627595N00813533EA0150001543
B0943104627594N00813540EA0149801541
B0943114627593N00813548EA0149701540
B0943124627593N00813556EA0149501538
B0943134627595N00813564EA0149401537
B0943144627598N00813571EA0149201536
B0943154627602N00813577EA0149101534
B0943164627606N00813583EA0148901532
B0943174627611N00813588EA0148701530
B0943184627616N00813593EA0148601529
B0943194627622N00813597EA0148401527
B0943204627629N00813599EA0148301526
B0943214627635N00813599EA0148101525
B0943224627641N00813597EA0148101524
B0943234627646N00813593EA0148001523
B0943244627651N00813588EA0147801522
B0943254627654N00813583EA0147701520
B0943264627658N00813576EA0147401518
B0943274627659N00813569EA0147301516
B0943284627660N00813561EA0147101515
B0943294627659N00813554EA0147001514
B0943304627656N00813548EA0146801512
B0943314627653N00813544EA0146701511
B0943324627649N00813541EA0146501509
B0943334627645N00813539EA0146401507
B0943344627640N00813538EA0146201505
B0943354627636N00813538EA0146001504
B0943364627632N00813539EA0145801502
B0943374627627N00813540EA0145601500
B0943384627622N00813541EA0145501498
B0943394627618N00813544EA0145301497
B0943404627614N00813546EA0145201495
B0943414627609N00813549EA0144901493
B0943424627604N00813551EA0144701491
B0943434627599N00813554EA0144501489
B0943444627595N00813557EA0144401488
B0943454627590N00813559EA0144301487
B0943464627585N00813562EA0144201486
B0943474627581N00813564EA0144101485
B0943484627577N00813567EA0143901483
B0943494627572N00813570EA0143701481
B0943504627568N00813573EA0143501480
B0943514627563N00813576EA0143401478
B0943524627558N00813578EA0143201476
B0943534627553N00813581EA0143001474
B0943544627548N00813584EA0142901473
B0943554627544N00813587EA0142801472
B0943564627539N00813590EA0142701471
B0943574627535N00813595EA0142501470
B0943584627532N00813600EA0142401468
B0943594627529N00813607EA0142201466
B0944004627526N00813614EA0142101465
B0944014627525N00813621EA0141901463
B0944024627523N00813629EA0141801462
B0944034627523N00813637EA0141601461
B0944044627523N00813645EA0141401458
B0944054627523N00813654EA0141101456
B0944064627525N00813663EA0141001454
B0944074627526N00813671EA0140701452
B0944084627528N00813679EA0140601451
B0944094627530N00813687EA0140501449
B0944104627531N00813694EA0140301447
B0944114627533N00813702EA0140101445
B0944124627534N00813711EA0139901443
B0944134627537N00813719EA0139701442
B0944144627538N00813727EA0139601441
B0944154627540N00813735EA0139501439
B0944164627542N00813743EA0139301438
B0944174627545N00813751EA0139201437
B0944184627546N00813759EA0139001435
B0944194627549N00813767EA0138901434
B0944204627552N00813774EA0138801433
B0944214627554N00813781EA0138701432
B0944224627558N00813788EA0138601431
B0944234627561N00813795EA0138401429
B0944244627564N00813802EA0138201427
B0944254627567N00813810EA0138001425
B0944264627571N00813817EA0137801423
B0944274627575N00813824EA0137701422
B0944284627579N00813830EA0137601421
B0944294627583N00813836EA0137501421
B0944304627587N00813841EA0137501420
B0944314627590N00813846EA0137401419
B0944324627594N00813851EA0137201418
B0944334627598N00813856EA0137001416
B0944344627602N00813861EA0136901414
B0944354627607N00813867EA0136701412
B0944364627611N00813872EA0136601411
B0944374627616N00813877EA0136501410
B0944384627621N00813881EA0136401409
B0944394627627N00813884EA0136301408
B0944404627633N00813887EA0136101407
B0944414627639N00813889EA0136001406
B0944424627645N00813890EA0135901405
B0944434627651N00813891EA0135901404
B0944444627656N00813892EA0135801403
B0944454627662N00813893EA0135601402
B0944464627667N00813893EA0135501400
B0944474627672N00813893EA0135201398
B0944484627678N00813891EA0135001396
B0944494627683N00813888EA0134901394
B0944504627689N00813883EA0134801394
B0944514627693N00813879EA0134701393
B0944524627696N00813875EA0134701392
B0944534627700N00813870EA0134501391
B0944544627703N00813866EA0134301389
B0944554627706N00813861EA0134101387
B0944564627710N00813856EA0134001386
B0944574627714N00813851EA0133901385
B0944584627718N00813847EA0133701383
B0944594627721N00813842EA0133501381
B0945004627724N00813838EA0133301379
B0945014627727N00813832EA0133101377
B0945024627729N00813825EA0132901375
B0945034627729N00813818EA0132801374
B0945044627730N00813811EA0132601373
B0945054627730N00813805EA0132501372
B0945064627729N00813799EA0132401370
B0945074627728N00813794EA0132201368
B0945084627726N00813788EA0132001366
B0945094627723N00813783EA0131701364
B0945104627720N00813778EA0131501362
B0945114627717N00813773EA0131401361
B0945124627714N00813768EA0131301360
B0945134627712N00813763EA0131201359
B0945144627709N00813758EA0131201358
B0945154627706N00813754EA0131101358
B0945164627704N00813750EA0131001357
B0945174627702N00813747EA0131001356
B0945184627700N00813744EA0130901356
B0945194627698N00813742EA0130901356
B0945204627697N00813741EA0131001356
B0945214627697N00813740EA0131001357
B0945224627697N00813740EA0131001357
B0945234627697N00813740EA0131001357
B0945244627697N00813740EA0131001356
B0945254627697N00813741EA0131001356
B0945264627698N00813741EA0131001356
B0945274627698N00813741EA0131001357
B0945284627699N00813741EA0131001357
B0945294627699N00813741EA0131001357
B0945304627698N00813741EA0131001356
B0945314627699N00813741EA0131001357
B0945324627699N00813741EA0131001357
B0945334627699N00813741EA0131001357
B0945344627699N00813741EA0131001357
B0945354627699N00813741EA0131001357
B0945364627698N00813742EA0131001357
B0945374627699N00813742EA0131001357
B0945384627698N00813742EA0131001357
B0945394627698N00813741EA0131001357
B0945404627698N00813742EA0131001357
B0945414627698N00813742EA0131001357
B0945424627698N00813741EA0131001357
B0945434627698N00813741EA0131001357
B0945444627698N00813742EA0131001357
B0945454627698N00813742EA0131001357
B0945464627698N00813742EA0131001357
B0945474627698N00813741EA0131001357
B0945484627698N00813741EA0131001357
B0945494627698N00813741EA0131001357
B0945504627698N00813741EA0131001357
B0945514627698N00813741EA0131001357
B0945524627698N00813741EA0131001357
B0945534627698N00813740EA0131001358
B0945544627699N00813741EA0131001358
B0945554627699N00813740EA0131001358
B0945564627699N00813740EA0131001358
B0945574627699N00813740EA0131001358
B0945584627699N00813740EA0131001358
B0945594627698N00813740EA0131001358
B0946004627699N00813740EA0131001358
B0946014627699N00813740EA0131001358
B0946024627699N00813740EA0131001358
B0946034627699N00813740EA0131001358
B0946044627699N00813739EA0131001358
B0946054627699N00813739EA0131001358
B0946064627699N00813739EA0131001358
B0946074627699N00813740EA0131001358
B0946084627699N00813740EA0131001358
B0946094627699N00813740EA0131001358
B0946104627699N00813740EA0131001358
B0946114627699N00813740EA0131001358
B0946124627699N00813740EA0131001358
B0946134627699N00813740EA0131001358
B0946144627699N00813740EA0131001358
B0946154627699N00813740EA0131001358
B0946164627699N00813740EA0131001358
B0946174627699N00813740EA0131001358
B0946184627699N00813740EA0131001358
B0946194627699N00813740EA0131001358
B0946204627699N00813740EA0131001359
B0946214627699N00813740EA0131001359
B0946224627699N00813740EA0131001359
B0946234627699N00813740EA0131001358
B0946244627699N00813740EA0131001359
B0946254627699N00813740EA0131001359
B0946264627699N00813740EA0131001359
B0946274627699N00813740EA0131001359
B0946284627699N00813740EA0131001359
B0946294627699N00813740EA0131001359
B0946304627699N00813740EA0131001359
B0946314627699N00813740EA0131001359
LXSX;C1;GM:1.4
LXSX;S1;TS:1775207976;TL:1775209591;AS:2153;AL:1359;AT:2474;AB:1356
LXSX;S1;XS:0;XD:12.32;SP:53.1;MC:3.9;MS:-3.2;NB:1617
LXSX;S1;FL:16.6;TG:336;TC:0.9;AG:708;GM:1.4
LXSX;S1;X0:46.41443,8.10768
LXSX;S1;X1:46.41265,8.11105
LXSX;S1;X2:46.46457,8.23078
LXSX;S1;X3:46.45913,8.22640
LXSX;S1;X4:46.46130,8.23152
GB3E16BB07C9369D7B1B9788D1F0B6CA6
